{"type":"FeatureCollection","features":[{"type":"Feature","id":"61:-1046:#ff00ff","bbox":[107.4,33.8,111.0,35.3],"geometry":{"type":"Polygon","coordinates":[[[109.6,35.3],[108.5,35.3],[108.5,35.2],[107.9,35.2],[107.9,35.1],[107.6,35.1],[107.6,35.0],[107.4,35.0],[107.4,34.5],[107.5,34.5],[107.5,34.3],[107.6,34.3],[107.6,34.2],[107.7,34.2],[107.7,34.1],[107.8,34.1],[107.8,34.0],[108.1,34.0],[108.1,33.9],[108.5,33.9],[108.5,33.8],[109.0,33.8],[109.0,33.9],[109.4,33.9],[109.4,34.0],[110.1,34.0],[110.1,34.1],[110.6,34.1],[110.6,34.2],[110.8,34.2],[110.8,34.3],[110.9,34.3],[110.9,34.5],[111.0,34.5],[111.0,34.7],[110.9,34.7],[110.9,34.9],[110.8,34.9],[110.8,35.0],[110.5,35.0],[110.5,35.1],[110.2,35.1],[110.2,35.2],[109.6,35.2],[109.6,35.3]]]},"properties":{"tile_id":"61","start_year":-1046,"end_year":-1000,"source_image":"data/raw/toolbay/t/61/-1046.png","source_url":"https://www.toolbay.cc/history-map/t/61/-1046.png","source_color":"#ff00ff","polity_id":null,"polity_assignment":"unverified","geometry_origin":"raster_color_trace","pixel_size_degrees":0.1,"source_color_pixels":409,"simplification_degrees":0}}]}
