{"type":"FeatureCollection","features":[{"type":"Feature","id":"61:-180:#00ff00","bbox":[90.3,25.4,126.2,43.3],"geometry":{"type":"MultiPolygon","coordinates":[[[[119.7,34.6],[119.7,34.7],[119.4,34.7],[119.4,34.6],[119.3,34.6],[119.3,34.5],[119.1,34.5],[119.1,34.4],[118.9,34.4],[118.9,34.3],[118.2,34.3],[118.2,34.2],[118.1,34.2],[118.1,34.1],[118.0,34.1],[118.0,33.8],[117.9,33.8],[117.9,33.6],[118.0,33.6],[118.0,33.5],[118.1,33.5],[118.1,33.4],[118.2,33.4],[118.2,33.3],[118.3,33.3],[118.3,33.2],[118.4,33.2],[118.4,33.1],[118.5,33.1],[118.5,33.0],[118.6,33.0],[118.6,32.9],[118.7,32.9],[118.7,32.7],[118.8,32.7],[118.8,32.6],[118.9,32.6],[118.9,32.5],[119.0,32.5],[119.0,32.2],[119.1,32.2],[119.1,32.1],[119.2,32.1],[119.2,31.9],[119.3,31.9],[119.3,30.7],[119.2,30.7],[119.2,30.6],[119.1,30.6],[119.1,30.2],[119.0,30.2],[119.0,29.9],[118.9,29.9],[118.9,29.7],[118.8,29.7],[118.8,29.5],[118.7,29.5],[118.7,29.4],[118.6,29.4],[118.6,29.2],[118.5,29.2],[118.5,28.9],[118.4,28.9],[118.4,28.8],[118.3,28.8],[118.3,28.7],[118.2,28.7],[118.2,28.5],[118.0,28.5],[118.0,28.4],[117.8,28.4],[117.8,28.3],[117.7,28.3],[117.7,28.2],[117.6,28.2],[117.6,28.1],[117.5,28.1],[117.5,27.9],[117.4,27.9],[117.4,27.8],[117.2,27.8],[117.2,27.7],[117.1,27.7],[117.1,27.6],[117.3,27.6],[117.3,27.5],[117.4,27.5],[117.4,27.4],[117.5,27.4],[117.5,27.3],[117.6,27.3],[117.6,27.2],[117.7,27.2],[117.7,27.1],[117.8,27.1],[117.8,27.0],[117.9,27.0],[117.9,26.9],[118.0,26.9],[118.0,26.8],[118.2,26.8],[118.2,26.7],[118.3,26.7],[118.3,26.5],[118.4,26.5],[118.4,26.4],[118.5,26.4],[118.5,26.3],[118.6,26.3],[118.6,26.2],[118.7,26.2],[118.7,26.1],[118.8,26.1],[118.8,26.0],[118.9,26.0],[118.9,25.9],[119.0,25.9],[119.0,25.8],[119.1,25.8],[119.1,25.7],[119.3,25.7],[119.3,25.5],[119.4,25.5],[119.4,25.4],[119.8,25.4],[119.8,25.5],[119.9,25.5],[119.9,25.7],[119.8,25.7],[119.8,25.8],[119.7,25.8],[119.7,26.2],[119.8,26.2],[119.8,26.3],[119.9,26.3],[119.9,26.5],[120.0,26.5],[120.0,26.6],[120.1,26.6],[120.1,26.7],[120.2,26.7],[120.2,26.9],[120.3,26.9],[120.3,27.0],[120.4,27.0],[120.4,27.2],[120.5,27.2],[120.5,27.3],[120.6,27.3],[120.6,27.4],[120.7,27.4],[120.7,27.8],[120.8,27.8],[120.8,27.9],[121.2,27.9],[121.2,28.0],[121.3,28.0],[121.3,28.2],[121.4,28.2],[121.4,28.3],[121.6,28.3],[121.6,28.4],[121.7,28.4],[121.7,28.7],[121.8,28.7],[121.8,29.0],[121.9,29.0],[121.9,29.2],[122.0,29.2],[122.0,29.6],[122.1,29.6],[122.1,29.7],[122.3,29.7],[122.3,29.8],[122.4,29.8],[122.4,30.2],[122.3,30.2],[122.3,30.3],[121.9,30.3],[121.9,30.2],[121.5,30.2],[121.5,30.3],[121.4,30.3],[121.4,30.4],[121.2,30.4],[121.2,30.5],[121.1,30.5],[121.1,30.6],[121.2,30.6],[121.2,30.7],[121.4,30.7],[121.4,30.8],[121.5,30.8],[121.5,30.9],[121.8,30.9],[121.8,31.0],[121.9,31.0],[121.9,31.2],[121.8,31.2],[121.8,31.5],[121.9,31.5],[121.9,31.7],[122.0,31.7],[122.0,31.9],[121.9,31.9],[121.9,32.0],[121.8,32.0],[121.8,32.1],[121.7,32.1],[121.7,32.2],[121.5,32.2],[121.5,32.3],[121.4,32.3],[121.4,32.5],[121.3,32.5],[121.3,32.6],[121.1,32.6],[121.1,32.7],[121.0,32.7],[121.0,33.0],[120.9,33.0],[120.9,33.1],[120.8,33.1],[120.8,33.3],[120.7,33.3],[120.7,33.5],[120.6,33.5],[120.6,33.8],[120.5,33.8],[120.5,34.0],[120.4,34.0],[120.4,34.3],[120.3,34.3],[120.3,34.4],[120.2,34.4],[120.2,34.5],[119.9,34.5],[119.9,34.6],[119.7,34.6]]],[[[95.7,43.2],[94.4,43.2],[94.4,43.3],[92.8,43.3],[92.8,43.2],[90.8,43.2],[90.8,43.1],[90.6,43.1],[90.6,43.0],[90.5,43.0],[90.5,42.9],[90.4,42.9],[90.4,42.7],[90.3,42.7],[90.3,40.8],[90.4,40.8],[90.4,40.3],[90.5,40.3],[90.5,39.8],[90.6,39.8],[90.6,39.2],[90.7,39.2],[90.7,39.0],[90.8,39.0],[90.8,38.8],[90.9,38.8],[90.9,38.6],[91.0,38.6],[91.0,38.3],[91.1,38.3],[91.1,38.1],[91.2,38.1],[91.2,37.9],[91.3,37.9],[91.3,37.8],[91.4,37.8],[91.4,37.7],[91.5,37.7],[91.5,37.6],[91.9,37.6],[91.9,37.5],[93.0,37.5],[93.0,37.4],[93.2,37.4],[93.2,37.3],[93.4,37.3],[93.4,37.2],[94.4,37.2],[94.4,37.3],[94.6,37.3],[94.6,37.4],[94.7,37.4],[94.7,37.5],[94.9,37.5],[94.9,37.7],[95.1,37.7],[95.1,37.8],[95.2,37.8],[95.2,37.9],[95.3,37.9],[95.3,38.0],[95.4,38.0],[95.4,38.1],[95.5,38.1],[95.5,38.0],[95.7,38.0],[95.7,37.8],[95.9,37.8],[95.9,37.7],[96.2,37.7],[96.2,37.6],[96.6,37.6],[96.6,37.5],[96.7,37.5],[96.7,37.4],[96.9,37.4],[96.9,37.3],[97.3,37.3],[97.3,37.2],[97.7,37.2],[97.7,37.1],[98.2,37.1],[98.2,37.0],[99.4,37.0],[99.4,36.9],[99.6,36.9],[99.6,36.8],[99.8,36.8],[99.8,36.7],[100.0,36.7],[100.0,36.6],[100.1,36.6],[100.1,36.5],[100.3,36.5],[100.3,36.4],[100.8,36.4],[100.8,36.3],[101.3,36.3],[101.3,36.2],[101.8,36.2],[101.8,36.1],[102.4,36.1],[102.4,36.0],[102.9,36.0],[102.9,35.9],[103.7,35.9],[103.7,35.8],[104.4,35.8],[104.4,35.7],[105.1,35.7],[105.1,35.6],[106.4,35.6],[106.4,35.5],[107.0,35.5],[107.0,35.6],[107.2,35.6],[107.2,35.7],[107.3,35.7],[107.3,35.8],[107.4,35.8],[107.4,35.9],[107.5,35.9],[107.5,36.2],[107.6,36.2],[107.6,36.3],[107.7,36.3],[107.7,36.4],[107.8,36.4],[107.8,36.6],[107.9,36.6],[107.9,36.9],[107.8,36.9],[107.8,37.0],[107.7,37.0],[107.7,37.1],[107.6,37.1],[107.6,37.2],[107.5,37.2],[107.5,37.3],[107.4,37.3],[107.4,37.4],[107.3,37.4],[107.3,37.7],[107.2,37.7],[107.2,38.0],[107.0,38.0],[107.0,38.3],[106.9,38.3],[106.9,38.6],[106.8,38.6],[106.8,38.7],[106.7,38.7],[106.7,38.9],[106.5,38.9],[106.5,39.0],[106.4,39.0],[106.4,39.2],[106.3,39.2],[106.3,39.3],[106.2,39.3],[106.2,39.4],[106.0,39.4],[106.0,39.6],[105.8,39.6],[105.8,39.7],[105.7,39.7],[105.7,39.9],[105.6,39.9],[105.6,40.0],[105.5,40.0],[105.5,40.1],[105.4,40.1],[105.4,40.0],[105.1,40.0],[105.1,40.1],[104.7,40.1],[104.7,40.2],[104.2,40.2],[104.2,40.3],[103.9,40.3],[103.9,40.4],[103.5,40.4],[103.5,40.5],[103.2,40.5],[103.2,40.6],[102.8,40.6],[102.8,40.7],[102.5,40.7],[102.5,40.8],[102.1,40.8],[102.1,40.9],[101.5,40.9],[101.5,41.0],[101.3,41.0],[101.3,41.1],[101.0,41.1],[101.0,41.2],[100.8,41.2],[100.8,41.3],[100.7,41.3],[100.7,41.4],[99.9,41.4],[99.9,41.5],[99.7,41.5],[99.7,41.6],[99.4,41.6],[99.4,41.7],[99.0,41.7],[99.0,41.8],[98.6,41.8],[98.6,41.9],[98.3,41.9],[98.3,42.0],[97.9,42.0],[97.9,42.1],[97.6,42.1],[97.6,42.2],[97.3,42.2],[97.3,42.3],[96.9,42.3],[96.9,42.4],[96.7,42.4],[96.7,42.5],[96.6,42.5],[96.6,42.6],[96.4,42.6],[96.4,42.7],[96.2,42.7],[96.2,42.8],[96.1,42.8],[96.1,42.9],[95.9,42.9],[95.9,43.0],[95.8,43.0],[95.8,43.1],[95.7,43.1],[95.7,43.2]]],[[[125.5,42.1],[125.0,42.1],[125.0,42.2],[124.3,42.2],[124.3,42.1],[123.6,42.1],[123.6,42.0],[123.3,42.0],[123.3,41.9],[123.2,41.9],[123.2,41.8],[122.9,41.8],[122.9,41.7],[122.7,41.7],[122.7,41.6],[122.6,41.6],[122.6,41.5],[122.3,41.5],[122.3,41.4],[122.0,41.4],[122.0,41.3],[121.7,41.3],[121.7,41.2],[121.0,41.2],[121.0,41.3],[120.4,41.3],[120.4,41.4],[120.2,41.4],[120.2,41.5],[120.0,41.5],[120.0,41.6],[119.8,41.6],[119.8,41.7],[119.4,41.7],[119.4,41.8],[119.0,41.8],[119.0,41.9],[118.2,41.9],[118.2,42.0],[117.2,42.0],[117.2,41.9],[116.9,41.9],[116.9,41.8],[116.6,41.8],[116.6,41.7],[116.5,41.7],[116.5,41.6],[116.3,41.6],[116.3,41.5],[116.0,41.5],[116.0,41.4],[115.7,41.4],[115.7,41.3],[115.3,41.3],[115.3,41.2],[115.4,41.2],[115.4,41.0],[115.5,41.0],[115.5,40.9],[115.6,40.9],[115.6,40.8],[115.7,40.8],[115.7,40.7],[115.8,40.7],[115.8,40.6],[115.9,40.6],[115.9,40.5],[116.0,40.5],[116.0,40.3],[116.1,40.3],[116.1,40.1],[116.2,40.1],[116.2,39.9],[116.3,39.9],[116.3,39.7],[116.4,39.7],[116.4,39.5],[116.5,39.5],[116.5,39.3],[116.6,39.3],[116.6,39.2],[116.7,39.2],[116.7,39.0],[116.8,39.0],[116.8,38.9],[117.1,38.9],[117.1,38.8],[117.6,38.8],[117.6,39.0],[117.7,39.0],[117.7,39.1],[117.9,39.1],[117.9,39.2],[118.2,39.2],[118.2,39.1],[118.9,39.1],[118.9,39.2],[119.1,39.2],[119.1,39.3],[119.2,39.3],[119.2,39.5],[119.3,39.5],[119.3,39.7],[119.4,39.7],[119.4,39.8],[119.6,39.8],[119.6,39.9],[119.7,39.9],[119.7,40.0],[120.0,40.0],[120.0,40.1],[120.2,40.1],[120.2,40.2],[120.5,40.2],[120.5,40.3],[120.6,40.3],[120.6,40.5],[120.7,40.5],[120.7,40.6],[120.9,40.6],[120.9,40.7],[121.0,40.7],[121.0,40.8],[121.1,40.8],[121.1,40.9],[121.5,40.9],[121.5,41.0],[121.8,41.0],[121.8,40.9],[121.9,40.9],[121.9,40.8],[122.1,40.8],[122.1,40.7],[122.2,40.7],[122.2,40.4],[122.1,40.4],[122.1,40.3],[122.0,40.3],[122.0,40.2],[121.9,40.2],[121.9,40.1],[121.8,40.1],[121.8,40.0],[121.6,40.0],[121.6,39.9],[121.5,39.9],[121.5,39.8],[121.4,39.8],[121.4,39.7],[121.3,39.7],[121.3,39.5],[121.4,39.5],[121.4,39.3],[121.5,39.3],[121.5,39.2],[121.4,39.2],[121.4,39.1],[121.3,39.1],[121.3,38.8],[121.5,38.8],[121.5,38.9],[121.9,38.9],[121.9,39.0],[122.0,39.0],[122.0,39.1],[122.1,39.1],[122.1,39.2],[122.2,39.2],[122.2,39.3],[122.5,39.3],[122.5,39.4],[122.6,39.4],[122.6,39.5],[122.7,39.5],[122.7,39.6],[122.9,39.6],[122.9,39.7],[123.3,39.7],[123.3,39.8],[123.7,39.8],[123.7,39.9],[124.2,39.9],[124.2,39.8],[124.5,39.8],[124.5,39.7],[124.7,39.7],[124.7,39.6],[125.3,39.6],[125.3,39.7],[125.4,39.7],[125.4,39.8],[125.5,39.8],[125.5,40.0],[125.6,40.0],[125.6,40.1],[125.7,40.1],[125.7,40.3],[125.8,40.3],[125.8,40.5],[125.9,40.5],[125.9,40.6],[126.0,40.6],[126.0,40.8],[126.1,40.8],[126.1,41.0],[126.2,41.0],[126.2,41.7],[126.1,41.7],[126.1,41.9],[125.8,41.9],[125.8,42.0],[125.5,42.0],[125.5,42.1]]]]},"properties":{"tile_id":"61","start_year":-180,"end_year":-176,"source_image":"data/raw/toolbay/t/61/-180.png","source_url":"https://www.toolbay.cc/history-map/t/61/-180.png","source_color":"#00ff00","polity_id":null,"polity_assignment":"unverified","geometry_origin":"raster_color_trace","pixel_size_degrees":0.1,"source_color_pixels":12744,"simplification_degrees":0}},{"type":"Feature","id":"61:-180:#00ffff","bbox":[105.6,20.3,116.2,25.9],"geometry":{"type":"Polygon","coordinates":[[[115.2,25.9],[114.9,25.9],[114.9,25.8],[114.7,25.8],[114.7,25.7],[114.5,25.7],[114.5,25.6],[112.4,25.6],[112.4,25.5],[112.3,25.5],[112.3,25.4],[112.2,25.4],[112.2,25.3],[111.9,25.3],[111.9,25.2],[111.5,25.2],[111.5,25.1],[111.1,25.1],[111.1,25.0],[110.0,25.0],[110.0,24.9],[109.9,24.9],[109.9,24.8],[109.8,24.8],[109.8,24.7],[109.7,24.7],[109.7,24.6],[109.5,24.6],[109.5,24.5],[109.3,24.5],[109.3,24.4],[109.1,24.4],[109.1,24.3],[108.9,24.3],[108.9,24.2],[108.7,24.2],[108.7,24.1],[108.4,24.1],[108.4,24.0],[108.3,24.0],[108.3,23.9],[108.1,23.9],[108.1,23.8],[107.9,23.8],[107.9,23.7],[107.6,23.7],[107.6,23.6],[107.5,23.6],[107.5,23.5],[107.3,23.5],[107.3,23.4],[107.1,23.4],[107.1,23.3],[106.8,23.3],[106.8,23.2],[106.5,23.2],[106.5,23.1],[106.3,23.1],[106.3,23.0],[106.1,23.0],[106.1,22.9],[105.9,22.9],[105.9,22.8],[105.8,22.8],[105.8,22.7],[105.7,22.7],[105.7,22.4],[105.6,22.4],[105.6,21.9],[105.7,21.9],[105.7,21.6],[105.8,21.6],[105.8,21.3],[105.9,21.3],[105.9,21.2],[106.0,21.2],[106.0,21.0],[106.1,21.0],[106.1,20.9],[106.3,20.9],[106.3,20.8],[106.4,20.8],[106.4,20.7],[106.5,20.7],[106.5,20.6],[106.7,20.6],[106.7,20.7],[106.9,20.7],[106.9,20.8],[107.1,20.8],[107.1,20.9],[107.5,20.9],[107.5,21.0],[107.6,21.0],[107.6,21.1],[107.7,21.1],[107.7,21.3],[107.8,21.3],[107.8,21.4],[108.0,21.4],[108.0,21.5],[108.2,21.5],[108.2,21.6],[108.5,21.6],[108.5,21.7],[109.0,21.7],[109.0,21.6],[109.1,21.6],[109.1,21.5],[109.7,21.5],[109.7,20.7],[109.8,20.7],[109.8,20.5],[109.9,20.5],[109.9,20.4],[110.0,20.4],[110.0,20.3],[110.5,20.3],[110.5,21.0],[110.6,21.0],[110.6,21.2],[110.7,21.2],[110.7,21.3],[110.8,21.3],[110.8,21.4],[110.9,21.4],[110.9,21.5],[111.5,21.5],[111.5,21.6],[111.9,21.6],[111.9,21.7],[112.9,21.7],[112.9,21.8],[113.0,21.8],[113.0,21.9],[113.2,21.9],[113.2,22.0],[113.5,22.0],[113.5,22.1],[113.6,22.1],[113.6,22.6],[113.9,22.6],[113.9,22.2],[114.0,22.2],[114.0,22.1],[114.2,22.1],[114.2,22.2],[114.3,22.2],[114.3,22.3],[114.4,22.3],[114.4,22.4],[114.5,22.4],[114.5,22.5],[114.7,22.5],[114.7,22.6],[115.0,22.6],[115.0,22.7],[115.1,22.7],[115.1,22.8],[116.0,22.8],[116.0,22.9],[116.2,22.9],[116.2,23.4],[116.1,23.4],[116.1,23.5],[116.0,23.5],[116.0,24.2],[115.9,24.2],[115.9,24.4],[115.8,24.4],[115.8,24.6],[115.7,24.6],[115.7,25.0],[115.6,25.0],[115.6,25.2],[115.5,25.2],[115.5,25.4],[115.4,25.4],[115.4,25.6],[115.3,25.6],[115.3,25.8],[115.2,25.8],[115.2,25.9]]]},"properties":{"tile_id":"61","start_year":-180,"end_year":-176,"source_image":"data/raw/toolbay/t/61/-180.png","source_url":"https://www.toolbay.cc/history-map/t/61/-180.png","source_color":"#00ffff","polity_id":null,"polity_assignment":"unverified","geometry_origin":"raster_color_trace","pixel_size_degrees":0.1,"source_color_pixels":3195,"simplification_degrees":0}},{"type":"Feature","id":"61:-180:#6666ff","bbox":[93.7,36.7,126.4,45.0],"geometry":{"type":"Polygon","coordinates":[[[121.2,45.0],[93.7,45.0],[93.7,44.9],[93.8,44.9],[93.8,44.8],[93.9,44.8],[93.9,44.7],[94.0,44.7],[94.0,44.5],[94.1,44.5],[94.1,44.4],[94.2,44.4],[94.2,44.3],[94.3,44.3],[94.3,44.2],[94.4,44.2],[94.4,44.1],[94.5,44.1],[94.5,43.9],[94.7,43.9],[94.7,43.7],[94.8,43.7],[94.8,43.6],[95.0,43.6],[95.0,43.5],[95.1,43.5],[95.1,43.4],[95.2,43.4],[95.2,43.3],[95.3,43.3],[95.3,43.2],[95.7,43.2],[95.7,43.1],[95.8,43.1],[95.8,43.0],[95.9,43.0],[95.9,42.9],[96.1,42.9],[96.1,42.8],[96.2,42.8],[96.2,42.7],[96.4,42.7],[96.4,42.6],[96.6,42.6],[96.6,42.5],[96.7,42.5],[96.7,42.4],[96.9,42.4],[96.9,42.3],[97.3,42.3],[97.3,42.2],[97.6,42.2],[97.6,42.1],[97.9,42.1],[97.9,42.0],[98.3,42.0],[98.3,41.9],[98.6,41.9],[98.6,41.8],[99.0,41.8],[99.0,41.7],[99.4,41.7],[99.4,41.6],[99.7,41.6],[99.7,41.5],[99.9,41.5],[99.9,41.4],[100.7,41.4],[100.7,41.3],[100.8,41.3],[100.8,41.2],[101.0,41.2],[101.0,41.1],[101.3,41.1],[101.3,41.0],[101.5,41.0],[101.5,40.9],[102.1,40.9],[102.1,40.8],[102.5,40.8],[102.5,40.7],[102.8,40.7],[102.8,40.6],[103.2,40.6],[103.2,40.5],[103.5,40.5],[103.5,40.4],[103.9,40.4],[103.9,40.3],[104.2,40.3],[104.2,40.2],[104.7,40.2],[104.7,40.1],[105.1,40.1],[105.1,40.0],[105.4,40.0],[105.4,40.1],[105.5,40.1],[105.5,40.0],[105.6,40.0],[105.6,39.9],[105.7,39.9],[105.7,39.7],[105.8,39.7],[105.8,39.6],[106.0,39.6],[106.0,39.4],[106.2,39.4],[106.2,39.3],[106.3,39.3],[106.3,39.2],[106.4,39.2],[106.4,39.0],[106.5,39.0],[106.5,38.9],[106.7,38.9],[106.7,38.7],[106.8,38.7],[106.8,38.6],[106.9,38.6],[106.9,38.3],[107.0,38.3],[107.0,38.0],[107.2,38.0],[107.2,37.7],[107.3,37.7],[107.3,37.4],[107.4,37.4],[107.4,37.3],[107.5,37.3],[107.5,37.2],[107.6,37.2],[107.6,37.1],[107.7,37.1],[107.7,37.0],[107.8,37.0],[107.8,36.9],[109.3,36.9],[109.3,36.8],[109.5,36.8],[109.5,36.7],[110.1,36.7],[110.1,36.8],[110.3,36.8],[110.3,36.9],[110.5,36.9],[110.5,37.0],[110.7,37.0],[110.7,37.1],[110.8,37.1],[110.8,37.2],[110.9,37.2],[110.9,37.3],[111.1,37.3],[111.1,37.4],[111.2,37.4],[111.2,37.5],[111.3,37.5],[111.3,37.6],[111.4,37.6],[111.4,37.7],[111.5,37.7],[111.5,37.8],[111.6,37.8],[111.6,37.9],[111.7,37.9],[111.7,38.1],[111.8,38.1],[111.8,38.2],[111.9,38.2],[111.9,38.4],[112.0,38.4],[112.0,38.5],[112.1,38.5],[112.1,38.6],[112.2,38.6],[112.2,38.7],[112.4,38.7],[112.4,38.8],[112.8,38.8],[112.8,38.9],[112.9,38.9],[112.9,39.0],[113.0,39.0],[113.0,39.1],[113.1,39.1],[113.1,39.2],[113.2,39.2],[113.2,39.3],[113.4,39.3],[113.4,39.4],[113.5,39.4],[113.5,39.5],[113.6,39.5],[113.6,39.6],[113.7,39.6],[113.7,39.7],[113.8,39.7],[113.8,39.8],[114.0,39.8],[114.0,39.9],[114.1,39.9],[114.1,40.0],[114.2,40.0],[114.2,40.1],[114.4,40.1],[114.4,40.2],[114.5,40.2],[114.5,40.3],[114.6,40.3],[114.6,40.4],[114.7,40.4],[114.7,40.5],[114.8,40.5],[114.8,40.6],[114.9,40.6],[114.9,40.7],[115.0,40.7],[115.0,40.8],[115.1,40.8],[115.1,41.0],[115.2,41.0],[115.2,41.3],[115.7,41.3],[115.7,41.4],[116.0,41.4],[116.0,41.5],[116.3,41.5],[116.3,41.6],[116.5,41.6],[116.5,41.7],[116.6,41.7],[116.6,41.8],[116.9,41.8],[116.9,41.9],[117.2,41.9],[117.2,42.0],[118.2,42.0],[118.2,41.9],[119.0,41.9],[119.0,41.8],[119.4,41.8],[119.4,41.7],[119.8,41.7],[119.8,41.6],[120.0,41.6],[120.0,41.5],[120.2,41.5],[120.2,41.4],[120.4,41.4],[120.4,41.3],[121.0,41.3],[121.0,41.2],[121.7,41.2],[121.7,41.3],[122.0,41.3],[122.0,41.4],[122.3,41.4],[122.3,41.5],[122.6,41.5],[122.6,41.6],[122.7,41.6],[122.7,41.7],[122.9,41.7],[122.9,41.8],[123.2,41.8],[123.2,41.9],[123.3,41.9],[123.3,42.0],[123.6,42.0],[123.6,42.1],[124.3,42.1],[124.3,42.2],[125.0,42.2],[125.0,42.1],[125.5,42.1],[125.5,42.0],[125.8,42.0],[125.8,41.9],[126.1,41.9],[126.1,42.0],[126.2,42.0],[126.2,42.1],[126.3,42.1],[126.3,42.2],[126.4,42.2],[126.4,42.9],[126.3,42.9],[126.3,43.1],[126.2,43.1],[126.2,43.2],[126.1,43.2],[126.1,43.5],[126.0,43.5],[126.0,43.7],[125.9,43.7],[125.9,43.8],[125.8,43.8],[125.8,43.9],[125.7,43.9],[125.7,44.0],[125.4,44.0],[125.4,44.1],[125.3,44.1],[125.3,44.2],[125.0,44.2],[125.0,44.3],[124.8,44.3],[124.8,44.4],[124.6,44.4],[124.6,44.5],[123.2,44.5],[123.2,44.4],[122.4,44.4],[122.4,44.5],[121.9,44.5],[121.9,44.6],[121.7,44.6],[121.7,44.7],[121.5,44.7],[121.5,44.8],[121.3,44.8],[121.3,44.9],[121.2,44.9],[121.2,45.0]]]},"properties":{"tile_id":"61","start_year":-180,"end_year":-176,"source_image":"data/raw/toolbay/t/61/-180.png","source_url":"https://www.toolbay.cc/history-map/t/61/-180.png","source_color":"#6666ff","polity_id":null,"polity_assignment":"unverified","geometry_origin":"raster_color_trace","pixel_size_degrees":0.1,"source_color_pixels":13640,"simplification_degrees":0}},{"type":"Feature","id":"61:-180:#ff0000","bbox":[116.8,34.3,122.6,38.4],"geometry":{"type":"Polygon","coordinates":[[[117.9,38.4],[117.7,38.4],[117.7,38.3],[117.6,38.3],[117.6,38.1],[117.5,38.1],[117.5,37.9],[117.4,37.9],[117.4,37.7],[117.3,37.7],[117.3,37.4],[117.2,37.4],[117.2,37.3],[117.0,37.3],[117.0,37.2],[116.9,37.2],[116.9,37.1],[116.8,37.1],[116.8,35.4],[116.9,35.4],[116.9,35.2],[117.0,35.2],[117.0,35.1],[117.1,35.1],[117.1,35.0],[117.2,35.0],[117.2,34.9],[117.3,34.9],[117.3,34.8],[117.4,34.8],[117.4,34.7],[117.6,34.7],[117.6,34.6],[117.7,34.6],[117.7,34.5],[117.8,34.5],[117.8,34.4],[118.0,34.4],[118.0,34.3],[118.9,34.3],[118.9,34.4],[119.1,34.4],[119.1,34.5],[119.3,34.5],[119.3,34.6],[119.4,34.6],[119.4,34.7],[119.6,34.7],[119.6,34.8],[119.5,34.8],[119.5,34.9],[119.4,34.9],[119.4,35.2],[119.5,35.2],[119.5,35.4],[119.6,35.4],[119.6,35.6],[119.7,35.6],[119.7,35.7],[120.0,35.7],[120.0,35.8],[120.1,35.8],[120.1,35.9],[120.2,35.9],[120.2,36.0],[120.3,36.0],[120.3,36.1],[120.6,36.1],[120.6,36.2],[120.7,36.2],[120.7,36.4],[120.8,36.4],[120.8,36.5],[121.0,36.5],[121.0,36.6],[121.1,36.6],[121.1,36.7],[121.3,36.7],[121.3,36.8],[121.7,36.8],[121.7,36.9],[122.5,36.9],[122.5,37.0],[122.6,37.0],[122.6,37.4],[122.5,37.4],[122.5,37.5],[122.3,37.5],[122.3,37.6],[121.9,37.6],[121.9,37.5],[121.6,37.5],[121.6,37.6],[121.4,37.6],[121.4,37.7],[121.2,37.7],[121.2,37.8],[121.0,37.8],[121.0,37.9],[120.9,37.9],[120.9,38.0],[120.7,38.0],[120.7,37.9],[120.5,37.9],[120.5,37.8],[120.3,37.8],[120.3,37.7],[120.2,37.7],[120.2,37.6],[120.1,37.6],[120.1,37.5],[119.9,37.5],[119.9,37.4],[119.8,37.4],[119.8,37.3],[119.7,37.3],[119.7,37.2],[119.3,37.2],[119.3,37.3],[119.1,37.3],[119.1,37.4],[119.0,37.4],[119.0,38.2],[118.9,38.2],[118.9,38.3],[118.7,38.3],[118.7,38.2],[118.0,38.2],[118.0,38.3],[117.9,38.3],[117.9,38.4]]]},"properties":{"tile_id":"61","start_year":-180,"end_year":-176,"source_image":"data/raw/toolbay/t/61/-180.png","source_url":"https://www.toolbay.cc/history-map/t/61/-180.png","source_color":"#ff0000","polity_id":null,"polity_assignment":"unverified","geometry_origin":"raster_color_trace","pixel_size_degrees":0.1,"source_color_pixels":1254,"simplification_degrees":0}},{"type":"Feature","id":"61:-180:#ff00ff","bbox":[90.0,21.9,115.6,29.5],"geometry":{"type":"MultiPolygon","coordinates":[[[[90.5,26.3],[90.5,26.4],[90.0,26.4],[90.0,21.9],[90.7,21.9],[90.7,22.0],[90.8,22.0],[90.8,22.1],[91.0,22.1],[91.0,22.2],[91.1,22.2],[91.1,22.5],[91.2,22.5],[91.2,22.6],[91.7,22.6],[91.7,22.5],[91.8,22.5],[91.8,22.0],[91.9,22.0],[91.9,22.1],[92.0,22.1],[92.0,22.2],[92.1,22.2],[92.1,22.3],[92.2,22.3],[92.2,22.4],[92.3,22.4],[92.3,22.6],[92.4,22.6],[92.4,22.7],[92.5,22.7],[92.5,23.5],[92.6,23.5],[92.6,24.5],[92.5,24.5],[92.5,24.8],[92.4,24.8],[92.4,25.0],[92.3,25.0],[92.3,25.1],[92.2,25.1],[92.2,25.2],[92.1,25.2],[92.1,25.3],[92.0,25.3],[92.0,25.4],[91.9,25.4],[91.9,25.5],[91.7,25.5],[91.7,25.6],[91.6,25.6],[91.6,25.7],[91.5,25.7],[91.5,25.8],[91.4,25.8],[91.4,25.9],[91.3,25.9],[91.3,26.0],[91.1,26.0],[91.1,26.1],[91.0,26.1],[91.0,26.2],[90.8,26.2],[90.8,26.3],[90.5,26.3]]],[[[114.2,29.4],[114.2,29.5],[113.9,29.5],[113.9,29.4],[113.7,29.4],[113.7,29.2],[113.6,29.2],[113.6,29.1],[113.5,29.1],[113.5,29.0],[113.4,29.0],[113.4,28.9],[113.3,28.9],[113.3,28.8],[113.2,28.8],[113.2,27.9],[113.1,27.9],[113.1,27.7],[113.0,27.7],[113.0,27.3],[112.9,27.3],[112.9,26.9],[112.8,26.9],[112.8,26.6],[112.7,26.6],[112.7,26.2],[112.6,26.2],[112.6,25.9],[112.5,25.9],[112.5,25.7],[112.4,25.7],[112.4,25.6],[114.5,25.6],[114.5,25.7],[114.7,25.7],[114.7,25.8],[114.9,25.8],[114.9,25.9],[115.1,25.9],[115.1,26.4],[115.2,26.4],[115.2,26.7],[115.3,26.7],[115.3,27.2],[115.4,27.2],[115.4,27.4],[115.5,27.4],[115.5,27.9],[115.6,27.9],[115.6,28.8],[115.5,28.8],[115.5,29.2],[115.4,29.2],[115.4,29.3],[115.3,29.3],[115.3,29.4],[114.2,29.4]]]]},"properties":{"tile_id":"61","start_year":-180,"end_year":-176,"source_image":"data/raw/toolbay/t/61/-180.png","source_url":"https://www.toolbay.cc/history-map/t/61/-180.png","source_color":"#ff00ff","polity_id":null,"polity_assignment":"unverified","geometry_origin":"raster_color_trace","pixel_size_degrees":0.1,"source_color_pixels":1804,"simplification_degrees":0}},{"type":"Feature","id":"61:-180:#ff9999","bbox":[106.9,25.0,119.3,41.3],"geometry":{"type":"Polygon","coordinates":[[[115.3,41.3],[115.2,41.3],[115.2,41.0],[115.1,41.0],[115.1,40.8],[115.0,40.8],[115.0,40.7],[114.9,40.7],[114.9,40.6],[114.8,40.6],[114.8,40.5],[114.7,40.5],[114.7,40.4],[114.6,40.4],[114.6,40.3],[114.5,40.3],[114.5,40.2],[114.4,40.2],[114.4,40.1],[114.2,40.1],[114.2,40.0],[114.1,40.0],[114.1,39.9],[114.0,39.9],[114.0,39.8],[113.8,39.8],[113.8,39.7],[113.7,39.7],[113.7,39.6],[113.6,39.6],[113.6,39.5],[113.5,39.5],[113.5,39.4],[113.4,39.4],[113.4,39.3],[113.2,39.3],[113.2,39.2],[113.1,39.2],[113.1,39.1],[113.0,39.1],[113.0,39.0],[112.9,39.0],[112.9,38.9],[112.8,38.9],[112.8,38.8],[112.4,38.8],[112.4,38.7],[112.2,38.7],[112.2,38.6],[112.1,38.6],[112.1,38.5],[112.0,38.5],[112.0,38.4],[111.9,38.4],[111.9,38.2],[111.8,38.2],[111.8,38.1],[111.7,38.1],[111.7,37.9],[111.6,37.9],[111.6,37.8],[111.5,37.8],[111.5,37.7],[111.4,37.7],[111.4,37.6],[111.3,37.6],[111.3,37.5],[111.2,37.5],[111.2,37.4],[111.1,37.4],[111.1,37.3],[110.9,37.3],[110.9,37.2],[110.8,37.2],[110.8,37.1],[110.7,37.1],[110.7,37.0],[110.5,37.0],[110.5,36.9],[110.3,36.9],[110.3,36.8],[110.1,36.8],[110.1,36.7],[109.5,36.7],[109.5,36.8],[109.3,36.8],[109.3,36.9],[107.9,36.9],[107.9,36.6],[107.8,36.6],[107.8,36.4],[107.7,36.4],[107.7,36.3],[107.6,36.3],[107.6,36.2],[107.5,36.2],[107.5,34.4],[107.4,34.4],[107.4,34.1],[107.3,34.1],[107.3,33.3],[107.2,33.3],[107.2,32.9],[107.1,32.9],[107.1,32.3],[107.0,32.3],[107.0,32.1],[106.9,32.1],[106.9,30.9],[107.0,30.9],[107.0,30.7],[107.1,30.7],[107.1,30.5],[107.2,30.5],[107.2,30.4],[107.3,30.4],[107.3,30.3],[107.4,30.3],[107.4,30.1],[107.6,30.1],[107.6,30.0],[107.9,30.0],[107.9,29.9],[108.6,29.9],[108.6,29.8],[109.4,29.8],[109.4,29.7],[109.5,29.7],[109.5,29.6],[109.6,29.6],[109.6,29.5],[109.7,29.5],[109.7,29.3],[109.9,29.3],[109.9,29.2],[110.0,29.2],[110.0,29.1],[110.1,29.1],[110.1,28.8],[110.2,28.8],[110.2,28.6],[110.3,28.6],[110.3,27.8],[110.2,27.8],[110.2,27.3],[110.1,27.3],[110.1,25.0],[111.1,25.0],[111.1,25.1],[111.5,25.1],[111.5,25.2],[111.9,25.2],[111.9,25.3],[112.2,25.3],[112.2,25.4],[112.3,25.4],[112.3,25.5],[112.4,25.5],[112.4,25.7],[112.5,25.7],[112.5,25.9],[112.6,25.9],[112.6,26.2],[112.7,26.2],[112.7,26.6],[112.8,26.6],[112.8,26.9],[112.9,26.9],[112.9,27.3],[113.0,27.3],[113.0,27.7],[113.1,27.7],[113.1,27.9],[113.2,27.9],[113.2,28.8],[113.3,28.8],[113.3,28.9],[113.4,28.9],[113.4,29.0],[113.5,29.0],[113.5,29.1],[113.6,29.1],[113.6,29.2],[113.7,29.2],[113.7,29.4],[113.9,29.4],[113.9,29.5],[114.2,29.5],[114.2,29.4],[115.3,29.4],[115.3,29.3],[115.4,29.3],[115.4,29.2],[115.5,29.2],[115.5,28.8],[115.6,28.8],[115.6,27.9],[115.5,27.9],[115.5,27.4],[115.4,27.4],[115.4,27.2],[115.3,27.2],[115.3,26.7],[115.2,26.7],[115.2,26.4],[115.1,26.4],[115.1,25.9],[115.2,25.9],[115.2,26.1],[115.4,26.1],[115.4,26.2],[115.5,26.2],[115.5,26.3],[115.7,26.3],[115.7,26.4],[115.8,26.4],[115.8,26.5],[115.9,26.5],[115.9,26.6],[116.0,26.6],[116.0,26.7],[116.2,26.7],[116.2,26.9],[116.4,26.9],[116.4,27.0],[116.5,27.0],[116.5,27.1],[116.6,27.1],[116.6,27.2],[116.7,27.2],[116.7,27.3],[116.8,27.3],[116.8,27.4],[116.9,27.4],[116.9,27.5],[117.0,27.5],[117.0,27.6],[117.1,27.6],[117.1,27.7],[117.2,27.7],[117.2,27.8],[117.4,27.8],[117.4,27.9],[117.5,27.9],[117.5,28.1],[117.6,28.1],[117.6,28.2],[117.7,28.2],[117.7,28.3],[117.8,28.3],[117.8,28.4],[118.0,28.4],[118.0,28.5],[118.2,28.5],[118.2,28.7],[118.3,28.7],[118.3,28.8],[118.4,28.8],[118.4,28.9],[118.5,28.9],[118.5,29.2],[118.6,29.2],[118.6,29.4],[118.7,29.4],[118.7,29.5],[118.8,29.5],[118.8,29.7],[118.9,29.7],[118.9,29.9],[119.0,29.9],[119.0,30.2],[119.1,30.2],[119.1,30.6],[119.2,30.6],[119.2,30.7],[119.3,30.7],[119.3,31.9],[119.2,31.9],[119.2,32.1],[119.1,32.1],[119.1,32.2],[119.0,32.2],[119.0,32.5],[118.9,32.5],[118.9,32.6],[118.8,32.6],[118.8,32.7],[118.7,32.7],[118.7,32.9],[118.6,32.9],[118.6,33.0],[118.5,33.0],[118.5,33.1],[118.4,33.1],[118.4,33.2],[118.3,33.2],[118.3,33.3],[118.2,33.3],[118.2,33.4],[118.1,33.4],[118.1,33.5],[118.0,33.5],[118.0,33.6],[117.9,33.6],[117.9,33.8],[118.0,33.8],[118.0,34.1],[118.1,34.1],[118.1,34.2],[118.2,34.2],[118.2,34.3],[118.0,34.3],[118.0,34.4],[117.8,34.4],[117.8,34.5],[117.7,34.5],[117.7,34.6],[117.6,34.6],[117.6,34.7],[117.4,34.7],[117.4,34.8],[117.3,34.8],[117.3,34.9],[117.2,34.9],[117.2,35.0],[117.1,35.0],[117.1,35.1],[117.0,35.1],[117.0,35.2],[116.9,35.2],[116.9,35.4],[116.8,35.4],[116.8,37.1],[116.9,37.1],[116.9,37.2],[117.0,37.2],[117.0,37.3],[117.2,37.3],[117.2,37.4],[117.3,37.4],[117.3,37.7],[117.4,37.7],[117.4,37.9],[117.5,37.9],[117.5,38.1],[117.6,38.1],[117.6,38.3],[117.7,38.3],[117.7,38.4],[117.8,38.4],[117.8,38.5],[117.7,38.5],[117.7,38.6],[117.6,38.6],[117.6,38.8],[117.1,38.8],[117.1,38.9],[116.8,38.9],[116.8,39.0],[116.7,39.0],[116.7,39.2],[116.6,39.2],[116.6,39.3],[116.5,39.3],[116.5,39.5],[116.4,39.5],[116.4,39.7],[116.3,39.7],[116.3,39.9],[116.2,39.9],[116.2,40.1],[116.1,40.1],[116.1,40.3],[116.0,40.3],[116.0,40.5],[115.9,40.5],[115.9,40.6],[115.8,40.6],[115.8,40.7],[115.7,40.7],[115.7,40.8],[115.6,40.8],[115.6,40.9],[115.5,40.9],[115.5,41.0],[115.4,41.0],[115.4,41.2],[115.3,41.2],[115.3,41.3]],[[116.0,29.2],[116.0,29.4],[116.2,29.4],[116.2,29.2],[116.0,29.2]],[[116.4,29.0],[116.4,29.2],[116.5,29.2],[116.5,29.0],[116.4,29.0]]]},"properties":{"tile_id":"61","start_year":-180,"end_year":-176,"source_image":"data/raw/toolbay/t/61/-180.png","source_url":"https://www.toolbay.cc/history-map/t/61/-180.png","source_color":"#ff9999","polity_id":null,"polity_assignment":"unverified","geometry_origin":"raster_color_trace","pixel_size_degrees":0.1,"source_color_pixels":11433,"simplification_degrees":0}},{"type":"Feature","id":"61:-180:#ffff00","bbox":[115.2,23.0,127.5,40.7],"geometry":{"type":"MultiPolygon","coordinates":[[[[117.3,27.5],[117.3,27.6],[117.0,27.6],[117.0,27.5],[116.9,27.5],[116.9,27.4],[116.8,27.4],[116.8,27.3],[116.7,27.3],[116.7,27.2],[116.6,27.2],[116.6,27.1],[116.5,27.1],[116.5,27.0],[116.4,27.0],[116.4,26.9],[116.2,26.9],[116.2,26.7],[116.0,26.7],[116.0,26.6],[115.9,26.6],[115.9,26.5],[115.8,26.5],[115.8,26.4],[115.7,26.4],[115.7,26.3],[115.5,26.3],[115.5,26.2],[115.4,26.2],[115.4,26.1],[115.2,26.1],[115.2,25.8],[115.3,25.8],[115.3,25.6],[115.4,25.6],[115.4,25.4],[115.5,25.4],[115.5,25.2],[115.6,25.2],[115.6,25.0],[115.7,25.0],[115.7,24.6],[115.8,24.6],[115.8,24.4],[115.9,24.4],[115.9,24.2],[116.0,24.2],[116.0,23.5],[116.1,23.5],[116.1,23.4],[116.2,23.4],[116.2,23.0],[116.5,23.0],[116.5,23.1],[116.6,23.1],[116.6,23.2],[116.7,23.2],[116.7,23.3],[116.8,23.3],[116.8,23.4],[116.9,23.4],[116.9,23.5],[117.3,23.5],[117.3,23.6],[117.4,23.6],[117.4,23.7],[117.5,23.7],[117.5,23.8],[117.6,23.8],[117.6,23.9],[117.7,23.9],[117.7,24.0],[117.9,24.0],[117.9,24.1],[118.0,24.1],[118.0,24.2],[118.1,24.2],[118.1,24.3],[118.2,24.3],[118.2,24.4],[118.4,24.4],[118.4,24.5],[118.5,24.5],[118.5,24.6],[118.6,24.6],[118.6,24.7],[118.8,24.7],[118.8,24.8],[118.9,24.8],[118.9,25.0],[119.0,25.0],[119.0,25.1],[119.1,25.1],[119.1,25.2],[119.3,25.2],[119.3,25.3],[119.4,25.3],[119.4,25.5],[119.3,25.5],[119.3,25.7],[119.1,25.7],[119.1,25.8],[119.0,25.8],[119.0,25.9],[118.9,25.9],[118.9,26.0],[118.8,26.0],[118.8,26.1],[118.7,26.1],[118.7,26.2],[118.6,26.2],[118.6,26.3],[118.5,26.3],[118.5,26.4],[118.4,26.4],[118.4,26.5],[118.3,26.5],[118.3,26.7],[118.2,26.7],[118.2,26.8],[118.0,26.8],[118.0,26.9],[117.9,26.9],[117.9,27.0],[117.8,27.0],[117.8,27.1],[117.7,27.1],[117.7,27.2],[117.6,27.2],[117.6,27.3],[117.5,27.3],[117.5,27.4],[117.4,27.4],[117.4,27.5],[117.3,27.5]]],[[[126.3,40.6],[126.3,40.7],[126.0,40.7],[126.0,40.6],[125.9,40.6],[125.9,40.5],[125.8,40.5],[125.8,40.3],[125.7,40.3],[125.7,40.1],[125.6,40.1],[125.6,40.0],[125.5,40.0],[125.5,39.8],[125.4,39.8],[125.4,39.7],[125.3,39.7],[125.3,39.5],[125.4,39.5],[125.4,39.3],[125.3,39.3],[125.3,39.1],[125.2,39.1],[125.2,39.0],[125.1,39.0],[125.1,38.7],[125.0,38.7],[125.0,38.6],[124.9,38.6],[124.9,38.1],[125.0,38.1],[125.0,37.9],[125.1,37.9],[125.1,37.8],[125.2,37.8],[125.2,37.7],[125.4,37.7],[125.4,37.8],[125.7,37.8],[125.7,37.9],[126.0,37.9],[126.0,37.8],[126.3,37.8],[126.3,37.7],[126.4,37.7],[126.4,37.4],[126.5,37.4],[126.5,37.3],[126.7,37.3],[126.7,37.4],[126.9,37.4],[126.9,37.5],[127.0,37.5],[127.0,37.6],[127.1,37.6],[127.1,37.7],[127.2,37.7],[127.2,37.8],[127.3,37.8],[127.3,38.0],[127.4,38.0],[127.4,38.1],[127.5,38.1],[127.5,38.6],[127.4,38.6],[127.4,38.9],[127.3,38.9],[127.3,39.1],[127.2,39.1],[127.2,39.3],[127.1,39.3],[127.1,39.6],[127.0,39.6],[127.0,39.8],[126.9,39.8],[126.9,40.0],[126.7,40.0],[126.7,40.2],[126.6,40.2],[126.6,40.4],[126.5,40.4],[126.5,40.5],[126.4,40.5],[126.4,40.6],[126.3,40.6]]]]},"properties":{"tile_id":"61","start_year":-180,"end_year":-176,"source_image":"data/raw/toolbay/t/61/-180.png","source_url":"https://www.toolbay.cc/history-map/t/61/-180.png","source_color":"#ffff00","polity_id":null,"polity_assignment":"unverified","geometry_origin":"raster_color_trace","pixel_size_degrees":0.1,"source_color_pixels":1586,"simplification_degrees":0}}]}
