{"type":"FeatureCollection","features":[{"type":"Feature","id":"61:-600:#00ff00","bbox":[112.1,30.9,121.6,41.1],"geometry":{"type":"MultiPolygon","coordinates":[[[[120.4,32.2],[120.4,32.3],[119.9,32.3],[119.9,32.2],[119.7,32.2],[119.7,32.1],[119.5,32.1],[119.5,32.0],[119.4,32.0],[119.4,31.9],[119.2,31.9],[119.2,31.7],[119.1,31.7],[119.1,31.2],[119.2,31.2],[119.2,31.0],[119.3,31.0],[119.3,30.9],[120.4,30.9],[120.4,31.0],[120.6,31.0],[120.6,31.1],[120.8,31.1],[120.8,31.2],[120.9,31.2],[120.9,31.3],[121.0,31.3],[121.0,31.4],[121.6,31.4],[121.6,31.5],[121.5,31.5],[121.5,31.6],[121.4,31.6],[121.4,31.7],[121.3,31.7],[121.3,31.8],[121.2,31.8],[121.2,31.9],[121.0,31.9],[121.0,32.0],[120.8,32.0],[120.8,32.1],[120.6,32.1],[120.6,32.2],[120.4,32.2]]],[[[113.8,35.2],[113.5,35.2],[113.5,35.3],[112.5,35.3],[112.5,35.2],[112.4,35.2],[112.4,34.9],[112.5,34.9],[112.5,34.3],[112.4,34.3],[112.4,34.2],[112.3,34.2],[112.3,34.1],[112.1,34.1],[112.1,33.7],[112.2,33.7],[112.2,33.4],[112.3,33.4],[112.3,33.3],[112.4,33.3],[112.4,33.2],[112.5,33.2],[112.5,33.1],[114.1,33.1],[114.1,33.3],[114.2,33.3],[114.2,33.4],[114.3,33.4],[114.3,33.6],[114.4,33.6],[114.4,34.1],[114.5,34.1],[114.5,34.3],[114.6,34.3],[114.6,34.6],[114.7,34.6],[114.7,34.7],[114.6,34.7],[114.6,34.8],[114.4,34.8],[114.4,34.9],[114.3,34.9],[114.3,35.0],[114.1,35.0],[114.1,35.1],[113.8,35.1],[113.8,35.2]]],[[[117.1,41.0],[116.7,41.0],[116.7,41.1],[116.3,41.1],[116.3,41.0],[116.1,41.0],[116.1,40.9],[115.9,40.9],[115.9,40.8],[115.8,40.8],[115.8,40.7],[115.7,40.7],[115.7,40.4],[115.6,40.4],[115.6,39.8],[115.7,39.8],[115.7,39.3],[115.8,39.3],[115.8,38.7],[116.9,38.7],[116.9,38.8],[117.6,38.8],[117.6,39.0],[117.7,39.0],[117.7,39.1],[117.9,39.1],[117.9,39.2],[118.2,39.2],[118.2,39.1],[118.9,39.1],[118.9,39.2],[119.1,39.2],[119.1,39.3],[119.2,39.3],[119.2,39.5],[119.3,39.5],[119.3,39.7],[119.4,39.7],[119.4,39.8],[119.6,39.8],[119.6,39.9],[119.7,39.9],[119.7,40.2],[119.5,40.2],[119.5,40.3],[119.4,40.3],[119.4,40.4],[119.1,40.4],[119.1,40.5],[118.8,40.5],[118.8,40.6],[118.3,40.6],[118.3,40.7],[117.9,40.7],[117.9,40.8],[117.5,40.8],[117.5,40.9],[117.1,40.9],[117.1,41.0]]]]},"properties":{"tile_id":"61","start_year":-600,"end_year":-550,"source_image":"data/raw/toolbay/t/61/-600.png","source_url":"https://www.toolbay.cc/history-map/t/61/-600.png","source_color":"#00ff00","polity_id":null,"polity_assignment":"unverified","geometry_origin":"raster_color_trace","pixel_size_degrees":0.1,"source_color_pixels":1358,"simplification_degrees":0}},{"type":"Feature","id":"61:-600:#00ffff","bbox":[108.7,31.5,115.3,40.2],"geometry":{"type":"MultiPolygon","coordinates":[[[[113.7,33.0],[113.7,33.1],[113.0,33.1],[113.0,32.6],[112.9,32.6],[112.9,32.4],[113.0,32.4],[113.0,32.3],[113.1,32.3],[113.1,32.2],[113.4,32.2],[113.4,32.1],[113.7,32.1],[113.7,32.0],[113.9,32.0],[113.9,31.9],[114.0,31.9],[114.0,31.8],[114.5,31.8],[114.5,31.7],[114.6,31.7],[114.6,31.6],[114.7,31.6],[114.7,31.5],[115.2,31.5],[115.2,31.6],[115.3,31.6],[115.3,32.0],[115.2,32.0],[115.2,32.1],[115.1,32.1],[115.1,32.2],[115.0,32.2],[115.0,32.3],[114.7,32.3],[114.7,32.4],[114.6,32.4],[114.6,32.5],[114.5,32.5],[114.5,32.6],[114.3,32.6],[114.3,32.7],[114.2,32.7],[114.2,32.8],[114.0,32.8],[114.0,32.9],[113.8,32.9],[113.8,33.0],[113.7,33.0]]],[[[112.2,40.1],[112.2,40.2],[111.3,40.2],[111.3,40.1],[110.9,40.1],[110.9,40.0],[110.4,40.0],[110.4,39.9],[110.1,39.9],[110.1,39.8],[110.0,39.8],[110.0,39.0],[109.9,39.0],[109.9,38.6],[109.8,38.6],[109.8,38.3],[109.7,38.3],[109.7,38.1],[109.6,38.1],[109.6,37.8],[109.5,37.8],[109.5,37.6],[109.4,37.6],[109.4,37.5],[109.3,37.5],[109.3,37.4],[109.2,37.4],[109.2,37.1],[109.1,37.1],[109.1,37.0],[109.0,37.0],[109.0,36.5],[108.9,36.5],[108.9,36.3],[108.8,36.3],[108.8,36.1],[108.7,36.1],[108.7,35.1],[108.8,35.1],[108.8,34.5],[108.9,34.5],[108.9,34.1],[109.0,34.1],[109.0,33.9],[109.6,33.9],[109.6,34.0],[109.8,34.0],[109.8,34.1],[110.2,34.1],[110.2,34.2],[110.3,34.2],[110.3,34.6],[110.4,34.6],[110.4,34.8],[110.5,34.8],[110.5,34.9],[110.6,34.9],[110.6,35.1],[110.8,35.1],[110.8,35.2],[110.9,35.2],[110.9,35.3],[111.6,35.3],[111.6,35.2],[112.0,35.2],[112.0,35.1],[112.3,35.1],[112.3,35.0],[112.4,35.0],[112.4,35.2],[112.5,35.2],[112.5,35.7],[112.6,35.7],[112.6,36.7],[112.5,36.7],[112.5,36.9],[112.4,36.9],[112.4,37.0],[112.3,37.0],[112.3,37.2],[112.2,37.2],[112.2,37.3],[112.1,37.3],[112.1,37.6],[112.0,37.6],[112.0,38.3],[112.1,38.3],[112.1,38.6],[112.2,38.6],[112.2,38.8],[112.3,38.8],[112.3,39.4],[112.4,39.4],[112.4,40.0],[112.3,40.0],[112.3,40.1],[112.2,40.1]]]]},"properties":{"tile_id":"61","start_year":-600,"end_year":-550,"source_image":"data/raw/toolbay/t/61/-600.png","source_url":"https://www.toolbay.cc/history-map/t/61/-600.png","source_color":"#00ffff","polity_id":null,"polity_assignment":"unverified","geometry_origin":"raster_color_trace","pixel_size_degrees":0.1,"source_color_pixels":1820,"simplification_degrees":0}},{"type":"Feature","id":"61:-600:#6666ff","bbox":[114.1,32.8,118.2,35.3],"geometry":{"type":"Polygon","coordinates":[[[115.6,35.3],[115.4,35.3],[115.4,35.2],[115.3,35.2],[115.3,35.1],[115.2,35.1],[115.2,35.0],[115.0,35.0],[115.0,34.9],[114.8,34.9],[114.8,34.8],[114.7,34.8],[114.7,34.6],[114.6,34.6],[114.6,34.3],[114.5,34.3],[114.5,34.1],[114.4,34.1],[114.4,33.6],[114.3,33.6],[114.3,33.4],[114.2,33.4],[114.2,33.3],[114.1,33.3],[114.1,33.2],[114.5,33.2],[114.5,33.1],[114.7,33.1],[114.7,33.0],[114.9,33.0],[114.9,32.9],[115.0,32.9],[115.0,32.8],[116.0,32.8],[116.0,32.9],[116.3,32.9],[116.3,33.0],[116.6,33.0],[116.6,33.1],[116.7,33.1],[116.7,33.2],[117.0,33.2],[117.0,33.3],[117.2,33.3],[117.2,33.4],[117.3,33.4],[117.3,33.5],[117.6,33.5],[117.6,33.6],[117.9,33.6],[117.9,33.7],[118.0,33.7],[118.0,34.0],[118.1,34.0],[118.1,34.1],[118.2,34.1],[118.2,34.5],[118.1,34.5],[118.1,34.8],[118.0,34.8],[118.0,35.3],[117.4,35.3],[117.4,35.2],[117.2,35.2],[117.2,35.1],[116.6,35.1],[116.6,35.2],[115.6,35.2],[115.6,35.3]]]},"properties":{"tile_id":"61","start_year":-600,"end_year":-550,"source_image":"data/raw/toolbay/t/61/-600.png","source_url":"https://www.toolbay.cc/history-map/t/61/-600.png","source_color":"#6666ff","polity_id":null,"polity_assignment":"unverified","geometry_origin":"raster_color_trace","pixel_size_degrees":0.1,"source_color_pixels":735,"simplification_degrees":0}},{"type":"Feature","id":"61:-600:#ff0000","bbox":[115.6,27.9,122.4,36.9],"geometry":{"type":"MultiPolygon","coordinates":[[[[121.8,31.2],[121.8,31.4],[121.0,31.4],[121.0,31.3],[120.9,31.3],[120.9,31.2],[120.8,31.2],[120.8,31.1],[120.6,31.1],[120.6,31.0],[120.4,31.0],[120.4,30.9],[119.5,30.9],[119.5,30.8],[119.4,30.8],[119.4,30.7],[119.3,30.7],[119.3,30.4],[119.2,30.4],[119.2,29.5],[119.3,29.5],[119.3,29.2],[119.4,29.2],[119.4,28.8],[119.5,28.8],[119.5,28.6],[119.6,28.6],[119.6,28.5],[119.7,28.5],[119.7,28.4],[119.8,28.4],[119.8,28.3],[120.0,28.3],[120.0,28.2],[120.3,28.2],[120.3,28.1],[120.5,28.1],[120.5,28.0],[120.6,28.0],[120.6,27.9],[121.2,27.9],[121.2,28.0],[121.3,28.0],[121.3,28.2],[121.4,28.2],[121.4,28.3],[121.6,28.3],[121.6,28.4],[121.7,28.4],[121.7,28.7],[121.8,28.7],[121.8,29.0],[121.9,29.0],[121.9,29.2],[122.0,29.2],[122.0,29.6],[122.1,29.6],[122.1,29.7],[122.3,29.7],[122.3,29.8],[122.4,29.8],[122.4,30.2],[122.3,30.2],[122.3,30.3],[121.9,30.3],[121.9,30.2],[121.5,30.2],[121.5,30.3],[121.4,30.3],[121.4,30.4],[121.2,30.4],[121.2,30.5],[121.1,30.5],[121.1,30.6],[121.2,30.6],[121.2,30.7],[121.4,30.7],[121.4,30.8],[121.5,30.8],[121.5,30.9],[121.8,30.9],[121.8,31.0],[121.9,31.0],[121.9,31.2],[121.8,31.2]]],[[[117.6,36.8],[117.6,36.9],[117.4,36.9],[117.4,36.8],[117.2,36.8],[117.2,36.7],[116.8,36.7],[116.8,36.6],[116.5,36.6],[116.5,36.7],[116.1,36.7],[116.1,36.5],[116.0,36.5],[116.0,36.4],[115.9,36.4],[115.9,36.2],[115.8,36.2],[115.8,36.1],[115.6,36.1],[115.6,35.2],[116.6,35.2],[116.6,35.1],[117.2,35.1],[117.2,35.2],[117.4,35.2],[117.4,35.3],[118.0,35.3],[118.0,35.5],[118.1,35.5],[118.1,35.6],[118.2,35.6],[118.2,35.8],[118.3,35.8],[118.3,36.0],[118.2,36.0],[118.2,36.1],[118.1,36.1],[118.1,36.2],[118.0,36.2],[118.0,36.6],[117.9,36.6],[117.9,36.7],[117.7,36.7],[117.7,36.8],[117.6,36.8]]]]},"properties":{"tile_id":"61","start_year":-600,"end_year":-550,"source_image":"data/raw/toolbay/t/61/-600.png","source_url":"https://www.toolbay.cc/history-map/t/61/-600.png","source_color":"#ff0000","polity_id":null,"polity_assignment":"unverified","geometry_origin":"raster_color_trace","pixel_size_degrees":0.1,"source_color_pixels":1092,"simplification_degrees":0}},{"type":"Feature","id":"61:-600:#ff00ff","bbox":[110.3,33.9,119.9,38.8],"geometry":{"type":"MultiPolygon","coordinates":[[[[111.6,35.2],[111.6,35.3],[110.9,35.3],[110.9,35.2],[110.8,35.2],[110.8,35.1],[110.6,35.1],[110.6,34.9],[110.5,34.9],[110.5,34.8],[110.4,34.8],[110.4,34.6],[110.3,34.6],[110.3,34.1],[110.5,34.1],[110.5,34.0],[110.8,34.0],[110.8,33.9],[111.4,33.9],[111.4,34.0],[112.0,34.0],[112.0,34.1],[112.3,34.1],[112.3,34.2],[112.4,34.2],[112.4,34.3],[112.5,34.3],[112.5,34.9],[112.4,34.9],[112.4,35.0],[112.3,35.0],[112.3,35.1],[112.0,35.1],[112.0,35.2],[111.6,35.2]]],[[[117.6,38.6],[117.6,38.8],[116.9,38.8],[116.9,38.7],[115.8,38.7],[115.8,37.8],[115.7,37.8],[115.7,37.5],[115.6,37.5],[115.6,37.2],[115.5,37.2],[115.5,37.0],[115.4,37.0],[115.4,36.8],[115.3,36.8],[115.3,36.5],[115.2,36.5],[115.2,36.0],[115.3,36.0],[115.3,35.8],[115.4,35.8],[115.4,35.7],[115.5,35.7],[115.5,35.6],[115.6,35.6],[115.6,36.1],[115.8,36.1],[115.8,36.2],[115.9,36.2],[115.9,36.4],[116.0,36.4],[116.0,36.5],[116.1,36.5],[116.1,36.7],[116.5,36.7],[116.5,36.6],[116.8,36.6],[116.8,36.7],[117.2,36.7],[117.2,36.8],[117.4,36.8],[117.4,36.9],[117.6,36.9],[117.6,36.8],[117.7,36.8],[117.7,36.7],[117.9,36.7],[117.9,36.6],[118.0,36.6],[118.0,36.2],[118.1,36.2],[118.1,36.1],[118.2,36.1],[118.2,36.0],[118.4,36.0],[118.4,36.1],[118.6,36.1],[118.6,36.2],[119.6,36.2],[119.6,36.4],[119.7,36.4],[119.7,36.5],[119.8,36.5],[119.8,37.0],[119.9,37.0],[119.9,37.4],[119.8,37.4],[119.8,37.3],[119.7,37.3],[119.7,37.2],[119.3,37.2],[119.3,37.3],[119.1,37.3],[119.1,37.4],[119.0,37.4],[119.0,38.2],[118.9,38.2],[118.9,38.3],[118.7,38.3],[118.7,38.2],[118.0,38.2],[118.0,38.3],[117.9,38.3],[117.9,38.4],[117.8,38.4],[117.8,38.5],[117.7,38.5],[117.7,38.6],[117.6,38.6]]]]},"properties":{"tile_id":"61","start_year":-600,"end_year":-550,"source_image":"data/raw/toolbay/t/61/-600.png","source_url":"https://www.toolbay.cc/history-map/t/61/-600.png","source_color":"#ff00ff","polity_id":null,"polity_assignment":"unverified","geometry_origin":"raster_color_trace","pixel_size_degrees":0.1,"source_color_pixels":1056,"simplification_degrees":0}},{"type":"Feature","id":"61:-600:#ff9999","bbox":[103.8,33.5,109.0,36.0],"geometry":{"type":"Polygon","coordinates":[[[108.7,36.0],[108.3,36.0],[108.3,35.9],[107.5,35.9],[107.5,35.8],[107.3,35.8],[107.3,35.7],[107.0,35.7],[107.0,35.6],[106.6,35.6],[106.6,35.5],[105.9,35.5],[105.9,35.4],[105.3,35.4],[105.3,35.3],[103.9,35.3],[103.9,35.2],[103.8,35.2],[103.8,35.0],[103.9,35.0],[103.9,34.8],[104.4,34.8],[104.4,34.7],[105.0,34.7],[105.0,34.6],[105.5,34.6],[105.5,34.5],[105.8,34.5],[105.8,34.4],[105.9,34.4],[105.9,34.3],[106.1,34.3],[106.1,34.2],[106.2,34.2],[106.2,34.1],[106.3,34.1],[106.3,33.9],[106.4,33.9],[106.4,33.8],[106.5,33.8],[106.5,33.7],[106.6,33.7],[106.6,33.6],[106.7,33.6],[106.7,33.5],[107.5,33.5],[107.5,33.6],[107.8,33.6],[107.8,33.7],[108.3,33.7],[108.3,33.8],[108.4,33.8],[108.4,33.9],[109.0,33.9],[109.0,34.1],[108.9,34.1],[108.9,34.5],[108.8,34.5],[108.8,35.1],[108.7,35.1],[108.7,36.0]]]},"properties":{"tile_id":"61","start_year":-600,"end_year":-550,"source_image":"data/raw/toolbay/t/61/-600.png","source_url":"https://www.toolbay.cc/history-map/t/61/-600.png","source_color":"#ff9999","polity_id":null,"polity_assignment":"unverified","geometry_origin":"raster_color_trace","pixel_size_degrees":0.1,"source_color_pixels":718,"simplification_degrees":0}},{"type":"Feature","id":"61:-600:#ffff00","bbox":[107.1,27.7,122.6,38.0],"geometry":{"type":"MultiPolygon","coordinates":[[[[118.0,33.4],[118.0,33.6],[117.6,33.6],[117.6,33.5],[117.3,33.5],[117.3,33.4],[117.2,33.4],[117.2,33.3],[117.0,33.3],[117.0,33.2],[116.7,33.2],[116.7,33.1],[116.6,33.1],[116.6,33.0],[116.3,33.0],[116.3,32.9],[116.0,32.9],[116.0,32.8],[115.1,32.8],[115.1,32.5],[115.0,32.5],[115.0,32.4],[114.9,32.4],[114.9,32.3],[115.0,32.3],[115.0,32.2],[115.1,32.2],[115.1,32.1],[115.2,32.1],[115.2,32.0],[115.3,32.0],[115.3,31.6],[115.2,31.6],[115.2,31.5],[114.7,31.5],[114.7,31.6],[114.6,31.6],[114.6,31.7],[114.5,31.7],[114.5,31.8],[114.0,31.8],[114.0,31.9],[113.9,31.9],[113.9,32.0],[113.7,32.0],[113.7,32.1],[113.4,32.1],[113.4,32.2],[113.1,32.2],[113.1,32.3],[113.0,32.3],[113.0,32.4],[112.9,32.4],[112.9,32.6],[113.0,32.6],[113.0,33.1],[112.2,33.1],[112.2,33.0],[111.9,33.0],[111.9,32.9],[111.5,32.9],[111.5,32.8],[111.1,32.8],[111.1,32.7],[110.8,32.7],[110.8,32.6],[110.3,32.6],[110.3,32.5],[109.9,32.5],[109.9,32.4],[108.4,32.4],[108.4,32.3],[108.3,32.3],[108.3,32.2],[108.1,32.2],[108.1,32.1],[108.0,32.1],[108.0,32.0],[107.9,32.0],[107.9,31.8],[107.8,31.8],[107.8,31.5],[107.7,31.5],[107.7,31.3],[107.6,31.3],[107.6,31.0],[107.5,31.0],[107.5,30.7],[107.4,30.7],[107.4,30.5],[107.3,30.5],[107.3,30.3],[107.1,30.3],[107.1,30.0],[107.2,30.0],[107.2,29.7],[107.3,29.7],[107.3,29.4],[107.4,29.4],[107.4,29.3],[108.2,29.3],[108.2,29.2],[108.6,29.2],[108.6,29.1],[108.8,29.1],[108.8,29.0],[109.0,29.0],[109.0,28.9],[109.3,28.9],[109.3,28.8],[109.5,28.8],[109.5,28.7],[109.6,28.7],[109.6,28.6],[109.8,28.6],[109.8,28.5],[109.9,28.5],[109.9,28.4],[110.7,28.4],[110.7,28.3],[111.0,28.3],[111.0,28.2],[111.2,28.2],[111.2,28.1],[111.4,28.1],[111.4,28.0],[111.6,28.0],[111.6,27.9],[111.8,27.9],[111.8,27.8],[112.1,27.8],[112.1,27.7],[112.8,27.7],[112.8,27.8],[113.2,27.8],[113.2,27.9],[113.4,27.9],[113.4,28.0],[113.8,28.0],[113.8,28.1],[114.0,28.1],[114.0,28.2],[114.3,28.2],[114.3,28.3],[115.2,28.3],[115.2,28.4],[115.6,28.4],[115.6,28.5],[116.1,28.5],[116.1,28.6],[116.4,28.6],[116.4,28.7],[116.6,28.7],[116.6,28.8],[116.8,28.8],[116.8,28.9],[117.1,28.9],[117.1,29.0],[117.2,29.0],[117.2,29.1],[117.3,29.1],[117.3,29.2],[117.4,29.2],[117.4,29.3],[117.5,29.3],[117.5,29.4],[117.6,29.4],[117.6,29.6],[117.7,29.6],[117.7,29.7],[117.8,29.7],[117.8,29.9],[117.9,29.9],[117.9,33.4],[118.0,33.4]],[[116.2,29.2],[116.0,29.2],[116.0,29.4],[116.2,29.4],[116.2,29.2]],[[116.5,29.0],[116.4,29.0],[116.4,29.2],[116.6,29.2],[116.6,29.1],[116.5,29.1],[116.5,29.0]]],[[[120.9,37.9],[120.9,38.0],[120.7,38.0],[120.7,37.9],[120.5,37.9],[120.5,37.8],[120.3,37.8],[120.3,37.7],[120.2,37.7],[120.2,37.6],[120.1,37.6],[120.1,37.5],[119.9,37.5],[119.9,37.0],[119.8,37.0],[119.8,36.5],[119.7,36.5],[119.7,36.4],[119.6,36.4],[119.6,36.2],[119.5,36.2],[119.5,36.1],[119.6,36.1],[119.6,35.9],[119.7,35.9],[119.7,35.7],[120.0,35.7],[120.0,35.8],[120.1,35.8],[120.1,35.9],[120.2,35.9],[120.2,36.0],[120.3,36.0],[120.3,36.1],[120.6,36.1],[120.6,36.2],[120.7,36.2],[120.7,36.4],[120.8,36.4],[120.8,36.5],[121.0,36.5],[121.0,36.6],[121.1,36.6],[121.1,36.7],[121.3,36.7],[121.3,36.8],[121.7,36.8],[121.7,36.9],[122.5,36.9],[122.5,37.0],[122.6,37.0],[122.6,37.4],[122.5,37.4],[122.5,37.5],[122.3,37.5],[122.3,37.6],[121.9,37.6],[121.9,37.5],[121.6,37.5],[121.6,37.6],[121.4,37.6],[121.4,37.7],[121.2,37.7],[121.2,37.8],[121.0,37.8],[121.0,37.9],[120.9,37.9]]]]},"properties":{"tile_id":"61","start_year":-600,"end_year":-550,"source_image":"data/raw/toolbay/t/61/-600.png","source_url":"https://www.toolbay.cc/history-map/t/61/-600.png","source_color":"#ffff00","polity_id":null,"polity_assignment":"unverified","geometry_origin":"raster_color_trace","pixel_size_degrees":0.1,"source_color_pixels":4577,"simplification_degrees":0}}]}
