{"type":"FeatureCollection","features":[{"type":"Feature","id":"61:-772:#00ff00","bbox":[112.1,30.9,121.6,41.1],"geometry":{"type":"MultiPolygon","coordinates":[[[[120.4,32.2],[120.4,32.3],[119.9,32.3],[119.9,32.2],[119.7,32.2],[119.7,32.1],[119.5,32.1],[119.5,32.0],[119.4,32.0],[119.4,31.9],[119.2,31.9],[119.2,31.7],[119.1,31.7],[119.1,31.2],[119.2,31.2],[119.2,31.0],[119.3,31.0],[119.3,30.9],[120.4,30.9],[120.4,31.0],[120.6,31.0],[120.6,31.1],[120.8,31.1],[120.8,31.2],[120.9,31.2],[120.9,31.3],[121.0,31.3],[121.0,31.4],[121.6,31.4],[121.6,31.5],[121.5,31.5],[121.5,31.6],[121.4,31.6],[121.4,31.7],[121.3,31.7],[121.3,31.8],[121.2,31.8],[121.2,31.9],[121.0,31.9],[121.0,32.0],[120.8,32.0],[120.8,32.1],[120.6,32.1],[120.6,32.2],[120.4,32.2]]],[[[113.4,35.5],[113.3,35.5],[113.3,35.6],[112.5,35.6],[112.5,35.4],[112.4,35.4],[112.4,34.9],[112.5,34.9],[112.5,34.3],[112.4,34.3],[112.4,34.2],[112.3,34.2],[112.3,34.1],[112.1,34.1],[112.1,33.8],[112.2,33.8],[112.2,33.7],[112.3,33.7],[112.3,33.6],[112.5,33.6],[112.5,33.5],[112.8,33.5],[112.8,33.4],[113.1,33.4],[113.1,33.3],[113.3,33.3],[113.3,33.2],[113.5,33.2],[113.5,33.1],[114.1,33.1],[114.1,33.3],[114.2,33.3],[114.2,33.4],[114.3,33.4],[114.3,33.6],[114.4,33.6],[114.4,34.1],[114.5,34.1],[114.5,34.3],[114.6,34.3],[114.6,34.6],[114.7,34.6],[114.7,34.7],[114.6,34.7],[114.6,34.8],[114.4,34.8],[114.4,34.9],[114.3,34.9],[114.3,35.0],[114.1,35.0],[114.1,35.1],[113.8,35.1],[113.8,35.2],[113.6,35.2],[113.6,35.3],[113.5,35.3],[113.5,35.4],[113.4,35.4],[113.4,35.5]]],[[[117.1,41.0],[116.7,41.0],[116.7,41.1],[116.3,41.1],[116.3,41.0],[116.1,41.0],[116.1,40.9],[115.9,40.9],[115.9,40.8],[115.8,40.8],[115.8,40.7],[115.7,40.7],[115.7,39.8],[115.8,39.8],[115.8,39.7],[115.9,39.7],[115.9,39.3],[116.0,39.3],[116.0,39.2],[116.1,39.2],[116.1,39.1],[116.2,39.1],[116.2,39.0],[116.3,39.0],[116.3,38.9],[116.5,38.9],[116.5,38.8],[116.6,38.8],[116.6,38.7],[116.9,38.7],[116.9,38.8],[117.6,38.8],[117.6,39.0],[117.7,39.0],[117.7,39.1],[117.9,39.1],[117.9,39.2],[118.2,39.2],[118.2,39.1],[118.9,39.1],[118.9,39.2],[119.1,39.2],[119.1,39.3],[119.2,39.3],[119.2,39.5],[119.3,39.5],[119.3,39.7],[119.4,39.7],[119.4,39.8],[119.6,39.8],[119.6,39.9],[119.7,39.9],[119.7,40.2],[119.5,40.2],[119.5,40.3],[119.4,40.3],[119.4,40.4],[119.1,40.4],[119.1,40.5],[118.8,40.5],[118.8,40.6],[118.3,40.6],[118.3,40.7],[117.9,40.7],[117.9,40.8],[117.5,40.8],[117.5,40.9],[117.1,40.9],[117.1,41.0]]]]},"properties":{"tile_id":"61","start_year":-772,"end_year":-650,"source_image":"data/raw/toolbay/t/61/-772.png","source_url":"https://www.toolbay.cc/history-map/t/61/-772.png","source_color":"#00ff00","polity_id":null,"polity_assignment":"unverified","geometry_origin":"raster_color_trace","pixel_size_degrees":0.1,"source_color_pixels":1306,"simplification_degrees":0}},{"type":"Feature","id":"61:-772:#6666ff","bbox":[114.3,32.9,116.8,35.0],"geometry":{"type":"Polygon","coordinates":[[[115.6,35.0],[115.4,35.0],[115.4,34.9],[115.3,34.9],[115.3,34.8],[115.1,34.8],[115.1,34.7],[114.7,34.7],[114.7,34.6],[114.6,34.6],[114.6,34.3],[114.5,34.3],[114.5,34.1],[114.4,34.1],[114.4,33.6],[114.3,33.6],[114.3,33.4],[114.6,33.4],[114.6,33.3],[114.8,33.3],[114.8,33.2],[115.0,33.2],[115.0,33.1],[115.3,33.1],[115.3,32.9],[115.6,32.9],[115.6,33.0],[115.7,33.0],[115.7,33.1],[115.9,33.1],[115.9,33.3],[116.1,33.3],[116.1,33.4],[116.2,33.4],[116.2,33.5],[116.5,33.5],[116.5,33.6],[116.6,33.6],[116.6,33.7],[116.7,33.7],[116.7,33.8],[116.8,33.8],[116.8,34.5],[116.6,34.5],[116.6,34.6],[116.5,34.6],[116.5,34.7],[116.0,34.7],[116.0,34.8],[115.8,34.8],[115.8,34.9],[115.6,34.9],[115.6,35.0]]]},"properties":{"tile_id":"61","start_year":-772,"end_year":-650,"source_image":"data/raw/toolbay/t/61/-772.png","source_url":"https://www.toolbay.cc/history-map/t/61/-772.png","source_color":"#6666ff","polity_id":null,"polity_assignment":"unverified","geometry_origin":"raster_color_trace","pixel_size_degrees":0.1,"source_color_pixels":344,"simplification_degrees":0}},{"type":"Feature","id":"61:-772:#ff0000","bbox":[115.6,27.9,122.4,36.8],"geometry":{"type":"MultiPolygon","coordinates":[[[[121.8,31.2],[121.8,31.4],[121.0,31.4],[121.0,31.3],[120.9,31.3],[120.9,31.2],[120.8,31.2],[120.8,31.1],[120.6,31.1],[120.6,31.0],[120.4,31.0],[120.4,30.9],[119.5,30.9],[119.5,30.8],[119.4,30.8],[119.4,30.7],[119.3,30.7],[119.3,30.4],[119.2,30.4],[119.2,29.5],[119.3,29.5],[119.3,29.2],[119.4,29.2],[119.4,28.8],[119.5,28.8],[119.5,28.6],[119.6,28.6],[119.6,28.5],[119.7,28.5],[119.7,28.4],[119.8,28.4],[119.8,28.3],[120.0,28.3],[120.0,28.2],[120.3,28.2],[120.3,28.1],[120.5,28.1],[120.5,28.0],[120.6,28.0],[120.6,27.9],[121.2,27.9],[121.2,28.0],[121.3,28.0],[121.3,28.2],[121.4,28.2],[121.4,28.3],[121.6,28.3],[121.6,28.4],[121.7,28.4],[121.7,28.7],[121.8,28.7],[121.8,29.0],[121.9,29.0],[121.9,29.2],[122.0,29.2],[122.0,29.6],[122.1,29.6],[122.1,29.7],[122.3,29.7],[122.3,29.8],[122.4,29.8],[122.4,30.2],[122.3,30.2],[122.3,30.3],[121.9,30.3],[121.9,30.2],[121.5,30.2],[121.5,30.3],[121.4,30.3],[121.4,30.4],[121.2,30.4],[121.2,30.5],[121.1,30.5],[121.1,30.6],[121.2,30.6],[121.2,30.7],[121.4,30.7],[121.4,30.8],[121.5,30.8],[121.5,30.9],[121.8,30.9],[121.8,31.0],[121.9,31.0],[121.9,31.2],[121.8,31.2]]],[[[117.5,36.7],[117.5,36.8],[117.2,36.8],[117.2,36.7],[116.8,36.7],[116.8,36.6],[116.5,36.6],[116.5,36.7],[116.1,36.7],[116.1,36.5],[116.0,36.5],[116.0,36.4],[115.9,36.4],[115.9,36.2],[115.8,36.2],[115.8,36.1],[115.6,36.1],[115.6,34.9],[115.8,34.9],[115.8,34.8],[116.0,34.8],[116.0,34.7],[116.6,34.7],[116.6,34.9],[116.7,34.9],[116.7,35.0],[116.9,35.0],[116.9,35.1],[117.2,35.1],[117.2,35.2],[117.4,35.2],[117.4,35.3],[117.6,35.3],[117.6,35.4],[117.7,35.4],[117.7,36.5],[117.6,36.5],[117.6,36.7],[117.5,36.7]]]]},"properties":{"tile_id":"61","start_year":-772,"end_year":-650,"source_image":"data/raw/toolbay/t/61/-772.png","source_url":"https://www.toolbay.cc/history-map/t/61/-772.png","source_color":"#ff0000","polity_id":null,"polity_assignment":"unverified","geometry_origin":"raster_color_trace","pixel_size_degrees":0.1,"source_color_pixels":1078,"simplification_degrees":0}},{"type":"Feature","id":"61:-772:#ff00ff","bbox":[109.9,33.9,119.2,38.8],"geometry":{"type":"MultiPolygon","coordinates":[[[[111.6,35.2],[111.6,35.3],[110.8,35.3],[110.8,35.2],[110.3,35.2],[110.3,35.1],[110.1,35.1],[110.1,35.0],[109.9,35.0],[109.9,34.5],[110.0,34.5],[110.0,34.3],[110.1,34.3],[110.1,34.2],[110.3,34.2],[110.3,34.1],[110.5,34.1],[110.5,34.0],[110.8,34.0],[110.8,33.9],[111.4,33.9],[111.4,34.0],[112.0,34.0],[112.0,34.1],[112.3,34.1],[112.3,34.2],[112.4,34.2],[112.4,34.3],[112.5,34.3],[112.5,34.9],[112.4,34.9],[112.4,35.0],[112.3,35.0],[112.3,35.1],[112.0,35.1],[112.0,35.2],[111.6,35.2]]],[[[117.6,38.6],[117.6,38.8],[116.9,38.8],[116.9,38.7],[116.8,38.7],[116.8,38.6],[116.7,38.6],[116.7,38.5],[116.4,38.5],[116.4,38.4],[116.2,38.4],[116.2,38.2],[116.1,38.2],[116.1,38.0],[116.0,38.0],[116.0,37.9],[115.9,37.9],[115.9,37.6],[115.8,37.6],[115.8,37.2],[115.7,37.2],[115.7,37.0],[115.9,37.0],[115.9,36.8],[116.0,36.8],[116.0,36.7],[116.5,36.7],[116.5,36.6],[116.8,36.6],[116.8,36.7],[117.2,36.7],[117.2,36.8],[117.4,36.8],[117.4,36.9],[117.6,36.9],[117.6,37.0],[117.9,37.0],[117.9,37.1],[118.2,37.1],[118.2,37.2],[119.2,37.2],[119.2,37.3],[119.1,37.3],[119.1,37.4],[119.0,37.4],[119.0,38.2],[118.9,38.2],[118.9,38.3],[118.7,38.3],[118.7,38.2],[118.0,38.2],[118.0,38.3],[117.9,38.3],[117.9,38.4],[117.8,38.4],[117.8,38.5],[117.7,38.5],[117.7,38.6],[117.6,38.6]]]]},"properties":{"tile_id":"61","start_year":-772,"end_year":-650,"source_image":"data/raw/toolbay/t/61/-772.png","source_url":"https://www.toolbay.cc/history-map/t/61/-772.png","source_color":"#ff00ff","polity_id":null,"polity_assignment":"unverified","geometry_origin":"raster_color_trace","pixel_size_degrees":0.1,"source_color_pixels":772,"simplification_degrees":0}},{"type":"Feature","id":"61:-772:#ffff00","bbox":[110.7,28.4,122.6,38.0],"geometry":{"type":"MultiPolygon","coordinates":[[[[112.2,30.0],[112.2,30.1],[111.6,30.1],[111.6,30.0],[111.3,30.0],[111.3,29.9],[111.0,29.9],[111.0,29.8],[110.8,29.8],[110.8,29.7],[110.7,29.7],[110.7,29.1],[110.8,29.1],[110.8,28.9],[110.9,28.9],[110.9,28.8],[111.0,28.8],[111.0,28.7],[111.1,28.7],[111.1,28.6],[111.2,28.6],[111.2,28.5],[111.3,28.5],[111.3,28.4],[112.3,28.4],[112.3,28.5],[112.8,28.5],[112.8,28.6],[113.1,28.6],[113.1,28.7],[113.4,28.7],[113.4,28.8],[113.5,28.8],[113.5,28.9],[113.6,28.9],[113.6,29.3],[113.5,29.3],[113.5,29.5],[113.4,29.5],[113.4,29.7],[113.2,29.7],[113.2,29.8],[112.8,29.8],[112.8,29.9],[112.5,29.9],[112.5,30.0],[112.2,30.0]]],[[[120.9,37.9],[120.9,38.0],[120.7,38.0],[120.7,37.9],[120.5,37.9],[120.5,37.8],[120.3,37.8],[120.3,37.7],[120.2,37.7],[120.2,37.6],[120.1,37.6],[120.1,37.5],[119.9,37.5],[119.9,37.4],[119.8,37.4],[119.8,37.3],[119.7,37.3],[119.7,37.2],[119.3,37.2],[119.3,37.0],[119.4,37.0],[119.4,36.4],[119.5,36.4],[119.5,36.1],[119.6,36.1],[119.6,35.9],[119.7,35.9],[119.7,35.7],[120.0,35.7],[120.0,35.8],[120.1,35.8],[120.1,35.9],[120.2,35.9],[120.2,36.0],[120.3,36.0],[120.3,36.1],[120.6,36.1],[120.6,36.2],[120.7,36.2],[120.7,36.4],[120.8,36.4],[120.8,36.5],[121.0,36.5],[121.0,36.6],[121.1,36.6],[121.1,36.7],[121.3,36.7],[121.3,36.8],[121.7,36.8],[121.7,36.9],[122.5,36.9],[122.5,37.0],[122.6,37.0],[122.6,37.4],[122.5,37.4],[122.5,37.5],[122.3,37.5],[122.3,37.6],[121.9,37.6],[121.9,37.5],[121.6,37.5],[121.6,37.6],[121.4,37.6],[121.4,37.7],[121.2,37.7],[121.2,37.8],[121.0,37.8],[121.0,37.9],[120.9,37.9]]]]},"properties":{"tile_id":"61","start_year":-772,"end_year":-650,"source_image":"data/raw/toolbay/t/61/-772.png","source_url":"https://www.toolbay.cc/history-map/t/61/-772.png","source_color":"#ffff00","polity_id":null,"polity_assignment":"unverified","geometry_origin":"raster_color_trace","pixel_size_degrees":0.1,"source_color_pixels":751,"simplification_degrees":0}}]}
