{"type":"FeatureCollection","features":[{"type":"Feature","id":"61:-780:#00ff00","bbox":[119.1,30.9,121.6,32.3],"geometry":{"type":"Polygon","coordinates":[[[120.4,32.3],[119.9,32.3],[119.9,32.2],[119.7,32.2],[119.7,32.1],[119.5,32.1],[119.5,32.0],[119.4,32.0],[119.4,31.9],[119.2,31.9],[119.2,31.7],[119.1,31.7],[119.1,31.2],[119.2,31.2],[119.2,31.0],[119.3,31.0],[119.3,30.9],[120.4,30.9],[120.4,31.0],[120.6,31.0],[120.6,31.1],[120.8,31.1],[120.8,31.2],[120.9,31.2],[120.9,31.3],[121.0,31.3],[121.0,31.4],[121.6,31.4],[121.6,31.5],[121.5,31.5],[121.5,31.6],[121.4,31.6],[121.4,31.7],[121.3,31.7],[121.3,31.8],[121.2,31.8],[121.2,31.9],[121.0,31.9],[121.0,32.0],[120.8,32.0],[120.8,32.1],[120.6,32.1],[120.6,32.2],[120.4,32.2],[120.4,32.3]]]},"properties":{"tile_id":"61","start_year":-780,"end_year":-772,"source_image":"data/raw/toolbay/t/61/-780.png","source_url":"https://www.toolbay.cc/history-map/t/61/-780.png","source_color":"#00ff00","polity_id":null,"polity_assignment":"unverified","geometry_origin":"raster_color_trace","pixel_size_degrees":0.1,"source_color_pixels":234,"simplification_degrees":0}},{"type":"Feature","id":"61:-780:#ff0000","bbox":[119.2,27.9,122.4,31.4],"geometry":{"type":"Polygon","coordinates":[[[121.8,31.4],[121.0,31.4],[121.0,31.3],[120.9,31.3],[120.9,31.2],[120.8,31.2],[120.8,31.1],[120.6,31.1],[120.6,31.0],[120.4,31.0],[120.4,30.9],[119.5,30.9],[119.5,30.8],[119.4,30.8],[119.4,30.7],[119.3,30.7],[119.3,30.4],[119.2,30.4],[119.2,29.5],[119.3,29.5],[119.3,29.2],[119.4,29.2],[119.4,28.8],[119.5,28.8],[119.5,28.6],[119.6,28.6],[119.6,28.5],[119.7,28.5],[119.7,28.4],[119.8,28.4],[119.8,28.3],[120.0,28.3],[120.0,28.2],[120.3,28.2],[120.3,28.1],[120.5,28.1],[120.5,28.0],[120.6,28.0],[120.6,27.9],[121.2,27.9],[121.2,28.0],[121.3,28.0],[121.3,28.2],[121.4,28.2],[121.4,28.3],[121.6,28.3],[121.6,28.4],[121.7,28.4],[121.7,28.7],[121.8,28.7],[121.8,29.0],[121.9,29.0],[121.9,29.2],[122.0,29.2],[122.0,29.6],[122.1,29.6],[122.1,29.7],[122.3,29.7],[122.3,29.8],[122.4,29.8],[122.4,30.2],[122.3,30.2],[122.3,30.3],[121.9,30.3],[121.9,30.2],[121.5,30.2],[121.5,30.3],[121.4,30.3],[121.4,30.4],[121.2,30.4],[121.2,30.5],[121.1,30.5],[121.1,30.6],[121.2,30.6],[121.2,30.7],[121.4,30.7],[121.4,30.8],[121.5,30.8],[121.5,30.9],[121.8,30.9],[121.8,31.0],[121.9,31.0],[121.9,31.2],[121.8,31.2],[121.8,31.4]]]},"properties":{"tile_id":"61","start_year":-780,"end_year":-772,"source_image":"data/raw/toolbay/t/61/-780.png","source_url":"https://www.toolbay.cc/history-map/t/61/-780.png","source_color":"#ff0000","polity_id":null,"polity_assignment":"unverified","geometry_origin":"raster_color_trace","pixel_size_degrees":0.1,"source_color_pixels":737,"simplification_degrees":0}},{"type":"Feature","id":"61:-780:#ff00ff","bbox":[107.4,33.8,113.2,35.3],"geometry":{"type":"Polygon","coordinates":[[[109.6,35.3],[108.5,35.3],[108.5,35.2],[107.9,35.2],[107.9,35.1],[107.6,35.1],[107.6,35.0],[107.4,35.0],[107.4,34.5],[107.5,34.5],[107.5,34.3],[107.6,34.3],[107.6,34.2],[107.7,34.2],[107.7,34.1],[107.8,34.1],[107.8,34.0],[108.1,34.0],[108.1,33.9],[108.5,33.9],[108.5,33.8],[109.0,33.8],[109.0,33.9],[109.4,33.9],[109.4,34.0],[110.1,34.0],[110.1,34.1],[110.9,34.1],[110.9,34.0],[112.2,34.0],[112.2,34.1],[112.7,34.1],[112.7,34.2],[112.9,34.2],[112.9,34.3],[113.1,34.3],[113.1,34.4],[113.2,34.4],[113.2,34.7],[113.1,34.7],[113.1,34.9],[113.0,34.9],[113.0,35.0],[112.9,35.0],[112.9,35.1],[112.5,35.1],[112.5,35.2],[109.6,35.2],[109.6,35.3]]]},"properties":{"tile_id":"61","start_year":-780,"end_year":-772,"source_image":"data/raw/toolbay/t/61/-780.png","source_url":"https://www.toolbay.cc/history-map/t/61/-780.png","source_color":"#ff00ff","polity_id":null,"polity_assignment":"unverified","geometry_origin":"raster_color_trace","pixel_size_degrees":0.1,"source_color_pixels":666,"simplification_degrees":0}},{"type":"Feature","id":"61:-780:#ff99ff","bbox":[105.9,32.6,115.3,37.3],"geometry":{"type":"Polygon","coordinates":[[[111.2,37.3],[109.7,37.3],[109.7,37.2],[109.3,37.2],[109.3,37.1],[108.9,37.1],[108.9,37.0],[108.5,37.0],[108.5,36.9],[108.3,36.9],[108.3,36.8],[108.1,36.8],[108.1,36.7],[108.0,36.7],[108.0,36.6],[107.8,36.6],[107.8,36.5],[107.7,36.5],[107.7,36.4],[107.6,36.4],[107.6,36.3],[107.5,36.3],[107.5,36.1],[107.3,36.1],[107.3,35.9],[107.2,35.9],[107.2,35.7],[107.1,35.7],[107.1,35.6],[107.0,35.6],[107.0,35.4],[106.9,35.4],[106.9,35.3],[106.7,35.3],[106.7,35.2],[106.5,35.2],[106.5,35.1],[106.4,35.1],[106.4,35.0],[106.0,35.0],[106.0,34.9],[105.9,34.9],[105.9,34.7],[106.0,34.7],[106.0,34.6],[106.1,34.6],[106.1,34.4],[106.2,34.4],[106.2,34.3],[106.3,34.3],[106.3,34.2],[106.4,34.2],[106.4,33.9],[106.6,33.9],[106.6,33.8],[106.7,33.8],[106.7,33.7],[106.8,33.7],[106.8,33.6],[106.9,33.6],[106.9,33.5],[107.1,33.5],[107.1,33.4],[107.2,33.4],[107.2,33.3],[107.3,33.3],[107.3,33.2],[107.4,33.2],[107.4,33.1],[107.5,33.1],[107.5,33.0],[107.6,33.0],[107.6,32.9],[107.9,32.9],[107.9,32.8],[108.5,32.8],[108.5,32.7],[108.8,32.7],[108.8,32.6],[109.3,32.6],[109.3,32.7],[109.9,32.7],[109.9,32.8],[110.4,32.8],[110.4,32.9],[110.9,32.9],[110.9,33.0],[111.3,33.0],[111.3,33.1],[111.8,33.1],[111.8,33.2],[112.1,33.2],[112.1,33.3],[112.4,33.3],[112.4,33.4],[112.6,33.4],[112.6,33.5],[112.8,33.5],[112.8,33.6],[113.1,33.6],[113.1,33.7],[113.2,33.7],[113.2,33.8],[113.3,33.8],[113.3,33.9],[113.4,33.9],[113.4,34.0],[113.6,34.0],[113.6,34.1],[113.8,34.1],[113.8,34.2],[114.0,34.2],[114.0,34.3],[114.1,34.3],[114.1,34.4],[114.3,34.4],[114.3,34.5],[114.5,34.5],[114.5,34.6],[114.6,34.6],[114.6,34.7],[114.8,34.7],[114.8,34.8],[114.9,34.8],[114.9,34.9],[115.0,34.9],[115.0,35.0],[115.1,35.0],[115.1,35.1],[115.2,35.1],[115.2,35.2],[115.3,35.2],[115.3,35.5],[115.2,35.5],[115.2,35.7],[115.1,35.7],[115.1,35.8],[114.8,35.8],[114.8,35.9],[114.3,35.9],[114.3,36.0],[114.0,36.0],[114.0,36.1],[113.7,36.1],[113.7,36.2],[113.6,36.2],[113.6,36.3],[113.4,36.3],[113.4,36.4],[113.1,36.4],[113.1,36.5],[112.9,36.5],[112.9,36.7],[112.5,36.7],[112.5,36.8],[112.3,36.8],[112.3,36.9],[112.1,36.9],[112.1,37.0],[111.7,37.0],[111.7,37.1],[111.5,37.1],[111.5,37.2],[111.2,37.2],[111.2,37.3]],[[108.5,35.2],[108.5,35.3],[109.6,35.3],[109.6,35.2],[112.5,35.2],[112.5,35.1],[112.9,35.1],[112.9,35.0],[113.0,35.0],[113.0,34.9],[113.1,34.9],[113.1,34.7],[113.2,34.7],[113.2,34.4],[113.1,34.4],[113.1,34.3],[112.9,34.3],[112.9,34.2],[112.7,34.2],[112.7,34.1],[112.2,34.1],[112.2,34.0],[110.9,34.0],[110.9,34.1],[110.1,34.1],[110.1,34.0],[109.4,34.0],[109.4,33.9],[109.0,33.9],[109.0,33.8],[108.5,33.8],[108.5,33.9],[108.1,33.9],[108.1,34.0],[107.8,34.0],[107.8,34.1],[107.7,34.1],[107.7,34.2],[107.6,34.2],[107.6,34.3],[107.5,34.3],[107.5,34.5],[107.4,34.5],[107.4,35.0],[107.6,35.0],[107.6,35.1],[107.9,35.1],[107.9,35.2],[108.5,35.2]]]},"properties":{"tile_id":"61","start_year":-780,"end_year":-772,"source_image":"data/raw/toolbay/t/61/-780.png","source_url":"https://www.toolbay.cc/history-map/t/61/-780.png","source_color":"#ff99ff","polity_id":null,"polity_assignment":"unverified","geometry_origin":"raster_color_trace","pixel_size_degrees":0.1,"source_color_pixels":2197,"simplification_degrees":0}},{"type":"Feature","id":"61:-780:#ffff00","bbox":[119.3,35.7,122.6,38.0],"geometry":{"type":"Polygon","coordinates":[[[120.9,38.0],[120.7,38.0],[120.7,37.9],[120.5,37.9],[120.5,37.8],[120.3,37.8],[120.3,37.7],[120.2,37.7],[120.2,37.6],[120.1,37.6],[120.1,37.5],[119.9,37.5],[119.9,37.4],[119.8,37.4],[119.8,37.3],[119.7,37.3],[119.7,37.2],[119.3,37.2],[119.3,37.0],[119.4,37.0],[119.4,36.4],[119.5,36.4],[119.5,36.1],[119.6,36.1],[119.6,35.9],[119.7,35.9],[119.7,35.7],[120.0,35.7],[120.0,35.8],[120.1,35.8],[120.1,35.9],[120.2,35.9],[120.2,36.0],[120.3,36.0],[120.3,36.1],[120.6,36.1],[120.6,36.2],[120.7,36.2],[120.7,36.4],[120.8,36.4],[120.8,36.5],[121.0,36.5],[121.0,36.6],[121.1,36.6],[121.1,36.7],[121.3,36.7],[121.3,36.8],[121.7,36.8],[121.7,36.9],[122.5,36.9],[122.5,37.0],[122.6,37.0],[122.6,37.4],[122.5,37.4],[122.5,37.5],[122.3,37.5],[122.3,37.6],[121.9,37.6],[121.9,37.5],[121.6,37.5],[121.6,37.6],[121.4,37.6],[121.4,37.7],[121.2,37.7],[121.2,37.8],[121.0,37.8],[121.0,37.9],[120.9,37.9],[120.9,38.0]]]},"properties":{"tile_id":"61","start_year":-780,"end_year":-772,"source_image":"data/raw/toolbay/t/61/-780.png","source_url":"https://www.toolbay.cc/history-map/t/61/-780.png","source_color":"#ffff00","polity_id":null,"polity_assignment":"unverified","geometry_origin":"raster_color_trace","pixel_size_degrees":0.1,"source_color_pixels":371,"simplification_degrees":0}}]}
