{"type":"FeatureCollection","features":[{"type":"Feature","id":"61:1276:#009900","bbox":[128.9,31.2,135.0,35.7],"geometry":{"type":"MultiPolygon","coordinates":[[[[129.0,32.9],[129.1,32.9],[129.1,33.1],[129.0,33.1],[129.0,33.0],[128.9,33.0],[128.9,32.8],[129.0,32.8],[129.0,32.9]]],[[[134.3,35.6],[133.4,35.6],[133.4,35.7],[133.0,35.7],[133.0,35.6],[132.8,35.6],[132.8,35.5],[132.7,35.5],[132.7,35.4],[132.6,35.4],[132.6,35.3],[132.4,35.3],[132.4,35.2],[132.3,35.2],[132.3,35.1],[132.2,35.1],[132.2,35.0],[132.0,35.0],[132.0,34.9],[131.9,34.9],[131.9,34.8],[131.6,34.8],[131.6,34.7],[131.5,34.7],[131.5,34.6],[131.4,34.6],[131.4,34.5],[131.0,34.5],[131.0,34.4],[130.9,34.4],[130.9,34.0],[130.5,34.0],[130.5,33.9],[130.4,33.9],[130.4,33.8],[130.2,33.8],[130.2,33.7],[130.1,33.7],[130.1,33.6],[129.9,33.6],[129.9,33.7],[129.7,33.7],[129.7,33.5],[129.5,33.5],[129.5,33.4],[129.6,33.4],[129.6,33.0],[129.7,33.0],[129.7,32.8],[129.8,32.8],[129.8,32.7],[130.0,32.7],[130.0,32.8],[129.9,32.8],[129.9,33.0],[130.1,33.0],[130.1,32.7],[130.3,32.7],[130.3,32.9],[130.4,32.9],[130.4,33.0],[130.3,33.0],[130.3,33.1],[130.2,33.1],[130.2,33.2],[130.4,33.2],[130.4,33.1],[130.5,33.1],[130.5,32.9],[130.6,32.9],[130.6,32.8],[130.5,32.8],[130.5,32.7],[130.4,32.7],[130.4,32.6],[130.2,32.6],[130.2,32.5],[130.1,32.5],[130.1,32.1],[130.2,32.1],[130.2,31.8],[130.3,31.8],[130.3,31.5],[130.2,31.5],[130.2,31.4],[130.3,31.4],[130.3,31.3],[130.5,31.3],[130.5,31.2],[130.7,31.2],[130.7,31.4],[130.6,31.4],[130.6,31.6],[130.7,31.6],[130.7,31.5],[130.8,31.5],[130.8,31.6],[130.9,31.6],[130.9,31.5],[131.0,31.5],[131.0,31.4],[130.8,31.4],[130.8,31.2],[131.1,31.2],[131.1,31.3],[131.2,31.3],[131.2,31.4],[131.4,31.4],[131.4,31.5],[131.5,31.5],[131.5,32.1],[131.6,32.1],[131.6,32.4],[131.7,32.4],[131.7,32.5],[131.8,32.5],[131.8,32.7],[131.9,32.7],[131.9,32.8],[132.0,32.8],[132.0,33.3],[131.9,33.3],[131.9,33.4],[131.8,33.4],[131.8,33.7],[131.7,33.7],[131.7,33.8],[131.5,33.8],[131.5,33.7],[131.2,33.7],[131.2,33.9],[131.1,33.9],[131.1,34.0],[131.9,34.0],[131.9,33.9],[132.0,33.9],[132.0,33.8],[132.3,33.8],[132.3,33.9],[132.4,33.9],[132.4,34.0],[132.6,34.0],[132.6,34.2],[132.9,34.2],[132.9,34.3],[133.3,34.3],[133.3,34.4],[133.8,34.4],[133.8,34.5],[134.2,34.5],[134.2,34.6],[134.4,34.6],[134.4,34.7],[134.5,34.7],[134.5,34.8],[134.8,34.8],[134.8,34.7],[135.0,34.7],[135.0,35.7],[134.3,35.7],[134.3,35.6]]],[[[134.2,34.3],[133.9,34.3],[133.9,34.4],[133.8,34.4],[133.8,34.3],[133.6,34.3],[133.6,34.1],[133.3,34.1],[133.3,34.2],[132.9,34.2],[132.9,34.1],[132.8,34.1],[132.8,34.0],[132.7,34.0],[132.7,33.8],[132.6,33.8],[132.6,33.7],[132.4,33.7],[132.4,33.6],[132.3,33.6],[132.3,33.4],[132.4,33.4],[132.4,33.1],[132.5,33.1],[132.5,33.0],[132.6,33.0],[132.6,32.9],[132.7,32.9],[132.7,32.8],[133.0,32.8],[133.0,32.9],[133.1,32.9],[133.1,33.1],[133.2,33.1],[133.2,33.2],[133.3,33.2],[133.3,33.3],[133.4,33.3],[133.4,33.4],[133.5,33.4],[133.5,33.5],[133.6,33.5],[133.6,33.6],[133.9,33.6],[133.9,33.5],[134.0,33.5],[134.0,33.4],[134.2,33.4],[134.2,33.5],[134.3,33.5],[134.3,33.6],[134.4,33.6],[134.4,33.7],[134.6,33.7],[134.6,33.8],[134.7,33.8],[134.7,34.2],[134.6,34.2],[134.6,34.3],[134.5,34.3],[134.5,34.4],[134.2,34.4],[134.2,34.3]]],[[[134.9,34.2],[134.9,34.3],[135.0,34.3],[135.0,34.6],[134.9,34.6],[134.9,34.5],[134.8,34.5],[134.8,34.4],[134.7,34.4],[134.7,34.2],[134.9,34.2]]],[[[129.9,34.7],[129.9,34.8],[130.0,34.8],[130.0,35.0],[129.9,35.0],[129.9,34.9],[129.8,34.9],[129.8,34.7],[129.7,34.7],[129.7,34.3],[129.8,34.3],[129.8,34.4],[129.9,34.4],[129.9,34.6],[130.0,34.6],[130.0,34.7],[129.9,34.7]]]]},"properties":{"tile_id":"61","start_year":1276,"end_year":1279,"source_image":"data/raw/toolbay/t/61/1276.png","source_url":"https://www.toolbay.cc/history-map/t/61/1276.png","source_color":"#009900","polity_id":null,"polity_assignment":"unverified","geometry_origin":"raster_color_trace","pixel_size_degrees":0.1,"source_color_pixels":1069,"simplification_degrees":0}},{"type":"Feature","id":"61:1276:#009999","bbox":[100.7,8.6,107.7,18.2],"geometry":{"type":"Polygon","coordinates":[[[104.1,18.2],[103.6,18.2],[103.6,18.1],[103.4,18.1],[103.4,18.0],[103.2,18.0],[103.2,17.9],[103.1,17.9],[103.1,17.8],[102.9,17.8],[102.9,17.7],[102.8,17.7],[102.8,17.6],[102.7,17.6],[102.7,17.5],[102.6,17.5],[102.6,17.4],[102.5,17.4],[102.5,17.3],[102.4,17.3],[102.4,17.2],[102.3,17.2],[102.3,17.1],[102.2,17.1],[102.2,17.0],[102.1,17.0],[102.1,16.8],[102.0,16.8],[102.0,16.7],[101.9,16.7],[101.9,16.6],[101.8,16.6],[101.8,16.4],[101.7,16.4],[101.7,16.2],[101.6,16.2],[101.6,16.1],[101.5,16.1],[101.5,15.9],[101.4,15.9],[101.4,15.7],[101.3,15.7],[101.3,15.6],[101.2,15.6],[101.2,15.4],[101.1,15.4],[101.1,15.2],[101.0,15.2],[101.0,14.8],[100.9,14.8],[100.9,14.5],[100.8,14.5],[100.8,13.7],[100.7,13.7],[100.7,13.6],[100.8,13.6],[100.8,13.5],[100.9,13.5],[100.9,12.8],[101.0,12.8],[101.0,12.7],[101.9,12.7],[101.9,12.6],[102.0,12.6],[102.0,12.5],[102.2,12.5],[102.2,12.4],[102.3,12.4],[102.3,12.2],[102.7,12.2],[102.7,12.1],[102.8,12.1],[102.8,11.8],[102.9,11.8],[102.9,11.6],[103.0,11.6],[103.0,11.3],[103.1,11.3],[103.1,10.9],[103.4,10.9],[103.4,11.0],[103.6,11.0],[103.6,10.6],[103.7,10.6],[103.7,10.5],[103.8,10.5],[103.8,10.4],[104.0,10.4],[104.0,10.5],[104.2,10.5],[104.2,10.6],[104.3,10.6],[104.3,10.5],[104.4,10.5],[104.4,10.4],[104.5,10.4],[104.5,10.3],[104.7,10.3],[104.7,10.2],[104.9,10.2],[104.9,10.1],[105.0,10.1],[105.0,9.9],[104.9,9.9],[104.9,9.7],[104.8,9.7],[104.8,8.7],[104.9,8.7],[104.9,8.6],[105.1,8.6],[105.1,8.7],[105.2,8.7],[105.2,8.8],[105.3,8.8],[105.3,8.9],[105.4,8.9],[105.4,9.0],[105.5,9.0],[105.5,9.1],[105.6,9.1],[105.6,9.2],[105.8,9.2],[105.8,9.3],[106.1,9.3],[106.1,9.4],[106.2,9.4],[106.2,9.5],[106.3,9.5],[106.3,9.6],[106.5,9.6],[106.5,9.7],[106.6,9.7],[106.6,9.8],[106.7,9.8],[106.7,10.0],[106.8,10.0],[106.8,10.4],[106.9,10.4],[106.9,10.6],[106.8,10.6],[106.8,10.7],[106.7,10.7],[106.7,10.8],[106.6,10.8],[106.6,10.9],[106.7,10.9],[106.7,11.1],[106.8,11.1],[106.8,11.3],[106.9,11.3],[106.9,11.4],[107.0,11.4],[107.0,11.6],[107.1,11.6],[107.1,11.7],[107.2,11.7],[107.2,11.8],[107.3,11.8],[107.3,12.0],[107.4,12.0],[107.4,12.3],[107.5,12.3],[107.5,12.6],[107.6,12.6],[107.6,12.8],[107.7,12.8],[107.7,14.0],[107.6,14.0],[107.6,14.2],[107.5,14.2],[107.5,14.4],[107.4,14.4],[107.4,14.5],[107.3,14.5],[107.3,14.6],[107.2,14.6],[107.2,14.7],[107.1,14.7],[107.1,14.8],[107.0,14.8],[107.0,14.9],[106.9,14.9],[106.9,15.0],[106.7,15.0],[106.7,15.1],[106.6,15.1],[106.6,15.2],[106.5,15.2],[106.5,15.3],[106.4,15.3],[106.4,15.4],[106.3,15.4],[106.3,15.5],[106.2,15.5],[106.2,15.6],[106.1,15.6],[106.1,15.7],[106.0,15.7],[106.0,15.8],[105.9,15.8],[105.9,15.9],[105.8,15.9],[105.8,16.0],[105.6,16.0],[105.6,16.1],[105.4,16.1],[105.4,16.2],[105.2,16.2],[105.2,16.3],[105.1,16.3],[105.1,16.4],[105.0,16.4],[105.0,16.5],[104.9,16.5],[104.9,16.6],[104.8,16.6],[104.8,16.8],[104.7,16.8],[104.7,16.9],[104.6,16.9],[104.6,17.1],[104.5,17.1],[104.5,17.3],[104.4,17.3],[104.4,17.6],[104.3,17.6],[104.3,18.0],[104.2,18.0],[104.2,18.1],[104.1,18.1],[104.1,18.2]],[[105.2,10.8],[105.2,10.9],[105.3,10.9],[105.3,10.7],[105.1,10.7],[105.1,10.8],[105.2,10.8]]]},"properties":{"tile_id":"61","start_year":1276,"end_year":1279,"source_image":"data/raw/toolbay/t/61/1276.png","source_url":"https://www.toolbay.cc/history-map/t/61/1276.png","source_color":"#009999","polity_id":null,"polity_assignment":"unverified","geometry_origin":"raster_color_trace","pixel_size_degrees":0.1,"source_color_pixels":3721,"simplification_degrees":0}},{"type":"Feature","id":"61:1276:#00ff00","bbox":[100.0,16.0,107.7,23.2],"geometry":{"type":"Polygon","coordinates":[[[103.8,23.2],[101.9,23.2],[101.9,23.1],[101.4,23.1],[101.4,23.0],[101.1,23.0],[101.1,22.9],[101.0,22.9],[101.0,22.8],[100.6,22.8],[100.6,22.7],[100.4,22.7],[100.4,22.6],[100.2,22.6],[100.2,22.5],[100.1,22.5],[100.1,22.4],[100.0,22.4],[100.0,22.1],[100.1,22.1],[100.1,22.0],[100.2,22.0],[100.2,21.9],[100.3,21.9],[100.3,21.8],[100.4,21.8],[100.4,21.6],[100.5,21.6],[100.5,21.4],[100.6,21.4],[100.6,21.3],[100.7,21.3],[100.7,21.2],[100.8,21.2],[100.8,21.0],[100.9,21.0],[100.9,20.9],[101.0,20.9],[101.0,20.7],[101.1,20.7],[101.1,20.6],[101.2,20.6],[101.2,20.5],[101.3,20.5],[101.3,20.4],[101.4,20.4],[101.4,20.3],[101.5,20.3],[101.5,20.2],[101.6,20.2],[101.6,20.1],[101.7,20.1],[101.7,20.0],[101.8,20.0],[101.8,19.9],[101.9,19.9],[101.9,19.8],[102.0,19.8],[102.0,19.7],[102.1,19.7],[102.1,19.6],[102.3,19.6],[102.3,19.5],[102.5,19.5],[102.5,19.4],[102.7,19.4],[102.7,19.3],[103.0,19.3],[103.0,19.2],[103.2,19.2],[103.2,19.1],[103.3,19.1],[103.3,18.9],[103.5,18.9],[103.5,18.8],[103.6,18.8],[103.6,18.7],[103.7,18.7],[103.7,18.6],[103.8,18.6],[103.8,18.5],[103.9,18.5],[103.9,18.3],[104.1,18.3],[104.1,18.1],[104.2,18.1],[104.2,18.0],[104.3,18.0],[104.3,17.6],[104.4,17.6],[104.4,17.3],[104.5,17.3],[104.5,17.1],[104.6,17.1],[104.6,16.9],[104.7,16.9],[104.7,16.8],[104.8,16.8],[104.8,16.6],[104.9,16.6],[104.9,16.5],[105.0,16.5],[105.0,16.4],[105.1,16.4],[105.1,16.3],[105.2,16.3],[105.2,16.2],[105.4,16.2],[105.4,16.1],[105.6,16.1],[105.6,16.0],[106.6,16.0],[106.6,16.1],[106.8,16.1],[106.8,16.2],[107.0,16.2],[107.0,16.3],[107.2,16.3],[107.2,16.4],[107.3,16.4],[107.3,16.5],[107.4,16.5],[107.4,16.6],[107.5,16.6],[107.5,16.8],[107.4,16.8],[107.4,16.9],[107.3,16.9],[107.3,17.0],[107.2,17.0],[107.2,17.1],[107.1,17.1],[107.1,17.2],[107.0,17.2],[107.0,17.3],[106.9,17.3],[106.9,17.4],[106.8,17.4],[106.8,17.5],[106.7,17.5],[106.7,17.6],[106.6,17.6],[106.6,17.8],[106.5,17.8],[106.5,18.2],[106.4,18.2],[106.4,18.3],[106.2,18.3],[106.2,18.4],[106.1,18.4],[106.1,18.5],[106.0,18.5],[106.0,18.6],[105.9,18.6],[105.9,18.7],[105.8,18.7],[105.8,18.9],[105.7,18.9],[105.7,19.1],[105.8,19.1],[105.8,19.3],[105.9,19.3],[105.9,19.8],[106.0,19.8],[106.0,19.9],[106.1,19.9],[106.1,20.0],[106.2,20.0],[106.2,20.1],[106.3,20.1],[106.3,20.2],[106.4,20.2],[106.4,20.3],[106.5,20.3],[106.5,20.4],[106.6,20.4],[106.6,20.6],[106.7,20.6],[106.7,20.7],[106.9,20.7],[106.9,20.8],[107.1,20.8],[107.1,20.9],[107.5,20.9],[107.5,21.0],[107.6,21.0],[107.6,21.1],[107.7,21.1],[107.7,21.3],[107.6,21.3],[107.6,21.4],[107.4,21.4],[107.4,21.5],[107.3,21.5],[107.3,21.6],[107.1,21.6],[107.1,21.7],[107.0,21.7],[107.0,21.9],[106.8,21.9],[106.8,22.0],[106.7,22.0],[106.7,22.1],[106.6,22.1],[106.6,22.2],[106.4,22.2],[106.4,22.3],[106.2,22.3],[106.2,22.4],[106.1,22.4],[106.1,22.5],[105.9,22.5],[105.9,22.6],[105.7,22.6],[105.7,22.7],[105.3,22.7],[105.3,22.8],[104.8,22.8],[104.8,22.9],[104.5,22.9],[104.5,23.0],[104.0,23.0],[104.0,23.1],[103.8,23.1],[103.8,23.2]]]},"properties":{"tile_id":"61","start_year":1276,"end_year":1279,"source_image":"data/raw/toolbay/t/61/1276.png","source_url":"https://www.toolbay.cc/history-map/t/61/1276.png","source_color":"#00ff00","polity_id":null,"polity_assignment":"unverified","geometry_origin":"raster_color_trace","pixel_size_degrees":0.1,"source_color_pixels":2840,"simplification_degrees":0}},{"type":"Feature","id":"61:1276:#00ffff","bbox":[124.9,33.3,129.6,39.7],"geometry":{"type":"MultiPolygon","coordinates":[[[[126.8,33.5],[126.8,33.6],[126.4,33.6],[126.4,33.5],[126.3,33.5],[126.3,33.4],[126.4,33.4],[126.4,33.3],[126.8,33.3],[126.8,33.4],[126.9,33.4],[126.9,33.5],[126.8,33.5]]],[[[126.8,39.6],[126.8,39.7],[126.0,39.7],[126.0,39.6],[125.7,39.6],[125.7,39.5],[125.4,39.5],[125.4,39.3],[125.3,39.3],[125.3,39.1],[125.2,39.1],[125.2,39.0],[125.1,39.0],[125.1,38.7],[125.0,38.7],[125.0,38.6],[124.9,38.6],[124.9,38.1],[125.0,38.1],[125.0,37.9],[125.1,37.9],[125.1,37.8],[125.2,37.8],[125.2,37.7],[125.4,37.7],[125.4,37.8],[125.7,37.8],[125.7,37.9],[126.0,37.9],[126.0,37.8],[126.3,37.8],[126.3,37.7],[126.4,37.7],[126.4,37.4],[126.5,37.4],[126.5,37.2],[126.4,37.2],[126.4,37.1],[126.3,37.1],[126.3,37.0],[126.2,37.0],[126.2,36.9],[126.1,36.9],[126.1,36.7],[126.2,36.7],[126.2,36.6],[126.3,36.6],[126.3,36.5],[126.4,36.5],[126.4,36.4],[126.5,36.4],[126.5,36.2],[126.6,36.2],[126.6,35.8],[126.5,35.8],[126.5,35.5],[126.4,35.5],[126.4,35.4],[126.3,35.4],[126.3,35.3],[126.2,35.3],[126.2,35.2],[126.1,35.2],[126.1,35.1],[126.0,35.1],[126.0,34.9],[125.9,34.9],[125.9,34.6],[126.0,34.6],[126.0,34.5],[126.1,34.5],[126.1,34.4],[126.5,34.4],[126.5,34.3],[126.6,34.3],[126.6,34.2],[126.9,34.2],[126.9,34.3],[127.0,34.3],[127.0,34.4],[127.5,34.4],[127.5,34.5],[127.8,34.5],[127.8,34.6],[127.9,34.6],[127.9,34.7],[128.2,34.7],[128.2,34.8],[128.3,34.8],[128.3,34.7],[128.4,34.7],[128.4,34.8],[128.7,34.8],[128.7,34.9],[128.8,34.9],[128.8,35.0],[128.9,35.0],[128.9,35.1],[129.2,35.1],[129.2,35.2],[129.3,35.2],[129.3,35.4],[129.4,35.4],[129.4,35.5],[129.5,35.5],[129.5,35.8],[129.6,35.8],[129.6,36.1],[129.5,36.1],[129.5,36.2],[129.4,36.2],[129.4,36.5],[129.5,36.5],[129.5,37.1],[129.4,37.1],[129.4,37.4],[129.3,37.4],[129.3,37.5],[129.2,37.5],[129.2,37.7],[129.1,37.7],[129.1,37.8],[129.0,37.8],[129.0,37.9],[128.9,37.9],[128.9,38.0],[128.8,38.0],[128.8,38.1],[128.7,38.1],[128.7,38.3],[128.6,38.3],[128.6,38.5],[128.5,38.5],[128.5,38.6],[128.4,38.6],[128.4,38.7],[128.3,38.7],[128.3,38.8],[128.2,38.8],[128.2,38.9],[128.1,38.9],[128.1,39.0],[127.9,39.0],[127.9,39.1],[127.8,39.1],[127.8,39.2],[127.7,39.2],[127.7,39.3],[127.6,39.3],[127.6,39.5],[127.1,39.5],[127.1,39.6],[126.8,39.6]]]]},"properties":{"tile_id":"61","start_year":1276,"end_year":1279,"source_image":"data/raw/toolbay/t/61/1276.png","source_url":"https://www.toolbay.cc/history-map/t/61/1276.png","source_color":"#00ffff","polity_id":null,"polity_assignment":"unverified","geometry_origin":"raster_color_trace","pixel_size_degrees":0.1,"source_color_pixels":1571,"simplification_degrees":0}},{"type":"Feature","id":"61:1276:#993300","bbox":[90.0,21.3,135.0,45.0],"geometry":{"type":"Polygon","coordinates":[[[135.0,45.0],[90.0,45.0],[90.0,27.6],[90.8,27.6],[90.8,27.7],[91.0,27.7],[91.0,27.8],[91.4,27.8],[91.4,27.9],[91.7,27.9],[91.7,28.0],[91.9,28.0],[91.9,28.1],[92.4,28.1],[92.4,28.2],[92.9,28.2],[92.9,28.3],[93.2,28.3],[93.2,28.4],[93.3,28.4],[93.3,28.5],[93.5,28.5],[93.5,28.6],[93.6,28.6],[93.6,28.7],[93.8,28.7],[93.8,28.8],[93.9,28.8],[93.9,28.9],[94.1,28.9],[94.1,29.0],[94.3,29.0],[94.3,29.1],[94.9,29.1],[94.9,29.0],[95.2,29.0],[95.2,28.9],[95.4,28.9],[95.4,28.8],[97.1,28.8],[97.1,28.9],[97.4,28.9],[97.4,28.4],[97.5,28.4],[97.5,28.0],[97.6,28.0],[97.6,27.7],[97.7,27.7],[97.7,25.8],[97.8,25.8],[97.8,25.4],[97.7,25.4],[97.7,25.1],[97.6,25.1],[97.6,24.8],[97.5,24.8],[97.5,23.8],[97.6,23.8],[97.6,23.7],[97.8,23.7],[97.8,23.6],[97.9,23.6],[97.9,23.5],[98.1,23.5],[98.1,23.4],[98.2,23.4],[98.2,23.3],[98.5,23.3],[98.5,23.2],[98.6,23.2],[98.6,23.1],[98.9,23.1],[98.9,23.0],[99.1,23.0],[99.1,22.9],[99.3,22.9],[99.3,22.8],[99.4,22.8],[99.4,22.7],[99.6,22.7],[99.6,22.6],[99.8,22.6],[99.8,22.4],[100.1,22.4],[100.1,22.5],[100.2,22.5],[100.2,22.6],[100.4,22.6],[100.4,22.7],[100.6,22.7],[100.6,22.8],[101.0,22.8],[101.0,22.9],[101.1,22.9],[101.1,23.0],[101.4,23.0],[101.4,23.1],[101.9,23.1],[101.9,23.2],[103.8,23.2],[103.8,23.1],[104.0,23.1],[104.0,23.0],[104.5,23.0],[104.5,22.9],[104.8,22.9],[104.8,22.8],[105.3,22.8],[105.3,22.7],[105.7,22.7],[105.7,22.6],[105.9,22.6],[105.9,22.5],[106.1,22.5],[106.1,22.4],[106.2,22.4],[106.2,22.3],[106.4,22.3],[106.4,22.2],[106.6,22.2],[106.6,22.1],[106.7,22.1],[106.7,22.0],[106.8,22.0],[106.8,21.9],[107.0,21.9],[107.0,21.7],[107.1,21.7],[107.1,21.6],[107.3,21.6],[107.3,21.5],[107.4,21.5],[107.4,21.4],[107.6,21.4],[107.6,21.3],[107.8,21.3],[107.8,21.4],[108.0,21.4],[108.0,21.5],[108.2,21.5],[108.2,21.6],[108.5,21.6],[108.5,21.7],[109.0,21.7],[109.0,21.6],[109.1,21.6],[109.1,21.5],[109.7,21.5],[109.7,21.9],[109.8,21.9],[109.8,22.0],[109.9,22.0],[109.9,22.1],[110.3,22.1],[110.3,22.2],[110.6,22.2],[110.6,22.3],[111.0,22.3],[111.0,22.4],[111.4,22.4],[111.4,22.5],[111.6,22.5],[111.6,22.6],[111.8,22.6],[111.8,22.7],[112.0,22.7],[112.0,22.8],[112.1,22.8],[112.1,22.9],[112.3,22.9],[112.3,23.0],[112.4,23.0],[112.4,23.1],[112.6,23.1],[112.6,23.2],[112.8,23.2],[112.8,23.3],[113.0,23.3],[113.0,23.4],[113.2,23.4],[113.2,23.5],[113.3,23.5],[113.3,23.6],[113.7,23.6],[113.7,23.7],[114.1,23.7],[114.1,23.8],[114.4,23.8],[114.4,23.9],[114.7,23.9],[114.7,24.0],[115.1,24.0],[115.1,24.1],[115.2,24.1],[115.2,24.2],[115.4,24.2],[115.4,24.3],[115.6,24.3],[115.6,24.4],[115.7,24.4],[115.7,24.5],[115.9,24.5],[115.9,24.6],[116.1,24.6],[116.1,24.7],[116.2,24.7],[116.2,24.8],[116.4,24.8],[116.4,24.9],[116.5,24.9],[116.5,25.0],[116.7,25.0],[116.7,25.1],[116.8,25.1],[116.8,25.2],[117.0,25.2],[117.0,25.3],[117.1,25.3],[117.1,25.4],[117.2,25.4],[117.2,25.5],[117.4,25.5],[117.4,25.6],[117.5,25.6],[117.5,25.7],[117.7,25.7],[117.7,25.8],[117.8,25.8],[117.8,25.9],[117.9,25.9],[117.9,26.0],[118.1,26.0],[118.1,26.1],[118.3,26.1],[118.3,26.2],[118.6,26.2],[118.6,26.3],[118.7,26.3],[118.7,26.4],[118.8,26.4],[118.8,26.5],[118.9,26.5],[118.9,26.6],[119.0,26.6],[119.0,26.7],[119.2,26.7],[119.2,26.8],[119.3,26.8],[119.3,26.9],[119.5,26.9],[119.5,27.0],[119.7,27.0],[119.7,27.1],[120.1,27.1],[120.1,27.0],[120.2,27.0],[120.2,26.9],[120.3,26.9],[120.3,27.0],[120.4,27.0],[120.4,27.2],[120.5,27.2],[120.5,27.3],[120.6,27.3],[120.6,27.4],[120.7,27.4],[120.7,27.8],[120.8,27.8],[120.8,27.9],[121.2,27.9],[121.2,28.0],[121.3,28.0],[121.3,28.2],[121.4,28.2],[121.4,28.3],[121.6,28.3],[121.6,28.4],[121.7,28.4],[121.7,28.7],[121.8,28.7],[121.8,29.0],[121.9,29.0],[121.9,29.2],[122.0,29.2],[122.0,29.6],[122.1,29.6],[122.1,29.7],[122.3,29.7],[122.3,29.8],[122.4,29.8],[122.4,30.2],[122.3,30.2],[122.3,30.3],[121.9,30.3],[121.9,30.2],[121.5,30.2],[121.5,30.3],[121.4,30.3],[121.4,30.4],[121.2,30.4],[121.2,30.5],[121.1,30.5],[121.1,30.6],[121.2,30.6],[121.2,30.7],[121.4,30.7],[121.4,30.8],[121.5,30.8],[121.5,30.9],[121.8,30.9],[121.8,31.0],[121.9,31.0],[121.9,31.2],[121.8,31.2],[121.8,31.5],[121.9,31.5],[121.9,31.7],[122.0,31.7],[122.0,31.9],[121.9,31.9],[121.9,32.0],[121.8,32.0],[121.8,32.1],[121.7,32.1],[121.7,32.2],[121.5,32.2],[121.5,32.3],[121.4,32.3],[121.4,32.5],[121.3,32.5],[121.3,32.6],[121.1,32.6],[121.1,32.7],[121.0,32.7],[121.0,33.0],[120.9,33.0],[120.9,33.1],[120.8,33.1],[120.8,33.3],[120.7,33.3],[120.7,33.5],[120.6,33.5],[120.6,33.8],[120.5,33.8],[120.5,34.0],[120.4,34.0],[120.4,34.3],[120.3,34.3],[120.3,34.4],[120.2,34.4],[120.2,34.5],[119.9,34.5],[119.9,34.6],[119.7,34.6],[119.7,34.7],[119.6,34.7],[119.6,34.8],[119.5,34.8],[119.5,34.9],[119.4,34.9],[119.4,35.2],[119.5,35.2],[119.5,35.4],[119.6,35.4],[119.6,35.6],[119.7,35.6],[119.7,35.7],[120.0,35.7],[120.0,35.8],[120.1,35.8],[120.1,35.9],[120.2,35.9],[120.2,36.0],[120.3,36.0],[120.3,36.1],[120.6,36.1],[120.6,36.2],[120.7,36.2],[120.7,36.4],[120.8,36.4],[120.8,36.5],[121.0,36.5],[121.0,36.6],[121.1,36.6],[121.1,36.7],[121.3,36.7],[121.3,36.8],[121.7,36.8],[121.7,36.9],[122.5,36.9],[122.5,37.0],[122.6,37.0],[122.6,37.4],[122.5,37.4],[122.5,37.5],[122.3,37.5],[122.3,37.6],[121.9,37.6],[121.9,37.5],[121.6,37.5],[121.6,37.6],[121.4,37.6],[121.4,37.7],[121.2,37.7],[121.2,37.8],[121.0,37.8],[121.0,37.9],[120.9,37.9],[120.9,38.0],[120.7,38.0],[120.7,37.9],[120.5,37.9],[120.5,37.8],[120.3,37.8],[120.3,37.7],[120.2,37.7],[120.2,37.6],[120.1,37.6],[120.1,37.5],[119.9,37.5],[119.9,37.4],[119.8,37.4],[119.8,37.3],[119.7,37.3],[119.7,37.2],[119.3,37.2],[119.3,37.3],[119.1,37.3],[119.1,37.4],[119.0,37.4],[119.0,38.2],[118.9,38.2],[118.9,38.3],[118.7,38.3],[118.7,38.2],[118.0,38.2],[118.0,38.3],[117.9,38.3],[117.9,38.4],[117.8,38.4],[117.8,38.5],[117.7,38.5],[117.7,38.6],[117.6,38.6],[117.6,39.0],[117.7,39.0],[117.7,39.1],[117.9,39.1],[117.9,39.2],[118.2,39.2],[118.2,39.1],[118.9,39.1],[118.9,39.2],[119.1,39.2],[119.1,39.3],[119.2,39.3],[119.2,39.5],[119.3,39.5],[119.3,39.7],[119.4,39.7],[119.4,39.8],[119.6,39.8],[119.6,39.9],[119.7,39.9],[119.7,40.0],[120.0,40.0],[120.0,40.1],[120.2,40.1],[120.2,40.2],[120.5,40.2],[120.5,40.3],[120.6,40.3],[120.6,40.5],[120.7,40.5],[120.7,40.6],[120.9,40.6],[120.9,40.7],[121.0,40.7],[121.0,40.8],[121.1,40.8],[121.1,40.9],[121.5,40.9],[121.5,41.0],[121.8,41.0],[121.8,40.9],[121.9,40.9],[121.9,40.8],[122.1,40.8],[122.1,40.7],[122.2,40.7],[122.2,40.4],[122.1,40.4],[122.1,40.3],[122.0,40.3],[122.0,40.2],[121.9,40.2],[121.9,40.1],[121.8,40.1],[121.8,40.0],[121.6,40.0],[121.6,39.9],[121.5,39.9],[121.5,39.8],[121.4,39.8],[121.4,39.7],[121.3,39.7],[121.3,39.5],[121.4,39.5],[121.4,39.3],[121.5,39.3],[121.5,39.2],[121.4,39.2],[121.4,39.1],[121.3,39.1],[121.3,38.8],[121.5,38.8],[121.5,38.9],[121.9,38.9],[121.9,39.0],[122.0,39.0],[122.0,39.1],[122.1,39.1],[122.1,39.2],[122.2,39.2],[122.2,39.3],[122.5,39.3],[122.5,39.4],[122.6,39.4],[122.6,39.5],[122.7,39.5],[122.7,39.6],[122.9,39.6],[122.9,39.7],[123.3,39.7],[123.3,39.8],[123.7,39.8],[123.7,39.9],[124.2,39.9],[124.2,39.8],[124.5,39.8],[124.5,39.7],[124.7,39.7],[124.7,39.6],[125.3,39.6],[125.3,39.5],[125.7,39.5],[125.7,39.6],[126.0,39.6],[126.0,39.7],[126.8,39.7],[126.8,39.6],[127.1,39.6],[127.1,39.5],[127.6,39.5],[127.6,39.8],[127.7,39.8],[127.7,39.9],[127.9,39.9],[127.9,40.0],[128.3,40.0],[128.3,40.1],[128.5,40.1],[128.5,40.2],[128.6,40.2],[128.6,40.3],[128.8,40.3],[128.8,40.4],[128.9,40.4],[128.9,40.5],[129.1,40.5],[129.1,40.6],[129.2,40.6],[129.2,40.7],[129.4,40.7],[129.4,40.8],[129.6,40.8],[129.6,40.9],[129.7,40.9],[129.7,41.0],[129.8,41.0],[129.8,41.8],[129.9,41.8],[129.9,41.9],[130.0,41.9],[130.0,42.0],[130.1,42.0],[130.1,42.1],[130.2,42.1],[130.2,42.2],[130.4,42.2],[130.4,42.3],[130.5,42.3],[130.5,42.4],[130.6,42.4],[130.6,42.5],[130.9,42.5],[130.9,42.6],[131.2,42.6],[131.2,42.7],[131.3,42.7],[131.3,42.8],[131.4,42.8],[131.4,42.9],[131.5,42.9],[131.5,43.0],[131.9,43.0],[131.9,43.1],[132.3,43.1],[132.3,43.0],[132.4,43.0],[132.4,42.9],[132.8,42.9],[132.8,42.8],[133.0,42.8],[133.0,42.7],[133.3,42.7],[133.3,42.8],[133.7,42.8],[133.7,42.9],[134.0,42.9],[134.0,43.0],[134.2,43.0],[134.2,43.1],[134.4,43.1],[134.4,43.2],[134.5,43.2],[134.5,43.3],[134.8,43.3],[134.8,43.4],[134.9,43.4],[134.9,43.5],[135.0,43.5],[135.0,45.0]],[[95.0,29.7],[95.0,29.9],[95.2,29.9],[95.2,29.8],[95.1,29.8],[95.1,29.7],[95.0,29.7]],[[116.0,29.2],[116.0,29.4],[116.2,29.4],[116.2,29.2],[116.0,29.2]],[[116.4,29.0],[116.4,29.2],[116.5,29.2],[116.5,29.0],[116.4,29.0]]]},"properties":{"tile_id":"61","start_year":1276,"end_year":1279,"source_image":"data/raw/toolbay/t/61/1276.png","source_url":"https://www.toolbay.cc/history-map/t/61/1276.png","source_color":"#993300","polity_id":null,"polity_assignment":"unverified","geometry_origin":"raster_color_trace","pixel_size_degrees":0.1,"source_color_pixels":68016,"simplification_degrees":0}},{"type":"Feature","id":"61:1276:#999900","bbox":[92.1,15.8,97.8,28.9],"geometry":{"type":"Polygon","coordinates":[[[97.4,28.9],[97.1,28.9],[97.1,28.8],[95.7,28.8],[95.7,28.4],[95.6,28.4],[95.6,28.2],[95.5,28.2],[95.5,28.0],[95.4,28.0],[95.4,27.9],[95.3,27.9],[95.3,27.7],[95.2,27.7],[95.2,27.6],[95.1,27.6],[95.1,27.5],[95.0,27.5],[95.0,27.4],[94.9,27.4],[94.9,27.3],[94.8,27.3],[94.8,27.1],[94.7,27.1],[94.7,27.0],[94.6,27.0],[94.6,26.9],[94.5,26.9],[94.5,26.8],[94.4,26.8],[94.4,26.6],[94.3,26.6],[94.3,26.4],[94.2,26.4],[94.2,26.3],[94.1,26.3],[94.1,26.1],[94.0,26.1],[94.0,26.0],[93.9,26.0],[93.9,25.9],[93.8,25.9],[93.8,25.8],[93.7,25.8],[93.7,25.7],[93.6,25.7],[93.6,25.5],[93.5,25.5],[93.5,25.4],[93.4,25.4],[93.4,25.2],[93.3,25.2],[93.3,25.1],[93.2,25.1],[93.2,24.9],[93.1,24.9],[93.1,23.2],[93.2,23.2],[93.2,22.8],[93.1,22.8],[93.1,22.6],[93.0,22.6],[93.0,22.5],[92.9,22.5],[92.9,22.4],[92.8,22.4],[92.8,22.3],[92.7,22.3],[92.7,22.0],[92.6,22.0],[92.6,21.8],[92.5,21.8],[92.5,21.7],[92.4,21.7],[92.4,21.6],[92.3,21.6],[92.3,21.5],[92.2,21.5],[92.2,21.4],[92.1,21.4],[92.1,21.1],[92.2,21.1],[92.2,21.0],[92.3,21.0],[92.3,20.8],[92.4,20.8],[92.4,20.7],[92.5,20.7],[92.5,20.6],[92.6,20.6],[92.6,20.5],[92.7,20.5],[92.7,20.3],[92.8,20.3],[92.8,20.2],[92.9,20.2],[92.9,20.0],[93.0,20.0],[93.0,19.9],[93.4,19.9],[93.4,19.8],[93.5,19.8],[93.5,19.7],[93.6,19.7],[93.6,19.5],[93.5,19.5],[93.5,19.3],[93.6,19.3],[93.6,18.9],[93.7,18.9],[93.7,18.8],[94.1,18.8],[94.1,18.7],[94.2,18.7],[94.2,18.5],[94.3,18.5],[94.3,18.3],[94.4,18.3],[94.4,18.1],[94.5,18.1],[94.5,17.7],[94.6,17.7],[94.6,17.4],[94.5,17.4],[94.5,17.3],[94.4,17.3],[94.4,16.7],[94.3,16.7],[94.3,16.5],[94.2,16.5],[94.2,16.1],[94.3,16.1],[94.3,16.0],[94.5,16.0],[94.5,15.9],[94.7,15.9],[94.7,15.8],[95.5,15.8],[95.5,15.9],[95.6,15.9],[95.6,16.0],[95.7,16.0],[95.7,16.1],[95.8,16.1],[95.8,16.2],[95.9,16.2],[95.9,16.3],[96.0,16.3],[96.0,16.4],[96.4,16.4],[96.4,16.5],[96.5,16.5],[96.5,16.6],[96.7,16.6],[96.7,16.7],[96.8,16.7],[96.8,16.8],[96.9,16.8],[96.9,16.9],[97.0,16.9],[97.0,17.0],[97.1,17.0],[97.1,17.3],[97.2,17.3],[97.2,18.2],[97.3,18.2],[97.3,18.3],[97.2,18.3],[97.2,20.3],[97.1,20.3],[97.1,20.7],[97.0,20.7],[97.0,21.1],[96.9,21.1],[96.9,22.8],[97.0,22.8],[97.0,23.0],[97.1,23.0],[97.1,23.2],[97.2,23.2],[97.2,23.3],[97.3,23.3],[97.3,23.5],[97.4,23.5],[97.4,23.7],[97.5,23.7],[97.5,24.8],[97.6,24.8],[97.6,25.1],[97.7,25.1],[97.7,25.4],[97.8,25.4],[97.8,25.8],[97.7,25.8],[97.7,27.7],[97.6,27.7],[97.6,28.0],[97.5,28.0],[97.5,28.4],[97.4,28.4],[97.4,28.9]]]},"properties":{"tile_id":"61","start_year":1276,"end_year":1279,"source_image":"data/raw/toolbay/t/61/1276.png","source_url":"https://www.toolbay.cc/history-map/t/61/1276.png","source_color":"#999900","polity_id":null,"polity_assignment":"unverified","geometry_origin":"raster_color_trace","pixel_size_degrees":0.1,"source_color_pixels":4509,"simplification_degrees":0}},{"type":"Feature","id":"61:1276:#ff0000","bbox":[95.2,0.0,111.9,8.7],"geometry":{"type":"MultiPolygon","coordinates":[[[[98.5,0.2],[98.5,0.1],[98.4,0.1],[98.4,0.0],[98.7,0.0],[98.7,0.2],[98.5,0.2]]],[[[104.3,0.2],[104.4,0.2],[104.4,0.1],[104.5,0.1],[104.5,0.0],[104.8,0.0],[104.8,0.1],[104.7,0.1],[104.7,0.2],[104.6,0.2],[104.6,0.4],[104.3,0.4],[104.3,0.2]]],[[[109.0,0.3],[109.1,0.3],[109.1,0.2],[109.2,0.2],[109.2,0.0],[111.9,0.0],[111.9,0.1],[111.8,0.1],[111.8,0.5],[111.7,0.5],[111.7,0.6],[111.6,0.6],[111.6,0.7],[111.5,0.7],[111.5,0.8],[111.4,0.8],[111.4,0.9],[111.3,0.9],[111.3,1.1],[111.2,1.1],[111.2,1.2],[111.1,1.2],[111.1,1.5],[111.0,1.5],[111.0,1.7],[110.6,1.7],[110.6,1.8],[109.9,1.8],[109.9,1.9],[109.8,1.9],[109.8,2.0],[109.7,2.0],[109.7,2.1],[109.4,2.1],[109.4,2.0],[109.3,2.0],[109.3,1.8],[109.2,1.8],[109.2,1.7],[109.1,1.7],[109.1,1.6],[109.0,1.6],[109.0,1.3],[108.9,1.3],[108.9,0.4],[109.0,0.4],[109.0,0.3]]],[[[97.6,1.5],[97.5,1.5],[97.5,1.6],[97.3,1.6],[97.3,1.5],[97.2,1.5],[97.2,1.3],[97.3,1.3],[97.3,1.2],[97.4,1.2],[97.4,1.0],[97.5,1.0],[97.5,0.9],[97.6,0.9],[97.6,0.8],[97.7,0.8],[97.7,0.7],[97.8,0.7],[97.8,0.8],[97.9,0.8],[97.9,1.2],[97.8,1.2],[97.8,1.3],[97.7,1.3],[97.7,1.4],[97.6,1.4],[97.6,1.5]]],[[[96.2,2.7],[96.2,2.8],[96.1,2.8],[96.1,2.9],[95.8,2.9],[95.8,2.7],[95.9,2.7],[95.9,2.6],[96.1,2.6],[96.1,2.5],[96.3,2.5],[96.3,2.7],[96.2,2.7]]],[[[99.4,0.2],[99.6,0.2],[99.6,0.1],[99.7,0.1],[99.7,0.0],[103.9,0.0],[103.9,0.1],[103.8,0.1],[103.8,0.3],[103.7,0.3],[103.7,0.4],[103.6,0.4],[103.6,0.8],[104.2,0.8],[104.2,0.7],[104.4,0.7],[104.4,0.8],[104.7,0.8],[104.7,0.9],[104.8,0.9],[104.8,1.1],[104.7,1.1],[104.7,1.2],[104.6,1.2],[104.6,1.3],[104.3,1.3],[104.3,1.8],[104.2,1.8],[104.2,2.1],[104.1,2.1],[104.1,2.4],[104.0,2.4],[104.0,2.5],[103.9,2.5],[103.9,2.6],[103.8,2.6],[103.8,2.7],[103.7,2.7],[103.7,2.8],[103.6,2.8],[103.6,2.9],[103.5,2.9],[103.5,3.7],[103.4,3.7],[103.4,4.1],[103.5,4.1],[103.5,4.9],[103.4,4.9],[103.4,5.1],[103.3,5.1],[103.3,5.3],[103.2,5.3],[103.2,5.5],[103.1,5.5],[103.1,5.6],[102.9,5.6],[102.9,5.7],[102.8,5.7],[102.8,5.8],[102.7,5.8],[102.7,5.9],[102.6,5.9],[102.6,6.0],[102.5,6.0],[102.5,6.1],[102.4,6.1],[102.4,6.2],[102.3,6.2],[102.3,6.3],[102.1,6.3],[102.1,6.4],[101.9,6.4],[101.9,6.5],[101.8,6.5],[101.8,6.7],[101.7,6.7],[101.7,6.8],[101.6,6.8],[101.6,6.9],[101.5,6.9],[101.5,7.0],[100.8,7.0],[100.8,7.1],[100.7,7.1],[100.7,7.3],[100.6,7.3],[100.6,7.5],[100.5,7.5],[100.5,7.8],[100.4,7.8],[100.4,8.2],[100.3,8.2],[100.3,8.5],[100.2,8.5],[100.2,8.6],[100.1,8.6],[100.1,8.7],[99.7,8.7],[99.7,8.6],[99.6,8.6],[99.6,8.5],[99.5,8.5],[99.5,8.4],[99.3,8.4],[99.3,8.3],[99.2,8.3],[99.2,8.2],[98.8,8.2],[98.8,8.0],[98.9,8.0],[98.9,7.9],[99.0,7.9],[99.0,7.7],[99.1,7.7],[99.1,7.6],[99.2,7.6],[99.2,7.5],[99.3,7.5],[99.3,7.4],[99.4,7.4],[99.4,7.3],[99.5,7.3],[99.5,7.2],[99.6,7.2],[99.6,7.1],[99.7,7.1],[99.7,6.9],[99.8,6.9],[99.8,6.8],[99.9,6.8],[99.9,6.6],[99.8,6.6],[99.8,6.5],[99.7,6.5],[99.7,6.4],[99.8,6.4],[99.8,6.3],[100.0,6.3],[100.0,6.4],[100.2,6.4],[100.2,6.3],[100.3,6.3],[100.3,6.0],[100.4,6.0],[100.4,5.8],[100.3,5.8],[100.3,5.6],[100.2,5.6],[100.2,5.4],[100.3,5.4],[100.3,5.3],[100.4,5.3],[100.4,5.0],[100.5,5.0],[100.5,4.9],[100.6,4.9],[100.6,4.2],[100.7,4.2],[100.7,3.9],[100.8,3.9],[100.8,3.8],[100.9,3.8],[100.9,3.7],[101.0,3.7],[101.0,3.6],[101.1,3.6],[101.1,3.5],[101.2,3.5],[101.2,3.4],[101.3,3.4],[101.3,2.9],[101.4,2.9],[101.4,2.8],[101.5,2.8],[101.5,2.7],[101.8,2.7],[101.8,2.6],[101.9,2.6],[101.9,2.5],[102.0,2.5],[102.0,2.4],[102.1,2.4],[102.1,2.3],[102.3,2.3],[102.3,2.2],[102.5,2.2],[102.5,2.1],[102.6,2.1],[102.6,2.0],[102.7,2.0],[102.7,1.9],[102.9,1.9],[102.9,1.8],[103.1,1.8],[103.1,1.7],[103.3,1.7],[103.3,1.6],[103.4,1.6],[103.4,1.5],[103.5,1.5],[103.5,1.4],[103.8,1.4],[103.8,1.3],[103.9,1.3],[103.9,1.1],[103.8,1.1],[103.8,1.0],[103.1,1.0],[103.1,1.1],[103.0,1.1],[103.0,1.2],[102.9,1.2],[102.9,1.3],[102.6,1.3],[102.6,1.4],[102.5,1.4],[102.5,1.6],[102.4,1.6],[102.4,1.7],[101.9,1.7],[101.9,1.8],[101.8,1.8],[101.8,2.1],[101.7,2.1],[101.7,2.2],[101.5,2.2],[101.5,2.1],[101.3,2.1],[101.3,2.2],[101.2,2.2],[101.2,2.3],[101.1,2.3],[101.1,2.4],[100.9,2.4],[100.9,2.3],[100.5,2.3],[100.5,2.4],[100.4,2.4],[100.4,2.7],[100.3,2.7],[100.3,2.8],[100.1,2.8],[100.1,2.9],[100.0,2.9],[100.0,3.0],[99.9,3.0],[99.9,3.2],[99.8,3.2],[99.8,3.3],[99.6,3.3],[99.6,3.4],[99.5,3.4],[99.5,3.5],[99.3,3.5],[99.3,3.6],[99.2,3.6],[99.2,3.7],[99.1,3.7],[99.1,3.8],[98.8,3.8],[98.8,3.9],[98.7,3.9],[98.7,4.0],[98.6,4.0],[98.6,4.1],[98.4,4.1],[98.4,4.2],[98.3,4.2],[98.3,4.5],[98.2,4.5],[98.2,4.6],[98.1,4.6],[98.1,4.7],[98.0,4.7],[98.0,4.9],[97.9,4.9],[97.9,5.0],[97.8,5.0],[97.8,5.1],[97.7,5.1],[97.7,5.2],[97.6,5.2],[97.6,5.3],[97.1,5.3],[97.1,5.4],[96.7,5.4],[96.7,5.3],[96.3,5.3],[96.3,5.4],[96.1,5.4],[96.1,5.5],[95.9,5.5],[95.9,5.6],[95.8,5.6],[95.8,5.7],[95.5,5.7],[95.5,5.8],[95.2,5.8],[95.2,5.3],[95.3,5.3],[95.3,5.1],[95.4,5.1],[95.4,4.9],[95.5,4.9],[95.5,4.8],[95.6,4.8],[95.6,4.7],[95.7,4.7],[95.7,4.6],[95.8,4.6],[95.8,4.5],[95.9,4.5],[95.9,4.4],[96.0,4.4],[96.0,4.3],[96.1,4.3],[96.1,4.2],[96.2,4.2],[96.2,4.1],[96.3,4.1],[96.3,4.0],[96.4,4.0],[96.4,3.9],[96.5,3.9],[96.5,3.8],[96.9,3.8],[96.9,3.7],[97.0,3.7],[97.0,3.5],[97.1,3.5],[97.1,3.4],[97.2,3.4],[97.2,3.3],[97.3,3.3],[97.3,3.1],[97.4,3.1],[97.4,3.0],[97.5,3.0],[97.5,2.9],[97.6,2.9],[97.6,2.6],[97.7,2.6],[97.7,2.4],[97.8,2.4],[97.8,2.3],[98.1,2.3],[98.1,2.2],[98.2,2.2],[98.2,2.1],[98.5,2.1],[98.5,2.0],[98.6,2.0],[98.6,1.9],[98.7,1.9],[98.7,1.7],[98.8,1.7],[98.8,1.3],[98.9,1.3],[98.9,1.0],[99.0,1.0],[99.0,0.7],[99.1,0.7],[99.1,0.4],[99.2,0.4],[99.2,0.3],[99.4,0.3],[99.4,0.2]]]]},"properties":{"tile_id":"61","start_year":1276,"end_year":1279,"source_image":"data/raw/toolbay/t/61/1276.png","source_url":"https://www.toolbay.cc/history-map/t/61/1276.png","source_color":"#ff0000","polity_id":null,"polity_assignment":"unverified","geometry_origin":"raster_color_trace","pixel_size_degrees":0.1,"source_color_pixels":3705,"simplification_degrees":0}},{"type":"Feature","id":"61:1276:#ff00ff","bbox":[99.3,13.3,102.3,17.7],"geometry":{"type":"Polygon","coordinates":[[[101.4,17.7],[100.6,17.7],[100.6,17.6],[100.5,17.6],[100.5,17.5],[100.3,17.5],[100.3,17.4],[100.2,17.4],[100.2,17.3],[100.1,17.3],[100.1,17.1],[100.0,17.1],[100.0,16.9],[99.9,16.9],[99.9,16.7],[99.8,16.7],[99.8,16.6],[99.7,16.6],[99.7,16.3],[99.6,16.3],[99.6,15.9],[99.5,15.9],[99.5,15.6],[99.4,15.6],[99.4,15.3],[99.3,15.3],[99.3,13.9],[99.4,13.9],[99.4,13.8],[99.5,13.8],[99.5,13.6],[99.6,13.6],[99.6,13.5],[99.8,13.5],[99.8,13.4],[99.9,13.4],[99.9,13.3],[100.1,13.3],[100.1,13.4],[100.2,13.4],[100.2,13.5],[100.6,13.5],[100.6,13.6],[100.7,13.6],[100.7,13.7],[100.8,13.7],[100.8,14.5],[100.9,14.5],[100.9,14.8],[101.0,14.8],[101.0,15.2],[101.1,15.2],[101.1,15.4],[101.2,15.4],[101.2,15.6],[101.3,15.6],[101.3,15.7],[101.4,15.7],[101.4,15.9],[101.5,15.9],[101.5,16.1],[101.6,16.1],[101.6,16.2],[101.7,16.2],[101.7,16.4],[101.8,16.4],[101.8,16.6],[101.9,16.6],[101.9,16.7],[102.0,16.7],[102.0,16.8],[102.1,16.8],[102.1,17.0],[102.2,17.0],[102.2,17.1],[102.3,17.1],[102.3,17.3],[102.2,17.3],[102.2,17.4],[102.1,17.4],[102.1,17.5],[101.9,17.5],[101.9,17.6],[101.4,17.6],[101.4,17.7]]]},"properties":{"tile_id":"61","start_year":1276,"end_year":1279,"source_image":"data/raw/toolbay/t/61/1276.png","source_url":"https://www.toolbay.cc/history-map/t/61/1276.png","source_color":"#ff00ff","polity_id":null,"polity_assignment":"unverified","geometry_origin":"raster_color_trace","pixel_size_degrees":0.1,"source_color_pixels":740,"simplification_degrees":0}},{"type":"Feature","id":"61:1276:#ff9933","bbox":[90.0,18.2,120.2,27.1],"geometry":{"type":"MultiPolygon","coordinates":[[[[120.1,27.0],[120.1,27.1],[119.7,27.1],[119.7,27.0],[119.5,27.0],[119.5,26.9],[119.3,26.9],[119.3,26.8],[119.2,26.8],[119.2,26.7],[119.0,26.7],[119.0,26.6],[118.9,26.6],[118.9,26.5],[118.8,26.5],[118.8,26.4],[118.7,26.4],[118.7,26.3],[118.6,26.3],[118.6,26.2],[118.3,26.2],[118.3,26.1],[118.1,26.1],[118.1,26.0],[117.9,26.0],[117.9,25.9],[117.8,25.9],[117.8,25.8],[117.7,25.8],[117.7,25.7],[117.5,25.7],[117.5,25.6],[117.4,25.6],[117.4,25.5],[117.2,25.5],[117.2,25.4],[117.1,25.4],[117.1,25.3],[117.0,25.3],[117.0,25.2],[116.8,25.2],[116.8,25.1],[116.7,25.1],[116.7,25.0],[116.5,25.0],[116.5,24.9],[116.4,24.9],[116.4,24.8],[116.2,24.8],[116.2,24.7],[116.1,24.7],[116.1,24.6],[115.9,24.6],[115.9,24.5],[115.7,24.5],[115.7,24.4],[115.6,24.4],[115.6,24.3],[115.4,24.3],[115.4,24.2],[115.2,24.2],[115.2,24.1],[115.1,24.1],[115.1,24.0],[114.7,24.0],[114.7,23.9],[114.4,23.9],[114.4,23.8],[114.1,23.8],[114.1,23.7],[113.7,23.7],[113.7,23.6],[113.3,23.6],[113.3,23.5],[113.2,23.5],[113.2,23.4],[113.0,23.4],[113.0,23.3],[112.8,23.3],[112.8,23.2],[112.6,23.2],[112.6,23.1],[112.4,23.1],[112.4,23.0],[112.3,23.0],[112.3,22.9],[112.1,22.9],[112.1,22.8],[112.0,22.8],[112.0,22.7],[111.8,22.7],[111.8,22.6],[111.6,22.6],[111.6,22.5],[111.4,22.5],[111.4,22.4],[111.0,22.4],[111.0,22.3],[110.6,22.3],[110.6,22.2],[110.3,22.2],[110.3,22.1],[109.9,22.1],[109.9,22.0],[109.8,22.0],[109.8,21.9],[109.7,21.9],[109.7,20.7],[109.8,20.7],[109.8,20.5],[109.9,20.5],[109.9,20.4],[110.0,20.4],[110.0,20.3],[110.1,20.3],[110.1,20.2],[110.0,20.2],[110.0,20.1],[109.6,20.1],[109.6,20.0],[109.3,20.0],[109.3,19.9],[109.2,19.9],[109.2,19.8],[109.1,19.8],[109.1,19.7],[109.0,19.7],[109.0,19.6],[108.9,19.6],[108.9,19.5],[108.8,19.5],[108.8,19.4],[108.7,19.4],[108.7,19.3],[108.6,19.3],[108.6,18.9],[108.7,18.9],[108.7,18.6],[108.8,18.6],[108.8,18.5],[108.9,18.5],[108.9,18.4],[109.2,18.4],[109.2,18.3],[109.5,18.3],[109.5,18.2],[109.7,18.2],[109.7,18.3],[109.8,18.3],[109.8,18.4],[110.0,18.4],[110.0,18.5],[110.1,18.5],[110.1,18.6],[110.2,18.6],[110.2,18.7],[110.5,18.7],[110.5,18.8],[110.6,18.8],[110.6,19.3],[110.7,19.3],[110.7,19.4],[110.8,19.4],[110.8,19.5],[110.9,19.5],[110.9,19.6],[111.0,19.6],[111.0,20.0],[110.9,20.0],[110.9,20.1],[110.8,20.1],[110.8,20.2],[110.5,20.2],[110.5,21.0],[110.6,21.0],[110.6,21.2],[110.7,21.2],[110.7,21.3],[110.8,21.3],[110.8,21.4],[110.9,21.4],[110.9,21.5],[111.5,21.5],[111.5,21.6],[111.9,21.6],[111.9,21.7],[112.9,21.7],[112.9,21.8],[113.0,21.8],[113.0,21.9],[113.2,21.9],[113.2,22.0],[113.5,22.0],[113.5,22.1],[113.6,22.1],[113.6,22.6],[113.9,22.6],[113.9,22.2],[114.0,22.2],[114.0,22.1],[114.2,22.1],[114.2,22.2],[114.3,22.2],[114.3,22.3],[114.4,22.3],[114.4,22.4],[114.5,22.4],[114.5,22.5],[114.7,22.5],[114.7,22.6],[115.0,22.6],[115.0,22.7],[115.1,22.7],[115.1,22.8],[116.0,22.8],[116.0,22.9],[116.2,22.9],[116.2,23.0],[116.5,23.0],[116.5,23.1],[116.6,23.1],[116.6,23.2],[116.7,23.2],[116.7,23.3],[116.8,23.3],[116.8,23.4],[116.9,23.4],[116.9,23.5],[117.3,23.5],[117.3,23.6],[117.4,23.6],[117.4,23.7],[117.5,23.7],[117.5,23.8],[117.6,23.8],[117.6,23.9],[117.7,23.9],[117.7,24.0],[117.9,24.0],[117.9,24.1],[118.0,24.1],[118.0,24.2],[118.1,24.2],[118.1,24.3],[118.2,24.3],[118.2,24.4],[118.4,24.4],[118.4,24.5],[118.5,24.5],[118.5,24.6],[118.6,24.6],[118.6,24.7],[118.8,24.7],[118.8,24.8],[118.9,24.8],[118.9,25.0],[119.0,25.0],[119.0,25.1],[119.1,25.1],[119.1,25.2],[119.3,25.2],[119.3,25.3],[119.4,25.3],[119.4,25.4],[119.8,25.4],[119.8,25.5],[119.9,25.5],[119.9,25.7],[119.8,25.7],[119.8,25.8],[119.7,25.8],[119.7,26.2],[119.8,26.2],[119.8,26.3],[119.9,26.3],[119.9,26.5],[120.0,26.5],[120.0,26.6],[120.1,26.6],[120.1,26.7],[120.2,26.7],[120.2,27.0],[120.1,27.0]]],[[[91.1,25.8],[91.1,25.9],[90.0,25.9],[90.0,21.9],[90.7,21.9],[90.7,22.0],[90.8,22.0],[90.8,22.1],[91.0,22.1],[91.0,22.2],[91.1,22.2],[91.1,22.5],[91.2,22.5],[91.2,22.6],[91.7,22.6],[91.7,22.5],[91.8,22.5],[91.8,21.8],[91.9,21.8],[91.9,21.5],[92.0,21.5],[92.0,21.3],[92.1,21.3],[92.1,21.4],[92.2,21.4],[92.2,21.5],[92.3,21.5],[92.3,21.6],[92.4,21.6],[92.4,21.7],[92.5,21.7],[92.5,21.8],[92.6,21.8],[92.6,22.0],[92.7,22.0],[92.7,22.3],[92.8,22.3],[92.8,22.4],[92.9,22.4],[92.9,22.5],[93.0,22.5],[93.0,22.6],[93.1,22.6],[93.1,22.8],[93.2,22.8],[93.2,23.2],[93.1,23.2],[93.1,25.0],[93.0,25.0],[93.0,25.1],[92.9,25.1],[92.9,25.2],[92.7,25.2],[92.7,25.3],[92.5,25.3],[92.5,25.4],[92.3,25.4],[92.3,25.5],[92.1,25.5],[92.1,25.6],[91.8,25.6],[91.8,25.7],[91.5,25.7],[91.5,25.8],[91.1,25.8]]]]},"properties":{"tile_id":"61","start_year":1276,"end_year":1279,"source_image":"data/raw/toolbay/t/61/1276.png","source_url":"https://www.toolbay.cc/history-map/t/61/1276.png","source_color":"#ff9933","polity_id":null,"polity_assignment":"unverified","geometry_origin":"raster_color_trace","pixel_size_degrees":0.1,"source_color_pixels":2979,"simplification_degrees":0}},{"type":"Feature","id":"61:1276:#ffff00","bbox":[105.8,10.4,109.5,16.7],"geometry":{"type":"Polygon","coordinates":[[[107.7,16.7],[107.5,16.7],[107.5,16.6],[107.4,16.6],[107.4,16.5],[107.3,16.5],[107.3,16.4],[107.2,16.4],[107.2,16.3],[107.0,16.3],[107.0,16.2],[106.8,16.2],[106.8,16.1],[106.6,16.1],[106.6,16.0],[105.8,16.0],[105.8,15.9],[105.9,15.9],[105.9,15.8],[106.0,15.8],[106.0,15.7],[106.1,15.7],[106.1,15.6],[106.2,15.6],[106.2,15.5],[106.3,15.5],[106.3,15.4],[106.4,15.4],[106.4,15.3],[106.5,15.3],[106.5,15.2],[106.6,15.2],[106.6,15.1],[106.7,15.1],[106.7,15.0],[106.9,15.0],[106.9,14.9],[107.0,14.9],[107.0,14.8],[107.1,14.8],[107.1,14.7],[107.2,14.7],[107.2,14.6],[107.3,14.6],[107.3,14.5],[107.4,14.5],[107.4,14.4],[107.5,14.4],[107.5,14.2],[107.6,14.2],[107.6,14.0],[107.7,14.0],[107.7,12.8],[107.6,12.8],[107.6,12.6],[107.5,12.6],[107.5,12.3],[107.4,12.3],[107.4,12.0],[107.3,12.0],[107.3,11.8],[107.2,11.8],[107.2,11.7],[107.1,11.7],[107.1,11.6],[107.0,11.6],[107.0,11.4],[106.9,11.4],[106.9,11.3],[106.8,11.3],[106.8,11.1],[106.7,11.1],[106.7,10.9],[106.6,10.9],[106.6,10.8],[106.7,10.8],[106.7,10.7],[106.8,10.7],[106.8,10.6],[106.9,10.6],[106.9,10.5],[107.1,10.5],[107.1,10.4],[107.3,10.4],[107.3,10.5],[107.5,10.5],[107.5,10.6],[107.7,10.6],[107.7,10.7],[108.0,10.7],[108.0,10.8],[108.1,10.8],[108.1,10.9],[108.2,10.9],[108.2,11.0],[108.4,11.0],[108.4,11.1],[108.5,11.1],[108.5,11.2],[108.7,11.2],[108.7,11.3],[108.9,11.3],[108.9,11.4],[109.0,11.4],[109.0,11.5],[109.1,11.5],[109.1,11.6],[109.2,11.6],[109.2,11.7],[109.3,11.7],[109.3,12.3],[109.4,12.3],[109.4,12.6],[109.5,12.6],[109.5,13.1],[109.4,13.1],[109.4,13.7],[109.3,13.7],[109.3,14.3],[109.2,14.3],[109.2,14.6],[109.1,14.6],[109.1,14.9],[109.0,14.9],[109.0,15.3],[108.9,15.3],[108.9,15.4],[108.8,15.4],[108.8,15.5],[108.7,15.5],[108.7,15.6],[108.6,15.6],[108.6,15.7],[108.5,15.7],[108.5,15.9],[108.4,15.9],[108.4,16.0],[108.3,16.0],[108.3,16.2],[108.2,16.2],[108.2,16.3],[108.1,16.3],[108.1,16.4],[107.9,16.4],[107.9,16.5],[107.8,16.5],[107.8,16.6],[107.7,16.6],[107.7,16.7]]]},"properties":{"tile_id":"61","start_year":1276,"end_year":1279,"source_image":"data/raw/toolbay/t/61/1276.png","source_url":"https://www.toolbay.cc/history-map/t/61/1276.png","source_color":"#ffff00","polity_id":null,"polity_assignment":"unverified","geometry_origin":"raster_color_trace","pixel_size_degrees":0.1,"source_color_pixels":1113,"simplification_degrees":0}}]}
