{"type":"FeatureCollection","features":[{"type":"Feature","id":"61:1530:#0000ff","bbox":[90.0,18.2,133.8,42.5],"geometry":{"type":"MultiPolygon","coordinates":[[[[117.3,42.4],[117.3,42.5],[116.3,42.5],[116.3,42.4],[115.8,42.4],[115.8,42.3],[115.4,42.3],[115.4,42.2],[115.0,42.2],[115.0,42.1],[114.6,42.1],[114.6,42.0],[114.1,42.0],[114.1,41.9],[113.9,41.9],[113.9,41.8],[113.7,41.8],[113.7,41.7],[113.5,41.7],[113.5,41.6],[113.3,41.6],[113.3,41.5],[112.9,41.5],[112.9,41.4],[112.8,41.4],[112.8,41.3],[112.5,41.3],[112.5,41.2],[112.3,41.2],[112.3,41.1],[112.0,41.1],[112.0,41.0],[111.9,41.0],[111.9,40.9],[111.7,40.9],[111.7,40.8],[111.6,40.8],[111.6,40.7],[111.4,40.7],[111.4,40.6],[111.1,40.6],[111.1,40.5],[111.0,40.5],[111.0,40.4],[110.9,40.4],[110.9,40.3],[110.7,40.3],[110.7,40.2],[110.6,40.2],[110.6,40.1],[110.4,40.1],[110.4,40.0],[110.3,40.0],[110.3,39.9],[110.1,39.9],[110.1,39.8],[110.0,39.8],[110.0,39.7],[109.8,39.7],[109.8,39.6],[109.7,39.6],[109.7,39.5],[109.4,39.5],[109.4,39.4],[109.2,39.4],[109.2,39.3],[109.1,39.3],[109.1,39.2],[108.9,39.2],[108.9,39.1],[108.7,39.1],[108.7,39.0],[108.3,39.0],[108.3,38.9],[107.9,38.9],[107.9,38.8],[107.3,38.8],[107.3,38.7],[106.7,38.7],[106.7,38.6],[106.0,38.6],[106.0,38.7],[105.5,38.7],[105.5,38.8],[105.2,38.8],[105.2,38.9],[104.9,38.9],[104.9,39.0],[104.7,39.0],[104.7,39.1],[104.4,39.1],[104.4,39.2],[104.1,39.2],[104.1,39.3],[103.8,39.3],[103.8,39.4],[103.6,39.4],[103.6,39.5],[103.3,39.5],[103.3,39.6],[103.0,39.6],[103.0,39.7],[102.6,39.7],[102.6,39.8],[102.4,39.8],[102.4,39.9],[102.0,39.9],[102.0,40.0],[101.8,40.0],[101.8,40.1],[101.4,40.1],[101.4,40.2],[101.2,40.2],[101.2,40.3],[100.8,40.3],[100.8,40.4],[100.4,40.4],[100.4,40.5],[100.0,40.5],[100.0,40.6],[99.7,40.6],[99.7,40.7],[99.5,40.7],[99.5,40.8],[99.0,40.8],[99.0,40.9],[98.7,40.9],[98.7,41.0],[98.4,41.0],[98.4,41.1],[97.9,41.1],[97.9,41.2],[97.5,41.2],[97.5,41.3],[97.0,41.3],[97.0,41.4],[96.1,41.4],[96.1,41.5],[95.8,41.5],[95.8,41.6],[95.2,41.6],[95.2,41.7],[93.9,41.7],[93.9,41.8],[91.6,41.8],[91.6,41.7],[91.1,41.7],[91.1,41.6],[90.6,41.6],[90.6,41.5],[90.3,41.5],[90.3,41.4],[90.1,41.4],[90.1,41.2],[90.0,41.2],[90.0,40.7],[90.1,40.7],[90.1,40.5],[90.2,40.5],[90.2,40.2],[90.3,40.2],[90.3,39.4],[90.2,39.4],[90.2,38.9],[90.1,38.9],[90.1,38.7],[90.2,38.7],[90.2,38.5],[90.4,38.5],[90.4,38.4],[90.7,38.4],[90.7,38.3],[91.0,38.3],[91.0,38.2],[91.3,38.2],[91.3,38.1],[91.6,38.1],[91.6,38.0],[91.9,38.0],[91.9,37.9],[92.2,37.9],[92.2,37.8],[92.6,37.8],[92.6,37.7],[93.1,37.7],[93.1,37.6],[93.9,37.6],[93.9,37.5],[94.2,37.5],[94.2,37.4],[94.4,37.4],[94.4,37.3],[94.8,37.3],[94.8,37.2],[95.2,37.2],[95.2,37.1],[95.8,37.1],[95.8,37.0],[96.1,37.0],[96.1,36.9],[96.2,36.9],[96.2,36.8],[96.6,36.8],[96.6,36.7],[97.2,36.7],[97.2,36.6],[97.5,36.6],[97.5,36.5],[98.2,36.5],[98.2,36.4],[98.6,36.4],[98.6,36.5],[98.8,36.5],[98.8,36.6],[99.4,36.6],[99.4,36.5],[100.1,36.5],[100.1,36.4],[100.5,36.4],[100.5,36.3],[101.5,36.3],[101.5,36.2],[102.1,36.2],[102.1,36.1],[102.7,36.1],[102.7,36.0],[102.8,36.0],[102.8,34.2],[102.7,34.2],[102.7,33.4],[102.6,33.4],[102.6,32.9],[102.5,32.9],[102.5,32.4],[102.4,32.4],[102.4,31.9],[102.3,31.9],[102.3,31.7],[102.2,31.7],[102.2,31.5],[102.1,31.5],[102.1,31.1],[102.0,31.1],[102.0,31.0],[101.9,31.0],[101.9,30.7],[101.8,30.7],[101.8,30.5],[101.7,30.5],[101.7,30.4],[101.6,30.4],[101.6,30.2],[101.5,30.2],[101.5,30.1],[101.4,30.1],[101.4,30.0],[101.3,30.0],[101.3,29.9],[101.2,29.9],[101.2,29.8],[101.1,29.8],[101.1,29.7],[100.9,29.7],[100.9,29.6],[100.7,29.6],[100.7,29.5],[100.5,29.5],[100.5,29.4],[100.4,29.4],[100.4,29.3],[100.2,29.3],[100.2,29.2],[100.0,29.2],[100.0,29.1],[99.8,29.1],[99.8,29.0],[99.5,29.0],[99.5,28.9],[99.3,28.9],[99.3,28.8],[99.0,28.8],[99.0,28.7],[98.8,28.7],[98.8,28.6],[98.7,28.6],[98.7,28.5],[98.4,28.5],[98.4,28.2],[98.5,28.2],[98.5,28.0],[98.6,28.0],[98.6,27.8],[98.7,27.8],[98.7,27.5],[98.8,27.5],[98.8,27.3],[98.9,27.3],[98.9,27.0],[99.0,27.0],[99.0,26.6],[99.1,26.6],[99.1,26.4],[99.2,26.4],[99.2,26.1],[99.3,26.1],[99.3,25.8],[99.4,25.8],[99.4,25.6],[99.5,25.6],[99.5,25.3],[99.6,25.3],[99.6,25.2],[99.5,25.2],[99.5,25.1],[99.4,25.1],[99.4,24.8],[99.3,24.8],[99.3,24.4],[99.2,24.4],[99.2,24.2],[99.1,24.2],[99.1,23.3],[99.0,23.3],[99.0,23.1],[98.9,23.1],[98.9,23.0],[98.8,23.0],[98.8,22.8],[99.3,22.8],[99.3,22.7],[99.5,22.7],[99.5,22.6],[99.7,22.6],[99.7,22.5],[99.9,22.5],[99.9,22.4],[100.2,22.4],[100.2,22.6],[100.4,22.6],[100.4,22.7],[100.6,22.7],[100.6,22.8],[101.0,22.8],[101.0,22.9],[101.1,22.9],[101.1,23.0],[101.4,23.0],[101.4,23.1],[101.9,23.1],[101.9,23.2],[103.3,23.2],[103.3,23.1],[103.4,23.1],[103.4,23.0],[103.5,23.0],[103.5,22.9],[103.6,22.9],[103.6,22.7],[104.0,22.7],[104.0,22.8],[104.5,22.8],[104.5,22.9],[105.3,22.9],[105.3,22.8],[105.8,22.8],[105.8,22.7],[106.1,22.7],[106.1,22.6],[106.9,22.6],[106.9,22.5],[107.2,22.5],[107.2,22.4],[107.3,22.4],[107.3,22.3],[107.6,22.3],[107.6,22.2],[107.7,22.2],[107.7,22.1],[107.8,22.1],[107.8,22.0],[107.9,22.0],[107.9,21.9],[108.0,21.9],[108.0,21.8],[108.1,21.8],[108.1,21.6],[108.5,21.6],[108.5,21.7],[109.0,21.7],[109.0,21.6],[109.1,21.6],[109.1,21.5],[109.7,21.5],[109.7,20.7],[109.8,20.7],[109.8,20.5],[109.9,20.5],[109.9,20.4],[110.0,20.4],[110.0,20.3],[110.1,20.3],[110.1,20.2],[110.0,20.2],[110.0,20.1],[109.6,20.1],[109.6,20.0],[109.3,20.0],[109.3,19.9],[109.2,19.9],[109.2,19.8],[109.1,19.8],[109.1,19.7],[109.0,19.7],[109.0,19.6],[108.9,19.6],[108.9,19.5],[108.8,19.5],[108.8,19.4],[108.7,19.4],[108.7,19.3],[108.6,19.3],[108.6,18.9],[108.7,18.9],[108.7,18.6],[108.8,18.6],[108.8,18.5],[108.9,18.5],[108.9,18.4],[109.2,18.4],[109.2,18.3],[109.5,18.3],[109.5,18.2],[109.7,18.2],[109.7,18.3],[109.8,18.3],[109.8,18.4],[110.0,18.4],[110.0,18.5],[110.1,18.5],[110.1,18.6],[110.2,18.6],[110.2,18.7],[110.5,18.7],[110.5,18.8],[110.6,18.8],[110.6,19.3],[110.7,19.3],[110.7,19.4],[110.8,19.4],[110.8,19.5],[110.9,19.5],[110.9,19.6],[111.0,19.6],[111.0,20.0],[110.9,20.0],[110.9,20.1],[110.8,20.1],[110.8,20.2],[110.5,20.2],[110.5,21.0],[110.6,21.0],[110.6,21.2],[110.7,21.2],[110.7,21.3],[110.8,21.3],[110.8,21.4],[110.9,21.4],[110.9,21.5],[111.5,21.5],[111.5,21.6],[111.9,21.6],[111.9,21.7],[112.9,21.7],[112.9,21.8],[113.0,21.8],[113.0,21.9],[113.2,21.9],[113.2,22.0],[113.5,22.0],[113.5,22.1],[113.6,22.1],[113.6,22.6],[113.9,22.6],[113.9,22.2],[114.0,22.2],[114.0,22.1],[114.2,22.1],[114.2,22.2],[114.3,22.2],[114.3,22.3],[114.4,22.3],[114.4,22.4],[114.5,22.4],[114.5,22.5],[114.7,22.5],[114.7,22.6],[115.0,22.6],[115.0,22.7],[115.1,22.7],[115.1,22.8],[116.0,22.8],[116.0,22.9],[116.2,22.9],[116.2,23.0],[116.5,23.0],[116.5,23.1],[116.6,23.1],[116.6,23.2],[116.7,23.2],[116.7,23.3],[116.8,23.3],[116.8,23.4],[116.9,23.4],[116.9,23.5],[117.3,23.5],[117.3,23.6],[117.4,23.6],[117.4,23.7],[117.5,23.7],[117.5,23.8],[117.6,23.8],[117.6,23.9],[117.7,23.9],[117.7,24.0],[117.9,24.0],[117.9,24.1],[118.0,24.1],[118.0,24.2],[118.1,24.2],[118.1,24.3],[118.2,24.3],[118.2,24.4],[118.4,24.4],[118.4,24.5],[118.5,24.5],[118.5,24.6],[118.6,24.6],[118.6,24.7],[118.8,24.7],[118.8,24.8],[118.9,24.8],[118.9,25.0],[119.0,25.0],[119.0,25.1],[119.1,25.1],[119.1,25.2],[119.3,25.2],[119.3,25.3],[119.4,25.3],[119.4,25.4],[119.8,25.4],[119.8,25.5],[119.9,25.5],[119.9,25.7],[119.8,25.7],[119.8,25.8],[119.7,25.8],[119.7,26.2],[119.8,26.2],[119.8,26.3],[119.9,26.3],[119.9,26.5],[120.0,26.5],[120.0,26.6],[120.1,26.6],[120.1,26.7],[120.2,26.7],[120.2,26.9],[120.3,26.9],[120.3,27.0],[120.4,27.0],[120.4,27.2],[120.5,27.2],[120.5,27.3],[120.6,27.3],[120.6,27.4],[120.7,27.4],[120.7,27.8],[120.8,27.8],[120.8,27.9],[121.2,27.9],[121.2,28.0],[121.3,28.0],[121.3,28.2],[121.4,28.2],[121.4,28.3],[121.6,28.3],[121.6,28.4],[121.7,28.4],[121.7,28.7],[121.8,28.7],[121.8,29.0],[121.9,29.0],[121.9,29.2],[122.0,29.2],[122.0,29.6],[122.1,29.6],[122.1,29.7],[122.3,29.7],[122.3,29.8],[122.4,29.8],[122.4,30.2],[122.3,30.2],[122.3,30.3],[121.9,30.3],[121.9,30.2],[121.5,30.2],[121.5,30.3],[121.4,30.3],[121.4,30.4],[121.2,30.4],[121.2,30.5],[121.1,30.5],[121.1,30.6],[121.2,30.6],[121.2,30.7],[121.4,30.7],[121.4,30.8],[121.5,30.8],[121.5,30.9],[121.8,30.9],[121.8,31.0],[121.9,31.0],[121.9,31.2],[121.8,31.2],[121.8,31.5],[121.9,31.5],[121.9,31.7],[122.0,31.7],[122.0,31.9],[121.9,31.9],[121.9,32.0],[121.8,32.0],[121.8,32.1],[121.7,32.1],[121.7,32.2],[121.5,32.2],[121.5,32.3],[121.4,32.3],[121.4,32.5],[121.3,32.5],[121.3,32.6],[121.1,32.6],[121.1,32.7],[121.0,32.7],[121.0,33.0],[120.9,33.0],[120.9,33.1],[120.8,33.1],[120.8,33.3],[120.7,33.3],[120.7,33.5],[120.6,33.5],[120.6,33.8],[120.5,33.8],[120.5,34.0],[120.4,34.0],[120.4,34.3],[120.3,34.3],[120.3,34.4],[120.2,34.4],[120.2,34.5],[119.9,34.5],[119.9,34.6],[119.7,34.6],[119.7,34.7],[119.6,34.7],[119.6,34.8],[119.5,34.8],[119.5,34.9],[119.4,34.9],[119.4,35.2],[119.5,35.2],[119.5,35.4],[119.6,35.4],[119.6,35.6],[119.7,35.6],[119.7,35.7],[120.0,35.7],[120.0,35.8],[120.1,35.8],[120.1,35.9],[120.2,35.9],[120.2,36.0],[120.3,36.0],[120.3,36.1],[120.6,36.1],[120.6,36.2],[120.7,36.2],[120.7,36.4],[120.8,36.4],[120.8,36.5],[121.0,36.5],[121.0,36.6],[121.1,36.6],[121.1,36.7],[121.3,36.7],[121.3,36.8],[121.7,36.8],[121.7,36.9],[122.5,36.9],[122.5,37.0],[122.6,37.0],[122.6,37.4],[122.5,37.4],[122.5,37.5],[122.3,37.5],[122.3,37.6],[121.9,37.6],[121.9,37.5],[121.6,37.5],[121.6,37.6],[121.4,37.6],[121.4,37.7],[121.2,37.7],[121.2,37.8],[121.0,37.8],[121.0,37.9],[120.9,37.9],[120.9,38.0],[120.7,38.0],[120.7,37.9],[120.5,37.9],[120.5,37.8],[120.3,37.8],[120.3,37.7],[120.2,37.7],[120.2,37.6],[120.1,37.6],[120.1,37.5],[119.9,37.5],[119.9,37.4],[119.8,37.4],[119.8,37.3],[119.7,37.3],[119.7,37.2],[119.3,37.2],[119.3,37.3],[119.1,37.3],[119.1,37.4],[119.0,37.4],[119.0,38.2],[118.9,38.2],[118.9,38.3],[118.7,38.3],[118.7,38.2],[118.0,38.2],[118.0,38.3],[117.9,38.3],[117.9,38.4],[117.8,38.4],[117.8,38.5],[117.7,38.5],[117.7,38.6],[117.6,38.6],[117.6,39.0],[117.7,39.0],[117.7,39.1],[117.9,39.1],[117.9,39.2],[118.2,39.2],[118.2,39.1],[118.9,39.1],[118.9,39.2],[119.1,39.2],[119.1,39.3],[119.2,39.3],[119.2,39.5],[119.3,39.5],[119.3,39.7],[119.4,39.7],[119.4,39.8],[119.6,39.8],[119.6,39.9],[119.7,39.9],[119.7,40.0],[120.0,40.0],[120.0,40.1],[120.2,40.1],[120.2,40.2],[120.5,40.2],[120.5,40.3],[120.6,40.3],[120.6,40.5],[120.7,40.5],[120.7,40.6],[120.9,40.6],[120.9,40.7],[121.0,40.7],[121.0,40.8],[121.1,40.8],[121.1,40.9],[121.5,40.9],[121.5,41.0],[121.8,41.0],[121.8,40.9],[121.9,40.9],[121.9,40.8],[122.1,40.8],[122.1,40.7],[122.2,40.7],[122.2,40.4],[122.1,40.4],[122.1,40.3],[122.0,40.3],[122.0,40.2],[121.9,40.2],[121.9,40.1],[121.8,40.1],[121.8,40.0],[121.6,40.0],[121.6,39.9],[121.5,39.9],[121.5,39.8],[121.4,39.8],[121.4,39.7],[121.3,39.7],[121.3,39.5],[121.4,39.5],[121.4,39.3],[121.5,39.3],[121.5,39.2],[121.4,39.2],[121.4,39.1],[121.3,39.1],[121.3,38.8],[121.5,38.8],[121.5,38.9],[121.9,38.9],[121.9,39.0],[122.0,39.0],[122.0,39.1],[122.1,39.1],[122.1,39.2],[122.2,39.2],[122.2,39.3],[122.5,39.3],[122.5,39.4],[122.6,39.4],[122.6,39.5],[122.7,39.5],[122.7,39.6],[122.9,39.6],[122.9,39.7],[123.3,39.7],[123.3,39.8],[123.7,39.8],[123.7,39.9],[124.2,39.9],[124.2,39.8],[124.5,39.8],[124.5,40.3],[124.7,40.3],[124.7,40.6],[124.6,40.6],[124.6,40.7],[124.5,40.7],[124.5,40.8],[124.4,40.8],[124.4,40.9],[124.3,40.9],[124.3,41.0],[124.2,41.0],[124.2,41.1],[124.0,41.1],[124.0,41.2],[123.8,41.2],[123.8,41.3],[123.6,41.3],[123.6,41.4],[123.2,41.4],[123.2,41.5],[122.9,41.5],[122.9,41.6],[122.4,41.6],[122.4,41.7],[122.1,41.7],[122.1,41.8],[121.7,41.8],[121.7,41.9],[121.2,41.9],[121.2,42.0],[120.8,42.0],[120.8,42.1],[120.3,42.1],[120.3,42.2],[120.0,42.2],[120.0,42.3],[119.3,42.3],[119.3,42.4],[117.3,42.4]],[[116.2,29.2],[116.0,29.2],[116.0,29.4],[116.2,29.4],[116.2,29.2]],[[116.5,29.0],[116.4,29.0],[116.4,29.2],[116.5,29.2],[116.5,29.0]]],[[[133.7,33.7],[133.7,33.8],[133.4,33.8],[133.4,33.7],[133.2,33.7],[133.2,33.5],[133.3,33.5],[133.3,33.4],[133.5,33.4],[133.5,33.5],[133.6,33.5],[133.6,33.6],[133.8,33.6],[133.8,33.7],[133.7,33.7]]]]},"properties":{"tile_id":"61","start_year":1530,"end_year":1532,"source_image":"data/raw/toolbay/t/61/1530.png","source_url":"https://www.toolbay.cc/history-map/t/61/1530.png","source_color":"#0000ff","polity_id":null,"polity_assignment":"unverified","geometry_origin":"raster_color_trace","pixel_size_degrees":0.1,"source_color_pixels":40906,"simplification_degrees":0}},{"type":"Feature","id":"61:1530:#009900","bbox":[90.0,21.9,91.2,25.9],"geometry":{"type":"Polygon","coordinates":[[[90.7,25.9],[90.0,25.9],[90.0,21.9],[90.7,21.9],[90.7,22.0],[90.8,22.0],[90.8,22.1],[91.0,22.1],[91.0,22.2],[91.1,22.2],[91.1,22.5],[91.2,22.5],[91.2,22.8],[91.1,22.8],[91.1,23.0],[91.0,23.0],[91.0,23.3],[90.9,23.3],[90.9,23.7],[90.8,23.7],[90.8,24.9],[90.9,24.9],[90.9,25.7],[90.8,25.7],[90.8,25.8],[90.7,25.8],[90.7,25.9]]]},"properties":{"tile_id":"61","start_year":1530,"end_year":1532,"source_image":"data/raw/toolbay/t/61/1530.png","source_url":"https://www.toolbay.cc/history-map/t/61/1530.png","source_color":"#009900","polity_id":null,"polity_assignment":"unverified","geometry_origin":"raster_color_trace","pixel_size_degrees":0.1,"source_color_pixels":365,"simplification_degrees":0}},{"type":"Feature","id":"61:1530:#009999","bbox":[102.8,8.6,107.7,13.3],"geometry":{"type":"Polygon","coordinates":[[[106.6,13.3],[104.9,13.3],[104.9,13.1],[104.8,13.1],[104.8,13.0],[104.7,13.0],[104.7,12.9],[104.5,12.9],[104.5,12.8],[104.3,12.8],[104.3,12.7],[104.2,12.7],[104.2,12.6],[104.0,12.6],[104.0,12.5],[103.8,12.5],[103.8,12.4],[103.7,12.4],[103.7,12.3],[103.5,12.3],[103.5,12.2],[103.3,12.2],[103.3,12.1],[103.1,12.1],[103.1,12.0],[102.8,12.0],[102.8,11.8],[102.9,11.8],[102.9,11.6],[103.0,11.6],[103.0,11.3],[103.1,11.3],[103.1,10.9],[103.4,10.9],[103.4,11.0],[103.6,11.0],[103.6,10.6],[103.7,10.6],[103.7,10.5],[103.8,10.5],[103.8,10.4],[104.0,10.4],[104.0,10.5],[104.2,10.5],[104.2,10.6],[104.3,10.6],[104.3,10.5],[104.4,10.5],[104.4,10.4],[104.5,10.4],[104.5,10.3],[104.7,10.3],[104.7,10.2],[104.9,10.2],[104.9,10.1],[105.0,10.1],[105.0,9.9],[104.9,9.9],[104.9,9.7],[104.8,9.7],[104.8,8.7],[104.9,8.7],[104.9,8.6],[105.1,8.6],[105.1,8.7],[105.2,8.7],[105.2,8.8],[105.3,8.8],[105.3,8.9],[105.4,8.9],[105.4,9.0],[105.5,9.0],[105.5,9.1],[105.6,9.1],[105.6,9.2],[105.8,9.2],[105.8,9.3],[106.1,9.3],[106.1,9.4],[106.2,9.4],[106.2,9.5],[106.3,9.5],[106.3,9.6],[106.5,9.6],[106.5,9.7],[106.6,9.7],[106.6,9.8],[106.7,9.8],[106.7,10.0],[106.8,10.0],[106.8,10.4],[106.9,10.4],[106.9,10.6],[106.8,10.6],[106.8,10.7],[106.7,10.7],[106.7,10.8],[106.6,10.8],[106.6,10.9],[106.7,10.9],[106.7,11.1],[106.8,11.1],[106.8,11.3],[106.9,11.3],[106.9,11.4],[107.0,11.4],[107.0,11.6],[107.1,11.6],[107.1,11.7],[107.2,11.7],[107.2,11.8],[107.3,11.8],[107.3,12.0],[107.4,12.0],[107.4,12.3],[107.5,12.3],[107.5,12.6],[107.6,12.6],[107.6,12.8],[107.7,12.8],[107.7,13.2],[106.6,13.2],[106.6,13.3]],[[105.2,10.8],[105.2,10.9],[105.3,10.9],[105.3,10.7],[105.1,10.7],[105.1,10.8],[105.2,10.8]]]},"properties":{"tile_id":"61","start_year":1530,"end_year":1532,"source_image":"data/raw/toolbay/t/61/1530.png","source_url":"https://www.toolbay.cc/history-map/t/61/1530.png","source_color":"#009999","polity_id":null,"polity_assignment":"unverified","geometry_origin":"raster_color_trace","pixel_size_degrees":0.1,"source_color_pixels":1256,"simplification_degrees":0}},{"type":"Feature","id":"61:1530:#00ff00","bbox":[95.2,2.3,131.3,32.1],"geometry":{"type":"MultiPolygon","coordinates":[[[[95.5,5.7],[95.5,5.8],[95.2,5.8],[95.2,5.3],[95.3,5.3],[95.3,5.1],[95.4,5.1],[95.4,4.9],[95.5,4.9],[95.5,4.8],[95.6,4.8],[95.6,4.7],[95.7,4.7],[95.7,4.6],[95.8,4.6],[95.8,4.5],[95.9,4.5],[95.9,4.4],[96.0,4.4],[96.0,4.3],[96.1,4.3],[96.1,4.2],[96.2,4.2],[96.2,4.1],[96.3,4.1],[96.3,4.0],[96.4,4.0],[96.4,3.9],[96.5,3.9],[96.5,3.8],[96.9,3.8],[96.9,3.7],[97.0,3.7],[97.0,3.5],[97.1,3.5],[97.1,3.4],[97.2,3.4],[97.2,3.3],[97.3,3.3],[97.3,3.1],[97.4,3.1],[97.4,3.0],[97.5,3.0],[97.5,2.9],[97.6,2.9],[97.6,2.6],[97.7,2.6],[97.7,2.4],[97.8,2.4],[97.8,2.3],[98.2,2.3],[98.2,2.5],[98.3,2.5],[98.3,2.7],[98.4,2.7],[98.4,3.0],[98.5,3.0],[98.5,3.2],[98.6,3.2],[98.6,3.5],[98.7,3.5],[98.7,4.0],[98.6,4.0],[98.6,4.1],[98.4,4.1],[98.4,4.2],[98.3,4.2],[98.3,4.5],[98.2,4.5],[98.2,4.6],[98.1,4.6],[98.1,4.7],[98.0,4.7],[98.0,4.9],[97.9,4.9],[97.9,5.0],[97.8,5.0],[97.8,5.1],[97.7,5.1],[97.7,5.2],[97.6,5.2],[97.6,5.3],[97.1,5.3],[97.1,5.4],[96.7,5.4],[96.7,5.3],[96.3,5.3],[96.3,5.4],[96.1,5.4],[96.1,5.5],[95.9,5.5],[95.9,5.6],[95.8,5.6],[95.8,5.7],[95.5,5.7]]],[[[105.8,22.8],[105.3,22.8],[105.3,22.9],[104.5,22.9],[104.5,22.8],[104.0,22.8],[104.0,22.7],[103.7,22.7],[103.7,22.5],[103.8,22.5],[103.8,22.2],[103.9,22.2],[103.9,22.0],[104.0,22.0],[104.0,21.8],[104.1,21.8],[104.1,21.1],[104.0,21.1],[104.0,19.8],[104.1,19.8],[104.1,19.5],[104.2,19.5],[104.2,19.1],[104.3,19.1],[104.3,18.2],[104.4,18.2],[104.4,18.1],[104.3,18.1],[104.3,17.6],[104.4,17.6],[104.4,17.3],[104.5,17.3],[104.5,17.1],[104.6,17.1],[104.6,16.9],[104.7,16.9],[104.7,16.8],[104.8,16.8],[104.8,16.6],[104.9,16.6],[104.9,16.5],[105.0,16.5],[105.0,16.4],[105.1,16.4],[105.1,16.3],[105.2,16.3],[105.2,16.2],[105.4,16.2],[105.4,16.1],[105.6,16.1],[105.6,16.0],[105.8,16.0],[105.8,15.9],[105.9,15.9],[105.9,15.8],[106.0,15.8],[106.0,15.7],[106.1,15.7],[106.1,15.6],[106.2,15.6],[106.2,15.5],[106.3,15.5],[106.3,15.4],[106.4,15.4],[106.4,15.3],[106.5,15.3],[106.5,15.2],[106.6,15.2],[106.6,15.1],[106.7,15.1],[106.7,15.0],[106.9,15.0],[106.9,14.9],[107.0,14.9],[107.0,14.8],[107.1,14.8],[107.1,14.7],[107.2,14.7],[107.2,14.6],[107.3,14.6],[107.3,14.5],[107.4,14.5],[107.4,14.4],[107.5,14.4],[107.5,14.2],[107.6,14.2],[107.6,14.0],[107.7,14.0],[107.7,12.8],[107.6,12.8],[107.6,12.6],[107.5,12.6],[107.5,12.3],[107.4,12.3],[107.4,12.0],[107.3,12.0],[107.3,11.8],[107.2,11.8],[107.2,11.7],[107.1,11.7],[107.1,11.6],[107.0,11.6],[107.0,11.4],[106.9,11.4],[106.9,11.3],[106.8,11.3],[106.8,11.1],[106.7,11.1],[106.7,10.9],[106.6,10.9],[106.6,10.8],[106.7,10.8],[106.7,10.7],[106.8,10.7],[106.8,10.6],[106.9,10.6],[106.9,10.5],[107.1,10.5],[107.1,10.4],[107.3,10.4],[107.3,10.5],[107.5,10.5],[107.5,10.6],[107.7,10.6],[107.7,10.7],[108.0,10.7],[108.0,10.8],[108.1,10.8],[108.1,10.9],[108.2,10.9],[108.2,11.0],[108.4,11.0],[108.4,11.1],[108.5,11.1],[108.5,11.2],[108.7,11.2],[108.7,11.3],[108.9,11.3],[108.9,11.4],[109.0,11.4],[109.0,11.5],[109.1,11.5],[109.1,11.6],[109.2,11.6],[109.2,11.7],[109.3,11.7],[109.3,12.3],[109.4,12.3],[109.4,12.6],[109.5,12.6],[109.5,13.1],[109.4,13.1],[109.4,13.7],[109.3,13.7],[109.3,14.3],[109.2,14.3],[109.2,14.6],[109.1,14.6],[109.1,14.9],[109.0,14.9],[109.0,15.3],[108.9,15.3],[108.9,15.4],[108.8,15.4],[108.8,15.5],[108.7,15.5],[108.7,15.6],[108.6,15.6],[108.6,15.7],[108.5,15.7],[108.5,15.9],[108.4,15.9],[108.4,16.0],[108.3,16.0],[108.3,16.2],[108.2,16.2],[108.2,16.3],[108.1,16.3],[108.1,16.4],[107.9,16.4],[107.9,16.5],[107.8,16.5],[107.8,16.6],[107.7,16.6],[107.7,16.7],[107.5,16.7],[107.5,16.8],[107.4,16.8],[107.4,16.9],[107.3,16.9],[107.3,17.0],[107.2,17.0],[107.2,17.1],[107.1,17.1],[107.1,17.2],[107.0,17.2],[107.0,17.3],[106.9,17.3],[106.9,17.4],[106.8,17.4],[106.8,17.5],[106.7,17.5],[106.7,17.6],[106.6,17.6],[106.6,17.8],[106.5,17.8],[106.5,18.2],[106.4,18.2],[106.4,18.3],[106.2,18.3],[106.2,18.4],[106.1,18.4],[106.1,18.5],[106.0,18.5],[106.0,18.6],[105.9,18.6],[105.9,18.7],[105.8,18.7],[105.8,18.9],[105.7,18.9],[105.7,19.1],[105.8,19.1],[105.8,19.3],[105.9,19.3],[105.9,19.8],[106.0,19.8],[106.0,19.9],[106.1,19.9],[106.1,20.0],[106.2,20.0],[106.2,20.1],[106.3,20.1],[106.3,20.2],[106.4,20.2],[106.4,20.3],[106.5,20.3],[106.5,20.4],[106.6,20.4],[106.6,20.6],[106.7,20.6],[106.7,20.7],[106.9,20.7],[106.9,20.8],[107.1,20.8],[107.1,20.9],[107.5,20.9],[107.5,21.0],[107.6,21.0],[107.6,21.1],[107.7,21.1],[107.7,21.3],[107.8,21.3],[107.8,21.4],[108.0,21.4],[108.0,21.5],[108.2,21.5],[108.2,21.6],[108.1,21.6],[108.1,21.8],[108.0,21.8],[108.0,21.9],[107.9,21.9],[107.9,22.0],[107.8,22.0],[107.8,22.1],[107.7,22.1],[107.7,22.2],[107.6,22.2],[107.6,22.3],[107.3,22.3],[107.3,22.4],[107.2,22.4],[107.2,22.5],[106.9,22.5],[106.9,22.6],[106.1,22.6],[106.1,22.7],[105.8,22.7],[105.8,22.8]]],[[[131.1,32.0],[130.9,32.0],[130.9,32.1],[130.2,32.1],[130.2,31.8],[130.3,31.8],[130.3,31.5],[130.2,31.5],[130.2,31.4],[130.3,31.4],[130.3,31.3],[130.5,31.3],[130.5,31.2],[130.7,31.2],[130.7,31.4],[130.6,31.4],[130.6,31.6],[130.7,31.6],[130.7,31.5],[130.8,31.5],[130.8,31.6],[130.9,31.6],[130.9,31.5],[131.0,31.5],[131.0,31.4],[130.8,31.4],[130.8,31.2],[131.1,31.2],[131.1,31.3],[131.2,31.3],[131.2,31.4],[131.3,31.4],[131.3,31.6],[131.2,31.6],[131.2,31.7],[131.1,31.7],[131.1,32.0]]]]},"properties":{"tile_id":"61","start_year":1530,"end_year":1532,"source_image":"data/raw/toolbay/t/61/1530.png","source_url":"https://www.toolbay.cc/history-map/t/61/1530.png","source_color":"#00ff00","polity_id":null,"polity_assignment":"unverified","geometry_origin":"raster_color_trace","pixel_size_degrees":0.1,"source_color_pixels":3468,"simplification_degrees":0}},{"type":"Feature","id":"61:1530:#00ffff","bbox":[100.7,3.3,129.8,42.0],"geometry":{"type":"MultiPolygon","coordinates":[[[[101.3,4.2],[101.3,4.3],[100.7,4.3],[100.7,3.9],[100.8,3.9],[100.8,3.8],[100.9,3.8],[100.9,3.7],[101.0,3.7],[101.0,3.6],[101.1,3.6],[101.1,3.5],[101.2,3.5],[101.2,3.4],[101.3,3.4],[101.3,3.3],[101.5,3.3],[101.5,3.4],[101.6,3.4],[101.6,4.1],[101.5,4.1],[101.5,4.2],[101.3,4.2]]],[[[126.9,33.5],[126.8,33.5],[126.8,33.6],[126.4,33.6],[126.4,33.5],[126.3,33.5],[126.3,33.4],[126.4,33.4],[126.4,33.3],[126.8,33.3],[126.8,33.4],[126.9,33.4],[126.9,33.5]]],[[[129.6,41.9],[129.4,41.9],[129.4,42.0],[128.9,42.0],[128.9,41.9],[128.7,41.9],[128.7,41.8],[128.4,41.8],[128.4,41.7],[128.1,41.7],[128.1,41.6],[127.9,41.6],[127.9,41.5],[127.7,41.5],[127.7,41.4],[127.3,41.4],[127.3,41.3],[127.0,41.3],[127.0,41.2],[126.8,41.2],[126.8,41.1],[126.5,41.1],[126.5,41.0],[126.4,41.0],[126.4,40.9],[126.1,40.9],[126.1,40.8],[125.7,40.8],[125.7,40.7],[125.4,40.7],[125.4,40.6],[124.8,40.6],[124.8,40.5],[124.7,40.5],[124.7,40.3],[124.5,40.3],[124.5,39.7],[124.7,39.7],[124.7,39.6],[125.3,39.6],[125.3,39.5],[125.4,39.5],[125.4,39.3],[125.3,39.3],[125.3,39.1],[125.2,39.1],[125.2,39.0],[125.1,39.0],[125.1,38.7],[125.0,38.7],[125.0,38.6],[124.9,38.6],[124.9,38.1],[125.0,38.1],[125.0,37.9],[125.1,37.9],[125.1,37.8],[125.2,37.8],[125.2,37.7],[125.4,37.7],[125.4,37.8],[125.7,37.8],[125.7,37.9],[126.0,37.9],[126.0,37.8],[126.3,37.8],[126.3,37.7],[126.4,37.7],[126.4,37.4],[126.5,37.4],[126.5,37.2],[126.4,37.2],[126.4,37.1],[126.3,37.1],[126.3,37.0],[126.2,37.0],[126.2,36.9],[126.1,36.9],[126.1,36.7],[126.2,36.7],[126.2,36.6],[126.3,36.6],[126.3,36.5],[126.4,36.5],[126.4,36.4],[126.5,36.4],[126.5,36.2],[126.6,36.2],[126.6,35.8],[126.5,35.8],[126.5,35.5],[126.4,35.5],[126.4,35.4],[126.3,35.4],[126.3,35.3],[126.2,35.3],[126.2,35.2],[126.1,35.2],[126.1,35.1],[126.0,35.1],[126.0,34.9],[125.9,34.9],[125.9,34.6],[126.0,34.6],[126.0,34.5],[126.1,34.5],[126.1,34.4],[126.5,34.4],[126.5,34.3],[126.6,34.3],[126.6,34.2],[126.9,34.2],[126.9,34.3],[127.0,34.3],[127.0,34.4],[127.5,34.4],[127.5,34.5],[127.8,34.5],[127.8,34.6],[127.9,34.6],[127.9,34.7],[128.2,34.7],[128.2,34.8],[128.3,34.8],[128.3,34.7],[128.4,34.7],[128.4,34.8],[128.7,34.8],[128.7,34.9],[128.8,34.9],[128.8,35.0],[128.9,35.0],[128.9,35.1],[129.2,35.1],[129.2,35.2],[129.3,35.2],[129.3,35.4],[129.4,35.4],[129.4,35.5],[129.5,35.5],[129.5,35.8],[129.6,35.8],[129.6,36.1],[129.5,36.1],[129.5,36.2],[129.4,36.2],[129.4,36.5],[129.5,36.5],[129.5,37.1],[129.4,37.1],[129.4,37.4],[129.3,37.4],[129.3,37.5],[129.2,37.5],[129.2,37.7],[129.1,37.7],[129.1,37.8],[129.0,37.8],[129.0,37.9],[128.9,37.9],[128.9,38.0],[128.8,38.0],[128.8,38.1],[128.7,38.1],[128.7,38.3],[128.6,38.3],[128.6,38.5],[128.5,38.5],[128.5,38.6],[128.4,38.6],[128.4,38.7],[128.3,38.7],[128.3,38.8],[128.2,38.8],[128.2,38.9],[128.1,38.9],[128.1,39.0],[127.9,39.0],[127.9,39.1],[127.8,39.1],[127.8,39.2],[127.7,39.2],[127.7,39.3],[127.6,39.3],[127.6,39.8],[127.7,39.8],[127.7,39.9],[127.9,39.9],[127.9,40.0],[128.3,40.0],[128.3,40.1],[128.5,40.1],[128.5,40.2],[128.6,40.2],[128.6,40.3],[128.8,40.3],[128.8,40.4],[128.9,40.4],[128.9,40.5],[129.1,40.5],[129.1,40.6],[129.2,40.6],[129.2,40.7],[129.4,40.7],[129.4,40.8],[129.6,40.8],[129.6,40.9],[129.7,40.9],[129.7,41.0],[129.8,41.0],[129.8,41.7],[129.7,41.7],[129.7,41.8],[129.6,41.8],[129.6,41.9]]]]},"properties":{"tile_id":"61","start_year":1530,"end_year":1532,"source_image":"data/raw/toolbay/t/61/1530.png","source_url":"https://www.toolbay.cc/history-map/t/61/1530.png","source_color":"#00ffff","polity_id":null,"polity_assignment":"unverified","geometry_origin":"raster_color_trace","pixel_size_degrees":0.1,"source_color_pixels":2350,"simplification_degrees":0}},{"type":"Feature","id":"61:1530:#990099","bbox":[99.9,13.2,107.7,23.2],"geometry":{"type":"Polygon","coordinates":[[[103.3,23.2],[101.9,23.2],[101.9,23.1],[101.4,23.1],[101.4,23.0],[101.1,23.0],[101.1,22.9],[101.0,22.9],[101.0,22.8],[100.6,22.8],[100.6,22.7],[100.4,22.7],[100.4,22.6],[100.2,22.6],[100.2,22.4],[100.1,22.4],[100.1,22.3],[100.0,22.3],[100.0,22.1],[99.9,22.1],[99.9,21.8],[100.0,21.8],[100.0,21.5],[99.9,21.5],[99.9,20.3],[100.0,20.3],[100.0,20.0],[100.1,20.0],[100.1,19.9],[100.2,19.9],[100.2,19.7],[100.3,19.7],[100.3,19.5],[100.4,19.5],[100.4,19.3],[100.5,19.3],[100.5,19.1],[100.6,19.1],[100.6,18.9],[100.7,18.9],[100.7,18.7],[100.8,18.7],[100.8,18.6],[100.9,18.6],[100.9,18.2],[101.0,18.2],[101.0,18.0],[101.1,18.0],[101.1,17.8],[101.2,17.8],[101.2,17.5],[101.3,17.5],[101.3,17.3],[101.4,17.3],[101.4,17.2],[101.5,17.2],[101.5,16.9],[101.6,16.9],[101.6,16.8],[101.7,16.8],[101.7,16.7],[101.8,16.7],[101.8,16.5],[101.9,16.5],[101.9,16.4],[102.1,16.4],[102.1,16.3],[102.2,16.3],[102.2,16.2],[102.3,16.2],[102.3,16.1],[102.4,16.1],[102.4,15.8],[102.5,15.8],[102.5,15.7],[102.6,15.7],[102.6,15.6],[102.8,15.6],[102.8,15.5],[103.1,15.5],[103.1,15.4],[103.2,15.4],[103.2,15.3],[103.3,15.3],[103.3,15.2],[103.4,15.2],[103.4,15.1],[103.5,15.1],[103.5,14.9],[103.7,14.9],[103.7,14.8],[103.8,14.8],[103.8,14.7],[103.9,14.7],[103.9,14.5],[104.0,14.5],[104.0,14.4],[104.1,14.4],[104.1,14.3],[104.2,14.3],[104.2,14.2],[104.3,14.2],[104.3,14.1],[104.4,14.1],[104.4,13.9],[104.5,13.9],[104.5,13.8],[104.6,13.8],[104.6,13.7],[104.7,13.7],[104.7,13.6],[104.8,13.6],[104.8,13.5],[104.9,13.5],[104.9,13.3],[106.6,13.3],[106.6,13.2],[107.7,13.2],[107.7,14.0],[107.6,14.0],[107.6,14.2],[107.5,14.2],[107.5,14.4],[107.4,14.4],[107.4,14.5],[107.3,14.5],[107.3,14.6],[107.2,14.6],[107.2,14.7],[107.1,14.7],[107.1,14.8],[107.0,14.8],[107.0,14.9],[106.9,14.9],[106.9,15.0],[106.7,15.0],[106.7,15.1],[106.6,15.1],[106.6,15.2],[106.5,15.2],[106.5,15.3],[106.4,15.3],[106.4,15.4],[106.3,15.4],[106.3,15.5],[106.2,15.5],[106.2,15.6],[106.1,15.6],[106.1,15.7],[106.0,15.7],[106.0,15.8],[105.9,15.8],[105.9,15.9],[105.8,15.9],[105.8,16.0],[105.6,16.0],[105.6,16.1],[105.4,16.1],[105.4,16.2],[105.2,16.2],[105.2,16.3],[105.1,16.3],[105.1,16.4],[105.0,16.4],[105.0,16.5],[104.9,16.5],[104.9,16.6],[104.8,16.6],[104.8,16.8],[104.7,16.8],[104.7,16.9],[104.6,16.9],[104.6,17.1],[104.5,17.1],[104.5,17.3],[104.4,17.3],[104.4,17.6],[104.3,17.6],[104.3,18.1],[104.4,18.1],[104.4,18.2],[104.3,18.2],[104.3,19.1],[104.2,19.1],[104.2,19.5],[104.1,19.5],[104.1,19.8],[104.0,19.8],[104.0,21.1],[104.1,21.1],[104.1,21.8],[104.0,21.8],[104.0,22.0],[103.9,22.0],[103.9,22.2],[103.8,22.2],[103.8,22.5],[103.7,22.5],[103.7,22.7],[103.6,22.7],[103.6,22.9],[103.5,22.9],[103.5,23.0],[103.4,23.0],[103.4,23.1],[103.3,23.1],[103.3,23.2]]]},"properties":{"tile_id":"61","start_year":1530,"end_year":1532,"source_image":"data/raw/toolbay/t/61/1530.png","source_url":"https://www.toolbay.cc/history-map/t/61/1530.png","source_color":"#990099","polity_id":null,"polity_assignment":"unverified","geometry_origin":"raster_color_trace","pixel_size_degrees":0.1,"source_color_pixels":3427,"simplification_degrees":0}},{"type":"Feature","id":"61:1530:#993300","bbox":[90.0,2.4,125.5,45.0],"geometry":{"type":"MultiPolygon","coordinates":[[[[116.5,6.3],[116.5,6.5],[116.3,6.5],[116.3,6.4],[116.2,6.4],[116.2,6.3],[116.1,6.3],[116.1,6.1],[116.0,6.1],[116.0,5.9],[115.9,5.9],[115.9,5.8],[115.8,5.8],[115.8,5.7],[115.5,5.7],[115.5,5.6],[115.4,5.6],[115.4,5.5],[115.3,5.5],[115.3,5.3],[115.4,5.3],[115.4,5.2],[115.3,5.2],[115.3,5.1],[114.9,5.1],[114.9,5.0],[114.7,5.0],[114.7,4.9],[114.6,4.9],[114.6,4.8],[114.4,4.8],[114.4,4.7],[114.1,4.7],[114.1,4.6],[114.0,4.6],[114.0,4.4],[113.9,4.4],[113.9,4.2],[113.8,4.2],[113.8,4.1],[113.7,4.1],[113.7,4.0],[113.6,4.0],[113.6,3.9],[113.5,3.9],[113.5,3.8],[113.4,3.8],[113.4,3.7],[113.3,3.7],[113.3,3.6],[113.2,3.6],[113.2,3.4],[113.1,3.4],[113.1,3.3],[113.0,3.3],[113.0,3.2],[112.6,3.2],[112.6,3.1],[112.2,3.1],[112.2,3.0],[111.7,3.0],[111.7,2.9],[111.4,2.9],[111.4,2.8],[111.3,2.8],[111.3,2.4],[112.6,2.4],[112.6,2.5],[113.2,2.5],[113.2,2.6],[113.4,2.6],[113.4,2.7],[113.5,2.7],[113.5,2.8],[113.7,2.8],[113.7,2.9],[113.9,2.9],[113.9,3.0],[114.0,3.0],[114.0,3.1],[114.1,3.1],[114.1,3.2],[114.2,3.2],[114.2,3.3],[114.4,3.3],[114.4,3.5],[114.5,3.5],[114.5,3.6],[114.7,3.6],[114.7,3.7],[114.8,3.7],[114.8,3.8],[114.9,3.8],[114.9,3.9],[115.0,3.9],[115.0,4.0],[115.2,4.0],[115.2,4.1],[115.3,4.1],[115.3,4.2],[115.4,4.2],[115.4,4.4],[115.6,4.4],[115.6,4.5],[115.7,4.5],[115.7,4.6],[115.8,4.6],[115.8,4.7],[116.0,4.7],[116.0,4.8],[116.1,4.8],[116.1,4.9],[116.2,4.9],[116.2,5.1],[116.3,5.1],[116.3,5.2],[116.4,5.2],[116.4,5.3],[116.5,5.3],[116.5,5.7],[116.6,5.7],[116.6,6.3],[116.5,6.3]]],[[[125.5,44.0],[125.5,45.0],[90.0,45.0],[90.0,41.2],[90.1,41.2],[90.1,41.4],[90.3,41.4],[90.3,41.5],[90.6,41.5],[90.6,41.6],[91.1,41.6],[91.1,41.7],[91.6,41.7],[91.6,41.8],[93.9,41.8],[93.9,41.7],[95.2,41.7],[95.2,41.6],[95.8,41.6],[95.8,41.5],[96.1,41.5],[96.1,41.4],[97.0,41.4],[97.0,41.3],[97.5,41.3],[97.5,41.2],[97.9,41.2],[97.9,41.1],[98.4,41.1],[98.4,41.0],[98.7,41.0],[98.7,40.9],[99.0,40.9],[99.0,40.8],[99.5,40.8],[99.5,40.7],[99.7,40.7],[99.7,40.6],[100.0,40.6],[100.0,40.5],[100.4,40.5],[100.4,40.4],[100.8,40.4],[100.8,40.3],[101.2,40.3],[101.2,40.2],[101.4,40.2],[101.4,40.1],[101.8,40.1],[101.8,40.0],[102.0,40.0],[102.0,39.9],[102.4,39.9],[102.4,39.8],[102.6,39.8],[102.6,39.7],[103.0,39.7],[103.0,39.6],[103.3,39.6],[103.3,39.5],[103.6,39.5],[103.6,39.4],[103.8,39.4],[103.8,39.3],[104.1,39.3],[104.1,39.2],[104.4,39.2],[104.4,39.1],[104.7,39.1],[104.7,39.0],[104.9,39.0],[104.9,38.9],[105.2,38.9],[105.2,38.8],[105.5,38.8],[105.5,38.7],[106.0,38.7],[106.0,38.6],[106.7,38.6],[106.7,38.7],[107.3,38.7],[107.3,38.8],[107.9,38.8],[107.9,38.9],[108.3,38.9],[108.3,39.0],[108.7,39.0],[108.7,39.1],[108.9,39.1],[108.9,39.2],[109.1,39.2],[109.1,39.3],[109.2,39.3],[109.2,39.4],[109.4,39.4],[109.4,39.5],[109.7,39.5],[109.7,39.6],[109.8,39.6],[109.8,39.7],[110.0,39.7],[110.0,39.8],[110.1,39.8],[110.1,39.9],[110.3,39.9],[110.3,40.0],[110.4,40.0],[110.4,40.1],[110.6,40.1],[110.6,40.2],[110.7,40.2],[110.7,40.3],[110.9,40.3],[110.9,40.4],[111.0,40.4],[111.0,40.5],[111.1,40.5],[111.1,40.6],[111.4,40.6],[111.4,40.7],[111.6,40.7],[111.6,40.8],[111.7,40.8],[111.7,40.9],[111.9,40.9],[111.9,41.0],[112.0,41.0],[112.0,41.1],[112.3,41.1],[112.3,41.2],[112.5,41.2],[112.5,41.3],[112.8,41.3],[112.8,41.4],[112.9,41.4],[112.9,41.5],[113.3,41.5],[113.3,41.6],[113.5,41.6],[113.5,41.7],[113.7,41.7],[113.7,41.8],[113.9,41.8],[113.9,41.9],[114.1,41.9],[114.1,42.0],[114.6,42.0],[114.6,42.1],[115.0,42.1],[115.0,42.2],[115.4,42.2],[115.4,42.3],[115.8,42.3],[115.8,42.4],[116.3,42.4],[116.3,42.5],[117.3,42.5],[117.3,42.4],[119.3,42.4],[119.3,42.3],[120.0,42.3],[120.0,42.2],[120.3,42.2],[120.3,42.1],[120.8,42.1],[120.8,42.0],[121.2,42.0],[121.2,41.9],[121.7,41.9],[121.7,41.8],[122.1,41.8],[122.1,41.7],[122.4,41.7],[122.4,41.6],[122.9,41.6],[122.9,41.5],[123.2,41.5],[123.2,41.4],[123.6,41.4],[123.6,41.3],[123.8,41.3],[123.8,41.2],[124.0,41.2],[124.0,41.1],[124.2,41.1],[124.2,41.2],[124.3,41.2],[124.3,41.3],[124.4,41.3],[124.4,41.4],[124.5,41.4],[124.5,41.5],[124.6,41.5],[124.6,41.7],[124.7,41.7],[124.7,42.1],[124.8,42.1],[124.8,42.3],[124.9,42.3],[124.9,42.5],[125.0,42.5],[125.0,42.6],[125.1,42.6],[125.1,42.8],[125.2,42.8],[125.2,43.0],[125.3,43.0],[125.3,43.4],[125.4,43.4],[125.4,44.0],[125.5,44.0]]]]},"properties":{"tile_id":"61","start_year":1530,"end_year":1532,"source_image":"data/raw/toolbay/t/61/1530.png","source_url":"https://www.toolbay.cc/history-map/t/61/1530.png","source_color":"#993300","polity_id":null,"polity_assignment":"unverified","geometry_origin":"raster_color_trace","pixel_size_degrees":0.1,"source_color_pixels":14687,"simplification_degrees":0}},{"type":"Feature","id":"61:1530:#999900","bbox":[90.0,6.7,132.0,40.7],"geometry":{"type":"MultiPolygon","coordinates":[[[[99.5,22.7],[99.3,22.7],[99.3,22.8],[98.7,22.8],[98.7,22.5],[98.6,22.5],[98.6,22.2],[98.5,22.2],[98.5,22.1],[98.4,22.1],[98.4,21.9],[98.3,21.9],[98.3,21.7],[98.2,21.7],[98.2,21.6],[98.1,21.6],[98.1,21.4],[98.0,21.4],[98.0,21.2],[97.9,21.2],[97.9,20.8],[98.0,20.8],[98.0,20.5],[98.1,20.5],[98.1,18.3],[98.0,18.3],[98.0,18.1],[97.9,18.1],[97.9,18.0],[97.6,18.0],[97.6,17.0],[97.5,17.0],[97.5,16.8],[97.4,16.8],[97.4,16.7],[97.3,16.7],[97.3,16.6],[97.4,16.6],[97.4,16.5],[97.5,16.5],[97.5,16.3],[97.6,16.3],[97.6,16.0],[97.7,16.0],[97.7,15.3],[97.8,15.3],[97.8,14.8],[97.9,14.8],[97.9,14.6],[98.0,14.6],[98.0,14.3],[98.1,14.3],[98.1,14.0],[98.0,14.0],[98.0,13.8],[98.1,13.8],[98.1,13.7],[98.3,13.7],[98.3,13.6],[98.4,13.6],[98.4,13.5],[98.5,13.5],[98.5,13.2],[98.6,13.2],[98.6,12.8],[98.5,12.8],[98.5,12.7],[98.2,12.7],[98.2,12.6],[98.1,12.6],[98.1,12.5],[98.0,12.5],[98.0,12.4],[98.1,12.4],[98.1,12.3],[98.3,12.3],[98.3,12.2],[98.4,12.2],[98.4,12.1],[98.3,12.1],[98.3,11.9],[98.2,11.9],[98.2,11.6],[98.5,11.6],[98.5,11.5],[98.6,11.5],[98.6,11.1],[98.5,11.1],[98.5,11.0],[98.4,11.0],[98.4,10.8],[98.5,10.8],[98.5,10.1],[98.4,10.1],[98.4,9.5],[98.3,9.5],[98.3,8.8],[98.2,8.8],[98.2,8.5],[98.3,8.5],[98.3,8.0],[98.4,8.0],[98.4,7.9],[98.6,7.9],[98.6,8.0],[98.9,8.0],[98.9,7.9],[99.0,7.9],[99.0,7.7],[99.1,7.7],[99.1,7.6],[99.2,7.6],[99.2,7.5],[99.3,7.5],[99.3,7.4],[99.4,7.4],[99.4,7.3],[99.5,7.3],[99.5,7.2],[99.6,7.2],[99.6,7.1],[99.7,7.1],[99.7,6.9],[99.8,6.9],[99.8,6.8],[99.9,6.8],[99.9,6.7],[100.5,6.7],[100.5,6.8],[100.7,6.8],[100.7,6.9],[100.8,6.9],[100.8,7.1],[100.7,7.1],[100.7,7.3],[100.6,7.3],[100.6,7.5],[100.5,7.5],[100.5,7.8],[100.4,7.8],[100.4,8.2],[100.3,8.2],[100.3,8.5],[100.2,8.5],[100.2,8.6],[100.1,8.6],[100.1,8.7],[100.0,8.7],[100.0,9.2],[99.9,9.2],[99.9,9.3],[99.8,9.3],[99.8,9.4],[99.4,9.4],[99.4,9.5],[99.3,9.5],[99.3,9.7],[99.2,9.7],[99.2,10.3],[99.3,10.3],[99.3,10.7],[99.4,10.7],[99.4,10.8],[99.5,10.8],[99.5,10.9],[99.6,10.9],[99.6,11.4],[99.7,11.4],[99.7,11.7],[99.8,11.7],[99.8,11.8],[99.9,11.8],[99.9,12.1],[100.0,12.1],[100.0,12.9],[100.1,12.9],[100.1,13.4],[100.2,13.4],[100.2,13.5],[100.6,13.5],[100.6,13.6],[100.8,13.6],[100.8,13.5],[100.9,13.5],[100.9,12.8],[101.0,12.8],[101.0,12.7],[101.9,12.7],[101.9,12.6],[102.0,12.6],[102.0,12.5],[102.2,12.5],[102.2,12.4],[102.3,12.4],[102.3,12.2],[102.7,12.2],[102.7,12.1],[102.8,12.1],[102.8,12.0],[103.1,12.0],[103.1,12.1],[103.3,12.1],[103.3,12.2],[103.5,12.2],[103.5,12.3],[103.7,12.3],[103.7,12.4],[103.8,12.4],[103.8,12.5],[104.0,12.5],[104.0,12.6],[104.2,12.6],[104.2,12.7],[104.3,12.7],[104.3,12.8],[104.5,12.8],[104.5,12.9],[104.7,12.9],[104.7,13.0],[104.8,13.0],[104.8,13.1],[104.9,13.1],[104.9,13.5],[104.8,13.5],[104.8,13.6],[104.7,13.6],[104.7,13.7],[104.6,13.7],[104.6,13.8],[104.5,13.8],[104.5,13.9],[104.4,13.9],[104.4,14.1],[104.3,14.1],[104.3,14.2],[104.2,14.2],[104.2,14.3],[104.1,14.3],[104.1,14.4],[104.0,14.4],[104.0,14.5],[103.9,14.5],[103.9,14.7],[103.8,14.7],[103.8,14.8],[103.7,14.8],[103.7,14.9],[103.5,14.9],[103.5,15.1],[103.4,15.1],[103.4,15.2],[103.3,15.2],[103.3,15.3],[103.2,15.3],[103.2,15.4],[103.1,15.4],[103.1,15.5],[102.8,15.5],[102.8,15.6],[102.6,15.6],[102.6,15.7],[102.5,15.7],[102.5,15.8],[102.4,15.8],[102.4,16.1],[102.3,16.1],[102.3,16.2],[102.2,16.2],[102.2,16.3],[102.1,16.3],[102.1,16.4],[101.9,16.4],[101.9,16.5],[101.8,16.5],[101.8,16.7],[101.7,16.7],[101.7,16.8],[101.6,16.8],[101.6,16.9],[101.5,16.9],[101.5,17.2],[101.4,17.2],[101.4,17.3],[101.3,17.3],[101.3,17.5],[101.2,17.5],[101.2,17.8],[101.1,17.8],[101.1,18.0],[101.0,18.0],[101.0,18.2],[100.9,18.2],[100.9,18.6],[100.8,18.6],[100.8,18.7],[100.7,18.7],[100.7,18.9],[100.6,18.9],[100.6,19.1],[100.5,19.1],[100.5,19.3],[100.4,19.3],[100.4,19.5],[100.3,19.5],[100.3,19.7],[100.2,19.7],[100.2,19.9],[100.1,19.9],[100.1,20.0],[100.0,20.0],[100.0,20.3],[99.9,20.3],[99.9,21.5],[100.0,21.5],[100.0,21.8],[99.9,21.8],[99.9,22.1],[100.0,22.1],[100.0,22.3],[100.1,22.3],[100.1,22.4],[99.9,22.4],[99.9,22.5],[99.7,22.5],[99.7,22.6],[99.5,22.6],[99.5,22.7]]],[[[92.3,22.3],[92.1,22.3],[92.1,22.4],[91.8,22.4],[91.8,21.8],[91.9,21.8],[91.9,21.5],[92.0,21.5],[92.0,21.3],[92.1,21.3],[92.1,21.1],[92.2,21.1],[92.2,21.0],[92.3,21.0],[92.3,20.8],[92.4,20.8],[92.4,20.7],[92.5,20.7],[92.5,20.6],[92.6,20.6],[92.6,20.5],[92.7,20.5],[92.7,20.3],[92.8,20.3],[92.8,20.2],[92.9,20.2],[92.9,20.0],[93.0,20.0],[93.0,19.9],[93.4,19.9],[93.4,19.8],[93.5,19.8],[93.5,19.7],[93.6,19.7],[93.6,19.5],[93.5,19.5],[93.5,19.3],[93.6,19.3],[93.6,18.9],[93.7,18.9],[93.7,18.8],[94.2,18.8],[94.2,19.8],[94.1,19.8],[94.1,20.1],[94.0,20.1],[94.0,20.3],[93.9,20.3],[93.9,20.5],[93.8,20.5],[93.8,20.8],[93.7,20.8],[93.7,21.0],[93.6,21.0],[93.6,21.1],[93.5,21.1],[93.5,21.2],[93.4,21.2],[93.4,21.3],[93.3,21.3],[93.3,21.4],[93.2,21.4],[93.2,21.5],[93.1,21.5],[93.1,21.6],[93.0,21.6],[93.0,21.7],[92.9,21.7],[92.9,21.8],[92.8,21.8],[92.8,21.9],[92.6,21.9],[92.6,22.0],[92.5,22.0],[92.5,22.1],[92.4,22.1],[92.4,22.2],[92.3,22.2],[92.3,22.3]]],[[[130.7,33.8],[130.6,33.8],[130.6,33.9],[130.4,33.9],[130.4,33.8],[130.2,33.8],[130.2,33.7],[130.1,33.7],[130.1,33.4],[130.2,33.4],[130.2,33.2],[130.4,33.2],[130.4,33.1],[130.5,33.1],[130.5,33.0],[131.1,33.0],[131.1,32.9],[131.3,32.9],[131.3,32.8],[131.6,32.8],[131.6,32.7],[131.9,32.7],[131.9,32.8],[132.0,32.8],[132.0,33.3],[131.9,33.3],[131.9,33.4],[131.8,33.4],[131.8,33.7],[131.7,33.7],[131.7,33.8],[131.5,33.8],[131.5,33.7],[131.1,33.7],[131.1,33.6],[130.8,33.6],[130.8,33.7],[130.7,33.7],[130.7,33.8]]],[[[90.2,40.5],[90.1,40.5],[90.1,40.7],[90.0,40.7],[90.0,38.4],[90.1,38.4],[90.1,38.5],[90.2,38.5],[90.2,38.7],[90.1,38.7],[90.1,38.9],[90.2,38.9],[90.2,39.4],[90.3,39.4],[90.3,40.2],[90.2,40.2],[90.2,40.5]]]]},"properties":{"tile_id":"61","start_year":1530,"end_year":1532,"source_image":"data/raw/toolbay/t/61/1530.png","source_url":"https://www.toolbay.cc/history-map/t/61/1530.png","source_color":"#999900","polity_id":null,"polity_assignment":"unverified","geometry_origin":"raster_color_trace","pixel_size_degrees":0.1,"source_color_pixels":5088,"simplification_degrees":0}},{"type":"Feature","id":"61:1530:#ff0000","bbox":[94.1,4.6,134.1,35.7],"geometry":{"type":"MultiPolygon","coordinates":[[[[101.6,6.9],[101.5,6.9],[101.5,7.0],[101.0,7.0],[101.0,6.6],[101.1,6.6],[101.1,6.1],[101.2,6.1],[101.2,5.8],[101.3,5.8],[101.3,5.6],[101.4,5.6],[101.4,5.5],[101.5,5.5],[101.5,5.4],[101.6,5.4],[101.6,5.3],[101.7,5.3],[101.7,5.2],[101.9,5.2],[101.9,5.1],[102.2,5.1],[102.2,5.0],[102.5,5.0],[102.5,4.9],[102.6,4.9],[102.6,4.8],[102.8,4.8],[102.8,4.7],[103.1,4.7],[103.1,4.6],[103.5,4.6],[103.5,4.9],[103.4,4.9],[103.4,5.1],[103.3,5.1],[103.3,5.3],[103.2,5.3],[103.2,5.5],[103.1,5.5],[103.1,5.6],[102.9,5.6],[102.9,5.7],[102.8,5.7],[102.8,5.8],[102.7,5.8],[102.7,5.9],[102.6,5.9],[102.6,6.0],[102.5,6.0],[102.5,6.1],[102.4,6.1],[102.4,6.2],[102.3,6.2],[102.3,6.3],[102.1,6.3],[102.1,6.4],[101.9,6.4],[101.9,6.5],[101.8,6.5],[101.8,6.7],[101.7,6.7],[101.7,6.8],[101.6,6.8],[101.6,6.9]]],[[[96.2,18.9],[95.4,18.9],[95.4,19.0],[94.8,19.0],[94.8,18.9],[94.2,18.9],[94.2,18.8],[94.1,18.8],[94.1,18.7],[94.2,18.7],[94.2,18.5],[94.3,18.5],[94.3,18.3],[94.4,18.3],[94.4,18.1],[94.5,18.1],[94.5,17.7],[94.6,17.7],[94.6,17.4],[94.5,17.4],[94.5,17.3],[94.4,17.3],[94.4,16.7],[94.3,16.7],[94.3,16.5],[94.2,16.5],[94.2,16.1],[94.3,16.1],[94.3,16.0],[94.5,16.0],[94.5,15.9],[94.7,15.9],[94.7,15.8],[95.5,15.8],[95.5,15.9],[95.6,15.9],[95.6,16.0],[95.7,16.0],[95.7,16.1],[95.8,16.1],[95.8,16.2],[95.9,16.2],[95.9,16.3],[96.0,16.3],[96.0,16.4],[96.4,16.4],[96.4,16.5],[96.5,16.5],[96.5,16.6],[96.7,16.6],[96.7,16.7],[96.8,16.7],[96.8,16.8],[96.9,16.8],[96.9,16.9],[97.0,16.9],[97.0,17.0],[97.2,17.0],[97.2,16.9],[97.3,16.9],[97.3,16.7],[97.4,16.7],[97.4,16.8],[97.5,16.8],[97.5,17.0],[97.6,17.0],[97.6,17.9],[97.5,17.9],[97.5,18.1],[97.4,18.1],[97.4,18.3],[97.3,18.3],[97.3,18.4],[97.1,18.4],[97.1,18.5],[97.0,18.5],[97.0,18.6],[96.9,18.6],[96.9,18.7],[96.6,18.7],[96.6,18.8],[96.2,18.8],[96.2,18.9]]],[[[128.3,26.8],[128.4,26.8],[128.4,27.0],[128.2,27.0],[128.2,26.9],[128.0,26.9],[128.0,26.8],[127.9,26.8],[127.9,26.9],[127.7,26.9],[127.7,26.8],[127.8,26.8],[127.8,26.6],[127.7,26.6],[127.7,26.4],[127.6,26.4],[127.6,26.3],[127.7,26.3],[127.7,26.2],[127.8,26.2],[127.8,26.3],[127.9,26.3],[127.9,26.4],[128.0,26.4],[128.0,26.6],[128.2,26.6],[128.2,26.7],[128.3,26.7],[128.3,26.8]]],[[[134.1,35.6],[133.4,35.6],[133.4,35.7],[133.0,35.7],[133.0,35.6],[132.8,35.6],[132.8,35.5],[132.7,35.5],[132.7,35.4],[132.6,35.4],[132.6,35.3],[132.4,35.3],[132.4,35.2],[132.3,35.2],[132.3,35.1],[132.2,35.1],[132.2,35.0],[132.3,35.0],[132.3,34.9],[132.5,34.9],[132.5,34.8],[132.9,34.8],[132.9,34.7],[133.2,34.7],[133.2,34.8],[133.4,34.8],[133.4,34.9],[133.7,34.9],[133.7,35.0],[133.8,35.0],[133.8,35.1],[133.9,35.1],[133.9,35.3],[134.0,35.3],[134.0,35.4],[134.1,35.4],[134.1,35.6]]]]},"properties":{"tile_id":"61","start_year":1530,"end_year":1532,"source_image":"data/raw/toolbay/t/61/1530.png","source_url":"https://www.toolbay.cc/history-map/t/61/1530.png","source_color":"#ff0000","polity_id":null,"polity_assignment":"unverified","geometry_origin":"raster_color_trace","pixel_size_degrees":0.1,"source_color_pixels":1211,"simplification_degrees":0}},{"type":"Feature","id":"61:1530:#ff00ff","bbox":[90.0,0.7,130.4,38.5],"geometry":{"type":"MultiPolygon","coordinates":[[[[104.2,1.8],[104.2,2.1],[104.0,2.1],[104.0,2.0],[103.8,2.0],[103.8,1.9],[103.6,1.9],[103.6,1.8],[103.5,1.8],[103.5,1.7],[103.4,1.7],[103.4,1.5],[103.5,1.5],[103.5,1.4],[103.8,1.4],[103.8,1.3],[103.9,1.3],[103.9,1.1],[103.8,1.1],[103.8,1.0],[103.7,1.0],[103.7,0.8],[104.2,0.8],[104.2,0.7],[104.4,0.7],[104.4,0.8],[104.7,0.8],[104.7,0.9],[104.8,0.9],[104.8,1.1],[104.7,1.1],[104.7,1.2],[104.6,1.2],[104.6,1.3],[104.3,1.3],[104.3,1.8],[104.2,1.8]]],[[[90.7,38.4],[90.4,38.4],[90.4,38.5],[90.1,38.5],[90.1,38.4],[90.0,38.4],[90.0,27.6],[90.8,27.6],[90.8,27.7],[91.0,27.7],[91.0,27.8],[91.4,27.8],[91.4,27.9],[91.7,27.9],[91.7,28.0],[91.9,28.0],[91.9,28.1],[92.4,28.1],[92.4,28.2],[93.3,28.2],[93.3,28.3],[94.1,28.3],[94.1,28.4],[95.5,28.4],[95.5,28.5],[96.6,28.5],[96.6,28.4],[96.8,28.4],[96.8,28.3],[98.1,28.3],[98.1,28.4],[98.3,28.4],[98.3,28.5],[98.7,28.5],[98.7,28.6],[98.8,28.6],[98.8,28.7],[99.0,28.7],[99.0,28.8],[99.3,28.8],[99.3,28.9],[99.5,28.9],[99.5,29.0],[99.8,29.0],[99.8,29.1],[100.0,29.1],[100.0,29.2],[100.2,29.2],[100.2,29.3],[100.4,29.3],[100.4,29.4],[100.5,29.4],[100.5,29.5],[100.7,29.5],[100.7,29.6],[100.9,29.6],[100.9,29.7],[101.1,29.7],[101.1,29.8],[101.2,29.8],[101.2,29.9],[101.3,29.9],[101.3,30.0],[101.4,30.0],[101.4,30.1],[101.5,30.1],[101.5,30.2],[101.6,30.2],[101.6,30.4],[101.7,30.4],[101.7,30.5],[101.8,30.5],[101.8,30.7],[101.9,30.7],[101.9,31.0],[102.0,31.0],[102.0,31.1],[102.1,31.1],[102.1,31.5],[102.2,31.5],[102.2,31.7],[102.3,31.7],[102.3,31.9],[102.4,31.9],[102.4,32.4],[102.5,32.4],[102.5,32.9],[102.6,32.9],[102.6,33.4],[102.7,33.4],[102.7,34.2],[102.8,34.2],[102.8,36.0],[102.7,36.0],[102.7,36.1],[102.1,36.1],[102.1,36.2],[101.5,36.2],[101.5,36.3],[100.5,36.3],[100.5,36.4],[100.1,36.4],[100.1,36.5],[99.4,36.5],[99.4,36.6],[98.8,36.6],[98.8,36.5],[98.6,36.5],[98.6,36.4],[98.2,36.4],[98.2,36.5],[97.5,36.5],[97.5,36.6],[97.2,36.6],[97.2,36.7],[96.6,36.7],[96.6,36.8],[96.2,36.8],[96.2,36.9],[96.1,36.9],[96.1,37.0],[95.8,37.0],[95.8,37.1],[95.2,37.1],[95.2,37.2],[94.8,37.2],[94.8,37.3],[94.4,37.3],[94.4,37.4],[94.2,37.4],[94.2,37.5],[93.9,37.5],[93.9,37.6],[93.1,37.6],[93.1,37.7],[92.6,37.7],[92.6,37.8],[92.2,37.8],[92.2,37.9],[91.9,37.9],[91.9,38.0],[91.6,38.0],[91.6,38.1],[91.3,38.1],[91.3,38.2],[91.0,38.2],[91.0,38.3],[90.7,38.3],[90.7,38.4]],[[95.1,29.8],[95.1,29.7],[95.0,29.7],[95.0,29.9],[95.2,29.9],[95.2,29.8],[95.1,29.8]]],[[[130.1,33.6],[129.9,33.6],[129.9,33.7],[129.7,33.7],[129.7,33.5],[129.5,33.5],[129.5,33.4],[129.6,33.4],[129.6,33.0],[129.7,33.0],[129.7,32.8],[129.8,32.8],[129.8,32.7],[130.0,32.7],[130.0,32.8],[129.9,32.8],[129.9,33.0],[130.1,33.0],[130.1,32.7],[130.3,32.7],[130.3,32.9],[130.4,32.9],[130.4,33.0],[130.3,33.0],[130.3,33.1],[130.2,33.1],[130.2,33.4],[130.1,33.4],[130.1,33.6]]]]},"properties":{"tile_id":"61","start_year":1530,"end_year":1532,"source_image":"data/raw/toolbay/t/61/1530.png","source_url":"https://www.toolbay.cc/history-map/t/61/1530.png","source_color":"#ff00ff","polity_id":null,"polity_assignment":"unverified","geometry_origin":"raster_color_trace","pixel_size_degrees":0.1,"source_color_pixels":10708,"simplification_degrees":0}},{"type":"Feature","id":"61:1530:#ff9933","bbox":[130.5,33.6,133.3,35.0],"geometry":{"type":"Polygon","coordinates":[[[132.3,35.0],[132.0,35.0],[132.0,34.9],[131.9,34.9],[131.9,34.8],[131.6,34.8],[131.6,34.7],[131.5,34.7],[131.5,34.6],[131.4,34.6],[131.4,34.5],[131.0,34.5],[131.0,34.4],[130.9,34.4],[130.9,34.0],[130.5,34.0],[130.5,33.9],[130.6,33.9],[130.6,33.8],[130.7,33.8],[130.7,33.7],[130.8,33.7],[130.8,33.6],[131.1,33.6],[131.1,33.7],[131.2,33.7],[131.2,33.9],[131.1,33.9],[131.1,34.0],[131.9,34.0],[131.9,33.9],[132.0,33.9],[132.0,33.8],[132.3,33.8],[132.3,33.9],[132.4,33.9],[132.4,34.0],[132.6,34.0],[132.6,34.2],[132.9,34.2],[132.9,34.3],[133.3,34.3],[133.3,34.5],[133.2,34.5],[133.2,34.6],[133.1,34.6],[133.1,34.7],[132.9,34.7],[132.9,34.8],[132.5,34.8],[132.5,34.9],[132.3,34.9],[132.3,35.0]]]},"properties":{"tile_id":"61","start_year":1530,"end_year":1532,"source_image":"data/raw/toolbay/t/61/1530.png","source_url":"https://www.toolbay.cc/history-map/t/61/1530.png","source_color":"#ff9933","polity_id":null,"polity_assignment":"unverified","geometry_origin":"raster_color_trace","pixel_size_degrees":0.1,"source_color_pixels":185,"simplification_degrees":0}},{"type":"Feature","id":"61:1530:#ff9999","bbox":[93.1,17.9,99.6,28.5],"geometry":{"type":"Polygon","coordinates":[[[98.4,28.5],[98.3,28.5],[98.3,28.4],[98.1,28.4],[98.1,28.3],[97.2,28.3],[97.2,28.2],[97.1,28.2],[97.1,28.1],[97.0,28.1],[97.0,27.9],[96.9,27.9],[96.9,27.7],[96.8,27.7],[96.8,27.6],[96.6,27.6],[96.6,27.5],[96.5,27.5],[96.5,27.4],[96.4,27.4],[96.4,27.3],[96.3,27.3],[96.3,27.2],[96.2,27.2],[96.2,27.0],[96.0,27.0],[96.0,26.8],[95.9,26.8],[95.9,26.7],[95.8,26.7],[95.8,26.6],[95.6,26.6],[95.6,26.5],[95.5,26.5],[95.5,26.4],[95.4,26.4],[95.4,26.3],[95.3,26.3],[95.3,26.1],[95.2,26.1],[95.2,26.0],[95.1,26.0],[95.1,25.9],[95.0,25.9],[95.0,25.8],[94.9,25.8],[94.9,25.6],[94.7,25.6],[94.7,25.5],[94.6,25.5],[94.6,25.3],[94.4,25.3],[94.4,25.2],[94.3,25.2],[94.3,25.1],[94.2,25.1],[94.2,24.9],[94.1,24.9],[94.1,24.8],[93.9,24.8],[93.9,24.6],[93.8,24.6],[93.8,24.5],[93.7,24.5],[93.7,24.4],[93.6,24.4],[93.6,24.3],[93.5,24.3],[93.5,23.7],[93.4,23.7],[93.4,23.5],[93.3,23.5],[93.3,22.6],[93.2,22.6],[93.2,21.8],[93.1,21.8],[93.1,21.5],[93.2,21.5],[93.2,21.4],[93.3,21.4],[93.3,21.3],[93.4,21.3],[93.4,21.2],[93.5,21.2],[93.5,21.1],[93.6,21.1],[93.6,21.0],[93.7,21.0],[93.7,20.8],[93.8,20.8],[93.8,20.5],[93.9,20.5],[93.9,20.3],[94.0,20.3],[94.0,20.1],[94.1,20.1],[94.1,19.8],[94.2,19.8],[94.2,18.9],[94.8,18.9],[94.8,19.0],[95.4,19.0],[95.4,18.9],[96.2,18.9],[96.2,18.8],[96.6,18.8],[96.6,18.7],[96.9,18.7],[96.9,18.6],[97.0,18.6],[97.0,18.5],[97.1,18.5],[97.1,18.4],[97.3,18.4],[97.3,18.3],[97.4,18.3],[97.4,18.1],[97.5,18.1],[97.5,17.9],[97.6,17.9],[97.6,18.0],[97.9,18.0],[97.9,18.1],[98.0,18.1],[98.0,18.3],[98.1,18.3],[98.1,20.5],[98.0,20.5],[98.0,20.8],[97.9,20.8],[97.9,21.2],[98.0,21.2],[98.0,21.4],[98.1,21.4],[98.1,21.6],[98.2,21.6],[98.2,21.7],[98.3,21.7],[98.3,21.9],[98.4,21.9],[98.4,22.1],[98.5,22.1],[98.5,22.2],[98.6,22.2],[98.6,22.5],[98.7,22.5],[98.7,22.8],[98.8,22.8],[98.8,23.0],[98.9,23.0],[98.9,23.1],[99.0,23.1],[99.0,23.3],[99.1,23.3],[99.1,24.2],[99.2,24.2],[99.2,24.4],[99.3,24.4],[99.3,24.8],[99.4,24.8],[99.4,25.1],[99.5,25.1],[99.5,25.2],[99.6,25.2],[99.6,25.3],[99.5,25.3],[99.5,25.6],[99.4,25.6],[99.4,25.8],[99.3,25.8],[99.3,26.1],[99.2,26.1],[99.2,26.4],[99.1,26.4],[99.1,26.6],[99.0,26.6],[99.0,27.0],[98.9,27.0],[98.9,27.3],[98.8,27.3],[98.8,27.5],[98.7,27.5],[98.7,27.8],[98.6,27.8],[98.6,28.0],[98.5,28.0],[98.5,28.2],[98.4,28.2],[98.4,28.5]]]},"properties":{"tile_id":"61","start_year":1530,"end_year":1532,"source_image":"data/raw/toolbay/t/61/1530.png","source_url":"https://www.toolbay.cc/history-map/t/61/1530.png","source_color":"#ff9999","polity_id":null,"polity_assignment":"unverified","geometry_origin":"raster_color_trace","pixel_size_degrees":0.1,"source_color_pixels":4166,"simplification_degrees":0}}]}
