{"type":"FeatureCollection","features":[{"type":"Feature","id":"61:300:#009900","bbox":[126.6,37.6,129.1,40.2],"geometry":{"type":"Polygon","coordinates":[[[127.4,40.2],[126.6,40.2],[126.6,40.0],[126.7,40.0],[126.7,39.9],[126.8,39.9],[126.8,39.7],[126.9,39.7],[126.9,39.5],[127.0,39.5],[127.0,39.2],[127.1,39.2],[127.1,38.9],[127.2,38.9],[127.2,38.0],[127.1,38.0],[127.1,37.8],[127.0,37.8],[127.0,37.7],[128.2,37.7],[128.2,37.6],[129.1,37.6],[129.1,37.8],[129.0,37.8],[129.0,37.9],[128.9,37.9],[128.9,38.0],[128.8,38.0],[128.8,38.1],[128.7,38.1],[128.7,38.3],[128.6,38.3],[128.6,38.5],[128.5,38.5],[128.5,38.6],[128.4,38.6],[128.4,38.7],[128.3,38.7],[128.3,38.8],[128.2,38.8],[128.2,38.9],[128.1,38.9],[128.1,39.0],[127.9,39.0],[127.9,39.1],[127.8,39.1],[127.8,39.2],[127.7,39.2],[127.7,39.3],[127.6,39.3],[127.6,39.8],[127.7,39.8],[127.7,40.0],[127.6,40.0],[127.6,40.1],[127.4,40.1],[127.4,40.2]]]},"properties":{"tile_id":"61","start_year":300,"end_year":304,"source_image":"data/raw/toolbay/t/61/300.png","source_url":"https://www.toolbay.cc/history-map/t/61/300.png","source_color":"#009900","polity_id":null,"polity_assignment":"unverified","geometry_origin":"raster_color_trace","pixel_size_degrees":0.1,"source_color_pixels":290,"simplification_degrees":0}},{"type":"Feature","id":"61:300:#00ff00","bbox":[102.3,8.6,106.9,13.2],"geometry":{"type":"Polygon","coordinates":[[[105.3,13.2],[104.1,13.2],[104.1,13.1],[103.8,13.1],[103.8,13.0],[103.5,13.0],[103.5,12.9],[103.1,12.9],[103.1,12.8],[102.7,12.8],[102.7,12.7],[102.5,12.7],[102.5,12.6],[102.4,12.6],[102.4,12.5],[102.3,12.5],[102.3,12.2],[102.7,12.2],[102.7,12.1],[102.8,12.1],[102.8,11.8],[102.9,11.8],[102.9,11.6],[103.0,11.6],[103.0,11.3],[103.1,11.3],[103.1,10.9],[103.4,10.9],[103.4,11.0],[103.6,11.0],[103.6,10.6],[103.7,10.6],[103.7,10.5],[103.8,10.5],[103.8,10.4],[104.0,10.4],[104.0,10.5],[104.2,10.5],[104.2,10.6],[104.3,10.6],[104.3,10.5],[104.4,10.5],[104.4,10.4],[104.5,10.4],[104.5,10.3],[104.7,10.3],[104.7,10.2],[104.9,10.2],[104.9,10.1],[105.0,10.1],[105.0,9.9],[104.9,9.9],[104.9,9.7],[104.8,9.7],[104.8,8.7],[104.9,8.7],[104.9,8.6],[105.1,8.6],[105.1,8.7],[105.2,8.7],[105.2,8.8],[105.3,8.8],[105.3,8.9],[105.4,8.9],[105.4,9.0],[105.5,9.0],[105.5,9.1],[105.6,9.1],[105.6,9.2],[105.8,9.2],[105.8,9.3],[106.1,9.3],[106.1,9.4],[106.2,9.4],[106.2,9.5],[106.3,9.5],[106.3,9.6],[106.5,9.6],[106.5,9.7],[106.6,9.7],[106.6,9.8],[106.7,9.8],[106.7,10.0],[106.8,10.0],[106.8,10.4],[106.9,10.4],[106.9,10.6],[106.8,10.6],[106.8,10.7],[106.7,10.7],[106.7,10.8],[106.6,10.8],[106.6,10.9],[106.5,10.9],[106.5,11.0],[106.4,11.0],[106.4,11.1],[106.3,11.1],[106.3,11.2],[106.2,11.2],[106.2,11.3],[106.1,11.3],[106.1,11.4],[106.0,11.4],[106.0,13.1],[105.3,13.1],[105.3,13.2]],[[105.2,10.8],[105.2,10.9],[105.3,10.9],[105.3,10.7],[105.1,10.7],[105.1,10.8],[105.2,10.8]]]},"properties":{"tile_id":"61","start_year":300,"end_year":304,"source_image":"data/raw/toolbay/t/61/300.png","source_url":"https://www.toolbay.cc/history-map/t/61/300.png","source_color":"#00ff00","polity_id":null,"polity_assignment":"unverified","geometry_origin":"raster_color_trace","pixel_size_degrees":0.1,"source_color_pixels":1095,"simplification_degrees":0}},{"type":"Feature","id":"61:300:#00ffff","bbox":[123.4,39.9,129.7,44.0],"geometry":{"type":"Polygon","coordinates":[[[124.7,44.0],[124.1,44.0],[124.1,43.9],[123.7,43.9],[123.7,43.5],[123.6,43.5],[123.6,43.4],[123.5,43.4],[123.5,43.2],[123.4,43.2],[123.4,42.6],[123.5,42.6],[123.5,42.4],[123.6,42.4],[123.6,42.0],[123.8,42.0],[123.8,41.9],[123.9,41.9],[123.9,41.8],[124.1,41.8],[124.1,41.7],[124.3,41.7],[124.3,41.6],[124.4,41.6],[124.4,41.5],[124.5,41.5],[124.5,41.4],[124.6,41.4],[124.6,41.3],[124.8,41.3],[124.8,41.2],[124.9,41.2],[124.9,41.1],[125.1,41.1],[125.1,41.0],[125.3,41.0],[125.3,40.9],[125.5,40.9],[125.5,40.8],[125.6,40.8],[125.6,40.7],[125.8,40.7],[125.8,40.6],[125.9,40.6],[125.9,40.5],[126.0,40.5],[126.0,40.4],[126.2,40.4],[126.2,40.3],[126.4,40.3],[126.4,40.2],[127.4,40.2],[127.4,40.1],[127.6,40.1],[127.6,40.0],[127.7,40.0],[127.7,39.9],[127.9,39.9],[127.9,40.0],[128.3,40.0],[128.3,40.1],[128.5,40.1],[128.5,40.2],[128.6,40.2],[128.6,40.3],[128.8,40.3],[128.8,40.4],[128.9,40.4],[128.9,40.5],[129.1,40.5],[129.1,40.6],[129.2,40.6],[129.2,40.7],[129.4,40.7],[129.4,40.8],[129.6,40.8],[129.6,40.9],[129.7,40.9],[129.7,41.1],[129.5,41.1],[129.5,41.2],[129.4,41.2],[129.4,41.3],[129.2,41.3],[129.2,41.4],[129.1,41.4],[129.1,41.5],[129.0,41.5],[129.0,41.6],[128.7,41.6],[128.7,42.0],[128.8,42.0],[128.8,42.1],[128.9,42.1],[128.9,42.2],[129.0,42.2],[129.0,42.4],[129.1,42.4],[129.1,42.5],[129.2,42.5],[129.2,42.6],[129.3,42.6],[129.3,42.8],[129.4,42.8],[129.4,43.3],[127.2,43.3],[127.2,43.4],[126.8,43.4],[126.8,43.5],[126.2,43.5],[126.2,43.6],[125.9,43.6],[125.9,43.7],[125.6,43.7],[125.6,43.8],[125.1,43.8],[125.1,43.9],[124.7,43.9],[124.7,44.0]]]},"properties":{"tile_id":"61","start_year":300,"end_year":304,"source_image":"data/raw/toolbay/t/61/300.png","source_url":"https://www.toolbay.cc/history-map/t/61/300.png","source_color":"#00ffff","polity_id":null,"polity_assignment":"unverified","geometry_origin":"raster_color_trace","pixel_size_degrees":0.1,"source_color_pixels":1647,"simplification_degrees":0}},{"type":"Feature","id":"61:300:#999900","bbox":[91.6,16.0,127.2,42.9],"geometry":{"type":"Polygon","coordinates":[[[95.2,42.9],[94.3,42.9],[94.3,42.8],[93.2,42.8],[93.2,42.7],[92.7,42.7],[92.7,42.6],[92.4,42.6],[92.4,42.5],[92.2,42.5],[92.2,42.4],[92.0,42.4],[92.0,42.2],[91.8,42.2],[91.8,42.1],[91.7,42.1],[91.7,41.9],[91.6,41.9],[91.6,41.8],[91.7,41.8],[91.7,41.6],[91.8,41.6],[91.8,41.5],[91.9,41.5],[91.9,41.4],[92.0,41.4],[92.0,41.3],[92.1,41.3],[92.1,41.2],[92.2,41.2],[92.2,41.1],[92.4,41.1],[92.4,40.9],[92.5,40.9],[92.5,40.8],[92.7,40.8],[92.7,40.7],[92.9,40.7],[92.9,40.6],[93.2,40.6],[93.2,40.5],[93.4,40.5],[93.4,40.4],[93.7,40.4],[93.7,40.3],[94.0,40.3],[94.0,40.2],[94.2,40.2],[94.2,40.1],[94.3,40.1],[94.3,40.0],[94.5,40.0],[94.5,39.9],[94.7,39.9],[94.7,39.8],[94.9,39.8],[94.9,39.7],[95.1,39.7],[95.1,39.6],[95.3,39.6],[95.3,39.5],[96.3,39.5],[96.3,39.6],[98.2,39.6],[98.2,39.5],[99.0,39.5],[99.0,39.4],[99.5,39.4],[99.5,39.3],[99.9,39.3],[99.9,39.2],[100.1,39.2],[100.1,39.1],[100.5,39.1],[100.5,39.0],[100.9,39.0],[100.9,38.9],[101.4,38.9],[101.4,38.8],[101.7,38.8],[101.7,38.7],[102.2,38.7],[102.2,38.6],[102.4,38.6],[102.4,38.5],[102.6,38.5],[102.6,38.4],[102.7,38.4],[102.7,38.3],[102.8,38.3],[102.8,38.2],[103.0,38.2],[103.0,38.1],[103.1,38.1],[103.1,37.8],[103.2,37.8],[103.2,37.6],[103.3,37.6],[103.3,37.2],[103.5,37.2],[103.5,37.1],[103.6,37.1],[103.6,36.6],[103.7,36.6],[103.7,36.5],[103.8,36.5],[103.8,36.4],[103.9,36.4],[103.9,36.3],[104.0,36.3],[104.0,36.1],[104.1,36.1],[104.1,35.9],[104.2,35.9],[104.2,35.7],[104.3,35.7],[104.3,35.6],[104.4,35.6],[104.4,35.5],[104.5,35.5],[104.5,35.4],[104.6,35.4],[104.6,35.2],[104.7,35.2],[104.7,35.1],[104.8,35.1],[104.8,34.9],[104.9,34.9],[104.9,34.7],[105.0,34.7],[105.0,34.6],[105.1,34.6],[105.1,34.5],[105.2,34.5],[105.2,34.2],[105.3,34.2],[105.3,33.9],[105.2,33.9],[105.2,32.9],[105.1,32.9],[105.1,32.6],[105.0,32.6],[105.0,32.2],[104.9,32.2],[104.9,31.8],[104.8,31.8],[104.8,30.5],[104.7,30.5],[104.7,30.2],[104.6,30.2],[104.6,30.1],[104.5,30.1],[104.5,29.9],[104.4,29.9],[104.4,29.7],[104.3,29.7],[104.3,29.6],[104.2,29.6],[104.2,29.5],[104.1,29.5],[104.1,29.3],[104.0,29.3],[104.0,29.2],[103.9,29.2],[103.9,29.1],[103.8,29.1],[103.8,29.0],[103.7,29.0],[103.7,28.9],[103.6,28.9],[103.6,28.8],[103.5,28.8],[103.5,28.7],[103.3,28.7],[103.3,28.6],[103.2,28.6],[103.2,28.5],[103.1,28.5],[103.1,28.4],[103.0,28.4],[103.0,28.3],[102.9,28.3],[102.9,28.2],[102.7,28.2],[102.7,28.1],[102.6,28.1],[102.6,28.0],[102.5,28.0],[102.5,27.9],[102.3,27.9],[102.3,27.8],[102.2,27.8],[102.2,27.7],[102.1,27.7],[102.1,27.6],[102.0,27.6],[102.0,27.4],[101.9,27.4],[101.9,27.3],[101.8,27.3],[101.8,27.2],[101.7,27.2],[101.7,27.1],[101.6,27.1],[101.6,26.9],[101.5,26.9],[101.5,26.8],[101.4,26.8],[101.4,26.7],[101.3,26.7],[101.3,26.6],[101.2,26.6],[101.2,26.5],[101.1,26.5],[101.1,26.4],[101.0,26.4],[101.0,26.3],[100.9,26.3],[100.9,26.1],[100.8,26.1],[100.8,25.3],[100.9,25.3],[100.9,25.1],[101.0,25.1],[101.0,24.8],[101.1,24.8],[101.1,24.6],[101.2,24.6],[101.2,24.4],[101.3,24.4],[101.3,24.3],[101.4,24.3],[101.4,24.1],[101.5,24.1],[101.5,24.0],[101.6,24.0],[101.6,23.8],[101.8,23.8],[101.8,23.7],[101.9,23.7],[101.9,23.6],[102.0,23.6],[102.0,23.5],[102.1,23.5],[102.1,23.4],[102.2,23.4],[102.2,23.3],[102.4,23.3],[102.4,23.2],[102.5,23.2],[102.5,23.1],[102.6,23.1],[102.6,23.0],[102.7,23.0],[102.7,22.9],[102.8,22.9],[102.8,22.8],[102.9,22.8],[102.9,22.7],[103.0,22.7],[103.0,22.3],[103.1,22.3],[103.1,21.5],[103.2,21.5],[103.2,21.3],[103.3,21.3],[103.3,20.8],[103.4,20.8],[103.4,20.5],[103.5,20.5],[103.5,20.4],[103.7,20.4],[103.7,20.0],[103.8,20.0],[103.8,19.8],[103.9,19.8],[103.9,19.4],[104.0,19.4],[104.0,19.1],[104.1,19.1],[104.1,18.8],[104.2,18.8],[104.2,18.6],[104.3,18.6],[104.3,17.6],[104.4,17.6],[104.4,17.3],[104.5,17.3],[104.5,17.1],[104.6,17.1],[104.6,16.9],[104.7,16.9],[104.7,16.8],[104.8,16.8],[104.8,16.6],[104.9,16.6],[104.9,16.5],[105.0,16.5],[105.0,16.4],[105.1,16.4],[105.1,16.3],[105.2,16.3],[105.2,16.2],[105.4,16.2],[105.4,16.1],[105.6,16.1],[105.6,16.0],[106.6,16.0],[106.6,16.1],[106.8,16.1],[106.8,16.2],[107.0,16.2],[107.0,16.3],[107.2,16.3],[107.2,16.4],[107.3,16.4],[107.3,16.5],[107.4,16.5],[107.4,16.6],[107.5,16.6],[107.5,16.8],[107.4,16.8],[107.4,16.9],[107.3,16.9],[107.3,17.0],[107.2,17.0],[107.2,17.1],[107.1,17.1],[107.1,17.2],[107.0,17.2],[107.0,17.3],[106.9,17.3],[106.9,17.4],[106.8,17.4],[106.8,17.5],[106.7,17.5],[106.7,17.6],[106.6,17.6],[106.6,17.8],[106.5,17.8],[106.5,18.2],[106.4,18.2],[106.4,18.3],[106.2,18.3],[106.2,18.4],[106.1,18.4],[106.1,18.5],[106.0,18.5],[106.0,18.6],[105.9,18.6],[105.9,18.7],[105.8,18.7],[105.8,18.9],[105.7,18.9],[105.7,19.1],[105.8,19.1],[105.8,19.3],[105.9,19.3],[105.9,19.8],[106.0,19.8],[106.0,19.9],[106.1,19.9],[106.1,20.0],[106.2,20.0],[106.2,20.1],[106.3,20.1],[106.3,20.2],[106.4,20.2],[106.4,20.3],[106.5,20.3],[106.5,20.4],[106.6,20.4],[106.6,20.6],[106.7,20.6],[106.7,20.7],[106.9,20.7],[106.9,20.8],[107.1,20.8],[107.1,20.9],[107.5,20.9],[107.5,21.0],[107.6,21.0],[107.6,21.1],[107.7,21.1],[107.7,21.3],[107.8,21.3],[107.8,21.4],[108.0,21.4],[108.0,21.5],[108.2,21.5],[108.2,21.6],[108.5,21.6],[108.5,21.7],[109.0,21.7],[109.0,21.6],[109.1,21.6],[109.1,21.5],[109.7,21.5],[109.7,20.7],[109.8,20.7],[109.8,20.5],[109.9,20.5],[109.9,20.4],[110.0,20.4],[110.0,20.3],[110.1,20.3],[110.1,20.2],[110.0,20.2],[110.0,20.1],[109.6,20.1],[109.6,20.0],[109.3,20.0],[109.3,19.9],[109.2,19.9],[109.2,19.8],[109.1,19.8],[109.1,19.7],[109.0,19.7],[109.0,19.6],[108.9,19.6],[108.9,19.5],[108.8,19.5],[108.8,19.4],[108.7,19.4],[108.7,19.3],[108.6,19.3],[108.6,18.9],[108.7,18.9],[108.7,18.6],[108.8,18.6],[108.8,18.5],[108.9,18.5],[108.9,18.4],[109.2,18.4],[109.2,18.3],[109.5,18.3],[109.5,18.2],[109.7,18.2],[109.7,18.3],[109.8,18.3],[109.8,18.4],[110.0,18.4],[110.0,18.5],[110.1,18.5],[110.1,18.6],[110.2,18.6],[110.2,18.7],[110.5,18.7],[110.5,18.8],[110.6,18.8],[110.6,19.3],[110.7,19.3],[110.7,19.4],[110.8,19.4],[110.8,19.5],[110.9,19.5],[110.9,19.6],[111.0,19.6],[111.0,20.0],[110.9,20.0],[110.9,20.1],[110.8,20.1],[110.8,20.2],[110.5,20.2],[110.5,21.0],[110.6,21.0],[110.6,21.2],[110.7,21.2],[110.7,21.3],[110.8,21.3],[110.8,21.4],[110.9,21.4],[110.9,21.5],[111.5,21.5],[111.5,21.6],[111.9,21.6],[111.9,21.7],[112.9,21.7],[112.9,21.8],[113.0,21.8],[113.0,21.9],[113.2,21.9],[113.2,22.0],[113.5,22.0],[113.5,22.1],[113.6,22.1],[113.6,22.6],[113.9,22.6],[113.9,22.2],[114.0,22.2],[114.0,22.1],[114.2,22.1],[114.2,22.2],[114.3,22.2],[114.3,22.3],[114.4,22.3],[114.4,22.4],[114.5,22.4],[114.5,22.5],[114.7,22.5],[114.7,22.6],[115.0,22.6],[115.0,22.7],[115.1,22.7],[115.1,22.8],[116.0,22.8],[116.0,22.9],[116.2,22.9],[116.2,23.0],[116.5,23.0],[116.5,23.1],[116.6,23.1],[116.6,23.2],[116.7,23.2],[116.7,23.3],[116.8,23.3],[116.8,23.4],[116.9,23.4],[116.9,23.5],[117.3,23.5],[117.3,23.6],[117.4,23.6],[117.4,23.7],[117.5,23.7],[117.5,23.8],[117.6,23.8],[117.6,23.9],[117.7,23.9],[117.7,24.0],[117.9,24.0],[117.9,24.1],[118.0,24.1],[118.0,24.2],[118.1,24.2],[118.1,24.3],[118.2,24.3],[118.2,24.4],[118.4,24.4],[118.4,24.5],[118.5,24.5],[118.5,24.6],[118.6,24.6],[118.6,24.7],[118.8,24.7],[118.8,24.8],[118.9,24.8],[118.9,25.0],[119.0,25.0],[119.0,25.1],[119.1,25.1],[119.1,25.2],[119.3,25.2],[119.3,25.3],[119.4,25.3],[119.4,25.4],[119.8,25.4],[119.8,25.5],[119.9,25.5],[119.9,25.7],[119.8,25.7],[119.8,25.8],[119.7,25.8],[119.7,26.2],[119.8,26.2],[119.8,26.3],[119.9,26.3],[119.9,26.5],[120.0,26.5],[120.0,26.6],[120.1,26.6],[120.1,26.7],[120.2,26.7],[120.2,26.9],[120.3,26.9],[120.3,27.0],[120.4,27.0],[120.4,27.2],[120.5,27.2],[120.5,27.3],[120.6,27.3],[120.6,27.4],[120.7,27.4],[120.7,27.8],[120.8,27.8],[120.8,27.9],[121.2,27.9],[121.2,28.0],[121.3,28.0],[121.3,28.2],[121.4,28.2],[121.4,28.3],[121.6,28.3],[121.6,28.4],[121.7,28.4],[121.7,28.7],[121.8,28.7],[121.8,29.0],[121.9,29.0],[121.9,29.2],[122.0,29.2],[122.0,29.6],[122.1,29.6],[122.1,29.7],[122.3,29.7],[122.3,29.8],[122.4,29.8],[122.4,30.2],[122.3,30.2],[122.3,30.3],[121.9,30.3],[121.9,30.2],[121.5,30.2],[121.5,30.3],[121.4,30.3],[121.4,30.4],[121.2,30.4],[121.2,30.5],[121.1,30.5],[121.1,30.6],[121.2,30.6],[121.2,30.7],[121.4,30.7],[121.4,30.8],[121.5,30.8],[121.5,30.9],[121.8,30.9],[121.8,31.0],[121.9,31.0],[121.9,31.2],[121.8,31.2],[121.8,31.5],[121.9,31.5],[121.9,31.7],[122.0,31.7],[122.0,31.9],[121.9,31.9],[121.9,32.0],[121.8,32.0],[121.8,32.1],[121.7,32.1],[121.7,32.2],[121.5,32.2],[121.5,32.3],[121.4,32.3],[121.4,32.5],[121.3,32.5],[121.3,32.6],[121.1,32.6],[121.1,32.7],[121.0,32.7],[121.0,33.0],[120.9,33.0],[120.9,33.1],[120.8,33.1],[120.8,33.3],[120.7,33.3],[120.7,33.5],[120.6,33.5],[120.6,33.8],[120.5,33.8],[120.5,34.0],[120.4,34.0],[120.4,34.3],[120.3,34.3],[120.3,34.4],[120.2,34.4],[120.2,34.5],[119.9,34.5],[119.9,34.6],[119.7,34.6],[119.7,34.7],[119.6,34.7],[119.6,34.8],[119.5,34.8],[119.5,34.9],[119.4,34.9],[119.4,35.2],[119.5,35.2],[119.5,35.4],[119.6,35.4],[119.6,35.6],[119.7,35.6],[119.7,35.7],[120.0,35.7],[120.0,35.8],[120.1,35.8],[120.1,35.9],[120.2,35.9],[120.2,36.0],[120.3,36.0],[120.3,36.1],[120.6,36.1],[120.6,36.2],[120.7,36.2],[120.7,36.4],[120.8,36.4],[120.8,36.5],[121.0,36.5],[121.0,36.6],[121.1,36.6],[121.1,36.7],[121.3,36.7],[121.3,36.8],[121.7,36.8],[121.7,36.9],[122.5,36.9],[122.5,37.0],[122.6,37.0],[122.6,37.4],[122.5,37.4],[122.5,37.5],[122.3,37.5],[122.3,37.6],[121.9,37.6],[121.9,37.5],[121.6,37.5],[121.6,37.6],[121.4,37.6],[121.4,37.7],[121.2,37.7],[121.2,37.8],[121.0,37.8],[121.0,37.9],[120.9,37.9],[120.9,38.0],[120.7,38.0],[120.7,37.9],[120.5,37.9],[120.5,37.8],[120.3,37.8],[120.3,37.7],[120.2,37.7],[120.2,37.6],[120.1,37.6],[120.1,37.5],[119.9,37.5],[119.9,37.4],[119.8,37.4],[119.8,37.3],[119.7,37.3],[119.7,37.2],[119.3,37.2],[119.3,37.3],[119.1,37.3],[119.1,37.4],[119.0,37.4],[119.0,38.2],[118.9,38.2],[118.9,38.3],[118.7,38.3],[118.7,38.2],[118.0,38.2],[118.0,38.3],[117.9,38.3],[117.9,38.4],[117.8,38.4],[117.8,38.5],[117.7,38.5],[117.7,38.6],[117.6,38.6],[117.6,39.0],[117.7,39.0],[117.7,39.1],[117.9,39.1],[117.9,39.2],[118.2,39.2],[118.2,39.1],[118.9,39.1],[118.9,39.2],[119.1,39.2],[119.1,39.3],[119.2,39.3],[119.2,39.5],[119.3,39.5],[119.3,39.7],[119.4,39.7],[119.4,39.8],[119.6,39.8],[119.6,39.9],[119.7,39.9],[119.7,40.0],[120.0,40.0],[120.0,40.1],[120.2,40.1],[120.2,40.2],[120.5,40.2],[120.5,40.3],[120.6,40.3],[120.6,40.5],[120.7,40.5],[120.7,40.6],[120.9,40.6],[120.9,40.7],[121.0,40.7],[121.0,40.8],[121.1,40.8],[121.1,40.9],[121.5,40.9],[121.5,41.0],[121.8,41.0],[121.8,40.9],[121.9,40.9],[121.9,40.8],[122.1,40.8],[122.1,40.7],[122.2,40.7],[122.2,40.4],[122.1,40.4],[122.1,40.3],[122.0,40.3],[122.0,40.2],[121.9,40.2],[121.9,40.1],[121.8,40.1],[121.8,40.0],[121.6,40.0],[121.6,39.9],[121.5,39.9],[121.5,39.8],[121.4,39.8],[121.4,39.7],[121.3,39.7],[121.3,39.5],[121.4,39.5],[121.4,39.3],[121.5,39.3],[121.5,39.2],[121.4,39.2],[121.4,39.1],[121.3,39.1],[121.3,38.8],[121.5,38.8],[121.5,38.9],[121.9,38.9],[121.9,39.0],[122.0,39.0],[122.0,39.1],[122.1,39.1],[122.1,39.2],[122.2,39.2],[122.2,39.3],[122.5,39.3],[122.5,39.4],[122.6,39.4],[122.6,39.5],[122.7,39.5],[122.7,39.6],[122.9,39.6],[122.9,39.7],[123.3,39.7],[123.3,39.8],[123.7,39.8],[123.7,39.9],[124.2,39.9],[124.2,39.8],[124.5,39.8],[124.5,39.7],[124.7,39.7],[124.7,39.6],[125.3,39.6],[125.3,39.5],[125.4,39.5],[125.4,39.3],[125.3,39.3],[125.3,39.1],[125.2,39.1],[125.2,39.0],[125.1,39.0],[125.1,38.7],[125.0,38.7],[125.0,38.6],[124.9,38.6],[124.9,38.1],[125.0,38.1],[125.0,37.9],[125.1,37.9],[125.1,37.8],[125.2,37.8],[125.2,37.7],[125.4,37.7],[125.4,37.8],[125.7,37.8],[125.7,37.9],[126.0,37.9],[126.0,37.8],[126.3,37.8],[126.3,37.7],[126.4,37.7],[126.4,37.4],[126.7,37.4],[126.7,37.5],[126.8,37.5],[126.8,37.6],[127.0,37.6],[127.0,37.8],[127.1,37.8],[127.1,38.0],[127.2,38.0],[127.2,38.9],[127.1,38.9],[127.1,39.2],[127.0,39.2],[127.0,39.5],[126.9,39.5],[126.9,39.7],[126.8,39.7],[126.8,39.9],[126.7,39.9],[126.7,40.0],[126.6,40.0],[126.6,40.2],[126.4,40.2],[126.4,40.3],[126.2,40.3],[126.2,40.4],[126.0,40.4],[126.0,40.5],[125.9,40.5],[125.9,40.6],[125.8,40.6],[125.8,40.7],[125.6,40.7],[125.6,40.8],[125.5,40.8],[125.5,40.9],[125.3,40.9],[125.3,41.0],[125.1,41.0],[125.1,41.1],[124.9,41.1],[124.9,41.2],[124.8,41.2],[124.8,41.3],[124.6,41.3],[124.6,41.4],[124.5,41.4],[124.5,41.5],[124.4,41.5],[124.4,41.6],[124.3,41.6],[124.3,41.7],[124.1,41.7],[124.1,41.8],[123.9,41.8],[123.9,41.9],[123.8,41.9],[123.8,42.0],[123.3,42.0],[123.3,41.9],[123.2,41.9],[123.2,41.8],[122.9,41.8],[122.9,41.7],[122.7,41.7],[122.7,41.6],[122.6,41.6],[122.6,41.5],[122.3,41.5],[122.3,41.4],[122.0,41.4],[122.0,41.3],[121.7,41.3],[121.7,41.2],[121.0,41.2],[121.0,41.3],[120.4,41.3],[120.4,41.4],[120.2,41.4],[120.2,41.5],[120.0,41.5],[120.0,41.6],[119.8,41.6],[119.8,41.7],[119.4,41.7],[119.4,41.8],[119.0,41.8],[119.0,41.9],[118.2,41.9],[118.2,42.0],[117.2,42.0],[117.2,41.9],[116.9,41.9],[116.9,41.8],[116.6,41.8],[116.6,41.7],[116.5,41.7],[116.5,41.6],[116.3,41.6],[116.3,41.5],[116.0,41.5],[116.0,41.4],[115.7,41.4],[115.7,41.3],[115.2,41.3],[115.2,41.0],[115.1,41.0],[115.1,40.8],[115.0,40.8],[115.0,40.7],[114.9,40.7],[114.9,40.6],[114.8,40.6],[114.8,40.5],[114.7,40.5],[114.7,40.4],[114.6,40.4],[114.6,40.3],[114.5,40.3],[114.5,40.2],[114.4,40.2],[114.4,40.1],[114.2,40.1],[114.2,40.0],[114.1,40.0],[114.1,39.9],[114.0,39.9],[114.0,39.8],[113.8,39.8],[113.8,39.7],[113.7,39.7],[113.7,39.6],[113.6,39.6],[113.6,39.5],[113.5,39.5],[113.5,39.4],[113.4,39.4],[113.4,39.3],[113.2,39.3],[113.2,39.2],[113.1,39.2],[113.1,39.1],[113.0,39.1],[113.0,39.0],[112.9,39.0],[112.9,38.9],[112.8,38.9],[112.8,38.8],[112.4,38.8],[112.4,38.7],[112.2,38.7],[112.2,38.6],[112.1,38.6],[112.1,38.5],[112.0,38.5],[112.0,38.4],[111.9,38.4],[111.9,38.2],[111.8,38.2],[111.8,38.1],[111.7,38.1],[111.7,37.9],[111.6,37.9],[111.6,37.8],[111.5,37.8],[111.5,37.7],[111.4,37.7],[111.4,37.6],[111.3,37.6],[111.3,37.5],[111.2,37.5],[111.2,37.4],[111.1,37.4],[111.1,37.3],[110.9,37.3],[110.9,37.2],[110.8,37.2],[110.8,37.1],[110.7,37.1],[110.7,37.0],[110.5,37.0],[110.5,36.9],[110.3,36.9],[110.3,36.8],[110.1,36.8],[110.1,36.7],[109.5,36.7],[109.5,36.8],[109.3,36.8],[109.3,36.9],[107.9,36.9],[107.9,37.0],[107.8,37.0],[107.8,37.1],[107.6,37.1],[107.6,37.2],[107.4,37.2],[107.4,37.3],[107.3,37.3],[107.3,37.4],[107.2,37.4],[107.2,37.5],[107.1,37.5],[107.1,37.6],[107.0,37.6],[107.0,37.7],[106.9,37.7],[106.9,37.9],[106.8,37.9],[106.8,38.1],[106.7,38.1],[106.7,38.2],[106.6,38.2],[106.6,38.3],[106.5,38.3],[106.5,38.4],[106.3,38.4],[106.3,38.5],[106.2,38.5],[106.2,38.6],[106.1,38.6],[106.1,38.7],[106.0,38.7],[106.0,38.8],[105.9,38.8],[105.9,38.9],[105.7,38.9],[105.7,39.0],[105.6,39.0],[105.6,39.1],[105.4,39.1],[105.4,39.2],[105.2,39.2],[105.2,39.3],[105.0,39.3],[105.0,39.4],[104.8,39.4],[104.8,39.5],[104.7,39.5],[104.7,39.6],[104.6,39.6],[104.6,39.7],[104.4,39.7],[104.4,39.8],[104.3,39.8],[104.3,39.9],[104.1,39.9],[104.1,40.0],[104.0,40.0],[104.0,40.1],[103.8,40.1],[103.8,40.2],[103.4,40.2],[103.4,40.3],[102.8,40.3],[102.8,40.4],[102.5,40.4],[102.5,40.5],[102.3,40.5],[102.3,40.6],[102.0,40.6],[102.0,40.7],[101.8,40.7],[101.8,40.8],[101.5,40.8],[101.5,40.9],[101.3,40.9],[101.3,41.0],[101.1,41.0],[101.1,41.1],[100.9,41.1],[100.9,41.2],[100.6,41.2],[100.6,41.3],[100.3,41.3],[100.3,41.4],[100.1,41.4],[100.1,41.5],[99.8,41.5],[99.8,41.6],[99.6,41.6],[99.6,41.7],[99.3,41.7],[99.3,41.8],[99.0,41.8],[99.0,41.9],[98.8,41.9],[98.8,42.0],[98.4,42.0],[98.4,42.1],[98.0,42.1],[98.0,42.2],[97.6,42.2],[97.6,42.3],[97.3,42.3],[97.3,42.4],[97.1,42.4],[97.1,42.5],[96.6,42.5],[96.6,42.6],[96.1,42.6],[96.1,42.7],[95.6,42.7],[95.6,42.8],[95.2,42.8],[95.2,42.9]],[[116.0,29.2],[116.0,29.4],[116.2,29.4],[116.2,29.2],[116.0,29.2]],[[116.4,29.0],[116.4,29.2],[116.5,29.2],[116.5,29.0],[116.4,29.0]]]},"properties":{"tile_id":"61","start_year":300,"end_year":304,"source_image":"data/raw/toolbay/t/61/300.png","source_url":"https://www.toolbay.cc/history-map/t/61/300.png","source_color":"#999900","polity_id":null,"polity_assignment":"unverified","geometry_origin":"raster_color_trace","pixel_size_degrees":0.1,"source_color_pixels":35170,"simplification_degrees":0}},{"type":"Feature","id":"61:300:#ff9933","bbox":[128.9,31.9,135.0,35.7],"geometry":{"type":"MultiPolygon","coordinates":[[[[129.0,32.9],[129.1,32.9],[129.1,33.1],[129.0,33.1],[129.0,33.0],[128.9,33.0],[128.9,32.8],[129.0,32.8],[129.0,32.9]]],[[[134.2,34.3],[133.9,34.3],[133.9,34.4],[133.8,34.4],[133.8,34.3],[133.6,34.3],[133.6,34.1],[133.3,34.1],[133.3,34.2],[132.9,34.2],[132.9,34.1],[132.8,34.1],[132.8,34.0],[132.7,34.0],[132.7,33.8],[132.6,33.8],[132.6,33.7],[132.4,33.7],[132.4,33.6],[132.3,33.6],[132.3,33.4],[132.4,33.4],[132.4,33.1],[132.5,33.1],[132.5,33.0],[132.6,33.0],[132.6,32.9],[132.7,32.9],[132.7,32.8],[133.0,32.8],[133.0,32.9],[133.1,32.9],[133.1,33.1],[133.2,33.1],[133.2,33.2],[133.3,33.2],[133.3,33.3],[133.4,33.3],[133.4,33.4],[133.5,33.4],[133.5,33.5],[133.6,33.5],[133.6,33.6],[133.9,33.6],[133.9,33.5],[134.0,33.5],[134.0,33.4],[134.2,33.4],[134.2,33.5],[134.3,33.5],[134.3,33.6],[134.4,33.6],[134.4,33.7],[134.6,33.7],[134.6,33.8],[134.7,33.8],[134.7,34.2],[134.6,34.2],[134.6,34.3],[134.5,34.3],[134.5,34.4],[134.2,34.4],[134.2,34.3]]],[[[134.3,35.6],[133.4,35.6],[133.4,35.7],[133.0,35.7],[133.0,35.6],[132.8,35.6],[132.8,35.5],[132.7,35.5],[132.7,35.4],[132.6,35.4],[132.6,35.3],[132.4,35.3],[132.4,35.2],[132.3,35.2],[132.3,35.1],[132.2,35.1],[132.2,35.0],[132.0,35.0],[132.0,34.9],[131.9,34.9],[131.9,34.8],[131.6,34.8],[131.6,34.7],[131.5,34.7],[131.5,34.6],[131.4,34.6],[131.4,34.5],[131.0,34.5],[131.0,34.4],[130.9,34.4],[130.9,34.0],[130.5,34.0],[130.5,33.9],[130.4,33.9],[130.4,33.8],[130.2,33.8],[130.2,33.7],[130.1,33.7],[130.1,33.6],[129.9,33.6],[129.9,33.7],[129.7,33.7],[129.7,33.5],[129.5,33.5],[129.5,33.4],[129.6,33.4],[129.6,33.0],[129.7,33.0],[129.7,32.8],[129.8,32.8],[129.8,32.7],[130.0,32.7],[130.0,32.8],[129.9,32.8],[129.9,33.0],[130.1,33.0],[130.1,32.7],[130.3,32.7],[130.3,32.9],[130.4,32.9],[130.4,33.0],[130.3,33.0],[130.3,33.1],[130.2,33.1],[130.2,33.2],[130.4,33.2],[130.4,33.1],[130.5,33.1],[130.5,32.9],[130.6,32.9],[130.6,32.8],[130.5,32.8],[130.5,32.7],[130.4,32.7],[130.4,32.6],[130.2,32.6],[130.2,32.5],[130.1,32.5],[130.1,32.1],[130.6,32.1],[130.6,32.0],[130.9,32.0],[130.9,31.9],[131.5,31.9],[131.5,32.1],[131.6,32.1],[131.6,32.4],[131.7,32.4],[131.7,32.5],[131.8,32.5],[131.8,32.7],[131.9,32.7],[131.9,32.8],[132.0,32.8],[132.0,33.3],[131.9,33.3],[131.9,33.4],[131.8,33.4],[131.8,33.7],[131.7,33.7],[131.7,33.8],[131.5,33.8],[131.5,33.7],[131.2,33.7],[131.2,33.9],[131.1,33.9],[131.1,34.0],[131.9,34.0],[131.9,33.9],[132.0,33.9],[132.0,33.8],[132.3,33.8],[132.3,33.9],[132.4,33.9],[132.4,34.0],[132.6,34.0],[132.6,34.2],[132.9,34.2],[132.9,34.3],[133.3,34.3],[133.3,34.4],[133.8,34.4],[133.8,34.5],[134.2,34.5],[134.2,34.6],[134.4,34.6],[134.4,34.7],[134.5,34.7],[134.5,34.8],[134.8,34.8],[134.8,34.7],[135.0,34.7],[135.0,35.7],[134.3,35.7],[134.3,35.6]]],[[[134.9,34.2],[134.9,34.3],[135.0,34.3],[135.0,34.6],[134.9,34.6],[134.9,34.5],[134.8,34.5],[134.8,34.4],[134.7,34.4],[134.7,34.2],[134.9,34.2]]],[[[129.9,34.7],[129.9,34.8],[130.0,34.8],[130.0,35.0],[129.9,35.0],[129.9,34.9],[129.8,34.9],[129.8,34.7],[129.7,34.7],[129.7,34.3],[129.8,34.3],[129.8,34.4],[129.9,34.4],[129.9,34.6],[130.0,34.6],[130.0,34.7],[129.9,34.7]]]]},"properties":{"tile_id":"61","start_year":300,"end_year":304,"source_image":"data/raw/toolbay/t/61/300.png","source_url":"https://www.toolbay.cc/history-map/t/61/300.png","source_color":"#ff9933","polity_id":null,"polity_assignment":"unverified","geometry_origin":"raster_color_trace","pixel_size_degrees":0.1,"source_color_pixels":990,"simplification_degrees":0}},{"type":"Feature","id":"61:300:#ffff00","bbox":[105.8,10.4,130.9,43.3],"geometry":{"type":"MultiPolygon","coordinates":[[[[107.7,16.6],[107.7,16.7],[107.5,16.7],[107.5,16.6],[107.4,16.6],[107.4,16.5],[107.3,16.5],[107.3,16.4],[107.2,16.4],[107.2,16.3],[107.0,16.3],[107.0,16.2],[106.8,16.2],[106.8,16.1],[106.6,16.1],[106.6,16.0],[105.8,16.0],[105.8,15.8],[105.9,15.8],[105.9,15.7],[106.0,15.7],[106.0,15.5],[106.1,15.5],[106.1,15.2],[106.2,15.2],[106.2,14.4],[106.3,14.4],[106.3,13.7],[106.2,13.7],[106.2,13.4],[106.1,13.4],[106.1,12.9],[106.0,12.9],[106.0,11.4],[106.1,11.4],[106.1,11.3],[106.2,11.3],[106.2,11.2],[106.3,11.2],[106.3,11.1],[106.4,11.1],[106.4,11.0],[106.5,11.0],[106.5,10.9],[106.6,10.9],[106.6,10.8],[106.7,10.8],[106.7,10.7],[106.8,10.7],[106.8,10.6],[106.9,10.6],[106.9,10.5],[107.1,10.5],[107.1,10.4],[107.3,10.4],[107.3,10.5],[107.5,10.5],[107.5,10.6],[107.7,10.6],[107.7,10.7],[108.0,10.7],[108.0,10.8],[108.1,10.8],[108.1,10.9],[108.2,10.9],[108.2,11.0],[108.4,11.0],[108.4,11.1],[108.5,11.1],[108.5,11.2],[108.7,11.2],[108.7,11.3],[108.9,11.3],[108.9,11.4],[109.0,11.4],[109.0,11.5],[109.1,11.5],[109.1,11.6],[109.2,11.6],[109.2,11.7],[109.3,11.7],[109.3,12.3],[109.4,12.3],[109.4,12.6],[109.5,12.6],[109.5,13.1],[109.4,13.1],[109.4,13.7],[109.3,13.7],[109.3,14.3],[109.2,14.3],[109.2,14.6],[109.1,14.6],[109.1,14.9],[109.0,14.9],[109.0,15.3],[108.9,15.3],[108.9,15.4],[108.8,15.4],[108.8,15.5],[108.7,15.5],[108.7,15.6],[108.6,15.6],[108.6,15.7],[108.5,15.7],[108.5,15.9],[108.4,15.9],[108.4,16.0],[108.3,16.0],[108.3,16.2],[108.2,16.2],[108.2,16.3],[108.1,16.3],[108.1,16.4],[107.9,16.4],[107.9,16.5],[107.8,16.5],[107.8,16.6],[107.7,16.6]]],[[[129.6,43.2],[129.6,43.3],[129.4,43.3],[129.4,42.8],[129.3,42.8],[129.3,42.6],[129.2,42.6],[129.2,42.5],[129.1,42.5],[129.1,42.4],[129.0,42.4],[129.0,42.2],[128.9,42.2],[128.9,42.1],[128.8,42.1],[128.8,42.0],[128.7,42.0],[128.7,41.6],[129.0,41.6],[129.0,41.5],[129.1,41.5],[129.1,41.4],[129.2,41.4],[129.2,41.3],[129.4,41.3],[129.4,41.2],[129.5,41.2],[129.5,41.1],[129.7,41.1],[129.7,41.0],[129.8,41.0],[129.8,41.8],[129.9,41.8],[129.9,41.9],[130.0,41.9],[130.0,42.0],[130.1,42.0],[130.1,42.1],[130.2,42.1],[130.2,42.2],[130.4,42.2],[130.4,42.3],[130.5,42.3],[130.5,42.4],[130.6,42.4],[130.6,42.5],[130.9,42.5],[130.9,42.6],[130.8,42.6],[130.8,42.7],[130.7,42.7],[130.7,42.8],[130.6,42.8],[130.6,42.9],[130.5,42.9],[130.5,43.0],[130.3,43.0],[130.3,43.1],[130.0,43.1],[130.0,43.2],[129.6,43.2]]]]},"properties":{"tile_id":"61","start_year":300,"end_year":304,"source_image":"data/raw/toolbay/t/61/300.png","source_url":"https://www.toolbay.cc/history-map/t/61/300.png","source_color":"#ffff00","polity_id":null,"polity_assignment":"unverified","geometry_origin":"raster_color_trace","pixel_size_degrees":0.1,"source_color_pixels":1871,"simplification_degrees":0}}]}
