{"type":"FeatureCollection","features":[{"type":"Feature","id":"61:48:#009900","bbox":[126.6,37.6,129.1,40.2],"geometry":{"type":"Polygon","coordinates":[[[127.4,40.2],[126.6,40.2],[126.6,40.0],[126.7,40.0],[126.7,39.9],[126.8,39.9],[126.8,39.7],[126.9,39.7],[126.9,39.5],[127.0,39.5],[127.0,39.2],[127.1,39.2],[127.1,38.9],[127.2,38.9],[127.2,38.0],[127.1,38.0],[127.1,37.8],[127.0,37.8],[127.0,37.7],[128.2,37.7],[128.2,37.6],[129.1,37.6],[129.1,37.8],[129.0,37.8],[129.0,37.9],[128.9,37.9],[128.9,38.0],[128.8,38.0],[128.8,38.1],[128.7,38.1],[128.7,38.3],[128.6,38.3],[128.6,38.5],[128.5,38.5],[128.5,38.6],[128.4,38.6],[128.4,38.7],[128.3,38.7],[128.3,38.8],[128.2,38.8],[128.2,38.9],[128.1,38.9],[128.1,39.0],[127.9,39.0],[127.9,39.1],[127.8,39.1],[127.8,39.2],[127.7,39.2],[127.7,39.3],[127.6,39.3],[127.6,39.8],[127.7,39.8],[127.7,40.0],[127.6,40.0],[127.6,40.1],[127.4,40.1],[127.4,40.2]]]},"properties":{"tile_id":"61","start_year":48,"end_year":70,"source_image":"data/raw/toolbay/t/61/48.png","source_url":"https://www.toolbay.cc/history-map/t/61/48.png","source_color":"#009900","polity_id":null,"polity_assignment":"unverified","geometry_origin":"raster_color_trace","pixel_size_degrees":0.1,"source_color_pixels":290,"simplification_degrees":0}},{"type":"Feature","id":"61:48:#00ff00","bbox":[91.7,40.6,120.6,45.0],"geometry":{"type":"Polygon","coordinates":[[[120.6,45.0],[94.6,45.0],[94.6,44.8],[94.5,44.8],[94.5,44.3],[94.4,44.3],[94.4,44.1],[94.3,44.1],[94.3,43.5],[94.2,43.5],[94.2,43.4],[94.1,43.4],[94.1,43.2],[94.0,43.2],[94.0,43.1],[93.9,43.1],[93.9,43.0],[93.8,43.0],[93.8,42.9],[93.7,42.9],[93.7,42.8],[93.6,42.8],[93.6,42.7],[93.5,42.7],[93.5,42.6],[93.4,42.6],[93.4,42.5],[93.3,42.5],[93.3,42.4],[93.1,42.4],[93.1,42.3],[93.0,42.3],[93.0,42.2],[92.7,42.2],[92.7,42.1],[92.5,42.1],[92.5,42.0],[92.2,42.0],[92.2,41.9],[91.9,41.9],[91.9,41.8],[91.7,41.8],[91.7,41.6],[91.8,41.6],[91.8,41.5],[91.9,41.5],[91.9,41.4],[92.0,41.4],[92.0,41.3],[92.1,41.3],[92.1,41.2],[92.2,41.2],[92.2,41.1],[92.4,41.1],[92.4,41.0],[92.5,41.0],[92.5,40.9],[92.7,40.9],[92.7,40.8],[93.4,40.8],[93.4,40.7],[95.0,40.7],[95.0,40.8],[95.5,40.8],[95.5,40.9],[95.8,40.9],[95.8,41.0],[96.2,41.0],[96.2,41.1],[96.4,41.1],[96.4,41.2],[96.9,41.2],[96.9,41.1],[97.9,41.1],[97.9,41.0],[98.9,41.0],[98.9,40.9],[99.0,40.9],[99.0,40.8],[101.1,40.8],[101.1,40.7],[102.5,40.7],[102.5,40.6],[103.4,40.6],[103.4,40.7],[103.7,40.7],[103.7,40.8],[104.4,40.8],[104.4,40.9],[104.5,40.9],[104.5,41.0],[104.7,41.0],[104.7,41.1],[104.8,41.1],[104.8,41.2],[105.0,41.2],[105.0,41.3],[105.3,41.3],[105.3,41.4],[105.4,41.4],[105.4,41.5],[105.8,41.5],[105.8,41.6],[108.4,41.6],[108.4,41.5],[108.6,41.5],[108.6,41.4],[109.1,41.4],[109.1,41.3],[109.5,41.3],[109.5,41.2],[110.5,41.2],[110.5,41.1],[110.9,41.1],[110.9,41.0],[111.2,41.0],[111.2,40.9],[111.5,40.9],[111.5,40.8],[111.9,40.8],[111.9,40.7],[113.4,40.7],[113.4,40.8],[113.9,40.8],[113.9,40.9],[114.6,40.9],[114.6,41.0],[114.8,41.0],[114.8,41.1],[115.0,41.1],[115.0,41.2],[115.1,41.2],[115.1,41.3],[115.7,41.3],[115.7,41.4],[116.0,41.4],[116.0,41.5],[116.3,41.5],[116.3,41.6],[116.5,41.6],[116.5,41.7],[116.3,41.7],[116.3,41.9],[116.2,41.9],[116.2,42.2],[116.1,42.2],[116.1,42.4],[116.2,42.4],[116.2,42.5],[116.3,42.5],[116.3,42.6],[116.4,42.6],[116.4,42.8],[116.6,42.8],[116.6,42.9],[116.7,42.9],[116.7,43.0],[116.8,43.0],[116.8,43.1],[117.0,43.1],[117.0,43.2],[117.3,43.2],[117.3,43.3],[117.7,43.3],[117.7,43.4],[117.9,43.4],[117.9,43.5],[118.3,43.5],[118.3,43.6],[118.5,43.6],[118.5,43.7],[118.7,43.7],[118.7,43.8],[119.0,43.8],[119.0,43.9],[119.4,43.9],[119.4,44.0],[119.6,44.0],[119.6,44.1],[119.8,44.1],[119.8,44.2],[120.0,44.2],[120.0,44.4],[120.2,44.4],[120.2,44.5],[120.3,44.5],[120.3,44.6],[120.4,44.6],[120.4,44.7],[120.5,44.7],[120.5,44.8],[120.6,44.8],[120.6,45.0]]]},"properties":{"tile_id":"61","start_year":48,"end_year":70,"source_image":"data/raw/toolbay/t/61/48.png","source_url":"https://www.toolbay.cc/history-map/t/61/48.png","source_color":"#00ff00","polity_id":null,"polity_assignment":"unverified","geometry_origin":"raster_color_trace","pixel_size_degrees":0.1,"source_color_pixels":9662,"simplification_degrees":0}},{"type":"Feature","id":"61:48:#00ffff","bbox":[123.6,40.9,127.7,44.0],"geometry":{"type":"Polygon","coordinates":[[[124.7,44.0],[124.1,44.0],[124.1,43.9],[123.7,43.9],[123.7,43.7],[123.8,43.7],[123.8,43.6],[123.9,43.6],[123.9,43.4],[124.0,43.4],[124.0,43.1],[123.9,43.1],[123.9,42.7],[123.8,42.7],[123.8,42.5],[123.7,42.5],[123.7,42.4],[123.6,42.4],[123.6,42.1],[124.5,42.1],[124.5,42.0],[124.7,42.0],[124.7,41.9],[124.9,41.9],[124.9,41.8],[125.0,41.8],[125.0,41.7],[125.3,41.7],[125.3,41.6],[125.4,41.6],[125.4,41.5],[125.6,41.5],[125.6,41.4],[125.7,41.4],[125.7,41.3],[125.8,41.3],[125.8,41.2],[126.0,41.2],[126.0,41.1],[126.1,41.1],[126.1,40.9],[126.2,40.9],[126.2,41.0],[126.3,41.0],[126.3,41.2],[126.4,41.2],[126.4,41.4],[126.5,41.4],[126.5,41.5],[126.6,41.5],[126.6,41.7],[126.7,41.7],[126.7,41.8],[126.8,41.8],[126.8,42.0],[126.9,42.0],[126.9,42.1],[127.0,42.1],[127.0,42.3],[127.1,42.3],[127.1,42.4],[127.2,42.4],[127.2,42.5],[127.3,42.5],[127.3,42.6],[127.4,42.6],[127.4,42.7],[127.6,42.7],[127.6,42.8],[127.7,42.8],[127.7,43.0],[127.6,43.0],[127.6,43.1],[127.4,43.1],[127.4,43.2],[127.0,43.2],[127.0,43.3],[126.8,43.3],[126.8,43.4],[126.6,43.4],[126.6,43.5],[126.2,43.5],[126.2,43.6],[125.9,43.6],[125.9,43.7],[125.6,43.7],[125.6,43.8],[125.1,43.8],[125.1,43.9],[124.7,43.9],[124.7,44.0]]]},"properties":{"tile_id":"61","start_year":48,"end_year":70,"source_image":"data/raw/toolbay/t/61/48.png","source_url":"https://www.toolbay.cc/history-map/t/61/48.png","source_color":"#00ffff","polity_id":null,"polity_assignment":"unverified","geometry_origin":"raster_color_trace","pixel_size_degrees":0.1,"source_color_pixels":695,"simplification_degrees":0}},{"type":"Feature","id":"61:48:#6666ff","bbox":[90.0,41.8,94.6,45.0],"geometry":{"type":"Polygon","coordinates":[[[94.6,45.0],[90.0,45.0],[90.0,44.7],[90.1,44.7],[90.1,44.5],[90.2,44.5],[90.2,44.1],[90.3,44.1],[90.3,43.9],[90.4,43.9],[90.4,43.7],[90.5,43.7],[90.5,43.5],[90.6,43.5],[90.6,43.3],[90.7,43.3],[90.7,43.1],[90.8,43.1],[90.8,42.9],[90.9,42.9],[90.9,42.7],[91.0,42.7],[91.0,42.5],[91.1,42.5],[91.1,42.4],[91.2,42.4],[91.2,42.2],[91.3,42.2],[91.3,42.1],[91.4,42.1],[91.4,42.0],[91.5,42.0],[91.5,41.9],[91.6,41.9],[91.6,41.8],[91.9,41.8],[91.9,41.9],[92.2,41.9],[92.2,42.0],[92.5,42.0],[92.5,42.1],[92.7,42.1],[92.7,42.2],[93.0,42.2],[93.0,42.3],[93.1,42.3],[93.1,42.4],[93.3,42.4],[93.3,42.5],[93.4,42.5],[93.4,42.6],[93.5,42.6],[93.5,42.7],[93.6,42.7],[93.6,42.8],[93.7,42.8],[93.7,42.9],[93.8,42.9],[93.8,43.0],[93.9,43.0],[93.9,43.1],[94.0,43.1],[94.0,43.2],[94.1,43.2],[94.1,43.4],[94.2,43.4],[94.2,43.5],[94.3,43.5],[94.3,44.1],[94.4,44.1],[94.4,44.3],[94.5,44.3],[94.5,44.8],[94.6,44.8],[94.6,45.0]]]},"properties":{"tile_id":"61","start_year":48,"end_year":70,"source_image":"data/raw/toolbay/t/61/48.png","source_url":"https://www.toolbay.cc/history-map/t/61/48.png","source_color":"#6666ff","polity_id":null,"polity_assignment":"unverified","geometry_origin":"raster_color_trace","pixel_size_degrees":0.1,"source_color_pixels":1026,"simplification_degrees":0}},{"type":"Feature","id":"61:48:#ff00ff","bbox":[90.0,21.9,124.0,45.0],"geometry":{"type":"MultiPolygon","coordinates":[[[[90.5,26.3],[90.5,26.4],[90.0,26.4],[90.0,21.9],[90.7,21.9],[90.7,22.0],[90.8,22.0],[90.8,22.1],[91.0,22.1],[91.0,22.2],[91.1,22.2],[91.1,22.5],[91.2,22.5],[91.2,22.6],[91.7,22.6],[91.7,22.5],[91.8,22.5],[91.8,22.0],[91.9,22.0],[91.9,22.1],[92.0,22.1],[92.0,22.2],[92.1,22.2],[92.1,22.3],[92.2,22.3],[92.2,22.4],[92.3,22.4],[92.3,22.6],[92.4,22.6],[92.4,22.7],[92.5,22.7],[92.5,23.5],[92.6,23.5],[92.6,24.5],[92.5,24.5],[92.5,24.8],[92.4,24.8],[92.4,25.0],[92.3,25.0],[92.3,25.1],[92.2,25.1],[92.2,25.2],[92.1,25.2],[92.1,25.3],[92.0,25.3],[92.0,25.4],[91.9,25.4],[91.9,25.5],[91.7,25.5],[91.7,25.6],[91.6,25.6],[91.6,25.7],[91.5,25.7],[91.5,25.8],[91.4,25.8],[91.4,25.9],[91.3,25.9],[91.3,26.0],[91.1,26.0],[91.1,26.1],[91.0,26.1],[91.0,26.2],[90.8,26.2],[90.8,26.3],[90.5,26.3]]],[[[121.4,44.9],[121.4,45.0],[120.6,45.0],[120.6,44.8],[120.5,44.8],[120.5,44.7],[120.4,44.7],[120.4,44.6],[120.3,44.6],[120.3,44.5],[120.2,44.5],[120.2,44.4],[120.0,44.4],[120.0,44.2],[119.8,44.2],[119.8,44.1],[119.6,44.1],[119.6,44.0],[119.4,44.0],[119.4,43.9],[119.0,43.9],[119.0,43.8],[118.7,43.8],[118.7,43.7],[118.5,43.7],[118.5,43.6],[118.3,43.6],[118.3,43.5],[117.9,43.5],[117.9,43.4],[117.7,43.4],[117.7,43.3],[117.3,43.3],[117.3,43.2],[117.0,43.2],[117.0,43.1],[116.8,43.1],[116.8,43.0],[116.7,43.0],[116.7,42.9],[116.6,42.9],[116.6,42.8],[116.4,42.8],[116.4,42.6],[116.3,42.6],[116.3,42.5],[116.2,42.5],[116.2,42.4],[116.1,42.4],[116.1,42.2],[116.2,42.2],[116.2,41.9],[116.3,41.9],[116.3,41.7],[116.6,41.7],[116.6,41.8],[116.9,41.8],[116.9,41.9],[117.2,41.9],[117.2,42.0],[118.2,42.0],[118.2,41.9],[119.0,41.9],[119.0,41.8],[119.4,41.8],[119.4,41.7],[119.8,41.7],[119.8,41.6],[120.0,41.6],[120.0,41.5],[120.2,41.5],[120.2,41.4],[120.4,41.4],[120.4,41.3],[121.0,41.3],[121.0,41.2],[121.7,41.2],[121.7,41.3],[122.0,41.3],[122.0,41.4],[122.3,41.4],[122.3,41.5],[122.6,41.5],[122.6,41.6],[122.7,41.6],[122.7,41.7],[122.9,41.7],[122.9,41.8],[123.2,41.8],[123.2,41.9],[123.3,41.9],[123.3,42.0],[123.6,42.0],[123.6,42.4],[123.7,42.4],[123.7,42.5],[123.8,42.5],[123.8,42.7],[123.9,42.7],[123.9,43.1],[124.0,43.1],[124.0,43.4],[123.9,43.4],[123.9,43.6],[123.8,43.6],[123.8,43.7],[123.7,43.7],[123.7,43.9],[123.6,43.9],[123.6,44.0],[123.4,44.0],[123.4,44.1],[123.2,44.1],[123.2,44.2],[122.9,44.2],[122.9,44.3],[122.8,44.3],[122.8,44.4],[122.7,44.4],[122.7,44.5],[122.4,44.5],[122.4,44.6],[122.2,44.6],[122.2,44.7],[121.6,44.7],[121.6,44.8],[121.5,44.8],[121.5,44.9],[121.4,44.9]]]]},"properties":{"tile_id":"61","start_year":48,"end_year":70,"source_image":"data/raw/toolbay/t/61/48.png","source_url":"https://www.toolbay.cc/history-map/t/61/48.png","source_color":"#ff00ff","polity_id":null,"polity_assignment":"unverified","geometry_origin":"raster_color_trace","pixel_size_degrees":0.1,"source_color_pixels":2700,"simplification_degrees":0}},{"type":"Feature","id":"61:48:#ff9999","bbox":[95.0,16.0,127.2,42.1],"geometry":{"type":"Polygon","coordinates":[[[124.5,42.1],[123.6,42.1],[123.6,42.0],[123.3,42.0],[123.3,41.9],[123.2,41.9],[123.2,41.8],[122.9,41.8],[122.9,41.7],[122.7,41.7],[122.7,41.6],[122.6,41.6],[122.6,41.5],[122.3,41.5],[122.3,41.4],[122.0,41.4],[122.0,41.3],[121.7,41.3],[121.7,41.2],[121.0,41.2],[121.0,41.3],[120.4,41.3],[120.4,41.4],[120.2,41.4],[120.2,41.5],[120.0,41.5],[120.0,41.6],[119.8,41.6],[119.8,41.7],[119.4,41.7],[119.4,41.8],[119.0,41.8],[119.0,41.9],[118.2,41.9],[118.2,42.0],[117.2,42.0],[117.2,41.9],[116.9,41.9],[116.9,41.8],[116.6,41.8],[116.6,41.7],[116.5,41.7],[116.5,41.6],[116.3,41.6],[116.3,41.5],[116.0,41.5],[116.0,41.4],[115.7,41.4],[115.7,41.3],[115.1,41.3],[115.1,41.2],[115.0,41.2],[115.0,41.1],[114.8,41.1],[114.8,41.0],[114.6,41.0],[114.6,40.9],[113.9,40.9],[113.9,40.8],[113.4,40.8],[113.4,40.7],[111.9,40.7],[111.9,40.8],[111.5,40.8],[111.5,40.9],[111.2,40.9],[111.2,41.0],[110.9,41.0],[110.9,41.1],[110.5,41.1],[110.5,41.2],[109.5,41.2],[109.5,41.3],[109.1,41.3],[109.1,41.4],[108.6,41.4],[108.6,41.5],[108.4,41.5],[108.4,41.6],[105.8,41.6],[105.8,41.5],[105.4,41.5],[105.4,41.4],[105.3,41.4],[105.3,41.3],[105.0,41.3],[105.0,41.2],[104.8,41.2],[104.8,41.1],[104.7,41.1],[104.7,41.0],[104.5,41.0],[104.5,40.9],[104.4,40.9],[104.4,40.8],[103.7,40.8],[103.7,40.7],[103.4,40.7],[103.4,40.6],[102.5,40.6],[102.5,40.7],[101.1,40.7],[101.1,40.8],[99.0,40.8],[99.0,40.9],[98.9,40.9],[98.9,41.0],[97.9,41.0],[97.9,41.1],[96.9,41.1],[96.9,41.2],[96.4,41.2],[96.4,41.1],[96.2,41.1],[96.2,41.0],[95.8,41.0],[95.8,40.9],[95.5,40.9],[95.5,40.8],[95.0,40.8],[95.0,40.1],[95.1,40.1],[95.1,39.8],[95.2,39.8],[95.2,39.7],[95.3,39.7],[95.3,39.6],[95.5,39.6],[95.5,39.5],[96.3,39.5],[96.3,39.6],[98.2,39.6],[98.2,39.5],[99.0,39.5],[99.0,39.4],[99.5,39.4],[99.5,39.3],[99.9,39.3],[99.9,39.2],[100.1,39.2],[100.1,39.1],[100.5,39.1],[100.5,39.0],[100.9,39.0],[100.9,38.9],[101.4,38.9],[101.4,38.8],[101.7,38.8],[101.7,38.7],[102.2,38.7],[102.2,38.6],[102.4,38.6],[102.4,38.5],[102.6,38.5],[102.6,38.4],[102.7,38.4],[102.7,38.3],[102.8,38.3],[102.8,38.2],[103.0,38.2],[103.0,38.1],[103.1,38.1],[103.1,37.8],[103.2,37.8],[103.2,37.6],[103.3,37.6],[103.3,36.3],[103.4,36.3],[103.4,35.8],[103.5,35.8],[103.5,35.6],[103.6,35.6],[103.6,35.4],[103.7,35.4],[103.7,34.6],[103.8,34.6],[103.8,33.9],[103.7,33.9],[103.7,33.5],[103.6,33.5],[103.6,33.3],[103.5,33.3],[103.5,32.5],[103.4,32.5],[103.4,32.1],[103.3,32.1],[103.3,31.1],[103.2,31.1],[103.2,30.7],[103.1,30.7],[103.1,30.4],[103.0,30.4],[103.0,30.1],[102.9,30.1],[102.9,29.8],[102.8,29.8],[102.8,29.5],[102.7,29.5],[102.7,29.1],[102.6,29.1],[102.6,28.8],[102.5,28.8],[102.5,28.5],[102.4,28.5],[102.4,28.1],[102.3,28.1],[102.3,27.8],[102.2,27.8],[102.2,27.7],[102.1,27.7],[102.1,27.4],[102.0,27.4],[102.0,27.1],[101.9,27.1],[101.9,27.0],[101.8,27.0],[101.8,26.8],[101.7,26.8],[101.7,26.7],[101.6,26.7],[101.6,26.6],[101.5,26.6],[101.5,26.5],[101.4,26.5],[101.4,26.3],[101.3,26.3],[101.3,26.2],[101.2,26.2],[101.2,25.6],[101.3,25.6],[101.3,25.5],[101.4,25.5],[101.4,25.3],[101.6,25.3],[101.6,25.2],[101.7,25.2],[101.7,25.1],[101.8,25.1],[101.8,25.0],[101.9,25.0],[101.9,24.9],[102.0,24.9],[102.0,24.8],[102.2,24.8],[102.2,24.7],[102.3,24.7],[102.3,24.6],[102.4,24.6],[102.4,24.5],[102.5,24.5],[102.5,24.4],[102.7,24.4],[102.7,24.3],[102.8,24.3],[102.8,24.2],[103.0,24.2],[103.0,24.1],[103.2,24.1],[103.2,24.0],[103.3,24.0],[103.3,23.8],[103.2,23.8],[103.2,23.6],[103.1,23.6],[103.1,23.0],[103.0,23.0],[103.0,22.3],[103.1,22.3],[103.1,21.5],[103.2,21.5],[103.2,21.3],[103.3,21.3],[103.3,20.8],[103.4,20.8],[103.4,20.5],[103.5,20.5],[103.5,20.4],[103.7,20.4],[103.7,20.0],[103.8,20.0],[103.8,19.8],[103.9,19.8],[103.9,19.4],[104.0,19.4],[104.0,19.1],[104.1,19.1],[104.1,18.8],[104.2,18.8],[104.2,18.6],[104.3,18.6],[104.3,17.6],[104.4,17.6],[104.4,17.3],[104.5,17.3],[104.5,17.1],[104.6,17.1],[104.6,16.9],[104.7,16.9],[104.7,16.8],[104.8,16.8],[104.8,16.6],[104.9,16.6],[104.9,16.5],[105.0,16.5],[105.0,16.4],[105.1,16.4],[105.1,16.3],[105.2,16.3],[105.2,16.2],[105.4,16.2],[105.4,16.1],[105.6,16.1],[105.6,16.0],[106.6,16.0],[106.6,16.1],[106.8,16.1],[106.8,16.2],[107.0,16.2],[107.0,16.3],[107.2,16.3],[107.2,16.4],[107.3,16.4],[107.3,16.5],[107.4,16.5],[107.4,16.6],[107.5,16.6],[107.5,16.8],[107.4,16.8],[107.4,16.9],[107.3,16.9],[107.3,17.0],[107.2,17.0],[107.2,17.1],[107.1,17.1],[107.1,17.2],[107.0,17.2],[107.0,17.3],[106.9,17.3],[106.9,17.4],[106.8,17.4],[106.8,17.5],[106.7,17.5],[106.7,17.6],[106.6,17.6],[106.6,17.8],[106.5,17.8],[106.5,18.2],[106.4,18.2],[106.4,18.3],[106.2,18.3],[106.2,18.4],[106.1,18.4],[106.1,18.5],[106.0,18.5],[106.0,18.6],[105.9,18.6],[105.9,18.7],[105.8,18.7],[105.8,18.9],[105.7,18.9],[105.7,19.1],[105.8,19.1],[105.8,19.3],[105.9,19.3],[105.9,19.8],[106.0,19.8],[106.0,19.9],[106.1,19.9],[106.1,20.0],[106.2,20.0],[106.2,20.1],[106.3,20.1],[106.3,20.2],[106.4,20.2],[106.4,20.3],[106.5,20.3],[106.5,20.4],[106.6,20.4],[106.6,20.6],[106.7,20.6],[106.7,20.7],[106.9,20.7],[106.9,20.8],[107.1,20.8],[107.1,20.9],[107.5,20.9],[107.5,21.0],[107.6,21.0],[107.6,21.1],[107.7,21.1],[107.7,21.3],[107.8,21.3],[107.8,21.4],[108.0,21.4],[108.0,21.5],[108.2,21.5],[108.2,21.6],[108.5,21.6],[108.5,21.7],[109.0,21.7],[109.0,21.6],[109.1,21.6],[109.1,21.5],[109.7,21.5],[109.7,20.7],[109.8,20.7],[109.8,20.5],[109.9,20.5],[109.9,20.4],[110.0,20.4],[110.0,20.3],[110.1,20.3],[110.1,20.2],[110.0,20.2],[110.0,20.1],[109.6,20.1],[109.6,20.0],[109.3,20.0],[109.3,19.9],[109.2,19.9],[109.2,19.8],[109.1,19.8],[109.1,19.7],[109.0,19.7],[109.0,19.6],[108.9,19.6],[108.9,19.5],[108.8,19.5],[108.8,19.4],[108.7,19.4],[108.7,19.3],[108.6,19.3],[108.6,18.9],[108.7,18.9],[108.7,18.6],[108.8,18.6],[108.8,18.5],[108.9,18.5],[108.9,18.4],[109.2,18.4],[109.2,18.3],[109.5,18.3],[109.5,18.2],[109.7,18.2],[109.7,18.3],[109.8,18.3],[109.8,18.4],[110.0,18.4],[110.0,18.5],[110.1,18.5],[110.1,18.6],[110.2,18.6],[110.2,18.7],[110.5,18.7],[110.5,18.8],[110.6,18.8],[110.6,19.3],[110.7,19.3],[110.7,19.4],[110.8,19.4],[110.8,19.5],[110.9,19.5],[110.9,19.6],[111.0,19.6],[111.0,20.0],[110.9,20.0],[110.9,20.1],[110.8,20.1],[110.8,20.2],[110.5,20.2],[110.5,21.0],[110.6,21.0],[110.6,21.2],[110.7,21.2],[110.7,21.3],[110.8,21.3],[110.8,21.4],[110.9,21.4],[110.9,21.5],[111.5,21.5],[111.5,21.6],[111.9,21.6],[111.9,21.7],[112.9,21.7],[112.9,21.8],[113.0,21.8],[113.0,21.9],[113.2,21.9],[113.2,22.0],[113.5,22.0],[113.5,22.1],[113.6,22.1],[113.6,22.6],[113.9,22.6],[113.9,22.2],[114.0,22.2],[114.0,22.1],[114.2,22.1],[114.2,22.2],[114.3,22.2],[114.3,22.3],[114.4,22.3],[114.4,22.4],[114.5,22.4],[114.5,22.5],[114.7,22.5],[114.7,22.6],[115.0,22.6],[115.0,22.7],[115.1,22.7],[115.1,22.8],[116.0,22.8],[116.0,22.9],[116.2,22.9],[116.2,23.0],[116.5,23.0],[116.5,23.1],[116.6,23.1],[116.6,23.2],[116.7,23.2],[116.7,23.3],[116.8,23.3],[116.8,23.4],[116.9,23.4],[116.9,23.5],[117.3,23.5],[117.3,23.6],[117.4,23.6],[117.4,23.7],[117.5,23.7],[117.5,23.8],[117.6,23.8],[117.6,23.9],[117.7,23.9],[117.7,24.0],[117.9,24.0],[117.9,24.1],[118.0,24.1],[118.0,24.2],[118.1,24.2],[118.1,24.3],[118.2,24.3],[118.2,24.4],[118.4,24.4],[118.4,24.5],[118.5,24.5],[118.5,24.6],[118.6,24.6],[118.6,24.7],[118.8,24.7],[118.8,24.8],[118.9,24.8],[118.9,25.0],[119.0,25.0],[119.0,25.1],[119.1,25.1],[119.1,25.2],[119.3,25.2],[119.3,25.3],[119.4,25.3],[119.4,25.4],[119.8,25.4],[119.8,25.5],[119.9,25.5],[119.9,25.7],[119.8,25.7],[119.8,25.8],[119.7,25.8],[119.7,26.2],[119.8,26.2],[119.8,26.3],[119.9,26.3],[119.9,26.5],[120.0,26.5],[120.0,26.6],[120.1,26.6],[120.1,26.7],[120.2,26.7],[120.2,26.9],[120.3,26.9],[120.3,27.0],[120.4,27.0],[120.4,27.2],[120.5,27.2],[120.5,27.3],[120.6,27.3],[120.6,27.4],[120.7,27.4],[120.7,27.8],[120.8,27.8],[120.8,27.9],[121.2,27.9],[121.2,28.0],[121.3,28.0],[121.3,28.2],[121.4,28.2],[121.4,28.3],[121.6,28.3],[121.6,28.4],[121.7,28.4],[121.7,28.7],[121.8,28.7],[121.8,29.0],[121.9,29.0],[121.9,29.2],[122.0,29.2],[122.0,29.6],[122.1,29.6],[122.1,29.7],[122.3,29.7],[122.3,29.8],[122.4,29.8],[122.4,30.2],[122.3,30.2],[122.3,30.3],[121.9,30.3],[121.9,30.2],[121.5,30.2],[121.5,30.3],[121.4,30.3],[121.4,30.4],[121.2,30.4],[121.2,30.5],[121.1,30.5],[121.1,30.6],[121.2,30.6],[121.2,30.7],[121.4,30.7],[121.4,30.8],[121.5,30.8],[121.5,30.9],[121.8,30.9],[121.8,31.0],[121.9,31.0],[121.9,31.2],[121.8,31.2],[121.8,31.5],[121.9,31.5],[121.9,31.7],[122.0,31.7],[122.0,31.9],[121.9,31.9],[121.9,32.0],[121.8,32.0],[121.8,32.1],[121.7,32.1],[121.7,32.2],[121.5,32.2],[121.5,32.3],[121.4,32.3],[121.4,32.5],[121.3,32.5],[121.3,32.6],[121.1,32.6],[121.1,32.7],[121.0,32.7],[121.0,33.0],[120.9,33.0],[120.9,33.1],[120.8,33.1],[120.8,33.3],[120.7,33.3],[120.7,33.5],[120.6,33.5],[120.6,33.8],[120.5,33.8],[120.5,34.0],[120.4,34.0],[120.4,34.3],[120.3,34.3],[120.3,34.4],[120.2,34.4],[120.2,34.5],[119.9,34.5],[119.9,34.6],[119.7,34.6],[119.7,34.7],[119.6,34.7],[119.6,34.8],[119.5,34.8],[119.5,34.9],[119.4,34.9],[119.4,35.2],[119.5,35.2],[119.5,35.4],[119.6,35.4],[119.6,35.6],[119.7,35.6],[119.7,35.7],[120.0,35.7],[120.0,35.8],[120.1,35.8],[120.1,35.9],[120.2,35.9],[120.2,36.0],[120.3,36.0],[120.3,36.1],[120.6,36.1],[120.6,36.2],[120.7,36.2],[120.7,36.4],[120.8,36.4],[120.8,36.5],[121.0,36.5],[121.0,36.6],[121.1,36.6],[121.1,36.7],[121.3,36.7],[121.3,36.8],[121.7,36.8],[121.7,36.9],[122.5,36.9],[122.5,37.0],[122.6,37.0],[122.6,37.4],[122.5,37.4],[122.5,37.5],[122.3,37.5],[122.3,37.6],[121.9,37.6],[121.9,37.5],[121.6,37.5],[121.6,37.6],[121.4,37.6],[121.4,37.7],[121.2,37.7],[121.2,37.8],[121.0,37.8],[121.0,37.9],[120.9,37.9],[120.9,38.0],[120.7,38.0],[120.7,37.9],[120.5,37.9],[120.5,37.8],[120.3,37.8],[120.3,37.7],[120.2,37.7],[120.2,37.6],[120.1,37.6],[120.1,37.5],[119.9,37.5],[119.9,37.4],[119.8,37.4],[119.8,37.3],[119.7,37.3],[119.7,37.2],[119.3,37.2],[119.3,37.3],[119.1,37.3],[119.1,37.4],[119.0,37.4],[119.0,38.2],[118.9,38.2],[118.9,38.3],[118.7,38.3],[118.7,38.2],[118.0,38.2],[118.0,38.3],[117.9,38.3],[117.9,38.4],[117.8,38.4],[117.8,38.5],[117.7,38.5],[117.7,38.6],[117.6,38.6],[117.6,39.0],[117.7,39.0],[117.7,39.1],[117.9,39.1],[117.9,39.2],[118.2,39.2],[118.2,39.1],[118.9,39.1],[118.9,39.2],[119.1,39.2],[119.1,39.3],[119.2,39.3],[119.2,39.5],[119.3,39.5],[119.3,39.7],[119.4,39.7],[119.4,39.8],[119.6,39.8],[119.6,39.9],[119.7,39.9],[119.7,40.0],[120.0,40.0],[120.0,40.1],[120.2,40.1],[120.2,40.2],[120.5,40.2],[120.5,40.3],[120.6,40.3],[120.6,40.5],[120.7,40.5],[120.7,40.6],[120.9,40.6],[120.9,40.7],[121.0,40.7],[121.0,40.8],[121.1,40.8],[121.1,40.9],[121.5,40.9],[121.5,41.0],[121.8,41.0],[121.8,40.9],[121.9,40.9],[121.9,40.8],[122.1,40.8],[122.1,40.7],[122.2,40.7],[122.2,40.4],[122.1,40.4],[122.1,40.3],[122.0,40.3],[122.0,40.2],[121.9,40.2],[121.9,40.1],[121.8,40.1],[121.8,40.0],[121.6,40.0],[121.6,39.9],[121.5,39.9],[121.5,39.8],[121.4,39.8],[121.4,39.7],[121.3,39.7],[121.3,39.5],[121.4,39.5],[121.4,39.3],[121.5,39.3],[121.5,39.2],[121.4,39.2],[121.4,39.1],[121.3,39.1],[121.3,38.8],[121.5,38.8],[121.5,38.9],[121.9,38.9],[121.9,39.0],[122.0,39.0],[122.0,39.1],[122.1,39.1],[122.1,39.2],[122.2,39.2],[122.2,39.3],[122.5,39.3],[122.5,39.4],[122.6,39.4],[122.6,39.5],[122.7,39.5],[122.7,39.6],[122.9,39.6],[122.9,39.7],[123.3,39.7],[123.3,39.8],[123.7,39.8],[123.7,39.9],[124.2,39.9],[124.2,39.8],[124.5,39.8],[124.5,39.7],[124.7,39.7],[124.7,39.6],[125.3,39.6],[125.3,39.5],[125.4,39.5],[125.4,39.3],[125.3,39.3],[125.3,39.1],[125.2,39.1],[125.2,39.0],[125.1,39.0],[125.1,38.7],[125.0,38.7],[125.0,38.6],[124.9,38.6],[124.9,38.1],[125.0,38.1],[125.0,37.9],[125.1,37.9],[125.1,37.8],[125.2,37.8],[125.2,37.7],[125.4,37.7],[125.4,37.8],[125.7,37.8],[125.7,37.9],[126.0,37.9],[126.0,37.8],[126.3,37.8],[126.3,37.7],[126.4,37.7],[126.4,37.4],[126.7,37.4],[126.7,37.5],[126.8,37.5],[126.8,37.6],[127.0,37.6],[127.0,37.8],[127.1,37.8],[127.1,38.0],[127.2,38.0],[127.2,38.9],[127.1,38.9],[127.1,39.2],[127.0,39.2],[127.0,39.5],[126.9,39.5],[126.9,39.7],[126.8,39.7],[126.8,39.9],[126.7,39.9],[126.7,40.0],[126.6,40.0],[126.6,40.2],[126.5,40.2],[126.5,40.4],[126.4,40.4],[126.4,40.6],[126.3,40.6],[126.3,40.7],[126.2,40.7],[126.2,40.9],[126.1,40.9],[126.1,41.1],[126.0,41.1],[126.0,41.2],[125.8,41.2],[125.8,41.3],[125.7,41.3],[125.7,41.4],[125.6,41.4],[125.6,41.5],[125.4,41.5],[125.4,41.6],[125.3,41.6],[125.3,41.7],[125.0,41.7],[125.0,41.8],[124.9,41.8],[124.9,41.9],[124.7,41.9],[124.7,42.0],[124.5,42.0],[124.5,42.1]],[[116.0,29.2],[116.0,29.4],[116.2,29.4],[116.2,29.2],[116.0,29.2]],[[116.4,29.0],[116.4,29.2],[116.5,29.2],[116.5,29.0],[116.4,29.0]]]},"properties":{"tile_id":"61","start_year":48,"end_year":70,"source_image":"data/raw/toolbay/t/61/48.png","source_url":"https://www.toolbay.cc/history-map/t/61/48.png","source_color":"#ff9999","polity_id":null,"polity_assignment":"unverified","geometry_origin":"raster_color_trace","pixel_size_degrees":0.1,"source_color_pixels":37892,"simplification_degrees":0}},{"type":"Feature","id":"61:48:#ffff00","bbox":[126.2,39.9,130.9,43.3],"geometry":{"type":"Polygon","coordinates":[[[129.6,43.3],[128.7,43.3],[128.7,43.2],[128.4,43.2],[128.4,43.1],[128.2,43.1],[128.2,43.0],[128.0,43.0],[128.0,42.9],[127.8,42.9],[127.8,42.8],[127.6,42.8],[127.6,42.7],[127.4,42.7],[127.4,42.6],[127.3,42.6],[127.3,42.5],[127.2,42.5],[127.2,42.4],[127.1,42.4],[127.1,42.3],[127.0,42.3],[127.0,42.1],[126.9,42.1],[126.9,42.0],[126.8,42.0],[126.8,41.8],[126.7,41.8],[126.7,41.7],[126.6,41.7],[126.6,41.5],[126.5,41.5],[126.5,41.4],[126.4,41.4],[126.4,41.2],[126.3,41.2],[126.3,41.0],[126.2,41.0],[126.2,40.7],[126.3,40.7],[126.3,40.6],[126.4,40.6],[126.4,40.4],[126.5,40.4],[126.5,40.2],[127.4,40.2],[127.4,40.1],[127.6,40.1],[127.6,40.0],[127.7,40.0],[127.7,39.9],[127.9,39.9],[127.9,40.0],[128.3,40.0],[128.3,40.1],[128.5,40.1],[128.5,40.2],[128.6,40.2],[128.6,40.3],[128.8,40.3],[128.8,40.4],[128.9,40.4],[128.9,40.5],[129.1,40.5],[129.1,40.6],[129.2,40.6],[129.2,40.7],[129.4,40.7],[129.4,40.8],[129.6,40.8],[129.6,40.9],[129.7,40.9],[129.7,41.0],[129.8,41.0],[129.8,41.8],[129.9,41.8],[129.9,41.9],[130.0,41.9],[130.0,42.0],[130.1,42.0],[130.1,42.1],[130.2,42.1],[130.2,42.2],[130.4,42.2],[130.4,42.3],[130.5,42.3],[130.5,42.4],[130.6,42.4],[130.6,42.5],[130.9,42.5],[130.9,42.6],[130.8,42.6],[130.8,42.7],[130.7,42.7],[130.7,42.8],[130.6,42.8],[130.6,42.9],[130.5,42.9],[130.5,43.0],[130.3,43.0],[130.3,43.1],[130.0,43.1],[130.0,43.2],[129.6,43.2],[129.6,43.3]]]},"properties":{"tile_id":"61","start_year":48,"end_year":70,"source_image":"data/raw/toolbay/t/61/48.png","source_url":"https://www.toolbay.cc/history-map/t/61/48.png","source_color":"#ffff00","polity_id":null,"polity_assignment":"unverified","geometry_origin":"raster_color_trace","pixel_size_degrees":0.1,"source_color_pixels":941,"simplification_degrees":0}}]}
