{"type":"FeatureCollection","features":[{"type":"Feature","id":"61:624:#009900","bbox":[126.0,34.4,129.6,38.6],"geometry":{"type":"Polygon","coordinates":[[[127.2,38.6],[127.0,38.6],[127.0,38.5],[126.8,38.5],[126.8,38.4],[126.7,38.4],[126.7,38.3],[126.5,38.3],[126.5,38.2],[126.4,38.2],[126.4,38.1],[126.3,38.1],[126.3,38.0],[126.2,38.0],[126.2,37.9],[126.0,37.9],[126.0,37.8],[126.3,37.8],[126.3,37.7],[126.4,37.7],[126.4,37.4],[126.6,37.4],[126.6,37.5],[127.5,37.5],[127.5,37.4],[127.7,37.4],[127.7,37.2],[127.8,37.2],[127.8,37.0],[127.9,37.0],[127.9,36.4],[127.8,36.4],[127.8,36.3],[127.7,36.3],[127.7,36.1],[127.6,36.1],[127.6,35.8],[127.5,35.8],[127.5,35.7],[127.4,35.7],[127.4,35.5],[127.3,35.5],[127.3,35.3],[127.2,35.3],[127.2,34.9],[127.1,34.9],[127.1,34.5],[127.0,34.5],[127.0,34.4],[127.5,34.4],[127.5,34.5],[127.8,34.5],[127.8,34.6],[127.9,34.6],[127.9,34.7],[128.2,34.7],[128.2,34.8],[128.3,34.8],[128.3,34.7],[128.4,34.7],[128.4,34.8],[128.7,34.8],[128.7,34.9],[128.8,34.9],[128.8,35.0],[128.9,35.0],[128.9,35.1],[129.2,35.1],[129.2,35.2],[129.3,35.2],[129.3,35.4],[129.4,35.4],[129.4,35.5],[129.5,35.5],[129.5,35.8],[129.6,35.8],[129.6,36.1],[129.5,36.1],[129.5,36.2],[129.4,36.2],[129.4,36.5],[129.5,36.5],[129.5,37.1],[129.4,37.1],[129.4,37.4],[129.3,37.4],[129.3,37.5],[129.2,37.5],[129.2,37.7],[129.1,37.7],[129.1,37.8],[129.0,37.8],[129.0,37.9],[128.9,37.9],[128.9,38.0],[128.8,38.0],[128.8,38.1],[128.7,38.1],[128.7,38.3],[128.6,38.3],[128.6,38.5],[128.2,38.5],[128.2,38.4],[128.0,38.4],[128.0,38.3],[127.8,38.3],[127.8,38.2],[127.6,38.2],[127.6,38.3],[127.4,38.3],[127.4,38.4],[127.3,38.4],[127.3,38.5],[127.2,38.5],[127.2,38.6]]]},"properties":{"tile_id":"61","start_year":624,"end_year":628,"source_image":"data/raw/toolbay/t/61/624.png","source_url":"https://www.toolbay.cc/history-map/t/61/624.png","source_color":"#009900","polity_id":null,"polity_assignment":"unverified","geometry_origin":"raster_color_trace","pixel_size_degrees":0.1,"source_color_pixels":751,"simplification_degrees":0}},{"type":"Feature","id":"61:624:#009999","bbox":[90.0,6.3,121.9,44.6],"geometry":{"type":"MultiPolygon","coordinates":[[[[99.4,13.0],[99.4,13.1],[98.6,13.1],[98.6,12.8],[98.5,12.8],[98.5,12.7],[98.2,12.7],[98.2,12.6],[98.1,12.6],[98.1,12.5],[98.0,12.5],[98.0,12.4],[98.1,12.4],[98.1,12.3],[98.3,12.3],[98.3,12.2],[98.4,12.2],[98.4,12.1],[98.3,12.1],[98.3,11.9],[98.2,11.9],[98.2,11.6],[98.5,11.6],[98.5,11.5],[98.6,11.5],[98.6,11.1],[98.5,11.1],[98.5,11.0],[98.4,11.0],[98.4,10.8],[98.5,10.8],[98.5,10.1],[98.4,10.1],[98.4,9.5],[98.3,9.5],[98.3,8.8],[98.2,8.8],[98.2,8.5],[98.3,8.5],[98.3,8.0],[98.4,8.0],[98.4,7.9],[98.6,7.9],[98.6,8.0],[98.9,8.0],[98.9,7.9],[99.0,7.9],[99.0,7.7],[99.1,7.7],[99.1,7.6],[99.2,7.6],[99.2,7.5],[99.3,7.5],[99.3,7.4],[99.4,7.4],[99.4,7.3],[99.5,7.3],[99.5,7.2],[99.6,7.2],[99.6,7.1],[99.7,7.1],[99.7,6.9],[99.8,6.9],[99.8,6.8],[99.9,6.8],[99.9,6.6],[99.8,6.6],[99.8,6.5],[99.7,6.5],[99.7,6.4],[99.8,6.4],[99.8,6.3],[100.0,6.3],[100.0,6.4],[100.2,6.4],[100.2,6.3],[100.4,6.3],[100.4,6.4],[100.5,6.4],[100.5,6.5],[100.7,6.5],[100.7,6.6],[100.8,6.6],[100.8,6.7],[100.9,6.7],[100.9,6.9],[101.0,6.9],[101.0,7.0],[100.8,7.0],[100.8,7.1],[100.7,7.1],[100.7,7.3],[100.6,7.3],[100.6,7.5],[100.5,7.5],[100.5,7.8],[100.4,7.8],[100.4,8.2],[100.3,8.2],[100.3,8.5],[100.2,8.5],[100.2,8.6],[100.1,8.6],[100.1,8.7],[100.0,8.7],[100.0,9.2],[99.9,9.2],[99.9,9.3],[99.8,9.3],[99.8,9.4],[99.4,9.4],[99.4,9.5],[99.3,9.5],[99.3,9.7],[99.2,9.7],[99.2,10.3],[99.3,10.3],[99.3,10.7],[99.4,10.7],[99.4,10.8],[99.5,10.8],[99.5,10.9],[99.6,10.9],[99.6,11.4],[99.7,11.4],[99.7,11.7],[99.8,11.7],[99.8,11.8],[99.9,11.8],[99.9,12.1],[100.0,12.1],[100.0,12.9],[99.8,12.9],[99.8,13.0],[99.4,13.0]]],[[[90.3,43.5],[90.2,43.5],[90.2,43.6],[90.0,43.6],[90.0,39.3],[90.2,39.3],[90.2,39.4],[90.3,39.4],[90.3,39.5],[90.4,39.5],[90.4,39.6],[91.0,39.6],[91.0,39.7],[91.5,39.7],[91.5,39.8],[92.1,39.8],[92.1,39.7],[95.4,39.7],[95.4,39.8],[96.2,39.8],[96.2,39.7],[96.9,39.7],[96.9,39.8],[97.0,39.8],[97.0,40.4],[97.1,40.4],[97.1,41.2],[97.0,41.2],[97.0,41.6],[96.9,41.6],[96.9,42.0],[96.6,42.0],[96.6,42.1],[96.1,42.1],[96.1,42.2],[95.8,42.2],[95.8,42.3],[95.4,42.3],[95.4,42.4],[95.1,42.4],[95.1,42.5],[94.7,42.5],[94.7,42.6],[94.3,42.6],[94.3,42.7],[92.4,42.7],[92.4,42.8],[92.1,42.8],[92.1,42.9],[91.6,42.9],[91.6,43.0],[91.3,43.0],[91.3,43.1],[91.0,43.1],[91.0,43.2],[90.7,43.2],[90.7,43.3],[90.5,43.3],[90.5,43.4],[90.3,43.4],[90.3,43.5]]],[[[120.5,44.5],[119.4,44.5],[119.4,44.6],[116.7,44.6],[116.7,44.5],[116.6,44.5],[116.6,44.3],[116.5,44.3],[116.5,44.0],[116.4,44.0],[116.4,43.3],[116.5,43.3],[116.5,43.0],[116.6,43.0],[116.6,42.7],[116.7,42.7],[116.7,42.6],[116.8,42.6],[116.8,42.4],[116.9,42.4],[116.9,42.3],[117.0,42.3],[117.0,42.2],[117.1,42.2],[117.1,42.1],[117.3,42.1],[117.3,42.0],[117.9,42.0],[117.9,42.1],[118.2,42.1],[118.2,42.2],[119.0,42.2],[119.0,42.3],[119.3,42.3],[119.3,42.4],[119.6,42.4],[119.6,42.5],[120.1,42.5],[120.1,42.6],[120.4,42.6],[120.4,42.7],[120.8,42.7],[120.8,42.8],[121.2,42.8],[121.2,42.9],[121.4,42.9],[121.4,43.1],[121.5,43.1],[121.5,43.3],[121.6,43.3],[121.6,43.5],[121.7,43.5],[121.7,43.6],[121.8,43.6],[121.8,43.8],[121.9,43.8],[121.9,44.2],[121.4,44.2],[121.4,44.3],[121.2,44.3],[121.2,44.4],[120.5,44.4],[120.5,44.5]]]]},"properties":{"tile_id":"61","start_year":624,"end_year":628,"source_image":"data/raw/toolbay/t/61/624.png","source_url":"https://www.toolbay.cc/history-map/t/61/624.png","source_color":"#009999","polity_id":null,"polity_assignment":"unverified","geometry_origin":"raster_color_trace","pixel_size_degrees":0.1,"source_color_pixels":4082,"simplification_degrees":0}},{"type":"Feature","id":"61:624:#00ff00","bbox":[102.7,8.6,111.7,40.2],"geometry":{"type":"MultiPolygon","coordinates":[[[[106.0,11.4],[106.0,12.8],[105.8,12.8],[105.8,12.7],[105.5,12.7],[105.5,12.6],[104.9,12.6],[104.9,12.5],[103.9,12.5],[103.9,12.4],[103.6,12.4],[103.6,12.3],[102.8,12.3],[102.8,12.2],[102.7,12.2],[102.7,12.1],[102.8,12.1],[102.8,11.8],[102.9,11.8],[102.9,11.6],[103.0,11.6],[103.0,11.3],[103.1,11.3],[103.1,10.9],[103.4,10.9],[103.4,11.0],[103.6,11.0],[103.6,10.6],[103.7,10.6],[103.7,10.5],[103.8,10.5],[103.8,10.4],[104.0,10.4],[104.0,10.5],[104.2,10.5],[104.2,10.6],[104.3,10.6],[104.3,10.5],[104.4,10.5],[104.4,10.4],[104.5,10.4],[104.5,10.3],[104.7,10.3],[104.7,10.2],[104.9,10.2],[104.9,10.1],[105.0,10.1],[105.0,9.9],[104.9,9.9],[104.9,9.7],[104.8,9.7],[104.8,8.7],[104.9,8.7],[104.9,8.6],[105.1,8.6],[105.1,8.7],[105.2,8.7],[105.2,8.8],[105.3,8.8],[105.3,8.9],[105.4,8.9],[105.4,9.0],[105.5,9.0],[105.5,9.1],[105.6,9.1],[105.6,9.2],[105.8,9.2],[105.8,9.3],[106.1,9.3],[106.1,9.4],[106.2,9.4],[106.2,9.5],[106.3,9.5],[106.3,9.6],[106.5,9.6],[106.5,9.7],[106.6,9.7],[106.6,9.8],[106.7,9.8],[106.7,10.0],[106.8,10.0],[106.8,10.4],[106.9,10.4],[106.9,10.6],[106.8,10.6],[106.8,10.7],[106.7,10.7],[106.7,10.8],[106.6,10.8],[106.6,10.9],[106.5,10.9],[106.5,11.0],[106.4,11.0],[106.4,11.1],[106.3,11.1],[106.3,11.2],[106.2,11.2],[106.2,11.3],[106.1,11.3],[106.1,11.4],[106.0,11.4]],[[105.1,10.8],[105.2,10.8],[105.2,10.9],[105.3,10.9],[105.3,10.7],[105.1,10.7],[105.1,10.8]]],[[[110.3,40.1],[110.3,40.2],[109.9,40.2],[109.9,40.1],[109.8,40.1],[109.8,40.0],[109.7,40.0],[109.7,39.9],[109.6,39.9],[109.6,39.8],[109.5,39.8],[109.5,39.7],[109.4,39.7],[109.4,39.6],[109.3,39.6],[109.3,39.5],[109.2,39.5],[109.2,39.4],[109.1,39.4],[109.1,39.3],[109.0,39.3],[109.0,39.2],[108.9,39.2],[108.9,39.1],[108.8,39.1],[108.8,39.0],[108.7,39.0],[108.7,38.9],[108.5,38.9],[108.5,38.8],[108.0,38.8],[108.0,38.7],[107.8,38.7],[107.8,38.6],[107.3,38.6],[107.3,37.9],[107.4,37.9],[107.4,37.4],[107.5,37.4],[107.5,37.3],[107.7,37.3],[107.7,37.2],[107.9,37.2],[107.9,37.1],[108.0,37.1],[108.0,37.0],[108.3,37.0],[108.3,36.9],[108.8,36.9],[108.8,37.0],[109.5,37.0],[109.5,37.1],[110.0,37.1],[110.0,37.0],[110.5,37.0],[110.5,36.9],[111.3,36.9],[111.3,37.2],[111.4,37.2],[111.4,37.3],[111.5,37.3],[111.5,37.4],[111.6,37.4],[111.6,37.6],[111.7,37.6],[111.7,38.4],[111.6,38.4],[111.6,38.9],[111.5,38.9],[111.5,39.2],[111.4,39.2],[111.4,39.6],[111.3,39.6],[111.3,39.9],[111.2,39.9],[111.2,40.0],[111.1,40.0],[111.1,40.1],[110.3,40.1]]]]},"properties":{"tile_id":"61","start_year":624,"end_year":628,"source_image":"data/raw/toolbay/t/61/624.png","source_url":"https://www.toolbay.cc/history-map/t/61/624.png","source_color":"#00ff00","polity_id":null,"polity_assignment":"unverified","geometry_origin":"raster_color_trace","pixel_size_degrees":0.1,"source_color_pixels":1920,"simplification_degrees":0}},{"type":"Feature","id":"61:624:#00ffff","bbox":[90.2,12.9,130.9,45.0],"geometry":{"type":"MultiPolygon","coordinates":[[[[100.6,19.9],[100.6,20.0],[100.1,20.0],[100.1,19.9],[99.8,19.9],[99.8,19.8],[99.5,19.8],[99.5,19.5],[99.4,19.5],[99.4,19.3],[99.3,19.3],[99.3,19.1],[99.2,19.1],[99.2,19.0],[99.1,19.0],[99.1,16.4],[99.0,16.4],[99.0,15.0],[98.9,15.0],[98.9,14.6],[99.0,14.6],[99.0,13.9],[99.1,13.9],[99.1,13.6],[99.0,13.6],[99.0,13.1],[99.4,13.1],[99.4,13.0],[99.8,13.0],[99.8,12.9],[100.1,12.9],[100.1,13.4],[100.2,13.4],[100.2,13.5],[100.6,13.5],[100.6,13.6],[100.7,13.6],[100.7,13.8],[100.8,13.8],[100.8,14.0],[100.9,14.0],[100.9,14.2],[101.0,14.2],[101.0,14.3],[101.1,14.3],[101.1,14.4],[101.3,14.4],[101.3,14.6],[101.4,14.6],[101.4,14.7],[101.5,14.7],[101.5,14.8],[101.6,14.8],[101.6,14.9],[101.7,14.9],[101.7,17.7],[101.6,17.7],[101.6,18.1],[101.5,18.1],[101.5,18.3],[101.4,18.3],[101.4,18.5],[101.3,18.5],[101.3,18.7],[101.2,18.7],[101.2,18.9],[101.1,18.9],[101.1,19.2],[101.0,19.2],[101.0,19.4],[100.9,19.4],[100.9,19.5],[100.8,19.5],[100.8,19.7],[100.7,19.7],[100.7,19.9],[100.6,19.9]]],[[[95.4,39.7],[92.1,39.7],[92.1,39.8],[91.5,39.8],[91.5,39.7],[91.0,39.7],[91.0,39.6],[90.4,39.6],[90.4,39.5],[90.3,39.5],[90.3,39.4],[90.2,39.4],[90.2,39.2],[90.3,39.2],[90.3,38.9],[90.4,38.9],[90.4,38.7],[90.5,38.7],[90.5,38.5],[90.6,38.5],[90.6,38.3],[90.7,38.3],[90.7,38.2],[90.8,38.2],[90.8,38.1],[90.9,38.1],[90.9,37.8],[91.0,37.8],[91.0,37.7],[91.1,37.7],[91.1,37.6],[91.2,37.6],[91.2,37.4],[91.4,37.4],[91.4,37.2],[91.5,37.2],[91.5,37.1],[91.6,37.1],[91.6,36.9],[91.7,36.9],[91.7,36.8],[91.8,36.8],[91.8,36.7],[92.0,36.7],[92.0,36.6],[92.2,36.6],[92.2,36.5],[92.4,36.5],[92.4,36.4],[92.6,36.4],[92.6,36.3],[92.9,36.3],[92.9,36.2],[93.0,36.2],[93.0,36.1],[93.6,36.1],[93.6,36.0],[94.0,36.0],[94.0,35.9],[99.3,35.9],[99.3,35.8],[100.0,35.8],[100.0,35.7],[100.4,35.7],[100.4,35.6],[100.6,35.6],[100.6,35.5],[101.0,35.5],[101.0,35.4],[101.3,35.4],[101.3,35.3],[101.6,35.3],[101.6,35.2],[102.1,35.2],[102.1,35.1],[102.5,35.1],[102.5,35.0],[103.1,35.0],[103.1,34.9],[103.5,34.9],[103.5,34.8],[103.9,34.8],[103.9,34.7],[104.1,34.7],[104.1,34.6],[104.4,34.6],[104.4,34.5],[104.6,34.5],[104.6,34.4],[104.7,34.4],[104.7,34.3],[104.9,34.3],[104.9,33.8],[105.0,33.8],[105.0,34.1],[105.1,34.1],[105.1,34.4],[105.2,34.4],[105.2,34.5],[105.3,34.5],[105.3,34.8],[105.4,34.8],[105.4,35.0],[105.5,35.0],[105.5,35.2],[105.6,35.2],[105.6,35.4],[105.5,35.4],[105.5,35.8],[105.4,35.8],[105.4,36.2],[105.3,36.2],[105.3,36.4],[105.2,36.4],[105.2,36.5],[105.1,36.5],[105.1,36.8],[105.0,36.8],[105.0,37.0],[104.8,37.0],[104.8,37.1],[104.6,37.1],[104.6,37.2],[104.4,37.2],[104.4,37.3],[103.7,37.3],[103.7,37.4],[103.6,37.4],[103.6,37.6],[103.5,37.6],[103.5,37.7],[103.4,37.7],[103.4,37.8],[103.3,37.8],[103.3,37.9],[103.2,37.9],[103.2,38.0],[103.1,38.0],[103.1,38.1],[103.0,38.1],[103.0,38.2],[102.8,38.2],[102.8,38.4],[102.6,38.4],[102.6,38.5],[102.4,38.5],[102.4,38.6],[102.2,38.6],[102.2,38.7],[101.7,38.7],[101.7,38.8],[101.5,38.8],[101.5,38.9],[101.2,38.9],[101.2,39.0],[101.0,39.0],[101.0,39.1],[100.6,39.1],[100.6,39.2],[100.3,39.2],[100.3,39.3],[99.9,39.3],[99.9,39.4],[99.4,39.4],[99.4,39.5],[98.8,39.5],[98.8,39.6],[98.7,39.6],[98.7,39.5],[98.1,39.5],[98.1,39.6],[96.8,39.6],[96.8,39.7],[96.2,39.7],[96.2,39.8],[95.4,39.8],[95.4,39.7]]],[[[124.2,44.9],[124.1,44.9],[124.1,45.0],[122.2,45.0],[122.2,44.9],[122.1,44.9],[122.1,44.8],[122.0,44.8],[122.0,44.6],[121.9,44.6],[121.9,43.8],[121.8,43.8],[121.8,43.6],[121.7,43.6],[121.7,43.5],[121.6,43.5],[121.6,43.3],[121.5,43.3],[121.5,43.1],[121.4,43.1],[121.4,42.9],[121.2,42.9],[121.2,42.8],[120.8,42.8],[120.8,42.7],[120.4,42.7],[120.4,42.6],[120.1,42.6],[120.1,42.5],[119.6,42.5],[119.6,42.4],[119.3,42.4],[119.3,42.3],[119.2,42.3],[119.2,41.9],[119.1,41.9],[119.1,41.7],[119.0,41.7],[119.0,41.3],[118.9,41.3],[118.9,41.2],[118.8,41.2],[118.8,41.0],[118.9,41.0],[118.9,40.9],[119.0,40.9],[119.0,40.8],[119.1,40.8],[119.1,40.7],[119.2,40.7],[119.2,40.6],[119.3,40.6],[119.3,40.5],[119.4,40.5],[119.4,40.4],[119.5,40.4],[119.5,40.3],[119.6,40.3],[119.6,40.1],[119.7,40.1],[119.7,40.0],[120.0,40.0],[120.0,40.1],[120.2,40.1],[120.2,40.2],[120.5,40.2],[120.5,40.3],[120.6,40.3],[120.6,40.5],[120.7,40.5],[120.7,40.6],[120.9,40.6],[120.9,40.7],[121.0,40.7],[121.0,40.8],[121.1,40.8],[121.1,40.9],[121.5,40.9],[121.5,41.0],[121.8,41.0],[121.8,40.9],[121.9,40.9],[121.9,40.8],[122.1,40.8],[122.1,40.7],[122.2,40.7],[122.2,40.4],[122.1,40.4],[122.1,40.3],[122.0,40.3],[122.0,40.2],[121.9,40.2],[121.9,40.1],[121.8,40.1],[121.8,40.0],[121.6,40.0],[121.6,39.9],[121.5,39.9],[121.5,39.8],[121.4,39.8],[121.4,39.7],[121.3,39.7],[121.3,39.5],[121.4,39.5],[121.4,39.3],[121.5,39.3],[121.5,39.2],[121.4,39.2],[121.4,39.1],[121.3,39.1],[121.3,38.8],[121.5,38.8],[121.5,38.9],[121.9,38.9],[121.9,39.0],[122.0,39.0],[122.0,39.1],[122.1,39.1],[122.1,39.2],[122.2,39.2],[122.2,39.3],[122.5,39.3],[122.5,39.4],[122.6,39.4],[122.6,39.5],[122.7,39.5],[122.7,39.6],[122.9,39.6],[122.9,39.7],[123.3,39.7],[123.3,39.8],[123.7,39.8],[123.7,39.9],[124.2,39.9],[124.2,39.8],[124.5,39.8],[124.5,39.7],[124.7,39.7],[124.7,39.6],[125.3,39.6],[125.3,39.5],[125.4,39.5],[125.4,39.3],[125.3,39.3],[125.3,39.1],[125.2,39.1],[125.2,39.0],[125.1,39.0],[125.1,38.7],[125.0,38.7],[125.0,38.6],[124.9,38.6],[124.9,38.1],[125.0,38.1],[125.0,37.9],[125.1,37.9],[125.1,37.8],[125.2,37.8],[125.2,37.7],[125.4,37.7],[125.4,37.8],[125.7,37.8],[125.7,37.9],[126.2,37.9],[126.2,38.0],[126.3,38.0],[126.3,38.1],[126.4,38.1],[126.4,38.2],[126.5,38.2],[126.5,38.3],[126.7,38.3],[126.7,38.4],[126.8,38.4],[126.8,38.5],[127.0,38.5],[127.0,38.6],[127.2,38.6],[127.2,38.5],[127.3,38.5],[127.3,38.4],[127.4,38.4],[127.4,38.3],[127.6,38.3],[127.6,38.2],[127.8,38.2],[127.8,38.3],[128.0,38.3],[128.0,38.4],[128.2,38.4],[128.2,38.5],[128.5,38.5],[128.5,38.6],[128.4,38.6],[128.4,38.7],[128.3,38.7],[128.3,38.8],[128.2,38.8],[128.2,38.9],[128.1,38.9],[128.1,39.0],[127.9,39.0],[127.9,39.1],[127.8,39.1],[127.8,39.2],[127.7,39.2],[127.7,39.3],[127.6,39.3],[127.6,39.8],[127.7,39.8],[127.7,39.9],[127.9,39.9],[127.9,40.0],[128.3,40.0],[128.3,40.1],[128.5,40.1],[128.5,40.2],[128.6,40.2],[128.6,40.3],[128.8,40.3],[128.8,40.4],[128.9,40.4],[128.9,40.5],[129.1,40.5],[129.1,40.6],[129.2,40.6],[129.2,40.7],[129.4,40.7],[129.4,40.8],[129.6,40.8],[129.6,40.9],[129.7,40.9],[129.7,41.0],[129.8,41.0],[129.8,41.8],[129.9,41.8],[129.9,41.9],[130.0,41.9],[130.0,42.0],[130.1,42.0],[130.1,42.1],[130.2,42.1],[130.2,42.2],[130.4,42.2],[130.4,42.3],[130.5,42.3],[130.5,42.4],[130.6,42.4],[130.6,42.5],[130.9,42.5],[130.9,42.6],[130.8,42.6],[130.8,42.7],[130.7,42.7],[130.7,42.8],[130.6,42.8],[130.6,42.9],[130.5,42.9],[130.5,43.0],[130.3,43.0],[130.3,43.1],[130.0,43.1],[130.0,43.2],[129.6,43.2],[129.6,43.3],[127.2,43.3],[127.2,43.4],[126.8,43.4],[126.8,43.5],[126.4,43.5],[126.4,43.6],[126.2,43.6],[126.2,43.7],[125.9,43.7],[125.9,43.8],[125.7,43.8],[125.7,43.9],[125.5,43.9],[125.5,44.0],[125.4,44.0],[125.4,44.1],[125.3,44.1],[125.3,44.2],[125.1,44.2],[125.1,44.3],[124.9,44.3],[124.9,44.4],[124.8,44.4],[124.8,44.5],[124.6,44.5],[124.6,44.6],[124.5,44.6],[124.5,44.7],[124.4,44.7],[124.4,44.8],[124.2,44.8],[124.2,44.9]]]]},"properties":{"tile_id":"61","start_year":624,"end_year":628,"source_image":"data/raw/toolbay/t/61/624.png","source_url":"https://www.toolbay.cc/history-map/t/61/624.png","source_color":"#00ffff","polity_id":null,"polity_assignment":"unverified","geometry_origin":"raster_color_trace","pixel_size_degrees":0.1,"source_color_pixels":11021,"simplification_degrees":0}},{"type":"Feature","id":"61:624:#999900","bbox":[96.9,36.6,122.2,45.0],"geometry":{"type":"Polygon","coordinates":[[[122.2,45.0],[100.0,45.0],[100.0,44.9],[99.9,44.9],[99.9,44.8],[99.8,44.8],[99.8,44.7],[99.7,44.7],[99.7,44.4],[99.6,44.4],[99.6,44.2],[99.5,44.2],[99.5,44.0],[99.4,44.0],[99.4,43.9],[99.3,43.9],[99.3,43.7],[99.2,43.7],[99.2,43.6],[99.1,43.6],[99.1,43.5],[99.0,43.5],[99.0,43.4],[98.9,43.4],[98.9,43.3],[98.8,43.3],[98.8,43.2],[98.7,43.2],[98.7,43.1],[98.5,43.1],[98.5,43.0],[98.4,43.0],[98.4,42.9],[98.2,42.9],[98.2,42.8],[98.1,42.8],[98.1,42.7],[98.0,42.7],[98.0,42.6],[97.8,42.6],[97.8,42.5],[97.6,42.5],[97.6,42.4],[97.5,42.4],[97.5,42.3],[97.3,42.3],[97.3,42.2],[97.1,42.2],[97.1,42.1],[96.9,42.1],[96.9,41.9],[97.3,41.9],[97.3,41.8],[97.6,41.8],[97.6,41.7],[98.0,41.7],[98.0,41.6],[98.4,41.6],[98.4,41.5],[98.6,41.5],[98.6,41.4],[99.0,41.4],[99.0,41.3],[99.2,41.3],[99.2,41.2],[99.5,41.2],[99.5,41.1],[99.7,41.1],[99.7,41.0],[99.8,41.0],[99.8,40.9],[100.6,40.9],[100.6,41.0],[100.8,41.0],[100.8,41.1],[101.0,41.1],[101.0,41.2],[101.2,41.2],[101.2,41.3],[101.4,41.3],[101.4,41.4],[101.6,41.4],[101.6,41.5],[101.8,41.5],[101.8,41.6],[102.2,41.6],[102.2,41.5],[102.3,41.5],[102.3,41.4],[102.5,41.4],[102.5,41.3],[102.6,41.3],[102.6,41.2],[102.7,41.2],[102.7,41.1],[102.8,41.1],[102.8,41.0],[103.0,41.0],[103.0,40.9],[103.1,40.9],[103.1,40.8],[103.2,40.8],[103.2,40.7],[103.3,40.7],[103.3,40.6],[103.4,40.6],[103.4,40.5],[103.6,40.5],[103.6,40.4],[103.7,40.4],[103.7,40.3],[103.8,40.3],[103.8,40.2],[103.9,40.2],[103.9,40.1],[104.0,40.1],[104.0,40.0],[104.1,40.0],[104.1,39.9],[104.2,39.9],[104.2,39.8],[104.3,39.8],[104.3,39.7],[104.4,39.7],[104.4,39.6],[104.5,39.6],[104.5,39.5],[104.6,39.5],[104.6,39.3],[104.7,39.3],[104.7,39.2],[104.8,39.2],[104.8,39.1],[104.9,39.1],[104.9,38.9],[105.0,38.9],[105.0,38.8],[105.1,38.8],[105.1,38.7],[105.2,38.7],[105.2,38.5],[105.4,38.5],[105.4,38.4],[105.5,38.4],[105.5,38.3],[105.6,38.3],[105.6,38.2],[105.7,38.2],[105.7,38.1],[105.8,38.1],[105.8,37.9],[106.0,37.9],[106.0,37.8],[106.1,37.8],[106.1,37.7],[106.3,37.7],[106.3,37.6],[106.5,37.6],[106.5,37.5],[107.4,37.5],[107.4,37.9],[107.3,37.9],[107.3,38.6],[107.8,38.6],[107.8,38.7],[108.0,38.7],[108.0,38.8],[108.5,38.8],[108.5,38.9],[108.7,38.9],[108.7,39.0],[108.8,39.0],[108.8,39.1],[108.9,39.1],[108.9,39.2],[109.0,39.2],[109.0,39.3],[109.1,39.3],[109.1,39.4],[109.2,39.4],[109.2,39.5],[109.3,39.5],[109.3,39.6],[109.4,39.6],[109.4,39.7],[109.5,39.7],[109.5,39.8],[109.6,39.8],[109.6,39.9],[109.7,39.9],[109.7,40.0],[109.8,40.0],[109.8,40.1],[109.9,40.1],[109.9,40.2],[110.3,40.2],[110.3,40.1],[111.1,40.1],[111.1,40.0],[111.2,40.0],[111.2,39.9],[111.3,39.9],[111.3,39.6],[111.4,39.6],[111.4,39.2],[111.5,39.2],[111.5,38.9],[111.6,38.9],[111.6,38.4],[111.7,38.4],[111.7,37.6],[111.6,37.6],[111.6,37.4],[111.5,37.4],[111.5,37.3],[111.4,37.3],[111.4,37.2],[111.3,37.2],[111.3,36.9],[112.1,36.9],[112.1,36.8],[112.3,36.8],[112.3,36.7],[112.5,36.7],[112.5,36.6],[113.4,36.6],[113.4,36.8],[113.5,36.8],[113.5,37.0],[113.6,37.0],[113.6,37.2],[113.7,37.2],[113.7,37.5],[113.8,37.5],[113.8,37.6],[113.9,37.6],[113.9,37.8],[114.1,37.8],[114.1,38.1],[114.2,38.1],[114.2,39.0],[114.3,39.0],[114.3,39.2],[114.4,39.2],[114.4,39.5],[114.5,39.5],[114.5,39.6],[114.6,39.6],[114.6,40.1],[114.5,40.1],[114.5,40.4],[114.6,40.4],[114.6,40.9],[114.7,40.9],[114.7,41.1],[114.8,41.1],[114.8,41.3],[114.9,41.3],[114.9,41.4],[115.0,41.4],[115.0,41.5],[115.1,41.5],[115.1,41.6],[115.9,41.6],[115.9,41.5],[116.6,41.5],[116.6,41.4],[117.1,41.4],[117.1,41.3],[117.8,41.3],[117.8,41.2],[118.1,41.2],[118.1,41.1],[118.8,41.1],[118.8,41.2],[118.9,41.2],[118.9,41.3],[119.0,41.3],[119.0,41.7],[119.1,41.7],[119.1,41.9],[119.2,41.9],[119.2,42.3],[119.0,42.3],[119.0,42.2],[118.2,42.2],[118.2,42.1],[117.9,42.1],[117.9,42.0],[117.3,42.0],[117.3,42.1],[117.1,42.1],[117.1,42.2],[117.0,42.2],[117.0,42.3],[116.9,42.3],[116.9,42.4],[116.8,42.4],[116.8,42.6],[116.7,42.6],[116.7,42.7],[116.6,42.7],[116.6,43.0],[116.5,43.0],[116.5,43.3],[116.4,43.3],[116.4,44.0],[116.5,44.0],[116.5,44.3],[116.6,44.3],[116.6,44.5],[116.7,44.5],[116.7,44.6],[119.4,44.6],[119.4,44.5],[120.5,44.5],[120.5,44.4],[121.2,44.4],[121.2,44.3],[121.4,44.3],[121.4,44.2],[121.9,44.2],[121.9,44.6],[122.0,44.6],[122.0,44.8],[122.1,44.8],[122.1,44.9],[122.2,44.9],[122.2,45.0]]]},"properties":{"tile_id":"61","start_year":624,"end_year":628,"source_image":"data/raw/toolbay/t/61/624.png","source_url":"https://www.toolbay.cc/history-map/t/61/624.png","source_color":"#999900","polity_id":null,"polity_assignment":"unverified","geometry_origin":"raster_color_trace","pixel_size_degrees":0.1,"source_color_pixels":10190,"simplification_degrees":0}},{"type":"Feature","id":"61:624:#ff0000","bbox":[99.6,0.0,127.9,37.5],"geometry":{"type":"MultiPolygon","coordinates":[[[[99.6,0.1],[99.7,0.1],[99.7,0.0],[102.5,0.0],[102.5,0.1],[102.6,0.1],[102.6,0.2],[102.7,0.2],[102.7,0.3],[102.8,0.3],[102.8,0.5],[102.9,0.5],[102.9,0.6],[103.0,0.6],[103.0,0.8],[103.1,0.8],[103.1,0.9],[103.2,0.9],[103.2,1.0],[103.1,1.0],[103.1,1.1],[103.0,1.1],[103.0,1.2],[102.9,1.2],[102.9,1.3],[102.6,1.3],[102.6,1.4],[102.5,1.4],[102.5,1.6],[102.4,1.6],[102.4,1.7],[101.9,1.7],[101.9,1.8],[101.8,1.8],[101.8,2.1],[101.7,2.1],[101.7,2.2],[101.5,2.2],[101.5,2.1],[101.3,2.1],[101.3,2.2],[101.2,2.2],[101.2,2.3],[101.1,2.3],[101.1,2.4],[100.9,2.4],[100.9,2.3],[100.5,2.3],[100.5,2.4],[100.4,2.4],[100.4,2.7],[100.3,2.7],[100.3,2.6],[100.2,2.6],[100.2,2.5],[100.1,2.5],[100.1,2.2],[100.0,2.2],[100.0,1.9],[99.9,1.9],[99.9,1.5],[99.8,1.5],[99.8,1.3],[99.7,1.3],[99.7,0.6],[99.6,0.6],[99.6,0.1]]],[[[127.5,37.4],[127.5,37.5],[126.6,37.5],[126.6,37.4],[126.5,37.4],[126.5,37.2],[126.4,37.2],[126.4,37.1],[126.3,37.1],[126.3,37.0],[126.2,37.0],[126.2,36.9],[126.1,36.9],[126.1,36.7],[126.2,36.7],[126.2,36.6],[126.3,36.6],[126.3,36.5],[126.4,36.5],[126.4,36.4],[126.5,36.4],[126.5,36.2],[126.6,36.2],[126.6,35.8],[126.5,35.8],[126.5,35.5],[126.4,35.5],[126.4,35.4],[126.3,35.4],[126.3,35.3],[126.2,35.3],[126.2,35.2],[126.1,35.2],[126.1,35.1],[126.0,35.1],[126.0,34.9],[125.9,34.9],[125.9,34.6],[126.0,34.6],[126.0,34.5],[126.1,34.5],[126.1,34.4],[126.5,34.4],[126.5,34.3],[126.6,34.3],[126.6,34.2],[126.9,34.2],[126.9,34.3],[127.0,34.3],[127.0,34.5],[127.1,34.5],[127.1,34.9],[127.2,34.9],[127.2,35.3],[127.3,35.3],[127.3,35.5],[127.4,35.5],[127.4,35.7],[127.5,35.7],[127.5,35.8],[127.6,35.8],[127.6,36.1],[127.7,36.1],[127.7,36.3],[127.8,36.3],[127.8,36.4],[127.9,36.4],[127.9,37.0],[127.8,37.0],[127.8,37.2],[127.7,37.2],[127.7,37.4],[127.5,37.4]]]]},"properties":{"tile_id":"61","start_year":624,"end_year":628,"source_image":"data/raw/toolbay/t/61/624.png","source_url":"https://www.toolbay.cc/history-map/t/61/624.png","source_color":"#ff0000","polity_id":null,"polity_assignment":"unverified","geometry_origin":"raster_color_trace","pixel_size_degrees":0.1,"source_color_pixels":1024,"simplification_degrees":0}},{"type":"Feature","id":"61:624:#ff00ff","bbox":[100.7,12.2,106.3,16.4],"geometry":{"type":"Polygon","coordinates":[[[105.1,16.4],[104.6,16.4],[104.6,16.3],[104.3,16.3],[104.3,16.2],[104.2,16.2],[104.2,16.1],[104.0,16.1],[104.0,16.0],[103.8,16.0],[103.8,15.9],[103.6,15.9],[103.6,15.8],[103.4,15.8],[103.4,15.7],[103.1,15.7],[103.1,15.6],[102.8,15.6],[102.8,15.5],[102.6,15.5],[102.6,15.4],[102.4,15.4],[102.4,15.3],[102.2,15.3],[102.2,15.2],[102.1,15.2],[102.1,15.1],[101.9,15.1],[101.9,15.0],[101.8,15.0],[101.8,14.9],[101.6,14.9],[101.6,14.8],[101.5,14.8],[101.5,14.7],[101.4,14.7],[101.4,14.6],[101.3,14.6],[101.3,14.4],[101.1,14.4],[101.1,14.3],[101.0,14.3],[101.0,14.2],[100.9,14.2],[100.9,14.0],[100.8,14.0],[100.8,13.8],[100.7,13.8],[100.7,13.6],[100.8,13.6],[100.8,13.5],[100.9,13.5],[100.9,12.8],[101.0,12.8],[101.0,12.7],[101.9,12.7],[101.9,12.6],[102.0,12.6],[102.0,12.5],[102.2,12.5],[102.2,12.4],[102.3,12.4],[102.3,12.2],[102.8,12.2],[102.8,12.3],[103.6,12.3],[103.6,12.4],[103.9,12.4],[103.9,12.5],[104.9,12.5],[104.9,12.6],[105.5,12.6],[105.5,12.7],[105.8,12.7],[105.8,12.8],[106.0,12.8],[106.0,12.9],[106.1,12.9],[106.1,13.4],[106.2,13.4],[106.2,13.7],[106.3,13.7],[106.3,14.4],[106.2,14.4],[106.2,15.2],[106.1,15.2],[106.1,15.5],[106.0,15.5],[106.0,15.7],[105.9,15.7],[105.9,15.8],[105.8,15.8],[105.8,16.0],[105.6,16.0],[105.6,16.1],[105.4,16.1],[105.4,16.2],[105.2,16.2],[105.2,16.3],[105.1,16.3],[105.1,16.4]]]},"properties":{"tile_id":"61","start_year":624,"end_year":628,"source_image":"data/raw/toolbay/t/61/624.png","source_url":"https://www.toolbay.cc/history-map/t/61/624.png","source_color":"#ff00ff","polity_id":null,"polity_assignment":"unverified","geometry_origin":"raster_color_trace","pixel_size_degrees":0.1,"source_color_pixels":1648,"simplification_degrees":0}},{"type":"Feature","id":"61:624:#ff9933","bbox":[100.1,16.0,135.0,41.6],"geometry":{"type":"MultiPolygon","coordinates":[[[[102.3,41.5],[102.2,41.5],[102.2,41.6],[101.8,41.6],[101.8,41.5],[101.6,41.5],[101.6,41.4],[101.4,41.4],[101.4,41.3],[101.2,41.3],[101.2,41.2],[101.0,41.2],[101.0,41.1],[100.8,41.1],[100.8,41.0],[100.6,41.0],[100.6,40.9],[100.5,40.9],[100.5,40.7],[100.4,40.7],[100.4,40.6],[100.3,40.6],[100.3,40.4],[100.2,40.4],[100.2,40.2],[100.1,40.2],[100.1,39.3],[100.3,39.3],[100.3,39.2],[100.6,39.2],[100.6,39.1],[101.0,39.1],[101.0,39.0],[101.2,39.0],[101.2,38.9],[101.5,38.9],[101.5,38.8],[101.7,38.8],[101.7,38.7],[102.2,38.7],[102.2,38.6],[102.4,38.6],[102.4,38.5],[102.6,38.5],[102.6,38.4],[102.8,38.4],[102.8,38.2],[103.0,38.2],[103.0,38.1],[103.1,38.1],[103.1,38.0],[103.2,38.0],[103.2,37.9],[103.3,37.9],[103.3,37.8],[103.4,37.8],[103.4,37.7],[103.5,37.7],[103.5,37.6],[103.6,37.6],[103.6,37.4],[103.7,37.4],[103.7,37.3],[104.4,37.3],[104.4,37.2],[104.6,37.2],[104.6,37.1],[104.8,37.1],[104.8,37.0],[105.0,37.0],[105.0,36.8],[105.1,36.8],[105.1,36.5],[105.2,36.5],[105.2,36.4],[105.3,36.4],[105.3,36.2],[105.4,36.2],[105.4,35.8],[105.5,35.8],[105.5,35.4],[105.6,35.4],[105.6,35.2],[105.5,35.2],[105.5,35.0],[105.4,35.0],[105.4,34.8],[105.3,34.8],[105.3,34.5],[105.2,34.5],[105.2,34.4],[105.1,34.4],[105.1,34.1],[105.0,34.1],[105.0,33.6],[105.1,33.6],[105.1,33.5],[105.2,33.5],[105.2,33.3],[105.3,33.3],[105.3,33.2],[105.4,33.2],[105.4,32.3],[105.3,32.3],[105.3,32.0],[105.2,32.0],[105.2,31.8],[105.1,31.8],[105.1,31.4],[105.0,31.4],[105.0,31.3],[104.8,31.3],[104.8,31.1],[104.7,31.1],[104.7,30.9],[104.6,30.9],[104.6,30.0],[104.5,30.0],[104.5,29.9],[104.4,29.9],[104.4,29.7],[104.3,29.7],[104.3,29.6],[104.2,29.6],[104.2,29.5],[104.1,29.5],[104.1,29.3],[104.0,29.3],[104.0,29.2],[103.9,29.2],[103.9,29.1],[103.8,29.1],[103.8,28.8],[103.7,28.8],[103.7,28.6],[103.6,28.6],[103.6,28.4],[103.5,28.4],[103.5,27.4],[103.4,27.4],[103.4,26.8],[103.3,26.8],[103.3,25.5],[103.2,25.5],[103.2,24.2],[103.1,24.2],[103.1,23.4],[103.0,23.4],[103.0,22.3],[103.1,22.3],[103.1,21.5],[103.2,21.5],[103.2,21.3],[103.3,21.3],[103.3,20.8],[103.4,20.8],[103.4,20.5],[103.5,20.5],[103.5,20.4],[103.7,20.4],[103.7,20.0],[103.8,20.0],[103.8,19.8],[103.9,19.8],[103.9,19.4],[104.0,19.4],[104.0,19.1],[104.1,19.1],[104.1,18.8],[104.2,18.8],[104.2,18.6],[104.3,18.6],[104.3,17.6],[104.4,17.6],[104.4,17.3],[104.5,17.3],[104.5,17.1],[104.6,17.1],[104.6,16.9],[104.7,16.9],[104.7,16.8],[104.8,16.8],[104.8,16.6],[104.9,16.6],[104.9,16.5],[105.0,16.5],[105.0,16.4],[105.1,16.4],[105.1,16.3],[105.2,16.3],[105.2,16.2],[105.4,16.2],[105.4,16.1],[105.6,16.1],[105.6,16.0],[106.6,16.0],[106.6,16.1],[106.8,16.1],[106.8,16.2],[107.0,16.2],[107.0,16.3],[107.2,16.3],[107.2,16.4],[107.3,16.4],[107.3,16.5],[107.4,16.5],[107.4,16.6],[107.5,16.6],[107.5,16.8],[107.4,16.8],[107.4,16.9],[107.3,16.9],[107.3,17.0],[107.2,17.0],[107.2,17.1],[107.1,17.1],[107.1,17.2],[107.0,17.2],[107.0,17.3],[106.9,17.3],[106.9,17.4],[106.8,17.4],[106.8,17.5],[106.7,17.5],[106.7,17.6],[106.6,17.6],[106.6,17.8],[106.5,17.8],[106.5,18.2],[106.4,18.2],[106.4,18.3],[106.2,18.3],[106.2,18.4],[106.1,18.4],[106.1,18.5],[106.0,18.5],[106.0,18.6],[105.9,18.6],[105.9,18.7],[105.8,18.7],[105.8,18.9],[105.7,18.9],[105.7,19.1],[105.8,19.1],[105.8,19.3],[105.9,19.3],[105.9,19.8],[106.0,19.8],[106.0,19.9],[106.1,19.9],[106.1,20.0],[106.2,20.0],[106.2,20.1],[106.3,20.1],[106.3,20.2],[106.4,20.2],[106.4,20.3],[106.5,20.3],[106.5,20.4],[106.6,20.4],[106.6,20.6],[106.7,20.6],[106.7,20.7],[106.9,20.7],[106.9,20.8],[107.1,20.8],[107.1,20.9],[107.5,20.9],[107.5,21.0],[107.6,21.0],[107.6,21.1],[107.7,21.1],[107.7,21.3],[107.8,21.3],[107.8,21.4],[108.0,21.4],[108.0,21.5],[108.2,21.5],[108.2,21.6],[108.5,21.6],[108.5,21.7],[109.0,21.7],[109.0,21.6],[109.1,21.6],[109.1,21.5],[109.7,21.5],[109.7,20.7],[109.8,20.7],[109.8,20.5],[109.9,20.5],[109.9,20.4],[110.0,20.4],[110.0,20.3],[110.1,20.3],[110.1,20.2],[110.0,20.2],[110.0,20.1],[109.6,20.1],[109.6,20.0],[109.3,20.0],[109.3,19.9],[109.2,19.9],[109.2,19.8],[109.1,19.8],[109.1,19.7],[109.0,19.7],[109.0,19.6],[108.9,19.6],[108.9,19.5],[108.8,19.5],[108.8,19.4],[108.7,19.4],[108.7,19.3],[108.6,19.3],[108.6,18.9],[108.7,18.9],[108.7,18.6],[108.8,18.6],[108.8,18.5],[108.9,18.5],[108.9,18.4],[109.2,18.4],[109.2,18.3],[109.5,18.3],[109.5,18.2],[109.7,18.2],[109.7,18.3],[109.8,18.3],[109.8,18.4],[110.0,18.4],[110.0,18.5],[110.1,18.5],[110.1,18.6],[110.2,18.6],[110.2,18.7],[110.5,18.7],[110.5,18.8],[110.6,18.8],[110.6,19.3],[110.7,19.3],[110.7,19.4],[110.8,19.4],[110.8,19.5],[110.9,19.5],[110.9,19.6],[111.0,19.6],[111.0,20.0],[110.9,20.0],[110.9,20.1],[110.8,20.1],[110.8,20.2],[110.5,20.2],[110.5,21.0],[110.6,21.0],[110.6,21.2],[110.7,21.2],[110.7,21.3],[110.8,21.3],[110.8,21.4],[110.9,21.4],[110.9,21.5],[111.5,21.5],[111.5,21.6],[111.9,21.6],[111.9,21.7],[112.9,21.7],[112.9,21.8],[113.0,21.8],[113.0,21.9],[113.2,21.9],[113.2,22.0],[113.5,22.0],[113.5,22.1],[113.6,22.1],[113.6,22.6],[113.9,22.6],[113.9,22.2],[114.0,22.2],[114.0,22.1],[114.2,22.1],[114.2,22.2],[114.3,22.2],[114.3,22.3],[114.4,22.3],[114.4,22.4],[114.5,22.4],[114.5,22.5],[114.7,22.5],[114.7,22.6],[115.0,22.6],[115.0,22.7],[115.1,22.7],[115.1,22.8],[116.0,22.8],[116.0,22.9],[116.2,22.9],[116.2,23.0],[116.5,23.0],[116.5,23.1],[116.6,23.1],[116.6,23.2],[116.7,23.2],[116.7,23.3],[116.8,23.3],[116.8,23.4],[116.9,23.4],[116.9,23.5],[117.3,23.5],[117.3,23.6],[117.4,23.6],[117.4,23.7],[117.5,23.7],[117.5,23.8],[117.6,23.8],[117.6,23.9],[117.7,23.9],[117.7,24.0],[117.9,24.0],[117.9,24.1],[118.0,24.1],[118.0,24.2],[118.1,24.2],[118.1,24.3],[118.2,24.3],[118.2,24.4],[118.4,24.4],[118.4,24.5],[118.5,24.5],[118.5,24.6],[118.6,24.6],[118.6,24.7],[118.8,24.7],[118.8,24.8],[118.9,24.8],[118.9,25.0],[119.0,25.0],[119.0,25.1],[119.1,25.1],[119.1,25.2],[119.3,25.2],[119.3,25.3],[119.4,25.3],[119.4,25.4],[119.8,25.4],[119.8,25.5],[119.9,25.5],[119.9,25.7],[119.8,25.7],[119.8,25.8],[119.7,25.8],[119.7,26.2],[119.8,26.2],[119.8,26.3],[119.9,26.3],[119.9,26.5],[120.0,26.5],[120.0,26.6],[120.1,26.6],[120.1,26.7],[120.2,26.7],[120.2,26.9],[120.3,26.9],[120.3,27.0],[120.4,27.0],[120.4,27.2],[120.5,27.2],[120.5,27.3],[120.6,27.3],[120.6,27.4],[120.7,27.4],[120.7,27.8],[120.8,27.8],[120.8,27.9],[121.2,27.9],[121.2,28.0],[121.3,28.0],[121.3,28.2],[121.4,28.2],[121.4,28.3],[121.6,28.3],[121.6,28.4],[121.7,28.4],[121.7,28.7],[121.8,28.7],[121.8,29.0],[121.9,29.0],[121.9,29.2],[122.0,29.2],[122.0,29.6],[122.1,29.6],[122.1,29.7],[122.3,29.7],[122.3,29.8],[122.4,29.8],[122.4,30.2],[122.3,30.2],[122.3,30.3],[121.9,30.3],[121.9,30.2],[121.5,30.2],[121.5,30.3],[121.4,30.3],[121.4,30.4],[121.2,30.4],[121.2,30.5],[121.1,30.5],[121.1,30.6],[121.2,30.6],[121.2,30.7],[121.4,30.7],[121.4,30.8],[121.5,30.8],[121.5,30.9],[121.8,30.9],[121.8,31.0],[121.9,31.0],[121.9,31.2],[121.8,31.2],[121.8,31.5],[121.9,31.5],[121.9,31.7],[122.0,31.7],[122.0,31.9],[121.9,31.9],[121.9,32.0],[121.8,32.0],[121.8,32.1],[121.7,32.1],[121.7,32.2],[121.5,32.2],[121.5,32.3],[121.4,32.3],[121.4,32.5],[121.3,32.5],[121.3,32.6],[121.1,32.6],[121.1,32.7],[121.0,32.7],[121.0,33.0],[120.9,33.0],[120.9,33.1],[120.8,33.1],[120.8,33.3],[120.7,33.3],[120.7,33.5],[120.6,33.5],[120.6,33.8],[120.5,33.8],[120.5,34.0],[120.4,34.0],[120.4,34.3],[120.3,34.3],[120.3,34.4],[120.2,34.4],[120.2,34.5],[119.9,34.5],[119.9,34.6],[119.7,34.6],[119.7,34.7],[119.6,34.7],[119.6,34.8],[119.5,34.8],[119.5,34.9],[119.4,34.9],[119.4,35.2],[119.5,35.2],[119.5,35.4],[119.6,35.4],[119.6,35.6],[119.7,35.6],[119.7,35.7],[120.0,35.7],[120.0,35.8],[120.1,35.8],[120.1,35.9],[120.2,35.9],[120.2,36.0],[120.3,36.0],[120.3,36.1],[120.6,36.1],[120.6,36.2],[120.7,36.2],[120.7,36.4],[120.8,36.4],[120.8,36.5],[121.0,36.5],[121.0,36.6],[121.1,36.6],[121.1,36.7],[121.3,36.7],[121.3,36.8],[121.7,36.8],[121.7,36.9],[122.5,36.9],[122.5,37.0],[122.6,37.0],[122.6,37.4],[122.5,37.4],[122.5,37.5],[122.3,37.5],[122.3,37.6],[121.9,37.6],[121.9,37.5],[121.6,37.5],[121.6,37.6],[121.4,37.6],[121.4,37.7],[121.2,37.7],[121.2,37.8],[121.0,37.8],[121.0,37.9],[120.9,37.9],[120.9,38.0],[120.7,38.0],[120.7,37.9],[120.5,37.9],[120.5,37.8],[120.3,37.8],[120.3,37.7],[120.2,37.7],[120.2,37.6],[120.1,37.6],[120.1,37.5],[119.9,37.5],[119.9,37.4],[119.8,37.4],[119.8,37.3],[119.7,37.3],[119.7,37.2],[119.3,37.2],[119.3,37.3],[119.1,37.3],[119.1,37.4],[119.0,37.4],[119.0,38.2],[118.9,38.2],[118.9,38.3],[118.7,38.3],[118.7,38.2],[118.0,38.2],[118.0,38.3],[117.9,38.3],[117.9,38.4],[117.8,38.4],[117.8,38.5],[117.7,38.5],[117.7,38.6],[117.6,38.6],[117.6,39.0],[117.7,39.0],[117.7,39.1],[117.9,39.1],[117.9,39.2],[118.2,39.2],[118.2,39.1],[118.9,39.1],[118.9,39.2],[119.1,39.2],[119.1,39.3],[119.2,39.3],[119.2,39.5],[119.3,39.5],[119.3,39.7],[119.4,39.7],[119.4,39.8],[119.6,39.8],[119.6,39.9],[119.7,39.9],[119.7,40.1],[119.6,40.1],[119.6,40.3],[119.5,40.3],[119.5,40.4],[119.4,40.4],[119.4,40.5],[119.3,40.5],[119.3,40.6],[119.2,40.6],[119.2,40.7],[119.1,40.7],[119.1,40.8],[119.0,40.8],[119.0,40.9],[118.9,40.9],[118.9,41.0],[118.8,41.0],[118.8,41.1],[118.1,41.1],[118.1,41.2],[117.8,41.2],[117.8,41.3],[117.1,41.3],[117.1,41.4],[116.6,41.4],[116.6,41.5],[115.9,41.5],[115.9,41.6],[115.1,41.6],[115.1,41.5],[115.0,41.5],[115.0,41.4],[114.9,41.4],[114.9,41.3],[114.8,41.3],[114.8,41.1],[114.7,41.1],[114.7,40.9],[114.6,40.9],[114.6,40.4],[114.5,40.4],[114.5,40.1],[114.6,40.1],[114.6,39.6],[114.5,39.6],[114.5,39.5],[114.4,39.5],[114.4,39.2],[114.3,39.2],[114.3,39.0],[114.2,39.0],[114.2,38.1],[114.1,38.1],[114.1,37.8],[113.9,37.8],[113.9,37.6],[113.8,37.6],[113.8,37.5],[113.7,37.5],[113.7,37.2],[113.6,37.2],[113.6,37.0],[113.5,37.0],[113.5,36.8],[113.4,36.8],[113.4,36.6],[112.5,36.6],[112.5,36.7],[112.3,36.7],[112.3,36.8],[112.1,36.8],[112.1,36.9],[110.5,36.9],[110.5,37.0],[110.0,37.0],[110.0,37.1],[109.5,37.1],[109.5,37.0],[108.8,37.0],[108.8,36.9],[108.3,36.9],[108.3,37.0],[108.0,37.0],[108.0,37.1],[107.9,37.1],[107.9,37.2],[107.7,37.2],[107.7,37.3],[107.5,37.3],[107.5,37.4],[107.4,37.4],[107.4,37.5],[106.5,37.5],[106.5,37.6],[106.3,37.6],[106.3,37.7],[106.1,37.7],[106.1,37.8],[106.0,37.8],[106.0,37.9],[105.8,37.9],[105.8,38.1],[105.7,38.1],[105.7,38.2],[105.6,38.2],[105.6,38.3],[105.5,38.3],[105.5,38.4],[105.4,38.4],[105.4,38.5],[105.2,38.5],[105.2,38.7],[105.1,38.7],[105.1,38.8],[105.0,38.8],[105.0,38.9],[104.9,38.9],[104.9,39.1],[104.8,39.1],[104.8,39.2],[104.7,39.2],[104.7,39.3],[104.6,39.3],[104.6,39.5],[104.5,39.5],[104.5,39.6],[104.4,39.6],[104.4,39.7],[104.3,39.7],[104.3,39.8],[104.2,39.8],[104.2,39.9],[104.1,39.9],[104.1,40.0],[104.0,40.0],[104.0,40.1],[103.9,40.1],[103.9,40.2],[103.8,40.2],[103.8,40.3],[103.7,40.3],[103.7,40.4],[103.6,40.4],[103.6,40.5],[103.4,40.5],[103.4,40.6],[103.3,40.6],[103.3,40.7],[103.2,40.7],[103.2,40.8],[103.1,40.8],[103.1,40.9],[103.0,40.9],[103.0,41.0],[102.8,41.0],[102.8,41.1],[102.7,41.1],[102.7,41.2],[102.6,41.2],[102.6,41.3],[102.5,41.3],[102.5,41.4],[102.3,41.4],[102.3,41.5]],[[116.2,29.4],[116.2,29.2],[116.0,29.2],[116.0,29.4],[116.2,29.4]],[[116.5,29.2],[116.5,29.0],[116.4,29.0],[116.4,29.2],[116.5,29.2]]],[[[129.0,32.8],[129.0,32.9],[129.1,32.9],[129.1,33.1],[129.0,33.1],[129.0,33.0],[128.9,33.0],[128.9,32.8],[129.0,32.8]]],[[[134.3,35.7],[134.3,35.6],[133.4,35.6],[133.4,35.7],[133.0,35.7],[133.0,35.6],[132.8,35.6],[132.8,35.5],[132.7,35.5],[132.7,35.4],[132.6,35.4],[132.6,35.3],[132.4,35.3],[132.4,35.2],[132.3,35.2],[132.3,35.1],[132.2,35.1],[132.2,35.0],[132.0,35.0],[132.0,34.9],[131.9,34.9],[131.9,34.8],[131.6,34.8],[131.6,34.7],[131.5,34.7],[131.5,34.6],[131.4,34.6],[131.4,34.5],[131.0,34.5],[131.0,34.4],[130.9,34.4],[130.9,34.0],[130.5,34.0],[130.5,33.9],[130.4,33.9],[130.4,33.8],[130.2,33.8],[130.2,33.7],[130.1,33.7],[130.1,33.6],[129.9,33.6],[129.9,33.7],[129.7,33.7],[129.7,33.5],[129.5,33.5],[129.5,33.4],[129.6,33.4],[129.6,33.0],[129.7,33.0],[129.7,32.8],[129.8,32.8],[129.8,32.7],[130.0,32.7],[130.0,32.8],[129.9,32.8],[129.9,33.0],[130.1,33.0],[130.1,32.7],[130.3,32.7],[130.3,32.9],[130.4,32.9],[130.4,33.0],[130.3,33.0],[130.3,33.1],[130.2,33.1],[130.2,33.2],[130.4,33.2],[130.4,33.1],[130.5,33.1],[130.5,32.9],[130.6,32.9],[130.6,32.8],[130.5,32.8],[130.5,32.7],[130.4,32.7],[130.4,32.6],[130.2,32.6],[130.2,32.5],[130.1,32.5],[130.1,32.1],[130.2,32.1],[130.2,31.8],[130.3,31.8],[130.3,31.5],[130.2,31.5],[130.2,31.4],[130.3,31.4],[130.3,31.3],[130.5,31.3],[130.5,31.2],[130.7,31.2],[130.7,31.4],[130.6,31.4],[130.6,31.6],[130.7,31.6],[130.7,31.5],[130.8,31.5],[130.8,31.6],[130.9,31.6],[130.9,31.5],[131.0,31.5],[131.0,31.4],[130.8,31.4],[130.8,31.2],[131.1,31.2],[131.1,31.3],[131.2,31.3],[131.2,31.4],[131.4,31.4],[131.4,31.5],[131.5,31.5],[131.5,32.1],[131.6,32.1],[131.6,32.4],[131.7,32.4],[131.7,32.5],[131.8,32.5],[131.8,32.7],[131.9,32.7],[131.9,32.8],[132.0,32.8],[132.0,33.3],[131.9,33.3],[131.9,33.4],[131.8,33.4],[131.8,33.7],[131.7,33.7],[131.7,33.8],[131.5,33.8],[131.5,33.7],[131.2,33.7],[131.2,33.9],[131.1,33.9],[131.1,34.0],[131.9,34.0],[131.9,33.9],[132.0,33.9],[132.0,33.8],[132.3,33.8],[132.3,33.9],[132.4,33.9],[132.4,34.0],[132.6,34.0],[132.6,34.2],[132.9,34.2],[132.9,34.3],[133.3,34.3],[133.3,34.4],[133.8,34.4],[133.8,34.5],[134.2,34.5],[134.2,34.6],[134.4,34.6],[134.4,34.7],[134.5,34.7],[134.5,34.8],[134.8,34.8],[134.8,34.7],[135.0,34.7],[135.0,35.7],[134.3,35.7]]],[[[134.2,34.3],[133.9,34.3],[133.9,34.4],[133.8,34.4],[133.8,34.3],[133.6,34.3],[133.6,34.1],[133.3,34.1],[133.3,34.2],[132.9,34.2],[132.9,34.1],[132.8,34.1],[132.8,34.0],[132.7,34.0],[132.7,33.8],[132.6,33.8],[132.6,33.7],[132.4,33.7],[132.4,33.6],[132.3,33.6],[132.3,33.4],[132.4,33.4],[132.4,33.1],[132.5,33.1],[132.5,33.0],[132.6,33.0],[132.6,32.9],[132.7,32.9],[132.7,32.8],[133.0,32.8],[133.0,32.9],[133.1,32.9],[133.1,33.1],[133.2,33.1],[133.2,33.2],[133.3,33.2],[133.3,33.3],[133.4,33.3],[133.4,33.4],[133.5,33.4],[133.5,33.5],[133.6,33.5],[133.6,33.6],[133.9,33.6],[133.9,33.5],[134.0,33.5],[134.0,33.4],[134.2,33.4],[134.2,33.5],[134.3,33.5],[134.3,33.6],[134.4,33.6],[134.4,33.7],[134.6,33.7],[134.6,33.8],[134.7,33.8],[134.7,34.2],[134.6,34.2],[134.6,34.3],[134.5,34.3],[134.5,34.4],[134.2,34.4],[134.2,34.3]]],[[[134.9,34.2],[134.9,34.3],[135.0,34.3],[135.0,34.6],[134.9,34.6],[134.9,34.5],[134.8,34.5],[134.8,34.4],[134.7,34.4],[134.7,34.2],[134.9,34.2]]],[[[129.9,34.7],[129.9,34.8],[130.0,34.8],[130.0,35.0],[129.9,35.0],[129.9,34.9],[129.8,34.9],[129.8,34.7],[129.7,34.7],[129.7,34.3],[129.8,34.3],[129.8,34.4],[129.9,34.4],[129.9,34.6],[130.0,34.6],[130.0,34.7],[129.9,34.7]]]]},"properties":{"tile_id":"61","start_year":624,"end_year":628,"source_image":"data/raw/toolbay/t/61/624.png","source_url":"https://www.toolbay.cc/history-map/t/61/624.png","source_color":"#ff9933","polity_id":null,"polity_assignment":"unverified","geometry_origin":"raster_color_trace","pixel_size_degrees":0.1,"source_color_pixels":30601,"simplification_degrees":0}},{"type":"Feature","id":"61:624:#ffff00","bbox":[90.0,10.4,109.5,45.0],"geometry":{"type":"MultiPolygon","coordinates":[[[[107.7,16.6],[107.7,16.7],[107.5,16.7],[107.5,16.6],[107.4,16.6],[107.4,16.5],[107.3,16.5],[107.3,16.4],[107.2,16.4],[107.2,16.3],[107.0,16.3],[107.0,16.2],[106.8,16.2],[106.8,16.1],[106.6,16.1],[106.6,16.0],[105.8,16.0],[105.8,15.8],[105.9,15.8],[105.9,15.7],[106.0,15.7],[106.0,15.5],[106.1,15.5],[106.1,15.2],[106.2,15.2],[106.2,14.4],[106.3,14.4],[106.3,13.7],[106.2,13.7],[106.2,13.4],[106.1,13.4],[106.1,12.9],[106.0,12.9],[106.0,11.4],[106.1,11.4],[106.1,11.3],[106.2,11.3],[106.2,11.2],[106.3,11.2],[106.3,11.1],[106.4,11.1],[106.4,11.0],[106.5,11.0],[106.5,10.9],[106.6,10.9],[106.6,10.8],[106.7,10.8],[106.7,10.7],[106.8,10.7],[106.8,10.6],[106.9,10.6],[106.9,10.5],[107.1,10.5],[107.1,10.4],[107.3,10.4],[107.3,10.5],[107.5,10.5],[107.5,10.6],[107.7,10.6],[107.7,10.7],[108.0,10.7],[108.0,10.8],[108.1,10.8],[108.1,10.9],[108.2,10.9],[108.2,11.0],[108.4,11.0],[108.4,11.1],[108.5,11.1],[108.5,11.2],[108.7,11.2],[108.7,11.3],[108.9,11.3],[108.9,11.4],[109.0,11.4],[109.0,11.5],[109.1,11.5],[109.1,11.6],[109.2,11.6],[109.2,11.7],[109.3,11.7],[109.3,12.3],[109.4,12.3],[109.4,12.6],[109.5,12.6],[109.5,13.1],[109.4,13.1],[109.4,13.7],[109.3,13.7],[109.3,14.3],[109.2,14.3],[109.2,14.6],[109.1,14.6],[109.1,14.9],[109.0,14.9],[109.0,15.3],[108.9,15.3],[108.9,15.4],[108.8,15.4],[108.8,15.5],[108.7,15.5],[108.7,15.6],[108.6,15.6],[108.6,15.7],[108.5,15.7],[108.5,15.9],[108.4,15.9],[108.4,16.0],[108.3,16.0],[108.3,16.2],[108.2,16.2],[108.2,16.3],[108.1,16.3],[108.1,16.4],[107.9,16.4],[107.9,16.5],[107.8,16.5],[107.8,16.6],[107.7,16.6]]],[[[100.0,44.9],[100.0,45.0],[90.0,45.0],[90.0,43.6],[90.2,43.6],[90.2,43.5],[90.3,43.5],[90.3,43.4],[90.5,43.4],[90.5,43.3],[90.7,43.3],[90.7,43.2],[91.0,43.2],[91.0,43.1],[91.3,43.1],[91.3,43.0],[91.6,43.0],[91.6,42.9],[92.1,42.9],[92.1,42.8],[92.4,42.8],[92.4,42.7],[94.3,42.7],[94.3,42.6],[94.7,42.6],[94.7,42.5],[95.1,42.5],[95.1,42.4],[95.4,42.4],[95.4,42.3],[95.8,42.3],[95.8,42.2],[96.1,42.2],[96.1,42.1],[96.6,42.1],[96.6,42.0],[96.9,42.0],[96.9,42.1],[97.1,42.1],[97.1,42.2],[97.3,42.2],[97.3,42.3],[97.5,42.3],[97.5,42.4],[97.6,42.4],[97.6,42.5],[97.8,42.5],[97.8,42.6],[98.0,42.6],[98.0,42.7],[98.1,42.7],[98.1,42.8],[98.2,42.8],[98.2,42.9],[98.4,42.9],[98.4,43.0],[98.5,43.0],[98.5,43.1],[98.7,43.1],[98.7,43.2],[98.8,43.2],[98.8,43.3],[98.9,43.3],[98.9,43.4],[99.0,43.4],[99.0,43.5],[99.1,43.5],[99.1,43.6],[99.2,43.6],[99.2,43.7],[99.3,43.7],[99.3,43.9],[99.4,43.9],[99.4,44.0],[99.5,44.0],[99.5,44.2],[99.6,44.2],[99.6,44.4],[99.7,44.4],[99.7,44.7],[99.8,44.7],[99.8,44.8],[99.9,44.8],[99.9,44.9],[100.0,44.9]]]]},"properties":{"tile_id":"61","start_year":624,"end_year":628,"source_image":"data/raw/toolbay/t/61/624.png","source_url":"https://www.toolbay.cc/history-map/t/61/624.png","source_color":"#ffff00","polity_id":null,"polity_assignment":"unverified","geometry_origin":"raster_color_trace","pixel_size_degrees":0.1,"source_color_pixels":3799,"simplification_degrees":0}}]}
