{"type":"FeatureCollection","features":[{"type":"Feature","id":"61:874:#009900","bbox":[95.9,22.4,129.6,39.7],"geometry":{"type":"MultiPolygon","coordinates":[[[[99.8,30.9],[99.8,31.0],[99.4,31.0],[99.4,30.9],[98.5,30.9],[98.5,30.8],[98.1,30.8],[98.1,30.7],[97.6,30.7],[97.6,30.8],[97.0,30.8],[97.0,30.7],[96.9,30.7],[96.9,30.6],[96.8,30.6],[96.8,30.4],[96.7,30.4],[96.7,30.1],[96.6,30.1],[96.6,29.9],[96.5,29.9],[96.5,29.7],[96.4,29.7],[96.4,29.5],[96.3,29.5],[96.3,29.4],[96.2,29.4],[96.2,29.3],[96.1,29.3],[96.1,29.2],[96.0,29.2],[96.0,29.0],[95.9,29.0],[95.9,28.8],[96.0,28.8],[96.0,28.6],[96.1,28.6],[96.1,28.5],[96.2,28.5],[96.2,28.4],[96.3,28.4],[96.3,28.3],[96.4,28.3],[96.4,28.1],[96.6,28.1],[96.6,28.0],[96.7,28.0],[96.7,27.9],[96.9,27.9],[96.9,27.8],[97.2,27.8],[97.2,27.7],[97.5,27.7],[97.5,27.6],[97.6,27.6],[97.6,27.5],[97.8,27.5],[97.8,27.4],[97.9,27.4],[97.9,27.3],[98.1,27.3],[98.1,27.2],[98.3,27.2],[98.3,27.1],[98.5,27.1],[98.5,27.0],[98.6,27.0],[98.6,26.7],[98.7,26.7],[98.7,26.5],[98.8,26.5],[98.8,26.2],[98.9,26.2],[98.9,24.6],[98.8,24.6],[98.8,24.2],[98.7,24.2],[98.7,22.6],[98.8,22.6],[98.8,22.5],[98.9,22.5],[98.9,22.4],[100.7,22.4],[100.7,22.5],[102.8,22.5],[102.8,22.6],[102.9,22.6],[102.9,22.7],[103.2,22.7],[103.2,22.8],[103.5,22.8],[103.5,22.9],[103.7,22.9],[103.7,23.0],[103.9,23.0],[103.9,23.1],[104.1,23.1],[104.1,23.2],[104.3,23.2],[104.3,23.3],[104.7,23.3],[104.7,23.4],[105.4,23.4],[105.4,23.5],[108.1,23.5],[108.1,23.6],[108.2,23.6],[108.2,23.7],[108.3,23.7],[108.3,23.8],[108.4,23.8],[108.4,24.0],[108.5,24.0],[108.5,24.1],[108.6,24.1],[108.6,24.2],[108.7,24.2],[108.7,24.3],[108.8,24.3],[108.8,24.4],[108.9,24.4],[108.9,24.6],[109.0,24.6],[109.0,24.7],[109.1,24.7],[109.1,25.1],[109.0,25.1],[109.0,25.2],[108.7,25.2],[108.7,25.3],[108.4,25.3],[108.4,25.4],[108.1,25.4],[108.1,25.5],[107.8,25.5],[107.8,25.6],[107.5,25.6],[107.5,25.7],[106.7,25.7],[106.7,25.6],[106.3,25.6],[106.3,25.7],[105.8,25.7],[105.8,25.8],[105.6,25.8],[105.6,25.9],[105.5,25.9],[105.5,26.0],[105.3,26.0],[105.3,26.1],[105.2,26.1],[105.2,26.3],[105.1,26.3],[105.1,27.2],[105.2,27.2],[105.2,28.0],[105.1,28.0],[105.1,28.1],[104.7,28.1],[104.7,28.2],[104.5,28.2],[104.5,28.3],[104.2,28.3],[104.2,28.4],[103.8,28.4],[103.8,28.5],[103.5,28.5],[103.5,28.6],[103.0,28.6],[103.0,28.7],[102.9,28.7],[102.9,28.8],[102.7,28.8],[102.7,29.0],[102.6,29.0],[102.6,29.1],[102.5,29.1],[102.5,29.4],[102.4,29.4],[102.4,29.5],[102.2,29.5],[102.2,29.6],[102.1,29.6],[102.1,29.7],[101.9,29.7],[101.9,29.8],[101.8,29.8],[101.8,29.9],[101.7,29.9],[101.7,30.0],[101.5,30.0],[101.5,30.1],[101.3,30.1],[101.3,30.2],[101.1,30.2],[101.1,30.3],[101.0,30.3],[101.0,30.4],[100.8,30.4],[100.8,30.5],[100.5,30.5],[100.5,30.6],[100.3,30.6],[100.3,30.7],[100.1,30.7],[100.1,30.8],[99.9,30.8],[99.9,30.9],[99.8,30.9]]],[[[126.9,33.5],[126.8,33.5],[126.8,33.6],[126.4,33.6],[126.4,33.5],[126.3,33.5],[126.3,33.4],[126.4,33.4],[126.4,33.3],[126.8,33.3],[126.8,33.4],[126.9,33.4],[126.9,33.5]]],[[[127.1,39.6],[126.8,39.6],[126.8,39.7],[126.0,39.7],[126.0,39.6],[125.7,39.6],[125.7,39.5],[125.4,39.5],[125.4,39.3],[125.3,39.3],[125.3,39.1],[125.2,39.1],[125.2,39.0],[125.1,39.0],[125.1,38.7],[125.0,38.7],[125.0,38.6],[124.9,38.6],[124.9,38.1],[125.0,38.1],[125.0,37.9],[125.1,37.9],[125.1,37.8],[125.2,37.8],[125.2,37.7],[125.4,37.7],[125.4,37.8],[125.7,37.8],[125.7,37.9],[126.0,37.9],[126.0,37.8],[126.3,37.8],[126.3,37.7],[126.4,37.7],[126.4,37.4],[126.5,37.4],[126.5,37.2],[126.4,37.2],[126.4,37.1],[126.3,37.1],[126.3,37.0],[126.2,37.0],[126.2,36.9],[126.1,36.9],[126.1,36.7],[126.2,36.7],[126.2,36.6],[126.3,36.6],[126.3,36.5],[126.4,36.5],[126.4,36.4],[126.5,36.4],[126.5,36.2],[126.6,36.2],[126.6,35.8],[126.5,35.8],[126.5,35.5],[126.4,35.5],[126.4,35.4],[126.3,35.4],[126.3,35.3],[126.2,35.3],[126.2,35.2],[126.1,35.2],[126.1,35.1],[126.0,35.1],[126.0,34.9],[125.9,34.9],[125.9,34.6],[126.0,34.6],[126.0,34.5],[126.1,34.5],[126.1,34.4],[126.5,34.4],[126.5,34.3],[126.6,34.3],[126.6,34.2],[126.9,34.2],[126.9,34.3],[127.0,34.3],[127.0,34.4],[127.5,34.4],[127.5,34.5],[127.8,34.5],[127.8,34.6],[127.9,34.6],[127.9,34.7],[128.2,34.7],[128.2,34.8],[128.3,34.8],[128.3,34.7],[128.4,34.7],[128.4,34.8],[128.7,34.8],[128.7,34.9],[128.8,34.9],[128.8,35.0],[128.9,35.0],[128.9,35.1],[129.2,35.1],[129.2,35.2],[129.3,35.2],[129.3,35.4],[129.4,35.4],[129.4,35.5],[129.5,35.5],[129.5,35.8],[129.6,35.8],[129.6,36.1],[129.5,36.1],[129.5,36.2],[129.4,36.2],[129.4,36.5],[129.5,36.5],[129.5,37.1],[129.4,37.1],[129.4,37.4],[129.3,37.4],[129.3,37.5],[129.2,37.5],[129.2,37.7],[129.1,37.7],[129.1,37.8],[129.0,37.8],[129.0,37.9],[128.9,37.9],[128.9,38.0],[128.8,38.0],[128.8,38.1],[128.7,38.1],[128.7,38.3],[128.6,38.3],[128.6,38.5],[128.5,38.5],[128.5,38.6],[128.4,38.6],[128.4,38.7],[128.3,38.7],[128.3,38.8],[128.2,38.8],[128.2,38.9],[128.1,38.9],[128.1,39.0],[127.9,39.0],[127.9,39.1],[127.8,39.1],[127.8,39.2],[127.7,39.2],[127.7,39.3],[127.6,39.3],[127.6,39.5],[127.1,39.5],[127.1,39.6]]]]},"properties":{"tile_id":"61","start_year":874,"end_year":880,"source_image":"data/raw/toolbay/t/61/874.png","source_url":"https://www.toolbay.cc/history-map/t/61/874.png","source_color":"#009900","polity_id":null,"polity_assignment":"unverified","geometry_origin":"raster_color_trace","pixel_size_degrees":0.1,"source_color_pixels":7523,"simplification_degrees":0}},{"type":"Feature","id":"61:874:#009999","bbox":[101.9,8.6,124.0,45.0],"geometry":{"type":"MultiPolygon","coordinates":[[[[106.2,15.5],[106.2,15.6],[105.9,15.6],[105.9,15.5],[105.5,15.5],[105.5,15.4],[105.3,15.4],[105.3,15.2],[105.0,15.2],[105.0,15.1],[103.9,15.1],[103.9,15.0],[103.7,15.0],[103.7,14.9],[103.5,14.9],[103.5,14.8],[103.4,14.8],[103.4,14.7],[103.2,14.7],[103.2,14.6],[103.0,14.6],[103.0,14.5],[102.9,14.5],[102.9,14.4],[102.8,14.4],[102.8,14.3],[102.7,14.3],[102.7,14.2],[102.6,14.2],[102.6,14.1],[102.5,14.1],[102.5,13.9],[102.4,13.9],[102.4,13.8],[102.3,13.8],[102.3,13.6],[102.2,13.6],[102.2,13.4],[102.1,13.4],[102.1,13.1],[102.0,13.1],[102.0,12.9],[101.9,12.9],[101.9,12.6],[102.0,12.6],[102.0,12.5],[102.2,12.5],[102.2,12.4],[102.3,12.4],[102.3,12.2],[102.7,12.2],[102.7,12.1],[102.8,12.1],[102.8,11.8],[102.9,11.8],[102.9,11.6],[103.0,11.6],[103.0,11.3],[103.1,11.3],[103.1,10.9],[103.4,10.9],[103.4,11.0],[103.6,11.0],[103.6,10.6],[103.7,10.6],[103.7,10.5],[103.8,10.5],[103.8,10.4],[104.0,10.4],[104.0,10.5],[104.2,10.5],[104.2,10.6],[104.3,10.6],[104.3,10.5],[104.4,10.5],[104.4,10.4],[104.5,10.4],[104.5,10.3],[104.7,10.3],[104.7,10.2],[104.9,10.2],[104.9,10.1],[105.0,10.1],[105.0,9.9],[104.9,9.9],[104.9,9.7],[104.8,9.7],[104.8,8.7],[104.9,8.7],[104.9,8.6],[105.1,8.6],[105.1,8.7],[105.2,8.7],[105.2,8.8],[105.3,8.8],[105.3,8.9],[105.4,8.9],[105.4,9.0],[105.5,9.0],[105.5,9.1],[105.6,9.1],[105.6,9.2],[105.8,9.2],[105.8,9.3],[106.1,9.3],[106.1,9.4],[106.2,9.4],[106.2,9.5],[106.3,9.5],[106.3,9.6],[106.5,9.6],[106.5,9.7],[106.6,9.7],[106.6,9.8],[106.7,9.8],[106.7,10.0],[106.8,10.0],[106.8,10.4],[106.9,10.4],[106.9,10.6],[106.8,10.6],[106.8,10.7],[106.7,10.7],[106.7,10.8],[106.6,10.8],[106.6,10.9],[106.7,10.9],[106.7,11.1],[106.8,11.1],[106.8,11.3],[106.9,11.3],[106.9,11.4],[107.0,11.4],[107.0,11.6],[107.1,11.6],[107.1,11.7],[107.2,11.7],[107.2,11.8],[107.3,11.8],[107.3,12.0],[107.4,12.0],[107.4,12.3],[107.5,12.3],[107.5,12.6],[107.6,12.6],[107.6,12.8],[107.7,12.8],[107.7,14.0],[107.6,14.0],[107.6,14.2],[107.5,14.2],[107.5,14.4],[107.4,14.4],[107.4,14.5],[107.3,14.5],[107.3,14.6],[107.2,14.6],[107.2,14.7],[107.1,14.7],[107.1,14.8],[107.0,14.8],[107.0,14.9],[106.9,14.9],[106.9,15.0],[106.7,15.0],[106.7,15.1],[106.6,15.1],[106.6,15.2],[106.5,15.2],[106.5,15.3],[106.4,15.3],[106.4,15.4],[106.3,15.4],[106.3,15.5],[106.2,15.5]],[[105.1,10.8],[105.2,10.8],[105.2,10.9],[105.3,10.9],[105.3,10.7],[105.1,10.7],[105.1,10.8]]],[[[122.3,44.9],[122.3,45.0],[116.5,45.0],[116.5,44.9],[116.4,44.9],[116.4,43.2],[116.5,43.2],[116.5,42.9],[116.6,42.9],[116.6,42.7],[116.7,42.7],[116.7,42.5],[116.8,42.5],[116.8,42.4],[116.9,42.4],[116.9,42.3],[117.0,42.3],[117.0,42.1],[117.2,42.1],[117.2,42.0],[117.4,42.0],[117.4,41.9],[117.6,41.9],[117.6,41.8],[117.8,41.8],[117.8,41.7],[118.0,41.7],[118.0,41.6],[118.9,41.6],[118.9,41.5],[119.3,41.5],[119.3,41.6],[119.6,41.6],[119.6,41.7],[120.0,41.7],[120.0,41.8],[121.3,41.8],[121.3,41.7],[122.0,41.7],[122.0,41.8],[122.2,41.8],[122.2,41.9],[122.5,41.9],[122.5,42.0],[122.9,42.0],[122.9,42.1],[123.1,42.1],[123.1,42.2],[123.3,42.2],[123.3,42.3],[123.6,42.3],[123.6,42.4],[123.9,42.4],[123.9,42.5],[124.0,42.5],[124.0,42.9],[123.9,42.9],[123.9,43.0],[123.8,43.0],[123.8,43.1],[123.7,43.1],[123.7,43.2],[123.6,43.2],[123.6,43.3],[123.4,43.3],[123.4,43.4],[123.3,43.4],[123.3,43.5],[123.1,43.5],[123.1,43.9],[123.0,43.9],[123.0,44.1],[122.9,44.1],[122.9,44.3],[122.8,44.3],[122.8,44.4],[122.7,44.4],[122.7,44.5],[122.6,44.5],[122.6,44.7],[122.5,44.7],[122.5,44.8],[122.4,44.8],[122.4,44.9],[122.3,44.9]]]]},"properties":{"tile_id":"61","start_year":874,"end_year":880,"source_image":"data/raw/toolbay/t/61/874.png","source_url":"https://www.toolbay.cc/history-map/t/61/874.png","source_color":"#009999","polity_id":null,"polity_assignment":"unverified","geometry_origin":"raster_color_trace","pixel_size_degrees":0.1,"source_color_pixels":4556,"simplification_degrees":0}},{"type":"Feature","id":"61:874:#00ff00","bbox":[90.0,21.9,94.6,43.5],"geometry":{"type":"MultiPolygon","coordinates":[[[[91.0,27.5],[91.0,27.7],[90.5,27.7],[90.5,27.6],[90.2,27.6],[90.2,27.5],[90.0,27.5],[90.0,21.9],[90.7,21.9],[90.7,22.0],[90.8,22.0],[90.8,22.1],[91.0,22.1],[91.0,22.2],[91.1,22.2],[91.1,22.5],[91.2,22.5],[91.2,22.6],[91.6,22.6],[91.6,22.7],[91.7,22.7],[91.7,22.9],[91.8,22.9],[91.8,23.1],[91.9,23.1],[91.9,23.4],[92.0,23.4],[92.0,23.6],[92.1,23.6],[92.1,23.9],[92.2,23.9],[92.2,24.2],[92.1,24.2],[92.1,24.4],[92.0,24.4],[92.0,24.5],[91.9,24.5],[91.9,24.6],[91.8,24.6],[91.8,24.8],[91.7,24.8],[91.7,25.0],[91.6,25.0],[91.6,25.3],[91.5,25.3],[91.5,25.4],[91.4,25.4],[91.4,25.6],[91.3,25.6],[91.3,25.8],[91.2,25.8],[91.2,26.0],[91.1,26.0],[91.1,26.3],[91.2,26.3],[91.2,26.5],[91.3,26.5],[91.3,27.1],[91.2,27.1],[91.2,27.3],[91.1,27.3],[91.1,27.5],[91.0,27.5]]],[[[94.6,41.8],[94.6,43.5],[92.2,43.5],[92.2,43.4],[91.2,43.4],[91.2,43.3],[90.2,43.3],[90.2,43.2],[90.0,43.2],[90.0,37.7],[91.6,37.7],[91.6,37.8],[92.2,37.8],[92.2,37.9],[92.6,37.9],[92.6,38.0],[92.9,38.0],[92.9,38.1],[93.1,38.1],[93.1,38.2],[93.3,38.2],[93.3,38.4],[93.2,38.4],[93.2,38.5],[93.1,38.5],[93.1,39.3],[93.2,39.3],[93.2,39.6],[93.3,39.6],[93.3,39.9],[93.4,39.9],[93.4,40.0],[93.5,40.0],[93.5,40.3],[93.6,40.3],[93.6,40.4],[93.7,40.4],[93.7,40.6],[93.8,40.6],[93.8,40.7],[93.9,40.7],[93.9,40.8],[94.0,40.8],[94.0,41.0],[94.1,41.0],[94.1,41.1],[94.2,41.1],[94.2,41.2],[94.3,41.2],[94.3,41.4],[94.4,41.4],[94.4,41.6],[94.5,41.6],[94.5,41.8],[94.6,41.8]]]]},"properties":{"tile_id":"61","start_year":874,"end_year":880,"source_image":"data/raw/toolbay/t/61/874.png","source_url":"https://www.toolbay.cc/history-map/t/61/874.png","source_color":"#00ff00","polity_id":null,"polity_assignment":"unverified","geometry_origin":"raster_color_trace","pixel_size_degrees":0.1,"source_color_pixels":3032,"simplification_degrees":0}},{"type":"Feature","id":"61:874:#999900","bbox":[90.0,15.8,110.4,45.0],"geometry":{"type":"MultiPolygon","coordinates":[[[[95.2,19.2],[95.2,19.3],[95.0,19.3],[95.0,19.2],[94.6,19.2],[94.6,19.1],[94.5,19.1],[94.5,19.0],[94.3,19.0],[94.3,18.9],[94.1,18.9],[94.1,18.7],[94.2,18.7],[94.2,18.5],[94.3,18.5],[94.3,18.3],[94.4,18.3],[94.4,18.1],[94.5,18.1],[94.5,17.7],[94.6,17.7],[94.6,17.4],[94.5,17.4],[94.5,17.3],[94.4,17.3],[94.4,16.7],[94.3,16.7],[94.3,16.5],[94.2,16.5],[94.2,16.1],[94.3,16.1],[94.3,16.0],[94.5,16.0],[94.5,15.9],[94.7,15.9],[94.7,15.8],[95.5,15.8],[95.5,15.9],[95.6,15.9],[95.6,16.0],[95.7,16.0],[95.7,16.1],[95.8,16.1],[95.8,16.2],[95.9,16.2],[95.9,16.3],[96.0,16.3],[96.0,16.4],[96.4,16.4],[96.4,16.5],[96.5,16.5],[96.5,16.6],[96.7,16.6],[96.7,16.7],[96.8,16.7],[96.8,16.8],[96.9,16.8],[96.9,16.9],[97.0,16.9],[97.0,17.0],[97.1,17.0],[97.1,17.6],[97.0,17.6],[97.0,17.8],[96.9,17.8],[96.9,18.0],[96.8,18.0],[96.8,18.2],[96.7,18.2],[96.7,18.3],[96.6,18.3],[96.6,18.5],[96.5,18.5],[96.5,18.6],[96.4,18.6],[96.4,18.7],[96.3,18.7],[96.3,18.8],[96.2,18.8],[96.2,18.9],[96.0,18.9],[96.0,19.0],[95.8,19.0],[95.8,19.1],[95.6,19.1],[95.6,19.2],[95.2,19.2]]],[[[110.4,44.6],[110.4,45.0],[90.0,45.0],[90.0,43.2],[90.2,43.2],[90.2,43.3],[91.2,43.3],[91.2,43.4],[92.2,43.4],[92.2,43.5],[94.8,43.5],[94.8,43.4],[95.7,43.4],[95.7,43.3],[96.2,43.3],[96.2,43.2],[96.7,43.2],[96.7,43.1],[97.1,43.1],[97.1,43.0],[97.4,43.0],[97.4,42.9],[97.7,42.9],[97.7,42.8],[97.9,42.8],[97.9,42.7],[98.1,42.7],[98.1,42.6],[98.4,42.6],[98.4,42.5],[98.7,42.5],[98.7,42.4],[99.0,42.4],[99.0,42.2],[99.5,42.2],[99.5,42.1],[99.7,42.1],[99.7,42.0],[99.8,42.0],[99.8,41.9],[99.9,41.9],[99.9,41.8],[100.2,41.8],[100.2,41.7],[100.3,41.7],[100.3,41.6],[100.4,41.6],[100.4,41.5],[100.6,41.5],[100.6,41.4],[100.8,41.4],[100.8,41.3],[101.1,41.3],[101.1,41.2],[101.6,41.2],[101.6,41.1],[102.3,41.1],[102.3,41.0],[102.8,41.0],[102.8,40.9],[104.0,40.9],[104.0,41.0],[104.1,41.0],[104.1,41.1],[104.2,41.1],[104.2,41.2],[104.5,41.2],[104.5,41.3],[105.7,41.3],[105.7,41.2],[108.1,41.2],[108.1,41.3],[109.0,41.3],[109.0,41.5],[109.1,41.5],[109.1,42.2],[109.2,42.2],[109.2,42.4],[109.3,42.4],[109.3,42.7],[109.4,42.7],[109.4,42.9],[109.5,42.9],[109.5,43.0],[109.6,43.0],[109.6,43.2],[109.7,43.2],[109.7,43.5],[109.8,43.5],[109.8,43.8],[109.9,43.8],[109.9,44.0],[110.0,44.0],[110.0,44.1],[110.1,44.1],[110.1,44.2],[110.2,44.2],[110.2,44.4],[110.3,44.4],[110.3,44.6],[110.4,44.6]]]]},"properties":{"tile_id":"61","start_year":874,"end_year":880,"source_image":"data/raw/toolbay/t/61/874.png","source_url":"https://www.toolbay.cc/history-map/t/61/874.png","source_color":"#999900","polity_id":null,"polity_assignment":"unverified","geometry_origin":"raster_color_trace","pixel_size_degrees":0.1,"source_color_pixels":6263,"simplification_degrees":0}},{"type":"Feature","id":"61:874:#ff0000","bbox":[95.2,0.0,118.8,37.2],"geometry":{"type":"MultiPolygon","coordinates":[[[[98.5,0.2],[98.5,0.1],[98.4,0.1],[98.4,0.0],[98.7,0.0],[98.7,0.2],[98.5,0.2]]],[[[104.3,0.2],[104.4,0.2],[104.4,0.1],[104.5,0.1],[104.5,0.0],[104.8,0.0],[104.8,0.1],[104.7,0.1],[104.7,0.2],[104.6,0.2],[104.6,0.4],[104.3,0.4],[104.3,0.2]]],[[[109.0,0.3],[109.1,0.3],[109.1,0.2],[109.2,0.2],[109.2,0.0],[111.9,0.0],[111.9,0.1],[111.8,0.1],[111.8,0.5],[111.7,0.5],[111.7,0.6],[111.6,0.6],[111.6,0.7],[111.5,0.7],[111.5,0.8],[111.4,0.8],[111.4,0.9],[111.3,0.9],[111.3,1.1],[111.2,1.1],[111.2,1.2],[111.1,1.2],[111.1,1.5],[111.0,1.5],[111.0,1.7],[110.6,1.7],[110.6,1.8],[109.9,1.8],[109.9,1.9],[109.8,1.9],[109.8,2.0],[109.7,2.0],[109.7,2.1],[109.4,2.1],[109.4,2.0],[109.3,2.0],[109.3,1.8],[109.2,1.8],[109.2,1.7],[109.1,1.7],[109.1,1.6],[109.0,1.6],[109.0,1.3],[108.9,1.3],[108.9,0.4],[109.0,0.4],[109.0,0.3]]],[[[97.6,1.4],[97.6,1.5],[97.5,1.5],[97.5,1.6],[97.3,1.6],[97.3,1.5],[97.2,1.5],[97.2,1.3],[97.3,1.3],[97.3,1.2],[97.4,1.2],[97.4,1.0],[97.5,1.0],[97.5,0.9],[97.6,0.9],[97.6,0.8],[97.7,0.8],[97.7,0.7],[97.8,0.7],[97.8,0.8],[97.9,0.8],[97.9,1.2],[97.8,1.2],[97.8,1.3],[97.7,1.3],[97.7,1.4],[97.6,1.4]]],[[[96.2,2.7],[96.2,2.8],[96.1,2.8],[96.1,2.9],[95.8,2.9],[95.8,2.7],[95.9,2.7],[95.9,2.6],[96.1,2.6],[96.1,2.5],[96.3,2.5],[96.3,2.7],[96.2,2.7]]],[[[99.4,0.2],[99.6,0.2],[99.6,0.1],[99.7,0.1],[99.7,0.0],[103.9,0.0],[103.9,0.1],[103.8,0.1],[103.8,0.3],[103.7,0.3],[103.7,0.4],[103.6,0.4],[103.6,0.8],[104.2,0.8],[104.2,0.7],[104.4,0.7],[104.4,0.8],[104.7,0.8],[104.7,0.9],[104.8,0.9],[104.8,1.1],[104.7,1.1],[104.7,1.2],[104.6,1.2],[104.6,1.3],[104.3,1.3],[104.3,1.8],[104.2,1.8],[104.2,2.1],[104.1,2.1],[104.1,2.4],[104.0,2.4],[104.0,2.5],[103.9,2.5],[103.9,2.6],[103.8,2.6],[103.8,2.7],[103.7,2.7],[103.7,2.8],[103.6,2.8],[103.6,2.9],[103.5,2.9],[103.5,3.7],[103.4,3.7],[103.4,4.1],[103.5,4.1],[103.5,4.9],[103.4,4.9],[103.4,5.1],[103.3,5.1],[103.3,5.3],[103.2,5.3],[103.2,5.5],[103.1,5.5],[103.1,5.6],[102.9,5.6],[102.9,5.7],[102.8,5.7],[102.8,5.8],[102.7,5.8],[102.7,5.9],[102.6,5.9],[102.6,6.0],[102.5,6.0],[102.5,6.1],[102.4,6.1],[102.4,6.2],[102.3,6.2],[102.3,6.3],[102.1,6.3],[102.1,6.4],[101.9,6.4],[101.9,6.5],[101.8,6.5],[101.8,6.7],[101.7,6.7],[101.7,6.8],[101.6,6.8],[101.6,6.9],[101.5,6.9],[101.5,7.0],[100.8,7.0],[100.8,7.1],[100.7,7.1],[100.7,7.3],[100.6,7.3],[100.6,7.5],[100.5,7.5],[100.5,7.8],[100.4,7.8],[100.4,8.2],[100.3,8.2],[100.3,8.5],[100.2,8.5],[100.2,8.6],[100.1,8.6],[100.1,8.7],[99.7,8.7],[99.7,8.6],[99.6,8.6],[99.6,8.5],[99.5,8.5],[99.5,8.4],[99.3,8.4],[99.3,8.3],[99.2,8.3],[99.2,8.2],[98.8,8.2],[98.8,8.0],[98.9,8.0],[98.9,7.9],[99.0,7.9],[99.0,7.7],[99.1,7.7],[99.1,7.6],[99.2,7.6],[99.2,7.5],[99.3,7.5],[99.3,7.4],[99.4,7.4],[99.4,7.3],[99.5,7.3],[99.5,7.2],[99.6,7.2],[99.6,7.1],[99.7,7.1],[99.7,6.9],[99.8,6.9],[99.8,6.8],[99.9,6.8],[99.9,6.6],[99.8,6.6],[99.8,6.5],[99.7,6.5],[99.7,6.4],[99.8,6.4],[99.8,6.3],[100.0,6.3],[100.0,6.4],[100.2,6.4],[100.2,6.3],[100.3,6.3],[100.3,6.0],[100.4,6.0],[100.4,5.8],[100.3,5.8],[100.3,5.6],[100.2,5.6],[100.2,5.4],[100.3,5.4],[100.3,5.3],[100.4,5.3],[100.4,5.0],[100.5,5.0],[100.5,4.9],[100.6,4.9],[100.6,4.2],[100.7,4.2],[100.7,3.9],[100.8,3.9],[100.8,3.8],[100.9,3.8],[100.9,3.7],[101.0,3.7],[101.0,3.6],[101.1,3.6],[101.1,3.5],[101.2,3.5],[101.2,3.4],[101.3,3.4],[101.3,2.9],[101.4,2.9],[101.4,2.8],[101.5,2.8],[101.5,2.7],[101.8,2.7],[101.8,2.6],[101.9,2.6],[101.9,2.5],[102.0,2.5],[102.0,2.4],[102.1,2.4],[102.1,2.3],[102.3,2.3],[102.3,2.2],[102.5,2.2],[102.5,2.1],[102.6,2.1],[102.6,2.0],[102.7,2.0],[102.7,1.9],[102.9,1.9],[102.9,1.8],[103.1,1.8],[103.1,1.7],[103.3,1.7],[103.3,1.6],[103.4,1.6],[103.4,1.5],[103.5,1.5],[103.5,1.4],[103.8,1.4],[103.8,1.3],[103.9,1.3],[103.9,1.1],[103.8,1.1],[103.8,1.0],[103.1,1.0],[103.1,1.1],[103.0,1.1],[103.0,1.2],[102.9,1.2],[102.9,1.3],[102.6,1.3],[102.6,1.4],[102.5,1.4],[102.5,1.6],[102.4,1.6],[102.4,1.7],[101.9,1.7],[101.9,1.8],[101.8,1.8],[101.8,2.1],[101.7,2.1],[101.7,2.2],[101.5,2.2],[101.5,2.1],[101.3,2.1],[101.3,2.2],[101.2,2.2],[101.2,2.3],[101.1,2.3],[101.1,2.4],[100.9,2.4],[100.9,2.3],[100.5,2.3],[100.5,2.4],[100.4,2.4],[100.4,2.7],[100.3,2.7],[100.3,2.8],[100.1,2.8],[100.1,2.9],[100.0,2.9],[100.0,3.0],[99.9,3.0],[99.9,3.2],[99.8,3.2],[99.8,3.3],[99.6,3.3],[99.6,3.4],[99.5,3.4],[99.5,3.5],[99.3,3.5],[99.3,3.6],[99.2,3.6],[99.2,3.7],[99.1,3.7],[99.1,3.8],[98.8,3.8],[98.8,3.9],[98.7,3.9],[98.7,4.0],[98.6,4.0],[98.6,4.1],[98.4,4.1],[98.4,4.2],[98.3,4.2],[98.3,4.5],[98.2,4.5],[98.2,4.6],[98.1,4.6],[98.1,4.7],[98.0,4.7],[98.0,4.9],[97.9,4.9],[97.9,5.0],[97.8,5.0],[97.8,5.1],[97.7,5.1],[97.7,5.2],[97.6,5.2],[97.6,5.3],[97.1,5.3],[97.1,5.4],[96.7,5.4],[96.7,5.3],[96.3,5.3],[96.3,5.4],[96.1,5.4],[96.1,5.5],[95.9,5.5],[95.9,5.6],[95.8,5.6],[95.8,5.7],[95.5,5.7],[95.5,5.8],[95.2,5.8],[95.2,5.3],[95.3,5.3],[95.3,5.1],[95.4,5.1],[95.4,4.9],[95.5,4.9],[95.5,4.8],[95.6,4.8],[95.6,4.7],[95.7,4.7],[95.7,4.6],[95.8,4.6],[95.8,4.5],[95.9,4.5],[95.9,4.4],[96.0,4.4],[96.0,4.3],[96.1,4.3],[96.1,4.2],[96.2,4.2],[96.2,4.1],[96.3,4.1],[96.3,4.0],[96.4,4.0],[96.4,3.9],[96.5,3.9],[96.5,3.8],[96.9,3.8],[96.9,3.7],[97.0,3.7],[97.0,3.5],[97.1,3.5],[97.1,3.4],[97.2,3.4],[97.2,3.3],[97.3,3.3],[97.3,3.1],[97.4,3.1],[97.4,3.0],[97.5,3.0],[97.5,2.9],[97.6,2.9],[97.6,2.6],[97.7,2.6],[97.7,2.4],[97.8,2.4],[97.8,2.3],[98.1,2.3],[98.1,2.2],[98.2,2.2],[98.2,2.1],[98.5,2.1],[98.5,2.0],[98.6,2.0],[98.6,1.9],[98.7,1.9],[98.7,1.7],[98.8,1.7],[98.8,1.3],[98.9,1.3],[98.9,1.0],[99.0,1.0],[99.0,0.7],[99.1,0.7],[99.1,0.4],[99.2,0.4],[99.2,0.3],[99.4,0.3],[99.4,0.2]]],[[[117.2,37.0],[117.2,37.1],[116.7,37.1],[116.7,37.2],[116.1,37.2],[116.1,37.1],[115.9,37.1],[115.9,37.0],[115.8,37.0],[115.8,36.9],[115.6,36.9],[115.6,36.8],[115.4,36.8],[115.4,36.7],[115.2,36.7],[115.2,36.6],[115.1,36.6],[115.1,36.3],[115.0,36.3],[115.0,36.0],[114.9,36.0],[114.9,35.9],[114.8,35.9],[114.8,35.7],[114.7,35.7],[114.7,35.5],[114.6,35.5],[114.6,35.4],[114.5,35.4],[114.5,35.2],[114.4,35.2],[114.4,35.0],[114.3,35.0],[114.3,34.9],[114.2,34.9],[114.2,34.8],[114.1,34.8],[114.1,34.7],[114.0,34.7],[114.0,34.5],[113.9,34.5],[113.9,34.4],[113.8,34.4],[113.8,34.1],[113.6,34.1],[113.6,34.0],[113.5,34.0],[113.5,33.8],[113.6,33.8],[113.6,33.7],[113.5,33.7],[113.5,33.4],[113.4,33.4],[113.4,33.2],[113.3,33.2],[113.3,33.0],[113.2,33.0],[113.2,31.5],[113.3,31.5],[113.3,31.4],[113.4,31.4],[113.4,31.3],[113.5,31.3],[113.5,31.1],[113.8,31.1],[113.8,31.2],[114.1,31.2],[114.1,31.1],[114.3,31.1],[114.3,31.0],[115.4,31.0],[115.4,30.9],[115.6,30.9],[115.6,30.8],[115.9,30.8],[115.9,30.7],[116.0,30.7],[116.0,30.6],[116.2,30.6],[116.2,30.5],[116.7,30.5],[116.7,30.6],[116.8,30.6],[116.8,30.7],[116.9,30.7],[116.9,30.8],[117.0,30.8],[117.0,30.9],[117.3,30.9],[117.3,31.1],[117.4,31.1],[117.4,31.2],[117.5,31.2],[117.5,31.3],[117.6,31.3],[117.6,31.4],[117.7,31.4],[117.7,31.6],[117.8,31.6],[117.8,31.7],[117.9,31.7],[117.9,31.8],[118.0,31.8],[118.0,31.9],[118.1,31.9],[118.1,32.0],[118.2,32.0],[118.2,32.1],[118.3,32.1],[118.3,32.5],[118.2,32.5],[118.2,32.6],[118.1,32.6],[118.1,32.7],[118.0,32.7],[118.0,32.8],[117.6,32.8],[117.6,32.9],[117.4,32.9],[117.4,33.0],[117.3,33.0],[117.3,33.1],[117.2,33.1],[117.2,33.2],[117.0,33.2],[117.0,33.4],[116.9,33.4],[116.9,33.5],[116.8,33.5],[116.8,33.6],[116.7,33.6],[116.7,34.5],[116.8,34.5],[116.8,34.6],[117.4,34.6],[117.4,34.5],[117.6,34.5],[117.6,34.4],[118.1,34.4],[118.1,34.3],[118.6,34.3],[118.6,34.4],[118.7,34.4],[118.7,34.5],[118.8,34.5],[118.8,35.1],[118.7,35.1],[118.7,35.4],[118.6,35.4],[118.6,35.6],[118.4,35.6],[118.4,35.8],[118.3,35.8],[118.3,36.0],[118.2,36.0],[118.2,36.1],[118.1,36.1],[118.1,36.3],[118.0,36.3],[118.0,36.4],[117.9,36.4],[117.9,36.6],[117.8,36.6],[117.8,36.7],[117.7,36.7],[117.7,36.8],[117.6,36.8],[117.6,36.9],[117.4,36.9],[117.4,37.0],[117.2,37.0]]]]},"properties":{"tile_id":"61","start_year":874,"end_year":880,"source_image":"data/raw/toolbay/t/61/874.png","source_url":"https://www.toolbay.cc/history-map/t/61/874.png","source_color":"#ff0000","polity_id":null,"polity_assignment":"unverified","geometry_origin":"raster_color_trace","pixel_size_degrees":0.1,"source_color_pixels":6085,"simplification_degrees":0}},{"type":"Feature","id":"61:874:#ff00ff","bbox":[90.0,27.5,104.3,39.1],"geometry":{"type":"Polygon","coordinates":[[[100.1,39.1],[97.8,39.1],[97.8,39.0],[96.4,39.0],[96.4,38.9],[95.9,38.9],[95.9,38.8],[95.4,38.8],[95.4,38.7],[94.9,38.7],[94.9,38.6],[94.5,38.6],[94.5,38.5],[94.1,38.5],[94.1,38.4],[93.7,38.4],[93.7,38.3],[93.3,38.3],[93.3,38.2],[93.1,38.2],[93.1,38.1],[92.9,38.1],[92.9,38.0],[92.6,38.0],[92.6,37.9],[92.2,37.9],[92.2,37.8],[91.6,37.8],[91.6,37.7],[90.0,37.7],[90.0,27.5],[90.2,27.5],[90.2,27.6],[90.5,27.6],[90.5,27.7],[90.9,27.7],[90.9,27.8],[91.4,27.8],[91.4,27.9],[91.7,27.9],[91.7,28.0],[92.1,28.0],[92.1,28.1],[92.5,28.1],[92.5,28.2],[92.7,28.2],[92.7,28.3],[93.0,28.3],[93.0,28.4],[93.2,28.4],[93.2,28.5],[93.3,28.5],[93.3,28.6],[93.4,28.6],[93.4,28.7],[93.6,28.7],[93.6,28.8],[94.0,28.8],[94.0,28.9],[95.9,28.9],[95.9,29.0],[96.0,29.0],[96.0,29.2],[96.1,29.2],[96.1,29.3],[96.2,29.3],[96.2,29.4],[96.3,29.4],[96.3,29.5],[96.4,29.5],[96.4,29.7],[96.5,29.7],[96.5,29.9],[96.6,29.9],[96.6,30.1],[96.7,30.1],[96.7,30.4],[96.8,30.4],[96.8,30.6],[96.9,30.6],[96.9,30.7],[97.0,30.7],[97.0,30.8],[97.6,30.8],[97.6,30.7],[98.1,30.7],[98.1,30.8],[98.5,30.8],[98.5,30.9],[99.4,30.9],[99.4,31.0],[99.8,31.0],[99.8,30.9],[99.9,30.9],[99.9,30.8],[100.1,30.8],[100.1,30.7],[100.3,30.7],[100.3,30.6],[100.5,30.6],[100.5,30.5],[100.8,30.5],[100.8,30.4],[101.0,30.4],[101.0,30.3],[101.1,30.3],[101.1,30.2],[101.3,30.2],[101.3,30.1],[101.5,30.1],[101.5,30.0],[101.7,30.0],[101.7,29.9],[101.8,29.9],[101.8,29.8],[101.9,29.8],[101.9,29.7],[102.1,29.7],[102.1,29.6],[102.2,29.6],[102.2,29.5],[102.4,29.5],[102.4,29.4],[102.6,29.4],[102.6,29.6],[102.7,29.6],[102.7,29.8],[102.8,29.8],[102.8,30.0],[102.9,30.0],[102.9,30.1],[103.0,30.1],[103.0,30.2],[103.1,30.2],[103.1,30.3],[103.2,30.3],[103.2,30.5],[103.3,30.5],[103.3,31.1],[103.4,31.1],[103.4,31.3],[103.5,31.3],[103.5,31.7],[103.6,31.7],[103.6,31.9],[103.7,31.9],[103.7,32.1],[103.8,32.1],[103.8,32.4],[103.9,32.4],[103.9,32.9],[104.0,32.9],[104.0,33.1],[104.1,33.1],[104.1,33.4],[104.2,33.4],[104.2,33.9],[104.3,33.9],[104.3,34.5],[104.2,34.5],[104.2,34.8],[104.1,34.8],[104.1,35.2],[104.0,35.2],[104.0,35.4],[103.9,35.4],[103.9,35.5],[103.8,35.5],[103.8,35.7],[103.7,35.7],[103.7,36.2],[103.6,36.2],[103.6,36.3],[103.5,36.3],[103.5,36.5],[103.4,36.5],[103.4,36.7],[103.3,36.7],[103.3,37.3],[103.2,37.3],[103.2,37.6],[103.3,37.6],[103.3,37.8],[103.4,37.8],[103.4,38.1],[103.5,38.1],[103.5,38.4],[103.0,38.4],[103.0,38.5],[102.6,38.5],[102.6,38.6],[102.3,38.6],[102.3,38.7],[101.9,38.7],[101.9,38.8],[101.4,38.8],[101.4,38.9],[100.7,38.9],[100.7,39.0],[100.1,39.0],[100.1,39.1]],[[95.0,29.7],[95.0,29.9],[95.2,29.9],[95.2,29.8],[95.1,29.8],[95.1,29.7],[95.0,29.7]]]},"properties":{"tile_id":"61","start_year":874,"end_year":880,"source_image":"data/raw/toolbay/t/61/874.png","source_url":"https://www.toolbay.cc/history-map/t/61/874.png","source_color":"#ff00ff","polity_id":null,"polity_assignment":"unverified","geometry_origin":"raster_color_trace","pixel_size_degrees":0.1,"source_color_pixels":12448,"simplification_degrees":0}},{"type":"Feature","id":"61:874:#ff9933","bbox":[102.5,16.0,135.0,42.9],"geometry":{"type":"MultiPolygon","coordinates":[[[[124.3,42.8],[124.1,42.8],[124.1,42.9],[124.0,42.9],[124.0,42.5],[123.9,42.5],[123.9,42.4],[123.6,42.4],[123.6,42.3],[123.3,42.3],[123.3,42.2],[123.1,42.2],[123.1,42.1],[122.9,42.1],[122.9,42.0],[122.5,42.0],[122.5,41.9],[122.2,41.9],[122.2,41.8],[122.0,41.8],[122.0,41.7],[121.3,41.7],[121.3,41.8],[120.0,41.8],[120.0,41.7],[119.6,41.7],[119.6,41.6],[119.3,41.6],[119.3,41.5],[118.9,41.5],[118.9,41.6],[118.0,41.6],[118.0,41.7],[117.8,41.7],[117.8,41.8],[117.6,41.8],[117.6,41.9],[117.4,41.9],[117.4,42.0],[117.2,42.0],[117.2,42.1],[117.0,42.1],[117.0,42.3],[116.9,42.3],[116.9,42.4],[116.8,42.4],[116.8,42.5],[116.6,42.5],[116.6,42.4],[115.9,42.4],[115.9,42.3],[115.4,42.3],[115.4,42.2],[114.6,42.2],[114.6,42.1],[114.1,42.1],[114.1,42.0],[113.1,42.0],[113.1,41.9],[112.8,41.9],[112.8,41.8],[112.5,41.8],[112.5,41.7],[112.0,41.7],[112.0,41.6],[111.2,41.6],[111.2,41.5],[110.4,41.5],[110.4,41.4],[109.5,41.4],[109.5,41.3],[108.1,41.3],[108.1,41.2],[105.7,41.2],[105.7,41.3],[104.5,41.3],[104.5,41.2],[104.2,41.2],[104.2,41.1],[104.1,41.1],[104.1,41.0],[104.0,41.0],[104.0,40.0],[103.9,40.0],[103.9,39.7],[103.8,39.7],[103.8,39.3],[103.7,39.3],[103.7,38.9],[103.6,38.9],[103.6,38.6],[103.5,38.6],[103.5,38.1],[103.4,38.1],[103.4,37.8],[103.3,37.8],[103.3,37.6],[103.2,37.6],[103.2,37.3],[103.3,37.3],[103.3,36.7],[103.4,36.7],[103.4,36.5],[103.5,36.5],[103.5,36.3],[103.6,36.3],[103.6,36.2],[103.7,36.2],[103.7,35.7],[103.8,35.7],[103.8,35.5],[103.9,35.5],[103.9,35.4],[104.0,35.4],[104.0,35.2],[104.1,35.2],[104.1,34.8],[104.2,34.8],[104.2,34.5],[104.3,34.5],[104.3,33.9],[104.2,33.9],[104.2,33.4],[104.1,33.4],[104.1,33.1],[104.0,33.1],[104.0,32.9],[103.9,32.9],[103.9,32.4],[103.8,32.4],[103.8,32.1],[103.7,32.1],[103.7,31.9],[103.6,31.9],[103.6,31.7],[103.5,31.7],[103.5,31.3],[103.4,31.3],[103.4,31.1],[103.3,31.1],[103.3,30.5],[103.2,30.5],[103.2,30.3],[103.1,30.3],[103.1,30.2],[103.0,30.2],[103.0,30.1],[102.9,30.1],[102.9,30.0],[102.8,30.0],[102.8,29.8],[102.7,29.8],[102.7,29.6],[102.6,29.6],[102.6,29.4],[102.5,29.4],[102.5,29.1],[102.6,29.1],[102.6,29.0],[102.7,29.0],[102.7,28.8],[102.9,28.8],[102.9,28.7],[103.0,28.7],[103.0,28.6],[103.5,28.6],[103.5,28.5],[103.8,28.5],[103.8,28.4],[104.2,28.4],[104.2,28.3],[104.5,28.3],[104.5,28.2],[104.7,28.2],[104.7,28.1],[105.1,28.1],[105.1,28.0],[105.2,28.0],[105.2,27.2],[105.1,27.2],[105.1,26.3],[105.2,26.3],[105.2,26.1],[105.3,26.1],[105.3,26.0],[105.5,26.0],[105.5,25.9],[105.6,25.9],[105.6,25.8],[105.8,25.8],[105.8,25.7],[106.3,25.7],[106.3,25.6],[106.7,25.6],[106.7,25.7],[107.5,25.7],[107.5,25.6],[107.8,25.6],[107.8,25.5],[108.1,25.5],[108.1,25.4],[108.4,25.4],[108.4,25.3],[108.7,25.3],[108.7,25.2],[109.0,25.2],[109.0,25.1],[109.1,25.1],[109.1,24.7],[109.0,24.7],[109.0,24.6],[108.9,24.6],[108.9,24.4],[108.8,24.4],[108.8,24.3],[108.7,24.3],[108.7,24.2],[108.6,24.2],[108.6,24.1],[108.5,24.1],[108.5,24.0],[108.4,24.0],[108.4,23.8],[108.3,23.8],[108.3,23.7],[108.2,23.7],[108.2,23.6],[108.1,23.6],[108.1,23.5],[105.4,23.5],[105.4,23.4],[104.7,23.4],[104.7,23.3],[104.3,23.3],[104.3,23.2],[104.1,23.2],[104.1,23.1],[103.9,23.1],[103.9,23.0],[103.7,23.0],[103.7,22.9],[103.5,22.9],[103.5,22.8],[103.2,22.8],[103.2,22.7],[103.0,22.7],[103.0,22.3],[103.1,22.3],[103.1,21.5],[103.2,21.5],[103.2,21.3],[103.3,21.3],[103.3,20.8],[103.4,20.8],[103.4,20.5],[103.5,20.5],[103.5,20.4],[103.7,20.4],[103.7,20.0],[103.8,20.0],[103.8,19.8],[103.9,19.8],[103.9,19.4],[104.0,19.4],[104.0,19.1],[104.1,19.1],[104.1,18.8],[104.2,18.8],[104.2,18.6],[104.3,18.6],[104.3,17.6],[104.4,17.6],[104.4,17.3],[104.5,17.3],[104.5,17.1],[104.6,17.1],[104.6,16.9],[104.7,16.9],[104.7,16.8],[104.8,16.8],[104.8,16.6],[104.9,16.6],[104.9,16.5],[105.0,16.5],[105.0,16.4],[105.1,16.4],[105.1,16.3],[105.2,16.3],[105.2,16.2],[105.4,16.2],[105.4,16.1],[105.6,16.1],[105.6,16.0],[106.6,16.0],[106.6,16.1],[106.8,16.1],[106.8,16.2],[107.0,16.2],[107.0,16.3],[107.2,16.3],[107.2,16.4],[107.3,16.4],[107.3,16.5],[107.4,16.5],[107.4,16.6],[107.5,16.6],[107.5,16.8],[107.4,16.8],[107.4,16.9],[107.3,16.9],[107.3,17.0],[107.2,17.0],[107.2,17.1],[107.1,17.1],[107.1,17.2],[107.0,17.2],[107.0,17.3],[106.9,17.3],[106.9,17.4],[106.8,17.4],[106.8,17.5],[106.7,17.5],[106.7,17.6],[106.6,17.6],[106.6,17.8],[106.5,17.8],[106.5,18.2],[106.4,18.2],[106.4,18.3],[106.2,18.3],[106.2,18.4],[106.1,18.4],[106.1,18.5],[106.0,18.5],[106.0,18.6],[105.9,18.6],[105.9,18.7],[105.8,18.7],[105.8,18.9],[105.7,18.9],[105.7,19.1],[105.8,19.1],[105.8,19.3],[105.9,19.3],[105.9,19.8],[106.0,19.8],[106.0,19.9],[106.1,19.9],[106.1,20.0],[106.2,20.0],[106.2,20.1],[106.3,20.1],[106.3,20.2],[106.4,20.2],[106.4,20.3],[106.5,20.3],[106.5,20.4],[106.6,20.4],[106.6,20.6],[106.7,20.6],[106.7,20.7],[106.9,20.7],[106.9,20.8],[107.1,20.8],[107.1,20.9],[107.5,20.9],[107.5,21.0],[107.6,21.0],[107.6,21.1],[107.7,21.1],[107.7,21.3],[107.8,21.3],[107.8,21.4],[108.0,21.4],[108.0,21.5],[108.2,21.5],[108.2,21.6],[108.5,21.6],[108.5,21.7],[109.0,21.7],[109.0,21.6],[109.1,21.6],[109.1,21.5],[109.7,21.5],[109.7,20.7],[109.8,20.7],[109.8,20.5],[109.9,20.5],[109.9,20.4],[110.0,20.4],[110.0,20.3],[110.1,20.3],[110.1,20.2],[110.0,20.2],[110.0,20.1],[109.6,20.1],[109.6,20.0],[109.3,20.0],[109.3,19.9],[109.2,19.9],[109.2,19.8],[109.1,19.8],[109.1,19.7],[109.0,19.7],[109.0,19.6],[108.9,19.6],[108.9,19.5],[108.8,19.5],[108.8,19.4],[108.7,19.4],[108.7,19.3],[108.6,19.3],[108.6,18.9],[108.7,18.9],[108.7,18.6],[108.8,18.6],[108.8,18.5],[108.9,18.5],[108.9,18.4],[109.2,18.4],[109.2,18.3],[109.5,18.3],[109.5,18.2],[109.7,18.2],[109.7,18.3],[109.8,18.3],[109.8,18.4],[110.0,18.4],[110.0,18.5],[110.1,18.5],[110.1,18.6],[110.2,18.6],[110.2,18.7],[110.5,18.7],[110.5,18.8],[110.6,18.8],[110.6,19.3],[110.7,19.3],[110.7,19.4],[110.8,19.4],[110.8,19.5],[110.9,19.5],[110.9,19.6],[111.0,19.6],[111.0,20.0],[110.9,20.0],[110.9,20.1],[110.8,20.1],[110.8,20.2],[110.5,20.2],[110.5,21.0],[110.6,21.0],[110.6,21.2],[110.7,21.2],[110.7,21.3],[110.8,21.3],[110.8,21.4],[110.9,21.4],[110.9,21.5],[111.5,21.5],[111.5,21.6],[111.9,21.6],[111.9,21.7],[112.9,21.7],[112.9,21.8],[113.0,21.8],[113.0,21.9],[113.2,21.9],[113.2,22.0],[113.5,22.0],[113.5,22.1],[113.6,22.1],[113.6,22.6],[113.9,22.6],[113.9,22.2],[114.0,22.2],[114.0,22.1],[114.2,22.1],[114.2,22.2],[114.3,22.2],[114.3,22.3],[114.4,22.3],[114.4,22.4],[114.5,22.4],[114.5,22.5],[114.7,22.5],[114.7,22.6],[115.0,22.6],[115.0,22.7],[115.1,22.7],[115.1,22.8],[116.0,22.8],[116.0,22.9],[116.2,22.9],[116.2,23.0],[116.5,23.0],[116.5,23.1],[116.6,23.1],[116.6,23.2],[116.7,23.2],[116.7,23.3],[116.8,23.3],[116.8,23.4],[116.9,23.4],[116.9,23.5],[117.3,23.5],[117.3,23.6],[117.4,23.6],[117.4,23.7],[117.5,23.7],[117.5,23.8],[117.6,23.8],[117.6,23.9],[117.7,23.9],[117.7,24.0],[117.9,24.0],[117.9,24.1],[118.0,24.1],[118.0,24.2],[118.1,24.2],[118.1,24.3],[118.2,24.3],[118.2,24.4],[118.4,24.4],[118.4,24.5],[118.5,24.5],[118.5,24.6],[118.6,24.6],[118.6,24.7],[118.8,24.7],[118.8,24.8],[118.9,24.8],[118.9,25.0],[119.0,25.0],[119.0,25.1],[119.1,25.1],[119.1,25.2],[119.3,25.2],[119.3,25.3],[119.4,25.3],[119.4,25.4],[119.8,25.4],[119.8,25.5],[119.9,25.5],[119.9,25.7],[119.8,25.7],[119.8,25.8],[119.7,25.8],[119.7,26.2],[119.8,26.2],[119.8,26.3],[119.9,26.3],[119.9,26.5],[120.0,26.5],[120.0,26.6],[120.1,26.6],[120.1,26.7],[120.2,26.7],[120.2,26.9],[120.3,26.9],[120.3,27.0],[120.4,27.0],[120.4,27.2],[120.5,27.2],[120.5,27.3],[120.6,27.3],[120.6,27.4],[120.7,27.4],[120.7,27.8],[120.8,27.8],[120.8,27.9],[121.2,27.9],[121.2,28.0],[121.3,28.0],[121.3,28.2],[121.4,28.2],[121.4,28.3],[121.6,28.3],[121.6,28.4],[121.7,28.4],[121.7,28.7],[121.8,28.7],[121.8,29.0],[121.9,29.0],[121.9,29.2],[122.0,29.2],[122.0,29.6],[122.1,29.6],[122.1,29.7],[122.3,29.7],[122.3,29.8],[122.4,29.8],[122.4,30.2],[122.3,30.2],[122.3,30.3],[121.9,30.3],[121.9,30.2],[121.5,30.2],[121.5,30.3],[121.4,30.3],[121.4,30.4],[121.2,30.4],[121.2,30.5],[121.1,30.5],[121.1,30.6],[121.2,30.6],[121.2,30.7],[121.4,30.7],[121.4,30.8],[121.5,30.8],[121.5,30.9],[121.8,30.9],[121.8,31.0],[121.9,31.0],[121.9,31.2],[121.8,31.2],[121.8,31.5],[121.9,31.5],[121.9,31.7],[122.0,31.7],[122.0,31.9],[121.9,31.9],[121.9,32.0],[121.8,32.0],[121.8,32.1],[121.7,32.1],[121.7,32.2],[121.5,32.2],[121.5,32.3],[121.4,32.3],[121.4,32.5],[121.3,32.5],[121.3,32.6],[121.1,32.6],[121.1,32.7],[121.0,32.7],[121.0,33.0],[120.9,33.0],[120.9,33.1],[120.8,33.1],[120.8,33.3],[120.7,33.3],[120.7,33.5],[120.6,33.5],[120.6,33.8],[120.5,33.8],[120.5,34.0],[120.4,34.0],[120.4,34.3],[120.3,34.3],[120.3,34.4],[120.2,34.4],[120.2,34.5],[119.9,34.5],[119.9,34.6],[119.7,34.6],[119.7,34.7],[119.6,34.7],[119.6,34.8],[119.5,34.8],[119.5,34.9],[119.4,34.9],[119.4,35.2],[119.5,35.2],[119.5,35.4],[119.6,35.4],[119.6,35.6],[119.7,35.6],[119.7,35.7],[120.0,35.7],[120.0,35.8],[120.1,35.8],[120.1,35.9],[120.2,35.9],[120.2,36.0],[120.3,36.0],[120.3,36.1],[120.6,36.1],[120.6,36.2],[120.7,36.2],[120.7,36.4],[120.8,36.4],[120.8,36.5],[121.0,36.5],[121.0,36.6],[121.1,36.6],[121.1,36.7],[121.3,36.7],[121.3,36.8],[121.7,36.8],[121.7,36.9],[122.5,36.9],[122.5,37.0],[122.6,37.0],[122.6,37.4],[122.5,37.4],[122.5,37.5],[122.3,37.5],[122.3,37.6],[121.9,37.6],[121.9,37.5],[121.6,37.5],[121.6,37.6],[121.4,37.6],[121.4,37.7],[121.2,37.7],[121.2,37.8],[121.0,37.8],[121.0,37.9],[120.9,37.9],[120.9,38.0],[120.7,38.0],[120.7,37.9],[120.5,37.9],[120.5,37.8],[120.3,37.8],[120.3,37.7],[120.2,37.7],[120.2,37.6],[120.1,37.6],[120.1,37.5],[119.9,37.5],[119.9,37.4],[119.8,37.4],[119.8,37.3],[119.7,37.3],[119.7,37.2],[119.3,37.2],[119.3,37.3],[119.1,37.3],[119.1,37.4],[119.0,37.4],[119.0,38.2],[118.9,38.2],[118.9,38.3],[118.7,38.3],[118.7,38.2],[118.0,38.2],[118.0,38.3],[117.9,38.3],[117.9,38.4],[117.8,38.4],[117.8,38.5],[117.7,38.5],[117.7,38.6],[117.6,38.6],[117.6,39.0],[117.7,39.0],[117.7,39.1],[117.9,39.1],[117.9,39.2],[118.2,39.2],[118.2,39.1],[118.9,39.1],[118.9,39.2],[119.1,39.2],[119.1,39.3],[119.2,39.3],[119.2,39.5],[119.3,39.5],[119.3,39.7],[119.4,39.7],[119.4,39.8],[119.6,39.8],[119.6,39.9],[119.7,39.9],[119.7,40.0],[120.0,40.0],[120.0,40.1],[120.2,40.1],[120.2,40.2],[120.5,40.2],[120.5,40.3],[120.6,40.3],[120.6,40.5],[120.7,40.5],[120.7,40.6],[120.9,40.6],[120.9,40.7],[121.0,40.7],[121.0,40.8],[121.1,40.8],[121.1,40.9],[121.5,40.9],[121.5,41.0],[121.8,41.0],[121.8,40.9],[121.9,40.9],[121.9,40.8],[122.1,40.8],[122.1,40.7],[122.2,40.7],[122.2,40.4],[122.1,40.4],[122.1,40.3],[122.0,40.3],[122.0,40.2],[121.9,40.2],[121.9,40.1],[121.8,40.1],[121.8,40.0],[121.6,40.0],[121.6,39.9],[121.5,39.9],[121.5,39.8],[121.4,39.8],[121.4,39.7],[121.3,39.7],[121.3,39.5],[121.4,39.5],[121.4,39.3],[121.5,39.3],[121.5,39.2],[121.4,39.2],[121.4,39.1],[121.3,39.1],[121.3,38.8],[121.5,38.8],[121.5,38.9],[121.9,38.9],[121.9,39.0],[122.0,39.0],[122.0,39.1],[122.1,39.1],[122.1,39.2],[122.2,39.2],[122.2,39.3],[122.5,39.3],[122.5,39.4],[122.6,39.4],[122.6,39.5],[122.7,39.5],[122.7,39.6],[122.9,39.6],[122.9,39.7],[123.3,39.7],[123.3,39.8],[123.7,39.8],[123.7,39.9],[124.2,39.9],[124.2,39.8],[124.5,39.8],[124.5,39.7],[124.7,39.7],[124.7,39.6],[125.3,39.6],[125.3,39.5],[125.7,39.5],[125.7,39.6],[126.0,39.6],[126.0,39.7],[126.7,39.7],[126.7,39.8],[126.6,39.8],[126.6,39.9],[126.5,39.9],[126.5,40.0],[126.4,40.0],[126.4,40.1],[126.3,40.1],[126.3,40.2],[126.2,40.2],[126.2,40.3],[126.1,40.3],[126.1,40.4],[126.0,40.4],[126.0,40.5],[125.8,40.5],[125.8,40.6],[125.7,40.6],[125.7,40.7],[125.5,40.7],[125.5,40.9],[125.3,40.9],[125.3,41.1],[125.2,41.1],[125.2,41.2],[125.1,41.2],[125.1,41.3],[125.0,41.3],[125.0,41.5],[124.9,41.5],[124.9,41.7],[124.8,41.7],[124.8,41.8],[124.6,41.8],[124.6,42.4],[124.5,42.4],[124.5,42.6],[124.4,42.6],[124.4,42.7],[124.3,42.7],[124.3,42.8]],[[115.9,37.0],[115.9,37.1],[116.1,37.1],[116.1,37.2],[116.7,37.2],[116.7,37.1],[117.2,37.1],[117.2,37.0],[117.4,37.0],[117.4,36.9],[117.6,36.9],[117.6,36.8],[117.7,36.8],[117.7,36.7],[117.8,36.7],[117.8,36.6],[117.9,36.6],[117.9,36.4],[118.0,36.4],[118.0,36.3],[118.1,36.3],[118.1,36.1],[118.2,36.1],[118.2,36.0],[118.3,36.0],[118.3,35.8],[118.4,35.8],[118.4,35.6],[118.6,35.6],[118.6,35.4],[118.7,35.4],[118.7,35.1],[118.8,35.1],[118.8,34.5],[118.7,34.5],[118.7,34.4],[118.6,34.4],[118.6,34.3],[118.1,34.3],[118.1,34.4],[117.6,34.4],[117.6,34.5],[117.4,34.5],[117.4,34.6],[116.8,34.6],[116.8,34.5],[116.7,34.5],[116.7,33.6],[116.8,33.6],[116.8,33.5],[116.9,33.5],[116.9,33.4],[117.0,33.4],[117.0,33.2],[117.2,33.2],[117.2,33.1],[117.3,33.1],[117.3,33.0],[117.4,33.0],[117.4,32.9],[117.6,32.9],[117.6,32.8],[118.0,32.8],[118.0,32.7],[118.1,32.7],[118.1,32.6],[118.2,32.6],[118.2,32.5],[118.3,32.5],[118.3,32.1],[118.2,32.1],[118.2,32.0],[118.1,32.0],[118.1,31.9],[118.0,31.9],[118.0,31.8],[117.9,31.8],[117.9,31.7],[117.8,31.7],[117.8,31.6],[117.7,31.6],[117.7,31.4],[117.6,31.4],[117.6,31.3],[117.5,31.3],[117.5,31.2],[117.4,31.2],[117.4,31.1],[117.3,31.1],[117.3,30.9],[117.0,30.9],[117.0,30.8],[116.9,30.8],[116.9,30.7],[116.8,30.7],[116.8,30.6],[116.7,30.6],[116.7,30.5],[116.2,30.5],[116.2,30.6],[116.0,30.6],[116.0,30.7],[115.9,30.7],[115.9,30.8],[115.6,30.8],[115.6,30.9],[115.4,30.9],[115.4,31.0],[114.3,31.0],[114.3,31.1],[114.1,31.1],[114.1,31.2],[113.8,31.2],[113.8,31.1],[113.5,31.1],[113.5,31.3],[113.4,31.3],[113.4,31.4],[113.3,31.4],[113.3,31.5],[113.2,31.5],[113.2,33.0],[113.3,33.0],[113.3,33.2],[113.4,33.2],[113.4,33.4],[113.5,33.4],[113.5,33.7],[113.6,33.7],[113.6,33.8],[113.5,33.8],[113.5,34.0],[113.6,34.0],[113.6,34.1],[113.8,34.1],[113.8,34.4],[113.9,34.4],[113.9,34.5],[114.0,34.5],[114.0,34.7],[114.1,34.7],[114.1,34.8],[114.2,34.8],[114.2,34.9],[114.3,34.9],[114.3,35.0],[114.4,35.0],[114.4,35.2],[114.5,35.2],[114.5,35.4],[114.6,35.4],[114.6,35.5],[114.7,35.5],[114.7,35.7],[114.8,35.7],[114.8,35.9],[114.9,35.9],[114.9,36.0],[115.0,36.0],[115.0,36.3],[115.1,36.3],[115.1,36.6],[115.2,36.6],[115.2,36.7],[115.4,36.7],[115.4,36.8],[115.6,36.8],[115.6,36.9],[115.8,36.9],[115.8,37.0],[115.9,37.0]],[[116.2,29.4],[116.2,29.2],[116.0,29.2],[116.0,29.4],[116.2,29.4]],[[116.5,29.2],[116.5,29.0],[116.4,29.0],[116.4,29.2],[116.5,29.2]]],[[[129.0,32.8],[129.0,32.9],[129.1,32.9],[129.1,33.1],[129.0,33.1],[129.0,33.0],[128.9,33.0],[128.9,32.8],[129.0,32.8]]],[[[134.3,35.7],[134.3,35.6],[133.4,35.6],[133.4,35.7],[133.0,35.7],[133.0,35.6],[132.8,35.6],[132.8,35.5],[132.7,35.5],[132.7,35.4],[132.6,35.4],[132.6,35.3],[132.4,35.3],[132.4,35.2],[132.3,35.2],[132.3,35.1],[132.2,35.1],[132.2,35.0],[132.0,35.0],[132.0,34.9],[131.9,34.9],[131.9,34.8],[131.6,34.8],[131.6,34.7],[131.5,34.7],[131.5,34.6],[131.4,34.6],[131.4,34.5],[131.0,34.5],[131.0,34.4],[130.9,34.4],[130.9,34.0],[130.5,34.0],[130.5,33.9],[130.4,33.9],[130.4,33.8],[130.2,33.8],[130.2,33.7],[130.1,33.7],[130.1,33.6],[129.9,33.6],[129.9,33.7],[129.7,33.7],[129.7,33.5],[129.5,33.5],[129.5,33.4],[129.6,33.4],[129.6,33.0],[129.7,33.0],[129.7,32.8],[129.8,32.8],[129.8,32.7],[130.0,32.7],[130.0,32.8],[129.9,32.8],[129.9,33.0],[130.1,33.0],[130.1,32.7],[130.3,32.7],[130.3,32.9],[130.4,32.9],[130.4,33.0],[130.3,33.0],[130.3,33.1],[130.2,33.1],[130.2,33.2],[130.4,33.2],[130.4,33.1],[130.5,33.1],[130.5,32.9],[130.6,32.9],[130.6,32.8],[130.5,32.8],[130.5,32.7],[130.4,32.7],[130.4,32.6],[130.2,32.6],[130.2,32.5],[130.1,32.5],[130.1,32.1],[130.2,32.1],[130.2,31.8],[130.3,31.8],[130.3,31.5],[130.2,31.5],[130.2,31.4],[130.3,31.4],[130.3,31.3],[130.5,31.3],[130.5,31.2],[130.7,31.2],[130.7,31.4],[130.6,31.4],[130.6,31.6],[130.7,31.6],[130.7,31.5],[130.8,31.5],[130.8,31.6],[130.9,31.6],[130.9,31.5],[131.0,31.5],[131.0,31.4],[130.8,31.4],[130.8,31.2],[131.1,31.2],[131.1,31.3],[131.2,31.3],[131.2,31.4],[131.4,31.4],[131.4,31.5],[131.5,31.5],[131.5,32.1],[131.6,32.1],[131.6,32.4],[131.7,32.4],[131.7,32.5],[131.8,32.5],[131.8,32.7],[131.9,32.7],[131.9,32.8],[132.0,32.8],[132.0,33.3],[131.9,33.3],[131.9,33.4],[131.8,33.4],[131.8,33.7],[131.7,33.7],[131.7,33.8],[131.5,33.8],[131.5,33.7],[131.2,33.7],[131.2,33.9],[131.1,33.9],[131.1,34.0],[131.9,34.0],[131.9,33.9],[132.0,33.9],[132.0,33.8],[132.3,33.8],[132.3,33.9],[132.4,33.9],[132.4,34.0],[132.6,34.0],[132.6,34.2],[132.9,34.2],[132.9,34.3],[133.3,34.3],[133.3,34.4],[133.8,34.4],[133.8,34.5],[134.2,34.5],[134.2,34.6],[134.4,34.6],[134.4,34.7],[134.5,34.7],[134.5,34.8],[134.8,34.8],[134.8,34.7],[135.0,34.7],[135.0,35.7],[134.3,35.7]]],[[[134.2,34.3],[133.9,34.3],[133.9,34.4],[133.8,34.4],[133.8,34.3],[133.6,34.3],[133.6,34.1],[133.3,34.1],[133.3,34.2],[132.9,34.2],[132.9,34.1],[132.8,34.1],[132.8,34.0],[132.7,34.0],[132.7,33.8],[132.6,33.8],[132.6,33.7],[132.4,33.7],[132.4,33.6],[132.3,33.6],[132.3,33.4],[132.4,33.4],[132.4,33.1],[132.5,33.1],[132.5,33.0],[132.6,33.0],[132.6,32.9],[132.7,32.9],[132.7,32.8],[133.0,32.8],[133.0,32.9],[133.1,32.9],[133.1,33.1],[133.2,33.1],[133.2,33.2],[133.3,33.2],[133.3,33.3],[133.4,33.3],[133.4,33.4],[133.5,33.4],[133.5,33.5],[133.6,33.5],[133.6,33.6],[133.9,33.6],[133.9,33.5],[134.0,33.5],[134.0,33.4],[134.2,33.4],[134.2,33.5],[134.3,33.5],[134.3,33.6],[134.4,33.6],[134.4,33.7],[134.6,33.7],[134.6,33.8],[134.7,33.8],[134.7,34.2],[134.6,34.2],[134.6,34.3],[134.5,34.3],[134.5,34.4],[134.2,34.4],[134.2,34.3]]],[[[134.9,34.2],[134.9,34.3],[135.0,34.3],[135.0,34.6],[134.9,34.6],[134.9,34.5],[134.8,34.5],[134.8,34.4],[134.7,34.4],[134.7,34.2],[134.9,34.2]]],[[[129.9,34.7],[129.9,34.8],[130.0,34.8],[130.0,35.0],[129.9,35.0],[129.9,34.9],[129.8,34.9],[129.8,34.7],[129.7,34.7],[129.7,34.3],[129.8,34.3],[129.8,34.4],[129.9,34.4],[129.9,34.6],[130.0,34.6],[130.0,34.7],[129.9,34.7]]]]},"properties":{"tile_id":"61","start_year":874,"end_year":880,"source_image":"data/raw/toolbay/t/61/874.png","source_url":"https://www.toolbay.cc/history-map/t/61/874.png","source_color":"#ff9933","polity_id":null,"polity_assignment":"unverified","geometry_origin":"raster_color_trace","pixel_size_degrees":0.1,"source_color_pixels":32673,"simplification_degrees":0}},{"type":"Feature","id":"61:874:#ffff00","bbox":[105.8,10.4,135.0,45.0],"geometry":{"type":"MultiPolygon","coordinates":[[[[107.7,16.6],[107.7,16.7],[107.5,16.7],[107.5,16.6],[107.4,16.6],[107.4,16.5],[107.3,16.5],[107.3,16.4],[107.2,16.4],[107.2,16.3],[107.0,16.3],[107.0,16.2],[106.8,16.2],[106.8,16.1],[106.6,16.1],[106.6,16.0],[105.8,16.0],[105.8,15.9],[105.9,15.9],[105.9,15.8],[106.0,15.8],[106.0,15.7],[106.1,15.7],[106.1,15.6],[106.2,15.6],[106.2,15.5],[106.3,15.5],[106.3,15.4],[106.4,15.4],[106.4,15.3],[106.5,15.3],[106.5,15.2],[106.6,15.2],[106.6,15.1],[106.7,15.1],[106.7,15.0],[106.9,15.0],[106.9,14.9],[107.0,14.9],[107.0,14.8],[107.1,14.8],[107.1,14.7],[107.2,14.7],[107.2,14.6],[107.3,14.6],[107.3,14.5],[107.4,14.5],[107.4,14.4],[107.5,14.4],[107.5,14.2],[107.6,14.2],[107.6,14.0],[107.7,14.0],[107.7,12.8],[107.6,12.8],[107.6,12.6],[107.5,12.6],[107.5,12.3],[107.4,12.3],[107.4,12.0],[107.3,12.0],[107.3,11.8],[107.2,11.8],[107.2,11.7],[107.1,11.7],[107.1,11.6],[107.0,11.6],[107.0,11.4],[106.9,11.4],[106.9,11.3],[106.8,11.3],[106.8,11.1],[106.7,11.1],[106.7,10.9],[106.6,10.9],[106.6,10.8],[106.7,10.8],[106.7,10.7],[106.8,10.7],[106.8,10.6],[106.9,10.6],[106.9,10.5],[107.1,10.5],[107.1,10.4],[107.3,10.4],[107.3,10.5],[107.5,10.5],[107.5,10.6],[107.7,10.6],[107.7,10.7],[108.0,10.7],[108.0,10.8],[108.1,10.8],[108.1,10.9],[108.2,10.9],[108.2,11.0],[108.4,11.0],[108.4,11.1],[108.5,11.1],[108.5,11.2],[108.7,11.2],[108.7,11.3],[108.9,11.3],[108.9,11.4],[109.0,11.4],[109.0,11.5],[109.1,11.5],[109.1,11.6],[109.2,11.6],[109.2,11.7],[109.3,11.7],[109.3,12.3],[109.4,12.3],[109.4,12.6],[109.5,12.6],[109.5,13.1],[109.4,13.1],[109.4,13.7],[109.3,13.7],[109.3,14.3],[109.2,14.3],[109.2,14.6],[109.1,14.6],[109.1,14.9],[109.0,14.9],[109.0,15.3],[108.9,15.3],[108.9,15.4],[108.8,15.4],[108.8,15.5],[108.7,15.5],[108.7,15.6],[108.6,15.6],[108.6,15.7],[108.5,15.7],[108.5,15.9],[108.4,15.9],[108.4,16.0],[108.3,16.0],[108.3,16.2],[108.2,16.2],[108.2,16.3],[108.1,16.3],[108.1,16.4],[107.9,16.4],[107.9,16.5],[107.8,16.5],[107.8,16.6],[107.7,16.6]]],[[[134.1,44.9],[134.1,45.0],[126.2,45.0],[126.2,44.9],[125.7,44.9],[125.7,44.8],[125.6,44.8],[125.6,44.7],[125.1,44.7],[125.1,44.6],[124.9,44.6],[124.9,44.5],[124.7,44.5],[124.7,44.4],[124.4,44.4],[124.4,44.3],[124.2,44.3],[124.2,44.2],[124.0,44.2],[124.0,44.1],[123.6,44.1],[123.6,44.0],[123.4,44.0],[123.4,43.9],[123.1,43.9],[123.1,43.5],[123.3,43.5],[123.3,43.4],[123.4,43.4],[123.4,43.3],[123.6,43.3],[123.6,43.2],[123.7,43.2],[123.7,43.1],[123.8,43.1],[123.8,43.0],[123.9,43.0],[123.9,42.9],[124.1,42.9],[124.1,42.8],[124.3,42.8],[124.3,42.7],[124.4,42.7],[124.4,42.6],[124.5,42.6],[124.5,42.4],[124.6,42.4],[124.6,41.8],[124.8,41.8],[124.8,41.7],[124.9,41.7],[124.9,41.5],[125.0,41.5],[125.0,41.3],[125.1,41.3],[125.1,41.2],[125.2,41.2],[125.2,41.1],[125.3,41.1],[125.3,40.9],[125.5,40.9],[125.5,40.7],[125.7,40.7],[125.7,40.6],[125.8,40.6],[125.8,40.5],[126.0,40.5],[126.0,40.4],[126.1,40.4],[126.1,40.3],[126.2,40.3],[126.2,40.2],[126.3,40.2],[126.3,40.1],[126.4,40.1],[126.4,40.0],[126.5,40.0],[126.5,39.9],[126.6,39.9],[126.6,39.8],[126.7,39.8],[126.7,39.7],[126.8,39.7],[126.8,39.6],[127.1,39.6],[127.1,39.5],[127.6,39.5],[127.6,39.8],[127.7,39.8],[127.7,39.9],[127.9,39.9],[127.9,40.0],[128.3,40.0],[128.3,40.1],[128.5,40.1],[128.5,40.2],[128.6,40.2],[128.6,40.3],[128.8,40.3],[128.8,40.4],[128.9,40.4],[128.9,40.5],[129.1,40.5],[129.1,40.6],[129.2,40.6],[129.2,40.7],[129.4,40.7],[129.4,40.8],[129.6,40.8],[129.6,40.9],[129.7,40.9],[129.7,41.0],[129.8,41.0],[129.8,41.8],[129.9,41.8],[129.9,41.9],[130.0,41.9],[130.0,42.0],[130.1,42.0],[130.1,42.1],[130.2,42.1],[130.2,42.2],[130.4,42.2],[130.4,42.3],[130.5,42.3],[130.5,42.4],[130.6,42.4],[130.6,42.5],[130.9,42.5],[130.9,42.6],[131.2,42.6],[131.2,42.7],[131.3,42.7],[131.3,42.8],[131.4,42.8],[131.4,42.9],[131.5,42.9],[131.5,43.0],[131.9,43.0],[131.9,43.1],[132.3,43.1],[132.3,43.0],[132.4,43.0],[132.4,42.9],[132.8,42.9],[132.8,42.8],[133.0,42.8],[133.0,42.7],[133.3,42.7],[133.3,42.8],[133.7,42.8],[133.7,42.9],[134.0,42.9],[134.0,43.0],[134.2,43.0],[134.2,43.1],[134.4,43.1],[134.4,43.2],[134.5,43.2],[134.5,43.3],[134.8,43.3],[134.8,43.4],[134.9,43.4],[134.9,43.5],[135.0,43.5],[135.0,43.7],[134.9,43.7],[134.9,43.8],[134.8,43.8],[134.8,43.9],[134.7,43.9],[134.7,44.0],[134.6,44.0],[134.6,44.1],[134.5,44.1],[134.5,44.3],[134.4,44.3],[134.4,44.5],[134.3,44.5],[134.3,44.7],[134.2,44.7],[134.2,44.9],[134.1,44.9]]]]},"properties":{"tile_id":"61","start_year":874,"end_year":880,"source_image":"data/raw/toolbay/t/61/874.png","source_url":"https://www.toolbay.cc/history-map/t/61/874.png","source_color":"#ffff00","polity_id":null,"polity_assignment":"unverified","geometry_origin":"raster_color_trace","pixel_size_degrees":0.1,"source_color_pixels":4713,"simplification_degrees":0}}]}
