{"type":"FeatureCollection","features":[{"type":"Feature","id":"70:1233:#993300","bbox":[135.0,45.0,141.5,55.2],"geometry":{"type":"Polygon","coordinates":[[[138.0,55.2],[137.5,55.2],[137.5,55.1],[137.4,55.1],[137.4,54.9],[137.5,54.9],[137.5,54.8],[137.6,54.8],[137.6,54.5],[137.5,54.5],[137.5,54.4],[137.3,54.4],[137.3,54.3],[137.2,54.3],[137.2,54.0],[137.1,54.0],[137.1,53.9],[136.9,53.9],[136.9,54.0],[136.8,54.0],[136.8,54.1],[136.4,54.1],[136.4,54.0],[136.3,54.0],[136.3,53.9],[136.2,53.9],[136.2,53.8],[136.1,53.8],[136.1,53.7],[135.9,53.7],[135.9,53.6],[135.0,53.6],[135.0,45.0],[136.7,45.0],[136.7,45.1],[136.8,45.1],[136.8,45.2],[136.9,45.2],[136.9,45.3],[137.0,45.3],[137.0,45.4],[137.2,45.4],[137.2,45.5],[137.3,45.5],[137.3,45.6],[137.4,45.6],[137.4,45.7],[137.5,45.7],[137.5,45.8],[137.7,45.8],[137.7,45.9],[137.8,45.9],[137.8,46.0],[137.9,46.0],[137.9,46.1],[138.0,46.1],[138.0,46.2],[138.1,46.2],[138.1,46.4],[138.2,46.4],[138.2,46.5],[138.3,46.5],[138.3,46.6],[138.4,46.6],[138.4,46.8],[138.5,46.8],[138.5,47.0],[138.6,47.0],[138.6,47.1],[138.7,47.1],[138.7,47.2],[138.8,47.2],[138.8,47.3],[139.0,47.3],[139.0,47.4],[139.1,47.4],[139.1,47.6],[139.2,47.6],[139.2,47.8],[139.3,47.8],[139.3,47.9],[139.4,47.9],[139.4,48.0],[139.6,48.0],[139.6,48.1],[139.7,48.1],[139.7,48.2],[139.9,48.2],[139.9,48.3],[140.0,48.3],[140.0,48.4],[140.1,48.4],[140.1,48.5],[140.2,48.5],[140.2,48.8],[140.3,48.8],[140.3,48.9],[140.4,48.9],[140.4,49.3],[140.5,49.3],[140.5,49.5],[140.6,49.5],[140.6,50.3],[140.5,50.3],[140.5,50.9],[140.6,50.9],[140.6,51.0],[140.7,51.0],[140.7,51.3],[140.8,51.3],[140.8,51.5],[140.9,51.5],[140.9,51.6],[141.0,51.6],[141.0,51.7],[141.1,51.7],[141.1,51.8],[141.2,51.8],[141.2,51.9],[141.3,51.9],[141.3,52.0],[141.4,52.0],[141.4,52.1],[141.5,52.1],[141.5,52.4],[141.4,52.4],[141.4,52.5],[141.3,52.5],[141.3,53.1],[141.4,53.1],[141.4,53.4],[141.3,53.4],[141.3,53.5],[141.1,53.5],[141.1,53.6],[140.8,53.6],[140.8,53.7],[140.6,53.7],[140.6,53.8],[140.4,53.8],[140.4,53.9],[140.3,53.9],[140.3,54.0],[140.2,54.0],[140.2,54.1],[140.1,54.1],[140.1,54.2],[139.9,54.2],[139.9,54.3],[138.8,54.3],[138.8,54.2],[138.7,54.2],[138.7,54.1],[138.6,54.1],[138.6,54.0],[138.4,54.0],[138.4,53.9],[138.3,53.9],[138.3,53.8],[138.2,53.8],[138.2,53.7],[137.7,53.7],[137.7,54.0],[137.6,54.0],[137.6,54.2],[137.7,54.2],[137.7,54.3],[137.8,54.3],[137.8,54.4],[137.9,54.4],[137.9,54.8],[138.0,54.8],[138.0,54.9],[138.1,54.9],[138.1,55.1],[138.0,55.1],[138.0,55.2]]]},"properties":{"tile_id":"70","start_year":1233,"end_year":1387,"source_image":"data/raw/toolbay/t/70/1233.png","source_url":"https://www.toolbay.cc/history-map/t/70/1233.png","source_color":"#993300","polity_id":null,"polity_assignment":"unverified","geometry_origin":"raster_color_trace","pixel_size_degrees":0.1,"source_color_pixels":4428,"simplification_degrees":0}}]}
