{"type":"FeatureCollection","features":[{"type":"Feature","id":"70:1387:#0000ff","bbox":[135.0,45.0,140.7,51.3],"geometry":{"type":"Polygon","coordinates":[[[140.7,51.3],[139.4,51.3],[139.4,51.2],[138.9,51.2],[138.9,51.1],[138.7,51.1],[138.7,51.0],[138.5,51.0],[138.5,50.9],[138.4,50.9],[138.4,50.8],[138.3,50.8],[138.3,50.7],[138.1,50.7],[138.1,50.6],[138.0,50.6],[138.0,50.5],[137.8,50.5],[137.8,50.4],[137.7,50.4],[137.7,50.3],[137.6,50.3],[137.6,50.2],[137.5,50.2],[137.5,50.1],[137.4,50.1],[137.4,50.0],[137.3,50.0],[137.3,49.9],[137.1,49.9],[137.1,49.8],[137.0,49.8],[137.0,49.7],[136.9,49.7],[136.9,49.6],[136.8,49.6],[136.8,49.5],[136.7,49.5],[136.7,49.4],[136.6,49.4],[136.6,49.3],[136.5,49.3],[136.5,49.1],[136.4,49.1],[136.4,49.0],[136.3,49.0],[136.3,48.9],[136.2,48.9],[136.2,48.8],[136.0,48.8],[136.0,48.7],[135.9,48.7],[135.9,48.6],[135.8,48.6],[135.8,48.5],[135.6,48.5],[135.6,48.4],[135.5,48.4],[135.5,48.3],[135.3,48.3],[135.3,48.2],[135.2,48.2],[135.2,48.1],[135.0,48.1],[135.0,45.0],[136.7,45.0],[136.7,45.1],[136.8,45.1],[136.8,45.2],[136.9,45.2],[136.9,45.3],[137.0,45.3],[137.0,45.4],[137.2,45.4],[137.2,45.5],[137.3,45.5],[137.3,45.6],[137.4,45.6],[137.4,45.7],[137.5,45.7],[137.5,45.8],[137.7,45.8],[137.7,45.9],[137.8,45.9],[137.8,46.0],[137.9,46.0],[137.9,46.1],[138.0,46.1],[138.0,46.2],[138.1,46.2],[138.1,46.4],[138.2,46.4],[138.2,46.5],[138.3,46.5],[138.3,46.6],[138.4,46.6],[138.4,46.8],[138.5,46.8],[138.5,47.0],[138.6,47.0],[138.6,47.1],[138.7,47.1],[138.7,47.2],[138.8,47.2],[138.8,47.3],[139.0,47.3],[139.0,47.4],[139.1,47.4],[139.1,47.6],[139.2,47.6],[139.2,47.8],[139.3,47.8],[139.3,47.9],[139.4,47.9],[139.4,48.0],[139.6,48.0],[139.6,48.1],[139.7,48.1],[139.7,48.2],[139.9,48.2],[139.9,48.3],[140.0,48.3],[140.0,48.4],[140.1,48.4],[140.1,48.5],[140.2,48.5],[140.2,48.8],[140.3,48.8],[140.3,48.9],[140.4,48.9],[140.4,49.3],[140.5,49.3],[140.5,49.5],[140.6,49.5],[140.6,50.3],[140.5,50.3],[140.5,50.9],[140.6,50.9],[140.6,51.0],[140.7,51.0],[140.7,51.3]]]},"properties":{"tile_id":"70","start_year":1387,"end_year":1500,"source_image":"data/raw/toolbay/t/70/1387.png","source_url":"https://www.toolbay.cc/history-map/t/70/1387.png","source_color":"#0000ff","polity_id":null,"polity_assignment":"unverified","geometry_origin":"raster_color_trace","pixel_size_degrees":0.1,"source_color_pixels":2075,"simplification_degrees":0}}]}
