{"type":"FeatureCollection","features":[{"type":"Feature","id":"70:1858:#009900","bbox":[141.6,45.0,148.7,50.3],"geometry":{"type":"MultiPolygon","coordinates":[[[[148.1,45.3],[148.0,45.3],[148.0,45.4],[147.8,45.4],[147.8,45.3],[147.7,45.3],[147.7,45.2],[147.6,45.2],[147.6,45.1],[147.4,45.1],[147.4,45.0],[148.0,45.0],[148.0,45.1],[148.1,45.1],[148.1,45.3]]],[[[142.3,45.4],[142.2,45.4],[142.2,45.5],[141.7,45.5],[141.7,45.4],[141.6,45.4],[141.6,45.1],[141.7,45.1],[141.7,45.0],[142.6,45.0],[142.6,45.1],[142.5,45.1],[142.5,45.2],[142.4,45.2],[142.4,45.3],[142.3,45.3],[142.3,45.4]]],[[[148.6,45.4],[148.7,45.4],[148.7,45.6],[148.6,45.6],[148.6,45.4]]],[[[142.8,50.2],[142.7,50.2],[142.7,50.3],[142.5,50.3],[142.5,50.2],[142.4,50.2],[142.4,50.1],[142.3,50.1],[142.3,49.9],[142.2,49.9],[142.2,49.7],[142.1,49.7],[142.1,49.2],[142.0,49.2],[142.0,48.9],[141.9,48.9],[141.9,48.6],[142.0,48.6],[142.0,48.5],[142.1,48.5],[142.1,48.2],[142.2,48.2],[142.2,48.0],[142.1,48.0],[142.1,47.8],[142.0,47.8],[142.0,47.3],[142.1,47.3],[142.1,47.1],[142.0,47.1],[142.0,46.9],[141.9,46.9],[141.9,46.7],[141.8,46.7],[141.8,46.4],[141.9,46.4],[141.9,46.2],[142.0,46.2],[142.0,46.1],[142.2,46.1],[142.2,46.2],[142.3,46.2],[142.3,46.4],[142.4,46.4],[142.4,46.6],[142.5,46.6],[142.5,46.7],[142.9,46.7],[142.9,46.6],[143.2,46.6],[143.2,46.5],[143.3,46.5],[143.3,46.4],[143.6,46.4],[143.6,46.7],[143.5,46.7],[143.5,46.8],[143.4,46.8],[143.4,46.9],[143.2,46.9],[143.2,47.0],[143.1,47.0],[143.1,47.3],[143.0,47.3],[143.0,47.4],[142.9,47.4],[142.9,47.5],[142.8,47.5],[142.8,47.6],[142.7,47.6],[142.7,47.7],[142.6,47.7],[142.6,48.3],[142.7,48.3],[142.7,48.4],[142.8,48.4],[142.8,48.7],[142.9,48.7],[142.9,48.8],[143.0,48.8],[143.0,49.2],[143.1,49.2],[143.1,49.3],[144.3,49.3],[144.3,49.6],[144.2,49.6],[144.2,49.8],[144.1,49.8],[144.1,49.9],[144.0,49.9],[144.0,49.8],[143.8,49.8],[143.8,49.9],[143.7,49.9],[143.7,50.0],[143.6,50.0],[143.6,50.2],[143.3,50.2],[143.3,50.1],[143.2,50.1],[143.2,49.9],[143.0,49.9],[143.0,50.0],[142.9,50.0],[142.9,50.1],[142.8,50.1],[142.8,50.2]]]]},"properties":{"tile_id":"70","start_year":1858,"end_year":1860,"source_image":"data/raw/toolbay/t/70/1858.png","source_url":"https://www.toolbay.cc/history-map/t/70/1858.png","source_color":"#009900","polity_id":null,"polity_assignment":"unverified","geometry_origin":"raster_color_trace","pixel_size_degrees":0.1,"source_color_pixels":483,"simplification_degrees":0}},{"type":"Feature","id":"70:1858:#ff66ff","bbox":[135.0,45.7,150.0,65.0],"geometry":{"type":"MultiPolygon","coordinates":[[[[149.7,45.7],[149.8,45.7],[149.8,45.8],[150.0,45.8],[150.0,45.9],[150.0,46.1],[149.9,46.1],[149.9,46.0],[149.8,46.0],[149.8,45.9],[149.7,45.9],[149.7,45.7]]],[[[142.9,54.3],[142.8,54.3],[142.8,54.4],[142.5,54.4],[142.5,54.1],[142.6,54.1],[142.6,53.8],[142.5,53.8],[142.5,53.7],[142.4,53.7],[142.4,53.6],[141.9,53.6],[141.9,53.5],[141.8,53.5],[141.8,53.2],[141.9,53.2],[141.9,52.8],[141.8,52.8],[141.8,52.6],[141.7,52.6],[141.7,52.5],[141.6,52.5],[141.6,52.4],[141.5,52.4],[141.5,52.1],[141.6,52.1],[141.6,52.0],[141.7,52.0],[141.7,51.8],[141.8,51.8],[141.8,51.7],[141.9,51.7],[141.9,51.6],[142.0,51.6],[142.0,51.5],[142.1,51.5],[142.1,51.4],[142.2,51.4],[142.2,51.3],[142.3,51.3],[142.3,51.5],[142.4,51.5],[142.4,51.6],[142.5,51.6],[142.5,51.4],[142.6,51.4],[142.6,51.2],[142.8,51.2],[142.8,51.3],[142.9,51.3],[142.9,51.4],[143.0,51.4],[143.0,51.5],[143.1,51.5],[143.1,51.3],[143.2,51.3],[143.2,51.2],[143.4,51.2],[143.4,51.3],[143.5,51.3],[143.5,51.6],[143.4,51.6],[143.4,51.8],[143.3,51.8],[143.3,52.0],[143.2,52.0],[143.2,52.4],[143.3,52.4],[143.3,52.5],[143.4,52.5],[143.4,52.9],[143.3,52.9],[143.3,53.1],[143.2,53.1],[143.2,53.6],[143.1,53.6],[143.1,53.7],[143.0,53.7],[143.0,54.2],[142.9,54.2],[142.9,54.3]]],[[[137.0,54.9],[137.1,54.9],[137.1,55.1],[136.9,55.1],[136.9,55.0],[137.0,55.0],[137.0,54.9]]],[[[149.4,59.8],[149.9,59.8],[149.9,59.7],[150.0,59.7],[150.0,65.0],[135.0,65.0],[135.0,49.6],[135.2,49.6],[135.2,49.7],[135.4,49.7],[135.4,49.8],[135.8,49.8],[135.8,49.9],[136.1,49.9],[136.1,50.0],[136.4,50.0],[136.4,50.1],[136.7,50.1],[136.7,50.2],[137.0,50.2],[137.0,50.3],[137.1,50.3],[137.1,50.4],[137.5,50.4],[137.5,50.5],[137.6,50.5],[137.6,50.6],[137.8,50.6],[137.8,50.7],[137.9,50.7],[137.9,50.8],[138.1,50.8],[138.1,50.9],[138.3,50.9],[138.3,51.0],[138.5,51.0],[138.5,51.1],[138.6,51.1],[138.6,51.2],[138.7,51.2],[138.7,51.3],[138.9,51.3],[138.9,51.4],[139.1,51.4],[139.1,51.5],[139.2,51.5],[139.2,51.6],[139.3,51.6],[139.3,51.7],[139.4,51.7],[139.4,51.8],[139.5,51.8],[139.5,51.9],[139.7,51.9],[139.7,52.0],[139.8,52.0],[139.8,52.2],[140.0,52.2],[140.0,52.3],[140.1,52.3],[140.1,52.4],[140.2,52.4],[140.2,52.5],[140.3,52.5],[140.3,52.6],[140.4,52.6],[140.4,52.7],[140.5,52.7],[140.5,52.8],[140.6,52.8],[140.6,52.9],[140.9,52.9],[140.9,53.0],[141.0,53.0],[141.0,53.1],[141.4,53.1],[141.4,53.4],[141.3,53.4],[141.3,53.5],[141.1,53.5],[141.1,53.6],[140.8,53.6],[140.8,53.7],[140.6,53.7],[140.6,53.8],[140.4,53.8],[140.4,53.9],[140.3,53.9],[140.3,54.0],[140.2,54.0],[140.2,54.1],[140.1,54.1],[140.1,54.2],[139.9,54.2],[139.9,54.3],[138.8,54.3],[138.8,54.2],[138.7,54.2],[138.7,54.1],[138.6,54.1],[138.6,54.0],[138.4,54.0],[138.4,53.9],[138.3,53.9],[138.3,53.8],[138.2,53.8],[138.2,53.7],[137.7,53.7],[137.7,54.0],[137.6,54.0],[137.6,54.2],[137.7,54.2],[137.7,54.3],[137.8,54.3],[137.8,54.4],[137.9,54.4],[137.9,54.8],[138.0,54.8],[138.0,54.9],[138.1,54.9],[138.1,55.1],[138.0,55.1],[138.0,55.2],[137.5,55.2],[137.5,55.1],[137.4,55.1],[137.4,54.9],[137.5,54.9],[137.5,54.8],[137.6,54.8],[137.6,54.5],[137.5,54.5],[137.5,54.4],[137.3,54.4],[137.3,54.3],[137.2,54.3],[137.2,54.0],[137.1,54.0],[137.1,53.9],[136.9,53.9],[136.9,54.0],[136.8,54.0],[136.8,54.2],[136.9,54.2],[136.9,54.6],[136.8,54.6],[136.8,54.7],[135.6,54.7],[135.6,54.8],[135.5,54.8],[135.5,54.9],[135.4,54.9],[135.4,55.0],[135.5,55.0],[135.5,55.1],[135.8,55.1],[135.8,55.2],[136.0,55.2],[136.0,55.3],[136.2,55.3],[136.2,55.4],[136.3,55.4],[136.3,55.5],[136.5,55.5],[136.5,55.6],[136.7,55.6],[136.7,55.7],[136.9,55.7],[136.9,55.8],[137.1,55.8],[137.1,55.9],[137.3,55.9],[137.3,56.0],[137.5,56.0],[137.5,56.1],[137.6,56.1],[137.6,56.2],[137.8,56.2],[137.8,56.3],[137.9,56.3],[137.9,56.4],[138.1,56.4],[138.1,56.5],[138.2,56.5],[138.2,56.6],[138.3,56.6],[138.3,56.7],[138.4,56.7],[138.4,56.8],[138.5,56.8],[138.5,56.9],[138.7,56.9],[138.7,57.0],[138.9,57.0],[138.9,57.1],[139.0,57.1],[139.0,57.2],[139.1,57.2],[139.1,57.3],[139.5,57.3],[139.5,57.4],[139.6,57.4],[139.6,57.5],[139.8,57.5],[139.8,57.6],[139.9,57.6],[139.9,57.7],[140.1,57.7],[140.1,57.8],[140.4,57.8],[140.4,57.9],[140.5,57.9],[140.5,58.0],[140.6,58.0],[140.6,58.1],[140.7,58.1],[140.7,58.3],[140.8,58.3],[140.8,58.4],[141.0,58.4],[141.0,58.5],[141.4,58.5],[141.4,58.6],[141.6,58.6],[141.6,58.7],[141.7,58.7],[141.7,58.8],[141.9,58.8],[141.9,58.9],[142.0,58.9],[142.0,59.0],[142.1,59.0],[142.1,59.1],[142.3,59.1],[142.3,59.2],[142.6,59.2],[142.6,59.3],[143.1,59.3],[143.1,59.4],[145.8,59.4],[145.8,59.3],[145.9,59.3],[145.9,59.2],[146.3,59.2],[146.3,59.3],[146.4,59.3],[146.4,59.4],[146.5,59.4],[146.5,59.5],[146.7,59.5],[146.7,59.4],[147.3,59.4],[147.3,59.3],[147.9,59.3],[147.9,59.4],[148.4,59.4],[148.4,59.3],[148.9,59.3],[148.9,59.4],[149.1,59.4],[149.1,59.5],[149.2,59.5],[149.2,59.6],[149.3,59.6],[149.3,59.7],[149.4,59.7],[149.4,59.8]],[[135.3,61.4],[135.3,61.6],[135.4,61.6],[135.4,61.7],[135.5,61.7],[135.5,61.6],[135.6,61.6],[135.6,61.3],[135.4,61.3],[135.4,61.4],[135.3,61.4]]]]},"properties":{"tile_id":"70","start_year":1858,"end_year":1860,"source_image":"data/raw/toolbay/t/70/1858.png","source_url":"https://www.toolbay.cc/history-map/t/70/1858.png","source_color":"#ff66ff","polity_id":null,"polity_assignment":"unverified","geometry_origin":"raster_color_trace","pixel_size_degrees":0.1,"source_color_pixels":56330,"simplification_degrees":0}},{"type":"Feature","id":"70:1858:#ff9933","bbox":[135.0,45.0,141.5,53.1],"geometry":{"type":"Polygon","coordinates":[[[141.3,53.1],[141.0,53.1],[141.0,53.0],[140.9,53.0],[140.9,52.9],[140.6,52.9],[140.6,52.8],[140.5,52.8],[140.5,52.7],[140.4,52.7],[140.4,52.6],[140.3,52.6],[140.3,52.5],[140.2,52.5],[140.2,52.4],[140.1,52.4],[140.1,52.3],[140.0,52.3],[140.0,52.2],[139.8,52.2],[139.8,52.0],[139.7,52.0],[139.7,51.9],[139.5,51.9],[139.5,51.8],[139.4,51.8],[139.4,51.7],[139.3,51.7],[139.3,51.6],[139.2,51.6],[139.2,51.5],[139.1,51.5],[139.1,51.4],[138.9,51.4],[138.9,51.3],[138.7,51.3],[138.7,51.2],[138.6,51.2],[138.6,51.1],[138.5,51.1],[138.5,51.0],[138.3,51.0],[138.3,50.9],[138.1,50.9],[138.1,50.8],[137.9,50.8],[137.9,50.7],[137.8,50.7],[137.8,50.6],[137.6,50.6],[137.6,50.5],[137.5,50.5],[137.5,50.4],[137.1,50.4],[137.1,50.3],[137.0,50.3],[137.0,50.2],[136.7,50.2],[136.7,50.1],[136.4,50.1],[136.4,50.0],[136.1,50.0],[136.1,49.9],[135.8,49.9],[135.8,49.8],[135.4,49.8],[135.4,49.7],[135.2,49.7],[135.2,49.6],[135.0,49.6],[135.0,45.0],[136.7,45.0],[136.7,45.1],[136.8,45.1],[136.8,45.2],[136.9,45.2],[136.9,45.3],[137.0,45.3],[137.0,45.4],[137.2,45.4],[137.2,45.5],[137.3,45.5],[137.3,45.6],[137.4,45.6],[137.4,45.7],[137.5,45.7],[137.5,45.8],[137.7,45.8],[137.7,45.9],[137.8,45.9],[137.8,46.0],[137.9,46.0],[137.9,46.1],[138.0,46.1],[138.0,46.2],[138.1,46.2],[138.1,46.4],[138.2,46.4],[138.2,46.5],[138.3,46.5],[138.3,46.6],[138.4,46.6],[138.4,46.8],[138.5,46.8],[138.5,47.0],[138.6,47.0],[138.6,47.1],[138.7,47.1],[138.7,47.2],[138.8,47.2],[138.8,47.3],[139.0,47.3],[139.0,47.4],[139.1,47.4],[139.1,47.6],[139.2,47.6],[139.2,47.8],[139.3,47.8],[139.3,47.9],[139.4,47.9],[139.4,48.0],[139.6,48.0],[139.6,48.1],[139.7,48.1],[139.7,48.2],[139.9,48.2],[139.9,48.3],[140.0,48.3],[140.0,48.4],[140.1,48.4],[140.1,48.5],[140.2,48.5],[140.2,48.8],[140.3,48.8],[140.3,48.9],[140.4,48.9],[140.4,49.3],[140.5,49.3],[140.5,49.5],[140.6,49.5],[140.6,50.3],[140.5,50.3],[140.5,50.9],[140.6,50.9],[140.6,51.0],[140.7,51.0],[140.7,51.3],[140.8,51.3],[140.8,51.5],[140.9,51.5],[140.9,51.6],[141.0,51.6],[141.0,51.7],[141.1,51.7],[141.1,51.8],[141.2,51.8],[141.2,51.9],[141.3,51.9],[141.3,52.0],[141.4,52.0],[141.4,52.1],[141.5,52.1],[141.5,52.4],[141.4,52.4],[141.4,52.5],[141.3,52.5],[141.3,53.1]]]},"properties":{"tile_id":"70","start_year":1858,"end_year":1860,"source_image":"data/raw/toolbay/t/70/1858.png","source_url":"https://www.toolbay.cc/history-map/t/70/1858.png","source_color":"#ff9933","polity_id":null,"polity_assignment":"unverified","geometry_origin":"raster_color_trace","pixel_size_degrees":0.1,"source_color_pixels":2592,"simplification_degrees":0}}]}
