{"type":"FeatureCollection","features":[{"type":"Feature","id":"70:1918:#00ff00","bbox":[141.6,45.0,150.0,49.8],"geometry":{"type":"MultiPolygon","coordinates":[[[[148.1,45.3],[148.0,45.3],[148.0,45.4],[147.8,45.4],[147.8,45.3],[147.7,45.3],[147.7,45.2],[147.6,45.2],[147.6,45.1],[147.4,45.1],[147.4,45.0],[148.0,45.0],[148.0,45.1],[148.1,45.1],[148.1,45.3]]],[[[142.3,45.4],[142.2,45.4],[142.2,45.5],[141.7,45.5],[141.7,45.4],[141.6,45.4],[141.6,45.1],[141.7,45.1],[141.7,45.0],[142.6,45.0],[142.6,45.1],[142.5,45.1],[142.5,45.2],[142.4,45.2],[142.4,45.3],[142.3,45.3],[142.3,45.4]]],[[[148.6,45.4],[148.7,45.4],[148.7,45.6],[148.6,45.6],[148.6,45.4]]],[[[149.7,45.9],[149.7,45.7],[149.8,45.7],[149.8,45.8],[150.0,45.8],[150.0,45.9],[150.0,46.1],[149.9,46.1],[149.9,46.0],[149.8,46.0],[149.8,45.9],[149.7,45.9]]],[[[144.3,49.3],[144.3,49.6],[144.2,49.6],[144.2,49.8],[142.2,49.8],[142.2,49.7],[142.1,49.7],[142.1,49.2],[142.0,49.2],[142.0,48.9],[141.9,48.9],[141.9,48.6],[142.0,48.6],[142.0,48.5],[142.1,48.5],[142.1,48.2],[142.2,48.2],[142.2,48.0],[142.1,48.0],[142.1,47.8],[142.0,47.8],[142.0,47.3],[142.1,47.3],[142.1,47.1],[142.0,47.1],[142.0,46.9],[141.9,46.9],[141.9,46.7],[141.8,46.7],[141.8,46.4],[141.9,46.4],[141.9,46.2],[142.0,46.2],[142.0,46.1],[142.2,46.1],[142.2,46.2],[142.3,46.2],[142.3,46.4],[142.4,46.4],[142.4,46.6],[142.5,46.6],[142.5,46.7],[142.9,46.7],[142.9,46.6],[143.2,46.6],[143.2,46.5],[143.3,46.5],[143.3,46.4],[143.6,46.4],[143.6,46.7],[143.5,46.7],[143.5,46.8],[143.4,46.8],[143.4,46.9],[143.2,46.9],[143.2,47.0],[143.1,47.0],[143.1,47.3],[143.0,47.3],[143.0,47.4],[142.9,47.4],[142.9,47.5],[142.8,47.5],[142.8,47.6],[142.7,47.6],[142.7,47.7],[142.6,47.7],[142.6,48.3],[142.7,48.3],[142.7,48.4],[142.8,48.4],[142.8,48.7],[142.9,48.7],[142.9,48.8],[143.0,48.8],[143.0,49.2],[143.1,49.2],[143.1,49.3],[144.3,49.3]]]]},"properties":{"tile_id":"70","start_year":1918,"end_year":1920,"source_image":"data/raw/toolbay/t/70/1918.png","source_url":"https://www.toolbay.cc/history-map/t/70/1918.png","source_color":"#00ff00","polity_id":null,"polity_assignment":"unverified","geometry_origin":"raster_color_trace","pixel_size_degrees":0.1,"source_color_pixels":480,"simplification_degrees":0}},{"type":"Feature","id":"70:1918:#ff9933","bbox":[135.0,47.3,136.0,49.8],"geometry":{"type":"Polygon","coordinates":[[[135.8,49.8],[135.4,49.8],[135.4,49.7],[135.2,49.7],[135.2,49.6],[135.0,49.6],[135.0,47.3],[135.1,47.3],[135.1,47.4],[135.2,47.4],[135.2,47.6],[135.3,47.6],[135.3,47.7],[135.4,47.7],[135.4,47.9],[135.5,47.9],[135.5,48.0],[135.6,48.0],[135.6,48.2],[135.7,48.2],[135.7,48.3],[135.8,48.3],[135.8,48.5],[135.9,48.5],[135.9,49.1],[136.0,49.1],[136.0,49.2],[135.9,49.2],[135.9,49.6],[135.8,49.6],[135.8,49.8]]]},"properties":{"tile_id":"70","start_year":1918,"end_year":1920,"source_image":"data/raw/toolbay/t/70/1918.png","source_url":"https://www.toolbay.cc/history-map/t/70/1918.png","source_color":"#ff9933","polity_id":null,"polity_assignment":"unverified","geometry_origin":"raster_color_trace","pixel_size_degrees":0.1,"source_color_pixels":166,"simplification_degrees":0}}]}
