{"type":"FeatureCollection","features":[{"type":"Feature","id":"merged:-1000:#00ff00","bbox":[119.1,30.9,121.6,32.3],"geometry":{"type":"Polygon","coordinates":[[[120.4,32.3],[119.9,32.3],[119.9,32.2],[119.7,32.2],[119.7,32.1],[119.5,32.1],[119.5,32.0],[119.4,32.0],[119.4,31.9],[119.2,31.9],[119.2,31.7],[119.1,31.7],[119.1,31.2],[119.2,31.2],[119.2,31.0],[119.3,31.0],[119.3,30.9],[120.4,30.9],[120.4,31.0],[120.6,31.0],[120.6,31.1],[120.8,31.1],[120.8,31.2],[120.9,31.2],[120.9,31.3],[121.0,31.3],[121.0,31.4],[121.6,31.4],[121.6,31.5],[121.5,31.5],[121.5,31.6],[121.4,31.6],[121.4,31.7],[121.3,31.7],[121.3,31.8],[121.2,31.8],[121.2,31.9],[121.0,31.9],[121.0,32.0],[120.8,32.0],[120.8,32.1],[120.6,32.1],[120.6,32.2],[120.4,32.2],[120.4,32.3]]]},"properties":{"start_year":-1000,"end_year":-950,"source_color":"#00ff00","polity_id":null,"polity_assignment":"unverified","geometry_origin":"raster_color_trace_stitched","pixel_size_degrees":0.1,"sources":[{"feature_id":"61:-1000:#00ff00","tile_id":"61","start_year":-1000,"end_year":-950,"source_image":"data/raw/toolbay/t/61/-1000.png","source_url":"https://www.toolbay.cc/history-map/t/61/-1000.png"}]}},{"type":"Feature","id":"merged:-1000:#ff0000","bbox":[119.2,27.9,122.4,31.4],"geometry":{"type":"Polygon","coordinates":[[[121.8,31.4],[121.0,31.4],[121.0,31.3],[120.9,31.3],[120.9,31.2],[120.8,31.2],[120.8,31.1],[120.6,31.1],[120.6,31.0],[120.4,31.0],[120.4,30.9],[119.5,30.9],[119.5,30.8],[119.4,30.8],[119.4,30.7],[119.3,30.7],[119.3,30.4],[119.2,30.4],[119.2,29.5],[119.3,29.5],[119.3,29.2],[119.4,29.2],[119.4,28.8],[119.5,28.8],[119.5,28.6],[119.6,28.6],[119.6,28.5],[119.7,28.5],[119.7,28.4],[119.8,28.4],[119.8,28.3],[120.0,28.3],[120.0,28.2],[120.3,28.2],[120.3,28.1],[120.5,28.1],[120.5,28.0],[120.6,28.0],[120.6,27.9],[121.2,27.9],[121.2,28.0],[121.3,28.0],[121.3,28.2],[121.4,28.2],[121.4,28.3],[121.6,28.3],[121.6,28.4],[121.7,28.4],[121.7,28.7],[121.8,28.7],[121.8,29.0],[121.9,29.0],[121.9,29.2],[122.0,29.2],[122.0,29.6],[122.1,29.6],[122.1,29.7],[122.3,29.7],[122.3,29.8],[122.4,29.8],[122.4,30.2],[122.3,30.2],[122.3,30.3],[121.9,30.3],[121.9,30.2],[121.5,30.2],[121.5,30.3],[121.4,30.3],[121.4,30.4],[121.2,30.4],[121.2,30.5],[121.1,30.5],[121.1,30.6],[121.2,30.6],[121.2,30.7],[121.4,30.7],[121.4,30.8],[121.5,30.8],[121.5,30.9],[121.8,30.9],[121.8,31.0],[121.9,31.0],[121.9,31.2],[121.8,31.2],[121.8,31.4]]]},"properties":{"start_year":-1000,"end_year":-950,"source_color":"#ff0000","polity_id":null,"polity_assignment":"unverified","geometry_origin":"raster_color_trace_stitched","pixel_size_degrees":0.1,"sources":[{"feature_id":"61:-1000:#ff0000","tile_id":"61","start_year":-1000,"end_year":-950,"source_image":"data/raw/toolbay/t/61/-1000.png","source_url":"https://www.toolbay.cc/history-map/t/61/-1000.png"}]}},{"type":"Feature","id":"merged:-1000:#ff00ff","bbox":[107.4,33.8,111.0,35.3],"geometry":{"type":"Polygon","coordinates":[[[109.6,35.3],[108.5,35.3],[108.5,35.2],[107.9,35.2],[107.9,35.1],[107.6,35.1],[107.6,35.0],[107.4,35.0],[107.4,34.5],[107.5,34.5],[107.5,34.3],[107.6,34.3],[107.6,34.2],[107.7,34.2],[107.7,34.1],[107.8,34.1],[107.8,34.0],[108.1,34.0],[108.1,33.9],[108.5,33.9],[108.5,33.8],[109.0,33.8],[109.0,33.9],[109.4,33.9],[109.4,34.0],[110.1,34.0],[110.1,34.1],[110.6,34.1],[110.6,34.2],[110.8,34.2],[110.8,34.3],[110.9,34.3],[110.9,34.5],[111.0,34.5],[111.0,34.7],[110.9,34.7],[110.9,34.9],[110.8,34.9],[110.8,35.0],[110.5,35.0],[110.5,35.1],[110.2,35.1],[110.2,35.2],[109.6,35.2],[109.6,35.3]]]},"properties":{"start_year":-1000,"end_year":-950,"source_color":"#ff00ff","polity_id":null,"polity_assignment":"unverified","geometry_origin":"raster_color_trace_stitched","pixel_size_degrees":0.1,"sources":[{"feature_id":"61:-1000:#ff00ff","tile_id":"61","start_year":-1000,"end_year":-950,"source_image":"data/raw/toolbay/t/61/-1000.png","source_url":"https://www.toolbay.cc/history-map/t/61/-1000.png"}]}},{"type":"Feature","id":"merged:-1000:#ff99ff","bbox":[105.9,29.8,119.7,37.7],"geometry":{"type":"Polygon","coordinates":[[[116.1,37.7],[115.5,37.7],[115.5,37.5],[115.3,37.5],[115.3,37.3],[115.2,37.3],[115.2,37.2],[115.1,37.2],[115.1,37.1],[114.9,37.1],[114.9,36.9],[114.8,36.9],[114.8,36.8],[114.7,36.8],[114.7,36.7],[114.6,36.7],[114.6,36.6],[114.5,36.6],[114.5,36.4],[114.4,36.4],[114.4,36.2],[114.2,36.2],[114.2,36.1],[114.0,36.1],[114.0,36.0],[113.8,36.0],[113.8,35.9],[113.7,35.9],[113.7,35.8],[113.3,35.8],[113.3,35.7],[113.0,35.7],[113.0,35.6],[112.7,35.6],[112.7,35.5],[111.8,35.5],[111.8,35.6],[111.6,35.6],[111.6,35.7],[111.4,35.7],[111.4,35.8],[111.2,35.8],[111.2,35.9],[111.1,35.9],[111.1,36.0],[110.9,36.0],[110.9,36.1],[110.8,36.1],[110.8,36.4],[110.7,36.4],[110.7,36.9],[110.6,36.9],[110.6,37.1],[110.4,37.1],[110.4,37.2],[110.3,37.2],[110.3,37.3],[109.6,37.3],[109.6,37.2],[108.8,37.2],[108.8,37.1],[108.5,37.1],[108.5,37.0],[108.4,37.0],[108.4,36.9],[108.3,36.9],[108.3,36.8],[108.1,36.8],[108.1,36.7],[108.0,36.7],[108.0,36.6],[107.8,36.6],[107.8,36.5],[107.7,36.5],[107.7,36.4],[107.6,36.4],[107.6,36.3],[107.5,36.3],[107.5,36.1],[107.3,36.1],[107.3,35.9],[107.2,35.9],[107.2,35.7],[107.1,35.7],[107.1,35.6],[107.0,35.6],[107.0,35.4],[106.9,35.4],[106.9,35.3],[106.7,35.3],[106.7,35.2],[106.5,35.2],[106.5,35.1],[106.4,35.1],[106.4,35.0],[106.0,35.0],[106.0,34.9],[105.9,34.9],[105.9,34.7],[106.0,34.7],[106.0,34.6],[106.1,34.6],[106.1,34.4],[106.2,34.4],[106.2,34.3],[106.3,34.3],[106.3,34.2],[106.4,34.2],[106.4,33.9],[106.6,33.9],[106.6,33.8],[106.7,33.8],[106.7,33.7],[106.8,33.7],[106.8,33.6],[106.9,33.6],[106.9,33.5],[107.1,33.5],[107.1,33.4],[107.2,33.4],[107.2,33.3],[107.3,33.3],[107.3,33.2],[107.4,33.2],[107.4,33.1],[107.5,33.1],[107.5,33.0],[107.6,33.0],[107.6,32.9],[107.9,32.9],[107.9,32.8],[108.0,32.8],[108.0,32.7],[108.1,32.7],[108.1,32.5],[108.2,32.5],[108.2,32.3],[108.3,32.3],[108.3,32.2],[108.4,32.2],[108.4,32.0],[108.5,32.0],[108.5,31.8],[108.6,31.8],[108.6,31.6],[108.7,31.6],[108.7,31.4],[108.8,31.4],[108.8,31.2],[108.9,31.2],[108.9,31.1],[109.0,31.1],[109.0,31.0],[109.1,31.0],[109.1,30.8],[109.2,30.8],[109.2,30.7],[109.3,30.7],[109.3,30.6],[109.4,30.6],[109.4,30.5],[109.6,30.5],[109.6,30.4],[109.8,30.4],[109.8,30.3],[110.0,30.3],[110.0,30.2],[110.4,30.2],[110.4,30.1],[110.7,30.1],[110.7,30.0],[111.0,30.0],[111.0,29.9],[111.8,29.9],[111.8,29.8],[113.5,29.8],[113.5,29.9],[114.0,29.9],[114.0,30.0],[114.5,30.0],[114.5,30.1],[114.9,30.1],[114.9,30.2],[115.1,30.2],[115.1,30.3],[115.3,30.3],[115.3,30.4],[115.4,30.4],[115.4,30.5],[115.5,30.5],[115.5,30.6],[115.7,30.6],[115.7,30.8],[115.8,30.8],[115.8,30.9],[115.9,30.9],[115.9,31.0],[116.0,31.0],[116.0,31.1],[116.1,31.1],[116.1,31.3],[116.3,31.3],[116.3,31.4],[116.4,31.4],[116.4,31.6],[116.5,31.6],[116.5,31.7],[116.6,31.7],[116.6,31.8],[116.8,31.8],[116.8,32.0],[116.9,32.0],[116.9,32.1],[117.1,32.1],[117.1,32.2],[117.2,32.2],[117.2,32.3],[117.4,32.3],[117.4,32.4],[117.5,32.4],[117.5,32.5],[117.6,32.5],[117.6,32.6],[117.7,32.6],[117.7,32.9],[117.6,32.9],[117.6,33.0],[117.7,33.0],[117.7,33.1],[117.8,33.1],[117.8,33.4],[117.9,33.4],[117.9,33.6],[118.0,33.6],[118.0,33.9],[118.2,33.9],[118.2,34.0],[118.3,34.0],[118.3,34.1],[118.5,34.1],[118.5,34.2],[118.6,34.2],[118.6,34.3],[119.1,34.3],[119.1,34.4],[119.4,34.4],[119.4,34.5],[119.5,34.5],[119.5,34.6],[119.6,34.6],[119.6,34.8],[119.5,34.8],[119.5,34.9],[119.4,34.9],[119.4,35.2],[119.5,35.2],[119.5,35.4],[119.6,35.4],[119.6,35.6],[119.7,35.6],[119.7,35.9],[119.6,35.9],[119.6,36.1],[119.5,36.1],[119.5,36.4],[119.4,36.4],[119.4,37.0],[119.3,37.0],[119.3,37.1],[117.1,37.1],[117.1,37.2],[116.9,37.2],[116.9,37.3],[116.7,37.3],[116.7,37.4],[116.5,37.4],[116.5,37.5],[116.4,37.5],[116.4,37.6],[116.1,37.6],[116.1,37.7]],[[108.5,35.2],[108.5,35.3],[109.6,35.3],[109.6,35.2],[110.2,35.2],[110.2,35.1],[110.5,35.1],[110.5,35.0],[110.8,35.0],[110.8,34.9],[110.9,34.9],[110.9,34.7],[111.0,34.7],[111.0,34.5],[110.9,34.5],[110.9,34.3],[110.8,34.3],[110.8,34.2],[110.6,34.2],[110.6,34.1],[110.1,34.1],[110.1,34.0],[109.4,34.0],[109.4,33.9],[109.0,33.9],[109.0,33.8],[108.5,33.8],[108.5,33.9],[108.1,33.9],[108.1,34.0],[107.8,34.0],[107.8,34.1],[107.7,34.1],[107.7,34.2],[107.6,34.2],[107.6,34.3],[107.5,34.3],[107.5,34.5],[107.4,34.5],[107.4,35.0],[107.6,35.0],[107.6,35.1],[107.9,35.1],[107.9,35.2],[108.5,35.2]]]},"properties":{"start_year":-1000,"end_year":-950,"source_color":"#ff99ff","polity_id":null,"polity_assignment":"unverified","geometry_origin":"raster_color_trace_stitched","pixel_size_degrees":0.1,"sources":[{"feature_id":"61:-1000:#ff99ff","tile_id":"61","start_year":-1000,"end_year":-950,"source_image":"data/raw/toolbay/t/61/-1000.png","source_url":"https://www.toolbay.cc/history-map/t/61/-1000.png"}]}},{"type":"Feature","id":"merged:-1000:#ffff00","bbox":[119.3,35.7,122.6,38.0],"geometry":{"type":"Polygon","coordinates":[[[120.9,38.0],[120.7,38.0],[120.7,37.9],[120.5,37.9],[120.5,37.8],[120.3,37.8],[120.3,37.7],[120.2,37.7],[120.2,37.6],[120.1,37.6],[120.1,37.5],[119.9,37.5],[119.9,37.4],[119.8,37.4],[119.8,37.3],[119.7,37.3],[119.7,37.2],[119.3,37.2],[119.3,37.0],[119.4,37.0],[119.4,36.4],[119.5,36.4],[119.5,36.1],[119.6,36.1],[119.6,35.9],[119.7,35.9],[119.7,35.7],[120.0,35.7],[120.0,35.8],[120.1,35.8],[120.1,35.9],[120.2,35.9],[120.2,36.0],[120.3,36.0],[120.3,36.1],[120.6,36.1],[120.6,36.2],[120.7,36.2],[120.7,36.4],[120.8,36.4],[120.8,36.5],[121.0,36.5],[121.0,36.6],[121.1,36.6],[121.1,36.7],[121.3,36.7],[121.3,36.8],[121.7,36.8],[121.7,36.9],[122.5,36.9],[122.5,37.0],[122.6,37.0],[122.6,37.4],[122.5,37.4],[122.5,37.5],[122.3,37.5],[122.3,37.6],[121.9,37.6],[121.9,37.5],[121.6,37.5],[121.6,37.6],[121.4,37.6],[121.4,37.7],[121.2,37.7],[121.2,37.8],[121.0,37.8],[121.0,37.9],[120.9,37.9],[120.9,38.0]]]},"properties":{"start_year":-1000,"end_year":-950,"source_color":"#ffff00","polity_id":null,"polity_assignment":"unverified","geometry_origin":"raster_color_trace_stitched","pixel_size_degrees":0.1,"sources":[{"feature_id":"61:-1000:#ffff00","tile_id":"61","start_year":-1000,"end_year":-950,"source_image":"data/raw/toolbay/t/61/-1000.png","source_url":"https://www.toolbay.cc/history-map/t/61/-1000.png"}]}}]}
