{"type":"FeatureCollection","features":[{"type":"Feature","id":"merged:-1330:#00ff00","bbox":[112.2,33.6,115.9,35.2],"geometry":{"type":"Polygon","coordinates":[[[114.8,35.2],[114.3,35.2],[114.3,35.1],[113.3,35.1],[113.3,35.0],[113.1,35.0],[113.1,34.9],[113.0,34.9],[113.0,34.8],[112.9,34.8],[112.9,34.7],[112.6,34.7],[112.6,34.6],[112.2,34.6],[112.2,34.4],[112.3,34.4],[112.3,34.3],[112.4,34.3],[112.4,34.1],[112.5,34.1],[112.5,34.0],[112.7,34.0],[112.7,33.9],[112.8,33.9],[112.8,33.8],[113.0,33.8],[113.0,33.7],[113.2,33.7],[113.2,33.6],[115.3,33.6],[115.3,33.7],[115.5,33.7],[115.5,33.8],[115.6,33.8],[115.6,33.9],[115.7,33.9],[115.7,34.0],[115.8,34.0],[115.8,34.1],[115.9,34.1],[115.9,34.8],[115.6,34.8],[115.6,34.9],[115.1,34.9],[115.1,35.0],[115.0,35.0],[115.0,35.1],[114.8,35.1],[114.8,35.2]]]},"properties":{"start_year":-1330,"end_year":-1190,"source_color":"#00ff00","polity_id":null,"polity_assignment":"unverified","geometry_origin":"raster_color_trace_stitched","pixel_size_degrees":0.1,"sources":[{"feature_id":"61:-1500:#00ff00","tile_id":"61","start_year":-1500,"end_year":-1046,"source_image":"data/raw/toolbay/t/61/-1500.png","source_url":"https://www.toolbay.cc/history-map/t/61/-1500.png"}]}}]}
