{"type":"FeatureCollection","features":[{"type":"Feature","id":"merged:-322:#00ff00","bbox":[60.0,8.2,126.2,42.6],"geometry":{"type":"MultiPolygon","coordinates":[[[[78.0,14.2],[78.0,14.3],[77.3,14.3],[77.3,14.4],[76.6,14.4],[76.6,14.3],[75.9,14.3],[75.9,14.2],[75.1,14.2],[75.1,14.1],[74.5,14.1],[74.5,14.0],[74.6,14.0],[74.6,13.7],[74.7,13.7],[74.7,13.3],[74.8,13.3],[74.8,12.8],[74.9,12.8],[74.9,12.6],[75.0,12.6],[75.0,12.4],[75.1,12.4],[75.1,12.2],[75.2,12.2],[75.2,12.0],[75.3,12.0],[75.3,11.9],[75.4,11.9],[75.4,11.8],[75.5,11.8],[75.5,11.7],[75.6,11.7],[75.6,11.5],[75.7,11.5],[75.7,11.3],[75.8,11.3],[75.8,11.1],[75.9,11.1],[75.9,10.8],[76.0,10.8],[76.0,10.5],[76.1,10.5],[76.1,10.3],[76.2,10.3],[76.2,9.9],[76.3,9.9],[76.3,9.5],[76.4,9.5],[76.4,9.2],[76.5,9.2],[76.5,9.0],[76.6,9.0],[76.6,8.9],[76.7,8.9],[76.7,8.8],[76.8,8.8],[76.8,8.7],[76.9,8.7],[76.9,8.5],[77.0,8.5],[77.0,8.4],[77.1,8.4],[77.1,8.3],[77.2,8.3],[77.2,8.2],[77.8,8.2],[77.8,8.3],[78.0,8.3],[78.0,8.4],[78.1,8.4],[78.1,8.5],[78.2,8.5],[78.2,8.9],[78.3,8.9],[78.3,9.1],[78.4,9.1],[78.4,9.2],[78.8,9.2],[78.8,9.3],[78.9,9.3],[78.9,9.4],[79.0,9.4],[79.0,9.8],[79.1,9.8],[79.1,9.9],[79.2,9.9],[79.2,10.0],[79.3,10.0],[79.3,10.3],[79.4,10.3],[79.4,10.4],[79.6,10.4],[79.6,10.3],[79.8,10.3],[79.8,10.4],[79.9,10.4],[79.9,11.5],[79.8,11.5],[79.8,11.9],[79.9,11.9],[79.9,12.2],[80.0,12.2],[80.0,12.3],[80.1,12.3],[80.1,12.5],[80.2,12.5],[80.2,12.7],[80.3,12.7],[80.3,13.1],[80.4,13.1],[80.4,13.6],[80.3,13.6],[80.3,13.9],[79.6,13.9],[79.6,14.0],[79.4,14.0],[79.4,14.1],[78.5,14.1],[78.5,14.2],[78.0,14.2]]],[[[60.2,40.0],[60.2,39.9],[60.1,39.9],[60.1,39.8],[60.0,39.8],[60.0,25.4],[60.7,25.4],[60.7,25.3],[61.1,25.3],[61.1,25.2],[61.3,25.2],[61.3,25.1],[62.0,25.1],[62.0,25.2],[62.5,25.2],[62.5,25.3],[63.6,25.3],[63.6,25.4],[64.2,25.4],[64.2,25.3],[64.8,25.3],[64.8,25.4],[65.0,25.4],[65.0,25.3],[65.2,25.3],[65.2,25.4],[66.0,25.4],[66.0,25.5],[66.6,25.5],[66.6,25.7],[66.7,25.7],[66.7,25.8],[66.8,25.8],[66.8,25.9],[66.9,25.9],[66.9,26.1],[67.0,26.1],[67.0,26.3],[67.1,26.3],[67.1,26.5],[67.2,26.5],[67.2,26.8],[67.3,26.8],[67.3,26.9],[67.4,26.9],[67.4,27.1],[67.5,27.1],[67.5,27.3],[67.6,27.3],[67.6,27.5],[67.7,27.5],[67.7,27.7],[67.8,27.7],[67.8,27.9],[67.9,27.9],[67.9,28.3],[68.0,28.3],[68.0,28.8],[68.1,28.8],[68.1,29.3],[68.2,29.3],[68.2,29.8],[68.3,29.8],[68.3,30.0],[68.8,30.0],[68.8,29.9],[69.2,29.9],[69.2,30.0],[69.4,30.0],[69.4,30.2],[69.5,30.2],[69.5,30.4],[69.6,30.4],[69.6,30.5],[69.7,30.5],[69.7,30.6],[69.8,30.6],[69.8,30.7],[69.9,30.7],[69.9,30.8],[70.0,30.8],[70.0,30.9],[70.1,30.9],[70.1,31.1],[70.2,31.1],[70.2,31.2],[70.3,31.2],[70.3,31.3],[70.4,31.3],[70.4,31.4],[70.5,31.4],[70.5,31.5],[70.6,31.5],[70.6,31.7],[70.8,31.7],[70.8,31.8],[70.9,31.8],[70.9,32.0],[71.0,32.0],[71.0,32.2],[71.1,32.2],[71.1,34.1],[71.2,34.1],[71.2,34.3],[71.3,34.3],[71.3,34.9],[71.2,34.9],[71.2,35.0],[71.1,35.0],[71.1,35.1],[71.0,35.1],[71.0,35.2],[70.9,35.2],[70.9,35.3],[70.8,35.3],[70.8,35.5],[70.7,35.5],[70.7,35.6],[70.6,35.6],[70.6,35.7],[70.5,35.7],[70.5,35.8],[70.4,35.8],[70.4,35.9],[70.3,35.9],[70.3,36.0],[70.2,36.0],[70.2,36.2],[70.1,36.2],[70.1,36.3],[70.0,36.3],[70.0,36.4],[69.9,36.4],[69.9,36.6],[69.7,36.6],[69.7,36.7],[69.6,36.7],[69.6,37.0],[69.5,37.0],[69.5,37.1],[69.4,37.1],[69.4,37.4],[69.3,37.4],[69.3,37.5],[69.2,37.5],[69.2,39.2],[69.3,39.2],[69.3,39.9],[69.2,39.9],[69.2,40.0],[69.0,40.0],[69.0,40.1],[68.9,40.1],[68.9,40.2],[68.8,40.2],[68.8,40.3],[68.7,40.3],[68.7,40.4],[68.6,40.4],[68.6,40.5],[68.4,40.5],[68.4,40.6],[68.3,40.6],[68.3,40.8],[68.2,40.8],[68.2,40.9],[68.0,40.9],[68.0,41.0],[67.9,41.0],[67.9,41.1],[67.8,41.1],[67.8,41.2],[67.7,41.2],[67.7,41.3],[67.6,41.3],[67.6,41.4],[67.5,41.4],[67.5,41.5],[67.4,41.5],[67.4,41.6],[67.2,41.6],[67.2,41.7],[67.1,41.7],[67.1,41.8],[67.0,41.8],[67.0,42.0],[66.9,42.0],[66.9,42.1],[66.8,42.1],[66.8,42.2],[66.7,42.2],[66.7,42.3],[66.6,42.3],[66.6,42.4],[66.4,42.4],[66.4,42.5],[65.9,42.5],[65.9,42.6],[65.6,42.6],[65.6,42.5],[65.0,42.5],[65.0,42.4],[64.8,42.4],[64.8,42.3],[64.7,42.3],[64.7,42.2],[64.6,42.2],[64.6,42.1],[64.1,42.1],[64.1,42.0],[63.8,42.0],[63.8,41.9],[63.6,41.9],[63.6,41.8],[63.4,41.8],[63.4,41.7],[63.3,41.7],[63.3,41.6],[63.2,41.6],[63.2,41.5],[63.0,41.5],[63.0,41.4],[62.9,41.4],[62.9,41.3],[62.6,41.3],[62.6,41.2],[62.5,41.2],[62.5,41.1],[62.2,41.1],[62.2,41.0],[61.9,41.0],[61.9,40.9],[61.8,40.9],[61.8,40.8],[61.7,40.8],[61.7,40.7],[61.4,40.7],[61.4,40.6],[61.3,40.6],[61.3,40.5],[61.1,40.5],[61.1,40.4],[61.0,40.4],[61.0,40.3],[60.8,40.3],[60.8,40.2],[60.7,40.2],[60.7,40.1],[60.6,40.1],[60.6,40.0],[60.2,40.0]]],[[[109.2,40.6],[109.2,40.7],[109.0,40.7],[109.0,40.8],[108.1,40.8],[108.1,40.7],[108.0,40.7],[108.0,40.5],[108.1,40.5],[108.1,39.3],[108.2,39.3],[108.2,38.9],[108.3,38.9],[108.3,38.0],[108.4,38.0],[108.4,37.4],[108.5,37.4],[108.5,37.1],[108.6,37.1],[108.6,36.9],[108.7,36.9],[108.7,36.7],[108.8,36.7],[108.8,36.6],[109.0,36.6],[109.0,36.5],[109.1,36.5],[109.1,36.4],[109.3,36.4],[109.3,36.3],[109.4,36.3],[109.4,36.2],[109.5,36.2],[109.5,36.1],[109.6,36.1],[109.6,36.0],[109.8,36.0],[109.8,35.9],[109.9,35.9],[109.9,35.8],[110.0,35.8],[110.0,35.7],[110.1,35.7],[110.1,35.5],[110.2,35.5],[110.2,34.4],[110.1,34.4],[110.1,34.2],[110.7,34.2],[110.7,34.3],[110.9,34.3],[110.9,34.4],[111.0,34.4],[111.0,34.5],[111.3,34.5],[111.3,34.6],[111.4,34.6],[111.4,34.7],[111.5,34.7],[111.5,34.8],[111.6,34.8],[111.6,35.0],[111.7,35.0],[111.7,35.1],[111.8,35.1],[111.8,35.2],[111.9,35.2],[111.9,35.3],[112.0,35.3],[112.0,35.4],[112.2,35.4],[112.2,35.5],[112.3,35.5],[112.3,35.4],[112.4,35.4],[112.4,35.3],[112.5,35.3],[112.5,35.2],[112.6,35.2],[112.6,35.1],[112.8,35.1],[112.8,35.0],[112.9,35.0],[112.9,34.7],[112.8,34.7],[112.8,34.1],[112.9,34.1],[112.9,33.8],[113.0,33.8],[113.0,33.6],[113.1,33.6],[113.1,33.3],[113.2,33.3],[113.2,33.1],[114.1,33.1],[114.1,33.3],[114.2,33.3],[114.2,33.4],[114.3,33.4],[114.3,33.6],[114.4,33.6],[114.4,34.1],[114.5,34.1],[114.5,34.3],[114.6,34.3],[114.6,34.6],[114.7,34.6],[114.7,34.8],[114.8,34.8],[114.8,34.9],[115.0,34.9],[115.0,35.0],[115.2,35.0],[115.2,35.1],[115.3,35.1],[115.3,35.2],[115.4,35.2],[115.4,35.3],[115.6,35.3],[115.6,35.6],[115.5,35.6],[115.5,35.7],[115.4,35.7],[115.4,35.8],[115.3,35.8],[115.3,36.0],[115.2,36.0],[115.2,36.5],[115.3,36.5],[115.3,36.8],[115.4,36.8],[115.4,37.0],[115.5,37.0],[115.5,37.2],[115.4,37.2],[115.4,37.1],[115.2,37.1],[115.2,37.0],[115.0,37.0],[115.0,36.9],[114.7,36.9],[114.7,36.8],[114.4,36.8],[114.4,36.7],[114.3,36.7],[114.3,36.6],[114.0,36.6],[114.0,36.5],[113.1,36.5],[113.1,36.6],[112.7,36.6],[112.7,36.7],[112.3,36.7],[112.3,36.8],[112.0,36.8],[112.0,36.9],[111.4,36.9],[111.4,37.0],[111.3,37.0],[111.3,37.1],[110.9,37.1],[110.9,37.2],[110.8,37.2],[110.8,37.3],[110.7,37.3],[110.7,37.4],[110.6,37.4],[110.6,37.5],[110.4,37.5],[110.4,37.6],[110.3,37.6],[110.3,37.9],[110.2,37.9],[110.2,39.2],[110.1,39.2],[110.1,40.0],[109.8,40.0],[109.8,40.1],[109.7,40.1],[109.7,40.2],[109.6,40.2],[109.6,40.3],[109.5,40.3],[109.5,40.4],[109.4,40.4],[109.4,40.5],[109.3,40.5],[109.3,40.6],[109.2,40.6]]],[[[125.5,42.0],[125.5,42.1],[125.0,42.1],[125.0,42.2],[124.3,42.2],[124.3,42.1],[123.6,42.1],[123.6,42.0],[123.3,42.0],[123.3,41.9],[123.2,41.9],[123.2,41.8],[122.9,41.8],[122.9,41.7],[122.7,41.7],[122.7,41.6],[122.6,41.6],[122.6,41.5],[122.3,41.5],[122.3,41.4],[122.0,41.4],[122.0,41.3],[121.7,41.3],[121.7,41.2],[121.0,41.2],[121.0,41.3],[120.4,41.3],[120.4,41.4],[120.2,41.4],[120.2,41.5],[120.0,41.5],[120.0,41.6],[119.8,41.6],[119.8,41.7],[119.4,41.7],[119.4,41.8],[119.0,41.8],[119.0,41.9],[118.2,41.9],[118.2,42.0],[117.2,42.0],[117.2,41.9],[116.9,41.9],[116.9,41.8],[116.6,41.8],[116.6,41.7],[116.5,41.7],[116.5,41.6],[116.3,41.6],[116.3,41.5],[116.0,41.5],[116.0,41.4],[115.7,41.4],[115.7,41.3],[115.6,41.3],[115.6,39.8],[115.7,39.8],[115.7,39.3],[115.8,39.3],[115.8,38.7],[116.9,38.7],[116.9,38.8],[117.6,38.8],[117.6,39.0],[117.7,39.0],[117.7,39.1],[117.9,39.1],[117.9,39.2],[118.2,39.2],[118.2,39.1],[118.9,39.1],[118.9,39.2],[119.1,39.2],[119.1,39.3],[119.2,39.3],[119.2,39.5],[119.3,39.5],[119.3,39.7],[119.4,39.7],[119.4,39.8],[119.6,39.8],[119.6,39.9],[119.7,39.9],[119.7,40.0],[120.0,40.0],[120.0,40.1],[120.2,40.1],[120.2,40.2],[120.5,40.2],[120.5,40.3],[120.6,40.3],[120.6,40.5],[120.7,40.5],[120.7,40.6],[120.9,40.6],[120.9,40.7],[121.0,40.7],[121.0,40.8],[121.1,40.8],[121.1,40.9],[121.5,40.9],[121.5,41.0],[121.8,41.0],[121.8,40.9],[121.9,40.9],[121.9,40.8],[122.1,40.8],[122.1,40.7],[122.2,40.7],[122.2,40.4],[122.1,40.4],[122.1,40.3],[122.0,40.3],[122.0,40.2],[121.9,40.2],[121.9,40.1],[121.8,40.1],[121.8,40.0],[121.6,40.0],[121.6,39.9],[121.5,39.9],[121.5,39.8],[121.4,39.8],[121.4,39.7],[121.3,39.7],[121.3,39.5],[121.4,39.5],[121.4,39.3],[121.5,39.3],[121.5,39.2],[121.4,39.2],[121.4,39.1],[121.3,39.1],[121.3,38.8],[121.5,38.8],[121.5,38.9],[121.9,38.9],[121.9,39.0],[122.0,39.0],[122.0,39.1],[122.1,39.1],[122.1,39.2],[122.2,39.2],[122.2,39.3],[122.5,39.3],[122.5,39.4],[122.6,39.4],[122.6,39.5],[122.7,39.5],[122.7,39.6],[122.9,39.6],[122.9,39.7],[123.3,39.7],[123.3,39.8],[123.7,39.8],[123.7,39.9],[124.2,39.9],[124.2,39.8],[124.5,39.8],[124.5,39.7],[124.7,39.7],[124.7,39.6],[125.3,39.6],[125.3,39.7],[125.4,39.7],[125.4,39.8],[125.5,39.8],[125.5,40.0],[125.6,40.0],[125.6,40.1],[125.7,40.1],[125.7,40.3],[125.8,40.3],[125.8,40.5],[125.9,40.5],[125.9,40.6],[126.0,40.6],[126.0,40.8],[126.1,40.8],[126.1,41.0],[126.2,41.0],[126.2,41.7],[126.1,41.7],[126.1,41.9],[125.8,41.9],[125.8,42.0],[125.5,42.0]]]]},"properties":{"start_year":-322,"end_year":-311,"source_color":"#00ff00","polity_id":null,"polity_assignment":"unverified","geometry_origin":"raster_color_trace_stitched","pixel_size_degrees":0.1,"sources":[{"feature_id":"51:-322:#00ff00","tile_id":"51","start_year":-322,"end_year":-311,"source_image":"data/raw/toolbay/t/51/-322.png","source_url":"https://www.toolbay.cc/history-map/t/51/-322.png"},{"feature_id":"61:-330:#00ff00","tile_id":"61","start_year":-330,"end_year":-310,"source_image":"data/raw/toolbay/t/61/-330.png","source_url":"https://www.toolbay.cc/history-map/t/61/-330.png"}]}},{"type":"Feature","id":"merged:-322:#6666ff","bbox":[114.1,32.8,118.2,35.5],"geometry":{"type":"Polygon","coordinates":[[[116.4,35.5],[115.8,35.5],[115.8,35.4],[115.6,35.4],[115.6,35.3],[115.4,35.3],[115.4,35.2],[115.3,35.2],[115.3,35.1],[115.2,35.1],[115.2,35.0],[115.0,35.0],[115.0,34.9],[114.8,34.9],[114.8,34.8],[114.7,34.8],[114.7,34.6],[114.6,34.6],[114.6,34.3],[114.5,34.3],[114.5,34.1],[114.4,34.1],[114.4,33.6],[114.3,33.6],[114.3,33.4],[114.2,33.4],[114.2,33.3],[114.1,33.3],[114.1,33.2],[114.5,33.2],[114.5,33.1],[114.7,33.1],[114.7,33.0],[114.9,33.0],[114.9,32.9],[115.0,32.9],[115.0,32.8],[116.0,32.8],[116.0,32.9],[116.3,32.9],[116.3,33.0],[116.6,33.0],[116.6,33.1],[116.7,33.1],[116.7,33.2],[117.0,33.2],[117.0,33.3],[117.2,33.3],[117.2,33.4],[117.3,33.4],[117.3,33.5],[117.6,33.5],[117.6,33.6],[117.9,33.6],[117.9,33.7],[118.0,33.7],[118.0,34.0],[118.1,34.0],[118.1,34.1],[118.2,34.1],[118.2,34.5],[118.1,34.5],[118.1,34.8],[118.0,34.8],[118.0,35.3],[117.4,35.3],[117.4,35.2],[116.6,35.2],[116.6,35.3],[116.5,35.3],[116.5,35.4],[116.4,35.4],[116.4,35.5]]]},"properties":{"start_year":-322,"end_year":-311,"source_color":"#6666ff","polity_id":null,"polity_assignment":"unverified","geometry_origin":"raster_color_trace_stitched","pixel_size_degrees":0.1,"sources":[{"feature_id":"61:-330:#6666ff","tile_id":"61","start_year":-330,"end_year":-310,"source_image":"data/raw/toolbay/t/61/-330.png","source_url":"https://www.toolbay.cc/history-map/t/61/-330.png"}]}},{"type":"Feature","id":"merged:-322:#ff0000","bbox":[109.8,31.8,115.6,40.0],"geometry":{"type":"MultiPolygon","coordinates":[[[[112.4,35.4],[112.3,35.4],[112.3,35.5],[112.2,35.5],[112.2,35.4],[112.0,35.4],[112.0,35.3],[111.9,35.3],[111.9,35.2],[111.8,35.2],[111.8,35.1],[111.7,35.1],[111.7,35.0],[111.6,35.0],[111.6,34.8],[111.5,34.8],[111.5,34.7],[111.4,34.7],[111.4,34.6],[111.3,34.6],[111.3,34.5],[111.0,34.5],[111.0,34.4],[110.9,34.4],[110.9,34.3],[110.7,34.3],[110.7,34.2],[110.0,34.2],[110.0,34.0],[109.9,34.0],[109.9,33.8],[109.8,33.8],[109.8,33.4],[109.9,33.4],[109.9,33.3],[110.0,33.3],[110.0,33.2],[110.1,33.2],[110.1,33.1],[110.2,33.1],[110.2,33.0],[110.3,33.0],[110.3,32.9],[110.5,32.9],[110.5,32.8],[110.8,32.8],[110.8,32.7],[111.0,32.7],[111.0,32.6],[111.2,32.6],[111.2,32.5],[111.3,32.5],[111.3,32.4],[111.4,32.4],[111.4,32.3],[111.5,32.3],[111.5,32.2],[111.6,32.2],[111.6,32.1],[111.7,32.1],[111.7,32.0],[111.8,32.0],[111.8,31.9],[112.0,31.9],[112.0,31.8],[112.8,31.8],[112.8,31.9],[113.0,31.9],[113.0,32.0],[113.1,32.0],[113.1,32.3],[113.2,32.3],[113.2,32.9],[113.3,32.9],[113.3,33.1],[113.2,33.1],[113.2,33.3],[113.1,33.3],[113.1,33.6],[113.0,33.6],[113.0,33.8],[112.9,33.8],[112.9,34.1],[112.8,34.1],[112.8,34.7],[112.9,34.7],[112.9,35.0],[112.8,35.0],[112.8,35.1],[112.6,35.1],[112.6,35.2],[112.5,35.2],[112.5,35.3],[112.4,35.3],[112.4,35.4]]],[[[115.5,39.2],[115.6,39.2],[115.6,40.0],[115.3,40.0],[115.3,39.9],[115.2,39.9],[115.2,39.8],[115.0,39.8],[115.0,39.7],[114.7,39.7],[114.7,39.6],[114.2,39.6],[114.2,39.5],[114.0,39.5],[114.0,39.2],[113.9,39.2],[113.9,38.8],[113.8,38.8],[113.8,38.2],[113.7,38.2],[113.7,37.9],[113.8,37.9],[113.8,37.5],[113.9,37.5],[113.9,37.4],[114.0,37.4],[114.0,37.3],[114.9,37.3],[114.9,37.4],[115.1,37.4],[115.1,37.5],[115.2,37.5],[115.2,37.6],[115.3,37.6],[115.3,38.2],[115.4,38.2],[115.4,38.9],[115.5,38.9],[115.5,39.2]]]]},"properties":{"start_year":-322,"end_year":-311,"source_color":"#ff0000","polity_id":null,"polity_assignment":"unverified","geometry_origin":"raster_color_trace_stitched","pixel_size_degrees":0.1,"sources":[{"feature_id":"61:-330:#ff0000","tile_id":"61","start_year":-330,"end_year":-310,"source_image":"data/raw/toolbay/t/61/-330.png","source_url":"https://www.toolbay.cc/history-map/t/61/-330.png"}]}},{"type":"Feature","id":"merged:-322:#ff00ff","bbox":[66.5,20.7,122.6,38.8],"geometry":{"type":"MultiPolygon","coordinates":[[[[90.5,26.4],[90.0,26.4],[90.0,26.5],[88.8,26.5],[88.8,26.6],[87.8,26.6],[87.8,26.7],[87.4,26.7],[87.4,26.8],[86.5,26.8],[86.5,26.9],[86.3,26.9],[86.3,27.0],[86.0,27.0],[86.0,27.1],[85.7,27.1],[85.7,27.2],[85.4,27.2],[85.4,27.3],[85.1,27.3],[85.1,27.4],[84.9,27.4],[84.9,27.5],[84.7,27.5],[84.7,27.6],[84.4,27.6],[84.4,27.7],[84.2,27.7],[84.2,27.8],[83.9,27.8],[83.9,27.9],[83.5,27.9],[83.5,28.0],[83.2,28.0],[83.2,28.1],[82.9,28.1],[82.9,28.2],[82.7,28.2],[82.7,28.3],[82.4,28.3],[82.4,28.4],[81.9,28.4],[81.9,28.5],[81.8,28.5],[81.8,28.6],[81.6,28.6],[81.6,28.7],[81.1,28.7],[81.1,28.9],[80.7,28.9],[80.7,29.0],[80.5,29.0],[80.5,29.1],[80.2,29.1],[80.2,29.2],[79.9,29.2],[79.9,29.3],[79.6,29.3],[79.6,29.4],[79.4,29.4],[79.4,29.5],[79.0,29.5],[79.0,29.6],[78.8,29.6],[78.8,29.7],[78.6,29.7],[78.6,29.8],[78.4,29.8],[78.4,29.9],[78.3,29.9],[78.3,30.0],[78.0,30.0],[78.0,30.1],[77.9,30.1],[77.9,30.2],[77.7,30.2],[77.7,30.3],[77.6,30.3],[77.6,30.4],[77.4,30.4],[77.4,30.5],[77.3,30.5],[77.3,30.6],[77.2,30.6],[77.2,30.7],[77.1,30.7],[77.1,30.8],[77.0,30.8],[77.0,31.0],[76.9,31.0],[76.9,31.1],[76.8,31.1],[76.8,31.3],[76.7,31.3],[76.7,31.4],[76.6,31.4],[76.6,31.5],[76.5,31.5],[76.5,31.6],[76.4,31.6],[76.4,31.7],[76.3,31.7],[76.3,31.9],[76.2,31.9],[76.2,32.0],[76.1,32.0],[76.1,32.1],[76.0,32.1],[76.0,32.2],[75.9,32.2],[75.9,32.3],[75.8,32.3],[75.8,32.5],[75.6,32.5],[75.6,32.6],[75.4,32.6],[75.4,32.7],[75.2,32.7],[75.2,32.8],[75.0,32.8],[75.0,32.9],[74.9,32.9],[74.9,33.0],[74.8,33.0],[74.8,33.1],[74.6,33.1],[74.6,33.2],[74.5,33.2],[74.5,33.3],[74.3,33.3],[74.3,33.4],[74.2,33.4],[74.2,33.5],[74.0,33.5],[74.0,33.6],[73.9,33.6],[73.9,33.7],[73.7,33.7],[73.7,33.8],[73.6,33.8],[73.6,33.9],[73.5,33.9],[73.5,34.1],[73.4,34.1],[73.4,34.2],[73.3,34.2],[73.3,34.3],[73.2,34.3],[73.2,34.4],[73.1,34.4],[73.1,34.5],[73.0,34.5],[73.0,34.6],[72.9,34.6],[72.9,34.7],[72.8,34.7],[72.8,34.8],[72.6,34.8],[72.6,34.9],[72.5,34.9],[72.5,35.0],[72.2,35.0],[72.2,35.1],[72.0,35.1],[72.0,35.2],[71.6,35.2],[71.6,35.3],[70.9,35.3],[70.9,35.2],[71.0,35.2],[71.0,35.1],[71.1,35.1],[71.1,35.0],[71.2,35.0],[71.2,34.9],[71.3,34.9],[71.3,34.3],[71.2,34.3],[71.2,34.1],[71.1,34.1],[71.1,32.2],[71.0,32.2],[71.0,32.0],[70.9,32.0],[70.9,31.8],[70.8,31.8],[70.8,31.7],[70.6,31.7],[70.6,31.5],[70.5,31.5],[70.5,31.4],[70.4,31.4],[70.4,31.3],[70.3,31.3],[70.3,31.2],[70.2,31.2],[70.2,31.1],[70.1,31.1],[70.1,30.9],[70.0,30.9],[70.0,30.8],[69.9,30.8],[69.9,30.7],[69.8,30.7],[69.8,30.6],[69.7,30.6],[69.7,30.5],[69.6,30.5],[69.6,30.4],[69.5,30.4],[69.5,30.2],[69.4,30.2],[69.4,30.0],[69.2,30.0],[69.2,29.9],[68.8,29.9],[68.8,30.0],[68.3,30.0],[68.3,29.8],[68.2,29.8],[68.2,29.3],[68.1,29.3],[68.1,28.8],[68.0,28.8],[68.0,28.3],[67.9,28.3],[67.9,27.9],[67.8,27.9],[67.8,27.7],[67.7,27.7],[67.7,27.5],[67.6,27.5],[67.6,27.3],[67.5,27.3],[67.5,27.1],[67.4,27.1],[67.4,26.9],[67.3,26.9],[67.3,26.8],[67.2,26.8],[67.2,26.5],[67.1,26.5],[67.1,26.3],[67.0,26.3],[67.0,26.1],[66.9,26.1],[66.9,25.9],[66.8,25.9],[66.8,25.8],[66.7,25.8],[66.7,25.7],[66.6,25.7],[66.6,25.5],[66.5,25.5],[66.5,25.4],[66.6,25.4],[66.6,25.3],[66.7,25.3],[66.7,25.0],[66.8,25.0],[66.8,24.9],[67.0,24.9],[67.0,24.8],[67.1,24.8],[67.1,24.7],[67.2,24.7],[67.2,24.5],[67.3,24.5],[67.3,24.2],[67.4,24.2],[67.4,24.1],[67.5,24.1],[67.5,23.9],[67.6,23.9],[67.6,23.8],[68.1,23.8],[68.1,23.7],[68.2,23.7],[68.2,23.6],[68.3,23.6],[68.3,23.5],[68.4,23.5],[68.4,23.4],[68.5,23.4],[68.5,23.3],[68.6,23.3],[68.6,23.2],[68.7,23.2],[68.7,23.1],[68.9,23.1],[68.9,23.0],[69.1,23.0],[69.1,22.9],[69.5,22.9],[69.5,22.8],[69.8,22.8],[69.8,22.9],[70.1,22.9],[70.1,22.8],[70.2,22.8],[70.2,22.7],[70.1,22.7],[70.1,22.6],[69.6,22.6],[69.6,22.5],[69.1,22.5],[69.1,22.4],[69.0,22.4],[69.0,22.2],[69.1,22.2],[69.1,22.1],[69.2,22.1],[69.2,22.0],[69.3,22.0],[69.3,21.9],[69.4,21.9],[69.4,21.8],[69.5,21.8],[69.5,21.7],[69.6,21.7],[69.6,21.6],[69.7,21.6],[69.7,21.5],[69.8,21.5],[69.8,21.4],[69.9,21.4],[69.9,21.3],[70.0,21.3],[70.0,21.2],[70.1,21.2],[70.1,21.1],[70.2,21.1],[70.2,21.0],[70.4,21.0],[70.4,20.9],[70.5,20.9],[70.5,20.8],[70.8,20.8],[70.8,20.7],[71.0,20.7],[71.0,20.8],[71.3,20.8],[71.3,20.9],[71.5,20.9],[71.5,21.0],[71.7,21.0],[71.7,21.1],[71.9,21.1],[71.9,21.2],[72.1,21.2],[72.1,21.3],[72.2,21.3],[72.2,21.5],[72.3,21.5],[72.3,22.0],[72.5,22.0],[72.5,21.9],[72.7,21.9],[72.7,22.0],[73.1,22.0],[73.1,22.1],[74.1,22.1],[74.1,22.2],[74.6,22.2],[74.6,22.3],[75.1,22.3],[75.1,22.4],[75.7,22.4],[75.7,22.5],[75.9,22.5],[75.9,22.6],[76.4,22.6],[76.4,22.7],[76.9,22.7],[76.9,22.8],[77.5,22.8],[77.5,22.9],[77.9,22.9],[77.9,23.0],[78.2,23.0],[78.2,23.1],[78.7,23.1],[78.7,23.2],[79.3,23.2],[79.3,23.3],[80.0,23.3],[80.0,23.4],[80.4,23.4],[80.4,23.3],[80.7,23.3],[80.7,23.2],[80.9,23.2],[80.9,23.1],[81.2,23.1],[81.2,23.0],[81.5,23.0],[81.5,22.9],[81.8,22.9],[81.8,22.7],[81.9,22.7],[81.9,22.6],[82.2,22.6],[82.2,22.5],[82.6,22.5],[82.6,22.4],[82.8,22.4],[82.8,22.3],[82.9,22.3],[82.9,22.2],[83.1,22.2],[83.1,22.1],[83.9,22.1],[83.9,22.0],[84.1,22.0],[84.1,21.9],[84.9,21.9],[84.9,21.8],[85.3,21.8],[85.3,21.7],[85.4,21.7],[85.4,21.6],[85.5,21.6],[85.5,21.5],[85.6,21.5],[85.6,21.4],[85.8,21.4],[85.8,21.3],[85.9,21.3],[85.9,21.2],[86.1,21.2],[86.1,21.1],[86.2,21.1],[86.2,21.0],[86.3,21.0],[86.3,20.9],[86.4,20.9],[86.4,20.8],[86.6,20.8],[86.6,20.7],[87.0,20.7],[87.0,21.0],[86.9,21.0],[86.9,21.4],[87.0,21.4],[87.0,21.5],[87.1,21.5],[87.1,21.6],[87.5,21.6],[87.5,21.7],[87.8,21.7],[87.8,21.8],[88.1,21.8],[88.1,21.7],[88.2,21.7],[88.2,21.6],[89.0,21.6],[89.0,21.7],[89.4,21.7],[89.4,21.8],[89.7,21.8],[89.7,21.9],[89.9,21.9],[89.9,22.0],[90.0,22.0],[90.0,21.9],[90.7,21.9],[90.7,22.0],[90.8,22.0],[90.8,22.1],[91.0,22.1],[91.0,22.2],[91.1,22.2],[91.1,22.5],[91.2,22.5],[91.2,22.6],[91.7,22.6],[91.7,22.5],[91.8,22.5],[91.8,22.0],[91.9,22.0],[91.9,22.1],[92.0,22.1],[92.0,22.2],[92.1,22.2],[92.1,22.3],[92.2,22.3],[92.2,22.4],[92.3,22.4],[92.3,22.6],[92.4,22.6],[92.4,22.7],[92.5,22.7],[92.5,23.5],[92.6,23.5],[92.6,24.5],[92.5,24.5],[92.5,24.8],[92.4,24.8],[92.4,25.0],[92.3,25.0],[92.3,25.1],[92.2,25.1],[92.2,25.2],[92.1,25.2],[92.1,25.3],[92.0,25.3],[92.0,25.4],[91.9,25.4],[91.9,25.5],[91.7,25.5],[91.7,25.6],[91.6,25.6],[91.6,25.7],[91.5,25.7],[91.5,25.8],[91.4,25.8],[91.4,25.9],[91.3,25.9],[91.3,26.0],[91.1,26.0],[91.1,26.1],[91.0,26.1],[91.0,26.2],[90.8,26.2],[90.8,26.3],[90.5,26.3],[90.5,26.4]],[[90.0,26.1],[90.0,25.8],[89.9,25.8],[89.9,26.1],[90.0,26.1]],[[89.9,24.7],[89.9,24.3],[89.7,24.3],[89.7,24.7],[89.9,24.7]],[[67.6,24.1],[67.6,24.2],[67.7,24.2],[67.7,24.3],[67.9,24.3],[67.9,24.0],[67.7,24.0],[67.7,24.1],[67.6,24.1]]],[[[117.7,38.5],[117.7,38.6],[117.6,38.6],[117.6,38.8],[116.9,38.8],[116.9,38.7],[115.8,38.7],[115.8,37.8],[115.7,37.8],[115.7,37.5],[115.6,37.5],[115.6,37.2],[115.5,37.2],[115.5,37.0],[115.4,37.0],[115.4,36.8],[115.3,36.8],[115.3,36.5],[115.2,36.5],[115.2,36.0],[115.3,36.0],[115.3,35.8],[115.4,35.8],[115.4,35.7],[115.5,35.7],[115.5,35.6],[115.6,35.6],[115.6,35.4],[115.8,35.4],[115.8,35.5],[116.4,35.5],[116.4,35.4],[116.5,35.4],[116.5,35.3],[116.6,35.3],[116.6,35.2],[117.4,35.2],[117.4,35.3],[118.0,35.3],[118.0,35.5],[118.1,35.5],[118.1,35.6],[118.2,35.6],[118.2,35.8],[118.3,35.8],[118.3,36.0],[118.4,36.0],[118.4,36.1],[118.6,36.1],[118.6,36.2],[119.5,36.2],[119.5,36.1],[119.6,36.1],[119.6,35.9],[119.7,35.9],[119.7,35.7],[120.0,35.7],[120.0,35.8],[120.1,35.8],[120.1,35.9],[120.2,35.9],[120.2,36.0],[120.3,36.0],[120.3,36.1],[120.6,36.1],[120.6,36.2],[120.7,36.2],[120.7,36.4],[120.8,36.4],[120.8,36.5],[121.0,36.5],[121.0,36.6],[121.1,36.6],[121.1,36.7],[121.3,36.7],[121.3,36.8],[121.7,36.8],[121.7,36.9],[122.5,36.9],[122.5,37.0],[122.6,37.0],[122.6,37.4],[122.5,37.4],[122.5,37.5],[122.3,37.5],[122.3,37.6],[121.9,37.6],[121.9,37.5],[121.6,37.5],[121.6,37.6],[121.4,37.6],[121.4,37.7],[121.2,37.7],[121.2,37.8],[121.0,37.8],[121.0,37.9],[120.9,37.9],[120.9,38.0],[120.7,38.0],[120.7,37.9],[120.5,37.9],[120.5,37.8],[120.3,37.8],[120.3,37.7],[120.2,37.7],[120.2,37.6],[120.1,37.6],[120.1,37.5],[119.9,37.5],[119.9,37.4],[119.8,37.4],[119.8,37.3],[119.7,37.3],[119.7,37.2],[119.3,37.2],[119.3,37.3],[119.1,37.3],[119.1,37.4],[119.0,37.4],[119.0,38.2],[118.9,38.2],[118.9,38.3],[118.7,38.3],[118.7,38.2],[118.0,38.2],[118.0,38.3],[117.9,38.3],[117.9,38.4],[117.8,38.4],[117.8,38.5],[117.7,38.5]]]]},"properties":{"start_year":-322,"end_year":-311,"source_color":"#ff00ff","polity_id":null,"polity_assignment":"unverified","geometry_origin":"raster_color_trace_stitched","pixel_size_degrees":0.1,"sources":[{"feature_id":"51:-322:#ff00ff","tile_id":"51","start_year":-322,"end_year":-311,"source_image":"data/raw/toolbay/t/51/-322.png","source_url":"https://www.toolbay.cc/history-map/t/51/-322.png"},{"feature_id":"61:-330:#ff00ff","tile_id":"61","start_year":-330,"end_year":-310,"source_image":"data/raw/toolbay/t/61/-330.png","source_url":"https://www.toolbay.cc/history-map/t/61/-330.png"}]}},{"type":"Feature","id":"merged:-322:#ff9900","bbox":[79.5,6.0,87.0,23.2],"geometry":{"type":"MultiPolygon","coordinates":[[[[80.4,9.8],[80.3,9.8],[80.3,9.9],[80.0,9.9],[80.0,9.5],[80.1,9.5],[80.1,9.2],[80.0,9.2],[80.0,9.1],[79.9,9.1],[79.9,8.5],[79.8,8.5],[79.8,8.4],[79.7,8.4],[79.7,7.9],[79.8,7.9],[79.8,6.9],[79.9,6.9],[79.9,6.7],[80.0,6.7],[80.0,6.3],[80.1,6.3],[80.1,6.1],[80.2,6.1],[80.2,6.0],[80.8,6.0],[80.8,6.1],[81.1,6.1],[81.1,6.2],[81.4,6.2],[81.4,6.3],[81.5,6.3],[81.5,6.4],[81.6,6.4],[81.6,6.5],[81.7,6.5],[81.7,6.6],[81.8,6.6],[81.8,6.8],[81.9,6.8],[81.9,7.2],[81.8,7.2],[81.8,7.8],[81.7,7.8],[81.7,7.9],[81.6,7.9],[81.6,8.1],[81.5,8.1],[81.5,8.3],[81.4,8.3],[81.4,8.6],[81.3,8.6],[81.3,8.7],[81.2,8.7],[81.2,8.9],[81.1,8.9],[81.1,9.0],[81.0,9.0],[81.0,9.2],[80.9,9.2],[80.9,9.4],[80.8,9.4],[80.8,9.5],[80.7,9.5],[80.7,9.6],[80.6,9.6],[80.6,9.7],[80.4,9.7],[80.4,9.8]]],[[[81.2,23.1],[80.9,23.1],[80.9,23.2],[80.6,23.2],[80.6,23.0],[80.5,23.0],[80.5,22.8],[80.4,22.8],[80.4,22.4],[80.3,22.4],[80.3,22.0],[80.2,22.0],[80.2,21.7],[80.1,21.7],[80.1,21.3],[80.0,21.3],[80.0,20.4],[79.9,20.4],[79.9,20.2],[79.8,20.2],[79.8,20.1],[79.7,20.1],[79.7,19.7],[79.6,19.7],[79.6,19.5],[79.5,19.5],[79.5,18.5],[79.6,18.5],[79.6,18.3],[79.7,18.3],[79.7,17.9],[80.1,17.9],[80.1,17.8],[80.3,17.8],[80.3,17.7],[80.6,17.7],[80.6,17.6],[80.8,17.6],[80.8,17.5],[80.9,17.5],[80.9,17.4],[81.0,17.4],[81.0,17.3],[81.1,17.3],[81.1,17.1],[81.2,17.1],[81.2,17.0],[81.3,17.0],[81.3,16.9],[81.4,16.9],[81.4,16.7],[81.5,16.7],[81.5,16.6],[81.6,16.6],[81.6,16.4],[81.9,16.4],[81.9,16.5],[82.2,16.5],[82.2,16.6],[82.3,16.6],[82.3,16.7],[82.4,16.7],[82.4,17.2],[82.5,17.2],[82.5,17.3],[82.7,17.3],[82.7,17.4],[82.8,17.4],[82.8,17.5],[83.1,17.5],[83.1,17.6],[83.2,17.6],[83.2,17.7],[83.3,17.7],[83.3,17.8],[83.4,17.8],[83.4,17.9],[83.5,17.9],[83.5,18.0],[83.6,18.0],[83.6,18.1],[83.8,18.1],[83.8,18.2],[83.9,18.2],[83.9,18.3],[84.1,18.3],[84.1,18.4],[84.2,18.4],[84.2,18.5],[84.3,18.5],[84.3,18.6],[84.4,18.6],[84.4,18.7],[84.5,18.7],[84.5,18.8],[84.6,18.8],[84.6,18.9],[84.7,18.9],[84.7,19.1],[84.8,19.1],[84.8,19.2],[84.9,19.2],[84.9,19.3],[85.0,19.3],[85.0,19.4],[85.1,19.4],[85.1,19.5],[85.2,19.5],[85.2,19.6],[85.4,19.6],[85.4,19.7],[85.6,19.7],[85.6,19.8],[85.9,19.8],[85.9,19.9],[86.3,19.9],[86.3,20.0],[86.4,20.0],[86.4,20.1],[86.5,20.1],[86.5,20.2],[86.6,20.2],[86.6,20.3],[86.8,20.3],[86.8,20.4],[86.9,20.4],[86.9,20.6],[87.0,20.6],[87.0,20.7],[86.6,20.7],[86.6,20.8],[86.4,20.8],[86.4,20.9],[86.3,20.9],[86.3,21.0],[86.2,21.0],[86.2,21.1],[86.1,21.1],[86.1,21.2],[85.9,21.2],[85.9,21.3],[85.8,21.3],[85.8,21.4],[85.6,21.4],[85.6,21.5],[85.5,21.5],[85.5,21.6],[85.4,21.6],[85.4,21.7],[85.3,21.7],[85.3,21.8],[84.9,21.8],[84.9,21.9],[84.1,21.9],[84.1,22.0],[83.9,22.0],[83.9,22.1],[83.1,22.1],[83.1,22.2],[82.9,22.2],[82.9,22.3],[82.8,22.3],[82.8,22.4],[82.6,22.4],[82.6,22.5],[82.2,22.5],[82.2,22.6],[81.9,22.6],[81.9,22.7],[81.8,22.7],[81.8,22.9],[81.5,22.9],[81.5,23.0],[81.2,23.0],[81.2,23.1]]]]},"properties":{"start_year":-322,"end_year":-311,"source_color":"#ff9900","polity_id":null,"polity_assignment":"unverified","geometry_origin":"raster_color_trace_stitched","pixel_size_degrees":0.1,"sources":[{"feature_id":"51:-322:#ff9900","tile_id":"51","start_year":-322,"end_year":-311,"source_image":"data/raw/toolbay/t/51/-322.png","source_url":"https://www.toolbay.cc/history-map/t/51/-322.png"}]}},{"type":"Feature","id":"merged:-322:#ff9999","bbox":[102.9,32.6,111.0,36.6],"geometry":{"type":"Polygon","coordinates":[[[109.0,36.6],[108.8,36.6],[108.8,36.5],[108.4,36.5],[108.4,36.4],[108.1,36.4],[108.1,36.3],[107.9,36.3],[107.9,36.2],[107.6,36.2],[107.6,36.1],[107.2,36.1],[107.2,36.0],[106.5,36.0],[106.5,35.9],[105.0,35.9],[105.0,35.8],[104.1,35.8],[104.1,35.7],[103.4,35.7],[103.4,35.6],[103.1,35.6],[103.1,35.5],[102.9,35.5],[102.9,35.2],[103.1,35.2],[103.1,35.1],[103.3,35.1],[103.3,35.0],[103.5,35.0],[103.5,34.9],[103.9,34.9],[103.9,34.8],[104.4,34.8],[104.4,34.7],[105.0,34.7],[105.0,34.6],[105.5,34.6],[105.5,34.5],[105.7,34.5],[105.7,34.3],[105.8,34.3],[105.8,34.1],[105.9,34.1],[105.9,34.0],[106.0,34.0],[106.0,33.8],[106.1,33.8],[106.1,32.9],[106.2,32.9],[106.2,32.8],[106.6,32.8],[106.6,32.9],[106.7,32.9],[106.7,33.0],[107.6,33.0],[107.6,32.9],[108.0,32.9],[108.0,32.8],[109.1,32.8],[109.1,32.7],[109.5,32.7],[109.5,32.6],[111.0,32.6],[111.0,32.7],[110.8,32.7],[110.8,32.8],[110.5,32.8],[110.5,32.9],[110.3,32.9],[110.3,33.0],[110.2,33.0],[110.2,33.1],[110.1,33.1],[110.1,33.2],[110.0,33.2],[110.0,33.3],[109.9,33.3],[109.9,33.4],[109.8,33.4],[109.8,33.8],[109.9,33.8],[109.9,34.0],[110.0,34.0],[110.0,34.2],[110.1,34.2],[110.1,34.4],[110.2,34.4],[110.2,35.5],[110.1,35.5],[110.1,35.7],[110.0,35.7],[110.0,35.8],[109.9,35.8],[109.9,35.9],[109.8,35.9],[109.8,36.0],[109.6,36.0],[109.6,36.1],[109.5,36.1],[109.5,36.2],[109.4,36.2],[109.4,36.3],[109.3,36.3],[109.3,36.4],[109.1,36.4],[109.1,36.5],[109.0,36.5],[109.0,36.6]]]},"properties":{"start_year":-322,"end_year":-311,"source_color":"#ff9999","polity_id":null,"polity_assignment":"unverified","geometry_origin":"raster_color_trace_stitched","pixel_size_degrees":0.1,"sources":[{"feature_id":"61:-330:#ff9999","tile_id":"61","start_year":-330,"end_year":-310,"source_image":"data/raw/toolbay/t/61/-330.png","source_url":"https://www.toolbay.cc/history-map/t/61/-330.png"}]}},{"type":"Feature","id":"merged:-322:#ffff00","bbox":[76.9,13.9,122.4,41.3],"geometry":{"type":"MultiPolygon","coordinates":[[[[78.3,18.1],[78.3,18.2],[77.7,18.2],[77.7,18.1],[77.6,18.1],[77.6,17.9],[77.5,17.9],[77.5,17.6],[77.4,17.6],[77.4,17.3],[77.3,17.3],[77.3,17.1],[77.2,17.1],[77.2,17.0],[77.1,17.0],[77.1,16.6],[77.0,16.6],[77.0,16.3],[76.9,16.3],[76.9,14.7],[77.0,14.7],[77.0,14.5],[77.1,14.5],[77.1,14.4],[77.3,14.4],[77.3,14.3],[78.0,14.3],[78.0,14.2],[78.5,14.2],[78.5,14.1],[79.4,14.1],[79.4,14.0],[79.6,14.0],[79.6,13.9],[80.3,13.9],[80.3,14.0],[80.2,14.0],[80.2,14.9],[80.1,14.9],[80.1,15.4],[80.2,15.4],[80.2,15.5],[80.3,15.5],[80.3,15.7],[80.4,15.7],[80.4,15.8],[80.5,15.8],[80.5,15.9],[80.7,15.9],[80.7,15.8],[81.0,15.8],[81.0,15.9],[81.1,15.9],[81.1,16.0],[81.2,16.0],[81.2,16.2],[81.3,16.2],[81.3,16.3],[81.4,16.3],[81.4,16.4],[81.6,16.4],[81.6,16.6],[81.5,16.6],[81.5,16.7],[81.4,16.7],[81.4,16.9],[81.3,16.9],[81.3,17.0],[81.2,17.0],[81.2,17.1],[81.1,17.1],[81.1,17.3],[81.0,17.3],[81.0,17.4],[80.9,17.4],[80.9,17.5],[80.8,17.5],[80.8,17.6],[80.6,17.6],[80.6,17.7],[80.3,17.7],[80.3,17.8],[80.1,17.8],[80.1,17.9],[79.6,17.9],[79.6,18.0],[78.6,18.0],[78.6,18.1],[78.3,18.1]]],[[[119.6,35.9],[119.6,36.1],[119.5,36.1],[119.5,36.2],[118.6,36.2],[118.6,36.1],[118.4,36.1],[118.4,36.0],[118.3,36.0],[118.3,35.8],[118.2,35.8],[118.2,35.6],[118.1,35.6],[118.1,35.5],[118.0,35.5],[118.0,34.8],[118.1,34.8],[118.1,34.5],[118.2,34.5],[118.2,34.1],[118.1,34.1],[118.1,34.0],[118.0,34.0],[118.0,33.7],[117.9,33.7],[117.9,33.6],[117.6,33.6],[117.6,33.5],[117.3,33.5],[117.3,33.4],[117.2,33.4],[117.2,33.3],[117.0,33.3],[117.0,33.2],[116.7,33.2],[116.7,33.1],[116.6,33.1],[116.6,33.0],[116.3,33.0],[116.3,32.9],[116.0,32.9],[116.0,32.8],[115.0,32.8],[115.0,32.9],[114.9,32.9],[114.9,33.0],[114.7,33.0],[114.7,33.1],[114.5,33.1],[114.5,33.2],[114.1,33.2],[114.1,33.1],[113.3,33.1],[113.3,32.9],[113.2,32.9],[113.2,32.3],[113.1,32.3],[113.1,32.0],[113.0,32.0],[113.0,31.9],[112.8,31.9],[112.8,31.8],[112.0,31.8],[112.0,31.9],[111.8,31.9],[111.8,32.0],[111.7,32.0],[111.7,32.1],[111.6,32.1],[111.6,32.2],[111.5,32.2],[111.5,32.3],[111.4,32.3],[111.4,32.4],[111.3,32.4],[111.3,32.5],[111.2,32.5],[111.2,32.6],[109.5,32.6],[109.5,32.7],[109.1,32.7],[109.1,32.8],[108.0,32.8],[108.0,32.9],[107.6,32.9],[107.6,33.0],[107.5,33.0],[107.5,32.8],[107.6,32.8],[107.6,31.4],[107.5,31.4],[107.5,31.1],[107.4,31.1],[107.4,30.5],[107.3,30.5],[107.3,30.3],[107.1,30.3],[107.1,30.1],[107.0,30.1],[107.0,29.9],[106.9,29.9],[106.9,29.7],[106.8,29.7],[106.8,29.5],[106.7,29.5],[106.7,29.0],[106.9,29.0],[106.9,28.9],[107.0,28.9],[107.0,28.8],[107.1,28.8],[107.1,28.7],[107.2,28.7],[107.2,28.6],[107.3,28.6],[107.3,28.4],[107.4,28.4],[107.4,28.3],[107.5,28.3],[107.5,28.2],[107.6,28.2],[107.6,28.0],[107.7,28.0],[107.7,27.8],[107.8,27.8],[107.8,27.6],[107.9,27.6],[107.9,27.4],[108.0,27.4],[108.0,27.3],[108.1,27.3],[108.1,27.2],[108.2,27.2],[108.2,27.1],[108.4,27.1],[108.4,27.0],[108.6,27.0],[108.6,26.9],[108.8,26.9],[108.8,26.8],[109.1,26.8],[109.1,26.7],[109.3,26.7],[109.3,26.6],[109.6,26.6],[109.6,26.5],[109.9,26.5],[109.9,26.4],[110.1,26.4],[110.1,26.3],[110.2,26.3],[110.2,26.2],[110.6,26.2],[110.6,26.1],[110.8,26.1],[110.8,26.0],[111.0,26.0],[111.0,25.9],[111.2,25.9],[111.2,25.8],[111.4,25.8],[111.4,25.7],[111.9,25.7],[111.9,25.6],[113.0,25.6],[113.0,25.7],[114.3,25.7],[114.3,25.8],[114.9,25.8],[114.9,25.9],[115.0,25.9],[115.0,26.0],[115.4,26.0],[115.4,26.1],[115.7,26.1],[115.7,26.2],[116.0,26.2],[116.0,26.3],[116.3,26.3],[116.3,26.4],[116.4,26.4],[116.4,26.5],[116.6,26.5],[116.6,26.6],[116.9,26.6],[116.9,26.7],[117.3,26.7],[117.3,26.8],[117.8,26.8],[117.8,26.9],[118.1,26.9],[118.1,27.0],[118.3,27.0],[118.3,27.1],[118.4,27.1],[118.4,27.2],[118.5,27.2],[118.5,27.3],[118.6,27.3],[118.6,27.4],[118.7,27.4],[118.7,27.5],[118.8,27.5],[118.8,27.7],[118.9,27.7],[118.9,27.8],[120.0,27.8],[120.0,27.7],[120.3,27.7],[120.3,27.6],[120.7,27.6],[120.7,27.8],[120.8,27.8],[120.8,27.9],[121.2,27.9],[121.2,28.0],[121.3,28.0],[121.3,28.2],[121.4,28.2],[121.4,28.3],[121.6,28.3],[121.6,28.4],[121.7,28.4],[121.7,28.7],[121.8,28.7],[121.8,29.0],[121.9,29.0],[121.9,29.2],[122.0,29.2],[122.0,29.6],[122.1,29.6],[122.1,29.7],[122.3,29.7],[122.3,29.8],[122.4,29.8],[122.4,30.2],[122.3,30.2],[122.3,30.3],[121.9,30.3],[121.9,30.2],[121.5,30.2],[121.5,30.3],[121.4,30.3],[121.4,30.4],[121.2,30.4],[121.2,30.5],[121.1,30.5],[121.1,30.6],[121.2,30.6],[121.2,30.7],[121.4,30.7],[121.4,30.8],[121.5,30.8],[121.5,30.9],[121.8,30.9],[121.8,31.0],[121.9,31.0],[121.9,31.2],[121.8,31.2],[121.8,31.5],[121.9,31.5],[121.9,31.7],[122.0,31.7],[122.0,31.9],[121.9,31.9],[121.9,32.0],[121.8,32.0],[121.8,32.1],[121.7,32.1],[121.7,32.2],[121.5,32.2],[121.5,32.3],[121.4,32.3],[121.4,32.5],[121.3,32.5],[121.3,32.6],[121.1,32.6],[121.1,32.7],[121.0,32.7],[121.0,33.0],[120.9,33.0],[120.9,33.1],[120.8,33.1],[120.8,33.3],[120.7,33.3],[120.7,33.5],[120.6,33.5],[120.6,33.8],[120.5,33.8],[120.5,34.0],[120.4,34.0],[120.4,34.3],[120.3,34.3],[120.3,34.4],[120.2,34.4],[120.2,34.5],[119.9,34.5],[119.9,34.6],[119.7,34.6],[119.7,34.7],[119.6,34.7],[119.6,34.8],[119.5,34.8],[119.5,34.9],[119.4,34.9],[119.4,35.2],[119.5,35.2],[119.5,35.4],[119.6,35.4],[119.6,35.6],[119.7,35.6],[119.7,35.9],[119.6,35.9]],[[116.0,29.4],[116.2,29.4],[116.2,29.2],[116.0,29.2],[116.0,29.4]],[[116.6,29.1],[116.5,29.1],[116.5,29.0],[116.4,29.0],[116.4,29.2],[116.6,29.2],[116.6,29.1]]],[[[115.3,39.9],[115.3,40.0],[115.6,40.0],[115.6,41.3],[115.1,41.3],[115.1,41.2],[114.6,41.2],[114.6,41.1],[114.2,41.1],[114.2,41.0],[114.1,41.0],[114.1,40.9],[114.0,40.9],[114.0,40.8],[113.9,40.8],[113.9,40.7],[113.8,40.7],[113.8,40.6],[113.7,40.6],[113.7,40.5],[112.9,40.5],[112.9,40.4],[111.1,40.4],[111.1,40.3],[110.8,40.3],[110.8,40.2],[110.7,40.2],[110.7,40.1],[110.6,40.1],[110.6,40.0],[110.4,40.0],[110.4,39.9],[110.1,39.9],[110.1,39.2],[110.2,39.2],[110.2,37.9],[110.3,37.9],[110.3,37.6],[110.4,37.6],[110.4,37.5],[110.6,37.5],[110.6,37.4],[110.7,37.4],[110.7,37.3],[110.8,37.3],[110.8,37.2],[110.9,37.2],[110.9,37.1],[111.3,37.1],[111.3,37.0],[111.4,37.0],[111.4,36.9],[112.0,36.9],[112.0,36.8],[112.3,36.8],[112.3,36.7],[112.7,36.7],[112.7,36.6],[113.1,36.6],[113.1,36.5],[114.0,36.5],[114.0,36.6],[114.3,36.6],[114.3,36.7],[114.4,36.7],[114.4,36.8],[114.7,36.8],[114.7,36.9],[115.0,36.9],[115.0,37.0],[115.2,37.0],[115.2,37.1],[115.4,37.1],[115.4,37.2],[115.6,37.2],[115.6,37.5],[115.7,37.5],[115.7,37.8],[115.8,37.8],[115.8,39.3],[115.7,39.3],[115.7,39.8],[115.6,39.8],[115.6,39.2],[115.5,39.2],[115.5,38.9],[115.4,38.9],[115.4,38.2],[115.3,38.2],[115.3,37.6],[115.2,37.6],[115.2,37.5],[115.1,37.5],[115.1,37.4],[114.9,37.4],[114.9,37.3],[114.0,37.3],[114.0,37.4],[113.9,37.4],[113.9,37.5],[113.8,37.5],[113.8,37.9],[113.7,37.9],[113.7,38.2],[113.8,38.2],[113.8,38.8],[113.9,38.8],[113.9,39.2],[114.0,39.2],[114.0,39.5],[114.2,39.5],[114.2,39.6],[114.7,39.6],[114.7,39.7],[115.0,39.7],[115.0,39.8],[115.2,39.8],[115.2,39.9],[115.3,39.9]]]]},"properties":{"start_year":-322,"end_year":-311,"source_color":"#ffff00","polity_id":null,"polity_assignment":"unverified","geometry_origin":"raster_color_trace_stitched","pixel_size_degrees":0.1,"sources":[{"feature_id":"51:-322:#ffff00","tile_id":"51","start_year":-322,"end_year":-311,"source_image":"data/raw/toolbay/t/51/-322.png","source_url":"https://www.toolbay.cc/history-map/t/51/-322.png"},{"feature_id":"61:-330:#ffff00","tile_id":"61","start_year":-330,"end_year":-310,"source_image":"data/raw/toolbay/t/61/-330.png","source_url":"https://www.toolbay.cc/history-map/t/61/-330.png"}]}}]}
