{"type":"FeatureCollection","features":[{"type":"Feature","id":"merged:-376:#00ff00","bbox":[108.0,33.1,126.2,42.2],"geometry":{"type":"MultiPolygon","coordinates":[[[[109.2,40.7],[109.0,40.7],[109.0,40.8],[108.1,40.8],[108.1,40.7],[108.0,40.7],[108.0,40.5],[108.1,40.5],[108.1,39.3],[108.2,39.3],[108.2,38.9],[108.3,38.9],[108.3,38.0],[108.4,38.0],[108.4,37.4],[108.5,37.4],[108.5,37.1],[108.6,37.1],[108.6,36.9],[108.7,36.9],[108.7,36.7],[108.8,36.7],[108.8,36.6],[109.0,36.6],[109.0,36.5],[109.1,36.5],[109.1,36.4],[109.3,36.4],[109.3,36.3],[109.4,36.3],[109.4,36.2],[109.5,36.2],[109.5,36.1],[109.6,36.1],[109.6,36.0],[109.8,36.0],[109.8,35.9],[109.9,35.9],[109.9,35.8],[110.0,35.8],[110.0,35.7],[110.1,35.7],[110.1,35.5],[110.2,35.5],[110.2,34.4],[110.1,34.4],[110.1,34.2],[110.7,34.2],[110.7,34.3],[110.9,34.3],[110.9,34.4],[111.0,34.4],[111.0,34.5],[111.1,34.5],[111.1,34.6],[111.0,34.6],[111.0,35.5],[111.1,35.5],[111.1,35.6],[111.5,35.6],[111.5,35.7],[111.6,35.7],[111.6,35.8],[112.0,35.8],[112.0,35.7],[112.1,35.7],[112.1,35.6],[112.2,35.6],[112.2,35.5],[112.3,35.5],[112.3,35.4],[112.4,35.4],[112.4,35.3],[112.5,35.3],[112.5,35.2],[112.6,35.2],[112.6,35.1],[112.8,35.1],[112.8,35.0],[112.9,35.0],[112.9,34.7],[112.8,34.7],[112.8,34.1],[112.9,34.1],[112.9,33.8],[113.0,33.8],[113.0,33.6],[113.1,33.6],[113.1,33.3],[113.2,33.3],[113.2,33.1],[114.1,33.1],[114.1,33.3],[114.2,33.3],[114.2,33.4],[114.3,33.4],[114.3,33.6],[114.4,33.6],[114.4,34.1],[114.5,34.1],[114.5,34.3],[114.6,34.3],[114.6,34.6],[114.7,34.6],[114.7,34.8],[114.8,34.8],[114.8,34.9],[115.0,34.9],[115.0,35.0],[115.2,35.0],[115.2,35.1],[115.3,35.1],[115.3,35.2],[115.4,35.2],[115.4,35.3],[115.6,35.3],[115.6,35.6],[115.5,35.6],[115.5,35.7],[115.4,35.7],[115.4,35.8],[115.3,35.8],[115.3,36.0],[115.2,36.0],[115.2,36.5],[115.3,36.5],[115.3,36.8],[115.4,36.8],[115.4,37.0],[115.5,37.0],[115.5,37.2],[115.4,37.2],[115.4,37.1],[115.2,37.1],[115.2,37.0],[115.0,37.0],[115.0,36.9],[114.7,36.9],[114.7,36.8],[114.4,36.8],[114.4,36.7],[114.3,36.7],[114.3,36.6],[114.0,36.6],[114.0,36.5],[113.1,36.5],[113.1,36.6],[112.7,36.6],[112.7,36.7],[112.3,36.7],[112.3,36.8],[112.0,36.8],[112.0,36.9],[111.4,36.9],[111.4,37.0],[111.3,37.0],[111.3,37.1],[110.9,37.1],[110.9,37.2],[110.8,37.2],[110.8,37.3],[110.7,37.3],[110.7,37.4],[110.6,37.4],[110.6,37.5],[110.4,37.5],[110.4,37.6],[110.3,37.6],[110.3,37.9],[110.2,37.9],[110.2,39.2],[110.1,39.2],[110.1,40.0],[109.8,40.0],[109.8,40.1],[109.7,40.1],[109.7,40.2],[109.6,40.2],[109.6,40.3],[109.5,40.3],[109.5,40.4],[109.4,40.4],[109.4,40.5],[109.3,40.5],[109.3,40.6],[109.2,40.6],[109.2,40.7]]],[[[125.5,42.1],[125.0,42.1],[125.0,42.2],[124.3,42.2],[124.3,42.1],[123.6,42.1],[123.6,42.0],[123.3,42.0],[123.3,41.9],[123.2,41.9],[123.2,41.8],[122.9,41.8],[122.9,41.7],[122.7,41.7],[122.7,41.6],[122.6,41.6],[122.6,41.5],[122.3,41.5],[122.3,41.4],[122.0,41.4],[122.0,41.3],[121.7,41.3],[121.7,41.2],[121.0,41.2],[121.0,41.3],[120.4,41.3],[120.4,41.4],[120.2,41.4],[120.2,41.5],[120.0,41.5],[120.0,41.6],[119.8,41.6],[119.8,41.7],[119.4,41.7],[119.4,41.8],[119.0,41.8],[119.0,41.9],[118.2,41.9],[118.2,42.0],[117.2,42.0],[117.2,41.9],[116.9,41.9],[116.9,41.8],[116.6,41.8],[116.6,41.7],[116.5,41.7],[116.5,41.6],[116.3,41.6],[116.3,41.5],[116.0,41.5],[116.0,41.4],[115.7,41.4],[115.7,41.3],[115.6,41.3],[115.6,39.8],[115.7,39.8],[115.7,39.3],[115.8,39.3],[115.8,38.7],[116.9,38.7],[116.9,38.8],[117.6,38.8],[117.6,39.0],[117.7,39.0],[117.7,39.1],[117.9,39.1],[117.9,39.2],[118.2,39.2],[118.2,39.1],[118.9,39.1],[118.9,39.2],[119.1,39.2],[119.1,39.3],[119.2,39.3],[119.2,39.5],[119.3,39.5],[119.3,39.7],[119.4,39.7],[119.4,39.8],[119.6,39.8],[119.6,39.9],[119.7,39.9],[119.7,40.0],[120.0,40.0],[120.0,40.1],[120.2,40.1],[120.2,40.2],[120.5,40.2],[120.5,40.3],[120.6,40.3],[120.6,40.5],[120.7,40.5],[120.7,40.6],[120.9,40.6],[120.9,40.7],[121.0,40.7],[121.0,40.8],[121.1,40.8],[121.1,40.9],[121.5,40.9],[121.5,41.0],[121.8,41.0],[121.8,40.9],[121.9,40.9],[121.9,40.8],[122.1,40.8],[122.1,40.7],[122.2,40.7],[122.2,40.4],[122.1,40.4],[122.1,40.3],[122.0,40.3],[122.0,40.2],[121.9,40.2],[121.9,40.1],[121.8,40.1],[121.8,40.0],[121.6,40.0],[121.6,39.9],[121.5,39.9],[121.5,39.8],[121.4,39.8],[121.4,39.7],[121.3,39.7],[121.3,39.5],[121.4,39.5],[121.4,39.3],[121.5,39.3],[121.5,39.2],[121.4,39.2],[121.4,39.1],[121.3,39.1],[121.3,38.8],[121.5,38.8],[121.5,38.9],[121.9,38.9],[121.9,39.0],[122.0,39.0],[122.0,39.1],[122.1,39.1],[122.1,39.2],[122.2,39.2],[122.2,39.3],[122.5,39.3],[122.5,39.4],[122.6,39.4],[122.6,39.5],[122.7,39.5],[122.7,39.6],[122.9,39.6],[122.9,39.7],[123.3,39.7],[123.3,39.8],[123.7,39.8],[123.7,39.9],[124.2,39.9],[124.2,39.8],[124.5,39.8],[124.5,39.7],[124.7,39.7],[124.7,39.6],[125.3,39.6],[125.3,39.7],[125.4,39.7],[125.4,39.8],[125.5,39.8],[125.5,40.0],[125.6,40.0],[125.6,40.1],[125.7,40.1],[125.7,40.3],[125.8,40.3],[125.8,40.5],[125.9,40.5],[125.9,40.6],[126.0,40.6],[126.0,40.8],[126.1,40.8],[126.1,41.0],[126.2,41.0],[126.2,41.7],[126.1,41.7],[126.1,41.9],[125.8,41.9],[125.8,42.0],[125.5,42.0],[125.5,42.1]]]]},"properties":{"start_year":-376,"end_year":-338,"source_color":"#00ff00","polity_id":null,"polity_assignment":"unverified","geometry_origin":"raster_color_trace_stitched","pixel_size_degrees":0.1,"sources":[{"feature_id":"61:-376:#00ff00","tile_id":"61","start_year":-376,"end_year":-334,"source_image":"data/raw/toolbay/t/61/-376.png","source_url":"https://www.toolbay.cc/history-map/t/61/-376.png"}]}},{"type":"Feature","id":"merged:-376:#00ffff","bbox":[60.0,25.1,69.3,45.0],"geometry":{"type":"Polygon","coordinates":[[[60.1,43.8],[60.0,43.8],[60.0,25.4],[60.7,25.4],[60.7,25.3],[61.1,25.3],[61.1,25.2],[61.3,25.2],[61.3,25.1],[62.0,25.1],[62.0,25.2],[62.5,25.2],[62.5,25.3],[63.6,25.3],[63.6,25.4],[64.2,25.4],[64.2,25.3],[64.8,25.3],[64.8,25.4],[65.0,25.4],[65.0,25.3],[65.2,25.3],[65.2,25.4],[65.6,25.4],[65.6,25.6],[65.5,25.6],[65.5,25.9],[65.4,25.9],[65.4,26.4],[65.3,26.4],[65.3,26.9],[65.4,26.9],[65.4,27.3],[65.5,27.3],[65.5,27.8],[65.6,27.8],[65.6,28.2],[65.7,28.2],[65.7,28.5],[65.8,28.5],[65.8,29.0],[65.9,29.0],[65.9,29.2],[66.0,29.2],[66.0,29.4],[66.1,29.4],[66.1,29.6],[66.3,29.6],[66.3,29.7],[66.4,29.7],[66.4,30.1],[66.5,30.1],[66.5,30.3],[66.6,30.3],[66.6,30.5],[66.7,30.5],[66.7,30.7],[66.8,30.7],[66.8,30.9],[66.9,30.9],[66.9,31.1],[67.0,31.1],[67.0,31.2],[67.1,31.2],[67.1,32.9],[67.2,32.9],[67.2,33.2],[67.3,33.2],[67.3,34.2],[67.4,34.2],[67.4,34.3],[67.5,34.3],[67.5,34.5],[67.7,34.5],[67.7,34.7],[67.8,34.7],[67.8,34.8],[67.9,34.8],[67.9,34.9],[68.0,34.9],[68.0,35.1],[68.1,35.1],[68.1,35.2],[68.2,35.2],[68.2,35.3],[68.3,35.3],[68.3,35.4],[68.4,35.4],[68.4,35.5],[68.5,35.5],[68.5,35.7],[68.6,35.7],[68.6,35.9],[68.7,35.9],[68.7,36.2],[68.8,36.2],[68.8,36.4],[68.9,36.4],[68.9,36.6],[69.0,36.6],[69.0,37.0],[69.1,37.0],[69.1,37.2],[69.2,37.2],[69.2,37.8],[69.3,37.8],[69.3,38.4],[69.2,38.4],[69.2,39.0],[69.1,39.0],[69.1,39.2],[69.0,39.2],[69.0,39.4],[68.9,39.4],[68.9,39.6],[68.8,39.6],[68.8,39.7],[68.7,39.7],[68.7,39.9],[68.6,39.9],[68.6,40.1],[68.5,40.1],[68.5,40.2],[68.4,40.2],[68.4,40.6],[68.3,40.6],[68.3,41.0],[68.2,41.0],[68.2,41.3],[68.1,41.3],[68.1,41.7],[68.0,41.7],[68.0,41.9],[67.9,41.9],[67.9,42.1],[67.8,42.1],[67.8,42.4],[67.7,42.4],[67.7,42.6],[67.6,42.6],[67.6,42.8],[67.5,42.8],[67.5,43.1],[67.4,43.1],[67.4,43.3],[67.3,43.3],[67.3,43.6],[67.2,43.6],[67.2,43.8],[67.1,43.8],[67.1,44.1],[67.0,44.1],[67.0,44.3],[66.9,44.3],[66.9,44.4],[66.8,44.4],[66.8,44.7],[66.6,44.7],[66.6,44.8],[66.4,44.8],[66.4,44.9],[66.2,44.9],[66.2,45.0],[63.8,45.0],[63.8,44.9],[63.6,44.9],[63.6,44.8],[63.4,44.8],[63.4,44.7],[63.0,44.7],[63.0,44.6],[62.7,44.6],[62.7,44.5],[62.4,44.5],[62.4,44.4],[62.1,44.4],[62.1,44.3],[60.8,44.3],[60.8,44.2],[60.6,44.2],[60.6,44.1],[60.3,44.1],[60.3,44.0],[60.2,44.0],[60.2,43.9],[60.1,43.9],[60.1,43.8]]]},"properties":{"start_year":-376,"end_year":-338,"source_color":"#00ffff","polity_id":null,"polity_assignment":"unverified","geometry_origin":"raster_color_trace_stitched","pixel_size_degrees":0.1,"sources":[{"feature_id":"51:-525:#00ffff","tile_id":"51","start_year":-525,"end_year":-338,"source_image":"data/raw/toolbay/t/51/-525.png","source_url":"https://www.toolbay.cc/history-map/t/51/-525.png"}]}},{"type":"Feature","id":"merged:-376:#6666ff","bbox":[114.1,32.8,118.2,35.5],"geometry":{"type":"Polygon","coordinates":[[[116.4,35.5],[115.8,35.5],[115.8,35.4],[115.6,35.4],[115.6,35.3],[115.4,35.3],[115.4,35.2],[115.3,35.2],[115.3,35.1],[115.2,35.1],[115.2,35.0],[115.0,35.0],[115.0,34.9],[114.8,34.9],[114.8,34.8],[114.7,34.8],[114.7,34.6],[114.6,34.6],[114.6,34.3],[114.5,34.3],[114.5,34.1],[114.4,34.1],[114.4,33.6],[114.3,33.6],[114.3,33.4],[114.2,33.4],[114.2,33.3],[114.1,33.3],[114.1,33.2],[114.5,33.2],[114.5,33.1],[114.7,33.1],[114.7,33.0],[114.9,33.0],[114.9,32.9],[115.0,32.9],[115.0,32.8],[116.0,32.8],[116.0,32.9],[116.3,32.9],[116.3,33.0],[116.6,33.0],[116.6,33.1],[116.7,33.1],[116.7,33.2],[117.0,33.2],[117.0,33.3],[117.2,33.3],[117.2,33.4],[117.3,33.4],[117.3,33.5],[117.6,33.5],[117.6,33.6],[117.9,33.6],[117.9,33.7],[118.0,33.7],[118.0,34.0],[118.1,34.0],[118.1,34.1],[118.2,34.1],[118.2,34.5],[118.1,34.5],[118.1,34.8],[118.0,34.8],[118.0,35.3],[117.4,35.3],[117.4,35.2],[116.6,35.2],[116.6,35.3],[116.5,35.3],[116.5,35.4],[116.4,35.4],[116.4,35.5]]]},"properties":{"start_year":-376,"end_year":-338,"source_color":"#6666ff","polity_id":null,"polity_assignment":"unverified","geometry_origin":"raster_color_trace_stitched","pixel_size_degrees":0.1,"sources":[{"feature_id":"61:-376:#6666ff","tile_id":"61","start_year":-376,"end_year":-334,"source_image":"data/raw/toolbay/t/61/-376.png","source_url":"https://www.toolbay.cc/history-map/t/61/-376.png"}]}},{"type":"Feature","id":"merged:-376:#ff0000","bbox":[109.6,27.6,122.4,40.0],"geometry":{"type":"MultiPolygon","coordinates":[[[[119.6,36.1],[119.5,36.1],[119.5,36.2],[118.6,36.2],[118.6,36.1],[118.4,36.1],[118.4,36.0],[118.3,36.0],[118.3,35.8],[118.2,35.8],[118.2,35.6],[118.1,35.6],[118.1,35.5],[118.0,35.5],[118.0,34.8],[118.1,34.8],[118.1,34.5],[118.2,34.5],[118.2,34.1],[118.1,34.1],[118.1,34.0],[118.0,34.0],[118.0,33.7],[117.9,33.7],[117.9,33.6],[117.6,33.6],[117.6,33.5],[117.3,33.5],[117.3,33.4],[117.2,33.4],[117.2,33.3],[117.0,33.3],[117.0,33.2],[116.8,33.2],[116.8,33.0],[116.9,33.0],[116.9,31.4],[117.0,31.4],[117.0,31.3],[117.1,31.3],[117.1,31.2],[117.2,31.2],[117.2,31.1],[117.4,31.1],[117.4,30.9],[117.5,30.9],[117.5,30.8],[117.7,30.8],[117.7,30.7],[117.9,30.7],[117.9,30.6],[118.0,30.6],[118.0,30.5],[118.1,30.5],[118.1,30.4],[118.3,30.4],[118.3,30.3],[118.5,30.3],[118.5,30.2],[118.6,30.2],[118.6,30.0],[118.7,30.0],[118.7,29.8],[118.8,29.8],[118.8,29.5],[118.9,29.5],[118.9,29.1],[119.0,29.1],[119.0,28.8],[118.9,28.8],[118.9,27.8],[120.0,27.8],[120.0,27.7],[120.3,27.7],[120.3,27.6],[120.7,27.6],[120.7,27.8],[120.8,27.8],[120.8,27.9],[121.2,27.9],[121.2,28.0],[121.3,28.0],[121.3,28.2],[121.4,28.2],[121.4,28.3],[121.6,28.3],[121.6,28.4],[121.7,28.4],[121.7,28.7],[121.8,28.7],[121.8,29.0],[121.9,29.0],[121.9,29.2],[122.0,29.2],[122.0,29.6],[122.1,29.6],[122.1,29.7],[122.3,29.7],[122.3,29.8],[122.4,29.8],[122.4,30.2],[122.3,30.2],[122.3,30.3],[121.9,30.3],[121.9,30.2],[121.5,30.2],[121.5,30.3],[121.4,30.3],[121.4,30.4],[121.2,30.4],[121.2,30.5],[121.1,30.5],[121.1,30.6],[121.2,30.6],[121.2,30.7],[121.4,30.7],[121.4,30.8],[121.5,30.8],[121.5,30.9],[121.8,30.9],[121.8,31.0],[121.9,31.0],[121.9,31.2],[121.8,31.2],[121.8,31.5],[121.9,31.5],[121.9,31.7],[122.0,31.7],[122.0,31.9],[121.9,31.9],[121.9,32.0],[121.8,32.0],[121.8,32.1],[121.7,32.1],[121.7,32.2],[121.5,32.2],[121.5,32.3],[121.4,32.3],[121.4,32.5],[121.3,32.5],[121.3,32.6],[121.1,32.6],[121.1,32.7],[121.0,32.7],[121.0,33.0],[120.9,33.0],[120.9,33.1],[120.8,33.1],[120.8,33.3],[120.7,33.3],[120.7,33.5],[120.6,33.5],[120.6,33.8],[120.5,33.8],[120.5,34.0],[120.4,34.0],[120.4,34.3],[120.3,34.3],[120.3,34.4],[120.2,34.4],[120.2,34.5],[119.9,34.5],[119.9,34.6],[119.7,34.6],[119.7,34.7],[119.6,34.7],[119.6,34.8],[119.5,34.8],[119.5,34.9],[119.4,34.9],[119.4,35.2],[119.5,35.2],[119.5,35.4],[119.6,35.4],[119.6,35.6],[119.7,35.6],[119.7,35.9],[119.6,35.9],[119.6,36.1]]],[[[112.2,35.6],[112.1,35.6],[112.1,35.7],[112.0,35.7],[112.0,35.8],[111.6,35.8],[111.6,35.7],[111.5,35.7],[111.5,35.6],[111.1,35.6],[111.1,35.5],[111.0,35.5],[111.0,34.6],[111.1,34.6],[111.1,34.5],[111.0,34.5],[111.0,34.4],[110.9,34.4],[110.9,34.3],[110.7,34.3],[110.7,34.2],[110.0,34.2],[110.0,34.0],[109.9,34.0],[109.9,33.8],[109.8,33.8],[109.8,33.5],[109.7,33.5],[109.7,33.2],[109.6,33.2],[109.6,32.9],[109.7,32.9],[109.7,32.8],[110.5,32.8],[110.5,32.7],[110.9,32.7],[110.9,32.6],[111.2,32.6],[111.2,32.5],[111.3,32.5],[111.3,32.4],[111.4,32.4],[111.4,32.3],[111.5,32.3],[111.5,32.2],[111.6,32.2],[111.6,32.1],[111.7,32.1],[111.7,32.0],[111.8,32.0],[111.8,31.9],[112.0,31.9],[112.0,31.8],[112.8,31.8],[112.8,31.9],[113.0,31.9],[113.0,32.0],[113.1,32.0],[113.1,32.3],[113.2,32.3],[113.2,32.9],[113.3,32.9],[113.3,33.1],[113.2,33.1],[113.2,33.3],[113.1,33.3],[113.1,33.6],[113.0,33.6],[113.0,33.8],[112.9,33.8],[112.9,34.1],[112.8,34.1],[112.8,34.7],[112.9,34.7],[112.9,35.0],[112.8,35.0],[112.8,35.1],[112.6,35.1],[112.6,35.2],[112.5,35.2],[112.5,35.3],[112.4,35.3],[112.4,35.4],[112.3,35.4],[112.3,35.5],[112.2,35.5],[112.2,35.6]]],[[[115.4,38.9],[115.5,38.9],[115.5,39.2],[115.6,39.2],[115.6,40.0],[115.3,40.0],[115.3,39.9],[115.2,39.9],[115.2,39.8],[115.0,39.8],[115.0,39.7],[114.7,39.7],[114.7,39.6],[114.2,39.6],[114.2,39.5],[114.0,39.5],[114.0,39.2],[113.9,39.2],[113.9,38.8],[113.8,38.8],[113.8,38.2],[113.7,38.2],[113.7,37.9],[113.8,37.9],[113.8,37.5],[113.9,37.5],[113.9,37.4],[114.0,37.4],[114.0,37.3],[114.9,37.3],[114.9,37.4],[115.1,37.4],[115.1,37.5],[115.2,37.5],[115.2,37.6],[115.3,37.6],[115.3,38.2],[115.4,38.2],[115.4,38.9]]]]},"properties":{"start_year":-376,"end_year":-338,"source_color":"#ff0000","polity_id":null,"polity_assignment":"unverified","geometry_origin":"raster_color_trace_stitched","pixel_size_degrees":0.1,"sources":[{"feature_id":"61:-376:#ff0000","tile_id":"61","start_year":-376,"end_year":-334,"source_image":"data/raw/toolbay/t/61/-376.png","source_url":"https://www.toolbay.cc/history-map/t/61/-376.png"}]}},{"type":"Feature","id":"merged:-376:#ff00ff","bbox":[78.5,20.7,122.6,38.8],"geometry":{"type":"MultiPolygon","coordinates":[[[[87.5,26.2],[87.5,26.3],[87.0,26.3],[87.0,26.2],[86.7,26.2],[86.7,26.1],[86.2,26.1],[86.2,26.0],[86.0,26.0],[86.0,25.9],[85.9,25.9],[85.9,25.8],[85.8,25.8],[85.8,25.6],[85.7,25.6],[85.7,25.5],[85.5,25.5],[85.5,25.4],[85.2,25.4],[85.2,25.3],[84.0,25.3],[84.0,25.4],[83.8,25.4],[83.8,25.5],[83.4,25.5],[83.4,25.6],[83.0,25.6],[83.0,25.7],[82.9,25.7],[82.9,25.8],[82.7,25.8],[82.7,25.7],[82.6,25.7],[82.6,25.6],[82.3,25.6],[82.3,25.5],[82.2,25.5],[82.2,25.3],[82.1,25.3],[82.1,25.2],[81.9,25.2],[81.9,25.1],[81.6,25.1],[81.6,25.0],[80.5,25.0],[80.5,25.1],[80.2,25.1],[80.2,25.2],[79.2,25.2],[79.2,25.1],[79.0,25.1],[79.0,25.0],[78.5,25.0],[78.5,24.5],[78.6,24.5],[78.6,24.4],[78.7,24.4],[78.7,24.3],[78.8,24.3],[78.8,24.2],[79.0,24.2],[79.0,24.1],[79.1,24.1],[79.1,24.0],[79.3,24.0],[79.3,23.9],[79.4,23.9],[79.4,23.8],[79.6,23.8],[79.6,23.7],[79.8,23.7],[79.8,23.6],[80.0,23.6],[80.0,23.5],[80.2,23.5],[80.2,23.4],[80.4,23.4],[80.4,23.3],[80.7,23.3],[80.7,23.2],[80.9,23.2],[80.9,23.1],[81.2,23.1],[81.2,23.0],[81.5,23.0],[81.5,22.9],[81.8,22.9],[81.8,22.7],[81.9,22.7],[81.9,22.6],[82.2,22.6],[82.2,22.5],[82.6,22.5],[82.6,22.4],[82.8,22.4],[82.8,22.3],[82.9,22.3],[82.9,22.2],[83.1,22.2],[83.1,22.1],[83.9,22.1],[83.9,22.0],[84.1,22.0],[84.1,21.9],[84.9,21.9],[84.9,21.8],[85.3,21.8],[85.3,21.7],[85.4,21.7],[85.4,21.6],[85.5,21.6],[85.5,21.5],[85.6,21.5],[85.6,21.4],[85.8,21.4],[85.8,21.3],[85.9,21.3],[85.9,21.2],[86.1,21.2],[86.1,21.1],[86.2,21.1],[86.2,21.0],[86.3,21.0],[86.3,20.9],[86.4,20.9],[86.4,20.8],[86.6,20.8],[86.6,20.7],[87.0,20.7],[87.0,21.0],[86.9,21.0],[86.9,21.4],[87.0,21.4],[87.0,21.5],[87.1,21.5],[87.1,21.6],[87.5,21.6],[87.5,21.7],[87.8,21.7],[87.8,21.8],[88.1,21.8],[88.1,21.7],[88.2,21.7],[88.2,21.6],[89.0,21.6],[89.0,21.7],[89.4,21.7],[89.4,21.8],[89.7,21.8],[89.7,21.9],[89.9,21.9],[89.9,22.2],[89.7,22.2],[89.7,22.4],[89.6,22.4],[89.6,22.6],[89.5,22.6],[89.5,23.3],[89.4,23.3],[89.4,23.9],[89.5,23.9],[89.5,24.5],[89.6,24.5],[89.6,25.0],[89.5,25.0],[89.5,25.1],[89.4,25.1],[89.4,25.2],[89.2,25.2],[89.2,25.3],[89.1,25.3],[89.1,25.4],[88.9,25.4],[88.9,25.5],[88.6,25.5],[88.6,25.6],[88.4,25.6],[88.4,25.7],[88.1,25.7],[88.1,25.8],[88.0,25.8],[88.0,25.9],[87.9,25.9],[87.9,26.0],[87.8,26.0],[87.8,26.1],[87.6,26.1],[87.6,26.2],[87.5,26.2]]],[[[117.6,38.6],[117.6,38.8],[116.9,38.8],[116.9,38.7],[115.8,38.7],[115.8,37.8],[115.7,37.8],[115.7,37.5],[115.6,37.5],[115.6,37.2],[115.5,37.2],[115.5,37.0],[115.4,37.0],[115.4,36.8],[115.3,36.8],[115.3,36.5],[115.2,36.5],[115.2,36.0],[115.3,36.0],[115.3,35.8],[115.4,35.8],[115.4,35.7],[115.5,35.7],[115.5,35.6],[115.6,35.6],[115.6,35.4],[115.8,35.4],[115.8,35.5],[116.4,35.5],[116.4,35.4],[116.5,35.4],[116.5,35.3],[116.6,35.3],[116.6,35.2],[117.4,35.2],[117.4,35.3],[118.0,35.3],[118.0,35.5],[118.1,35.5],[118.1,35.6],[118.2,35.6],[118.2,35.8],[118.3,35.8],[118.3,36.0],[118.4,36.0],[118.4,36.1],[118.6,36.1],[118.6,36.2],[119.5,36.2],[119.5,36.1],[119.6,36.1],[119.6,35.9],[119.7,35.9],[119.7,35.7],[120.0,35.7],[120.0,35.8],[120.1,35.8],[120.1,35.9],[120.2,35.9],[120.2,36.0],[120.3,36.0],[120.3,36.1],[120.6,36.1],[120.6,36.2],[120.7,36.2],[120.7,36.4],[120.8,36.4],[120.8,36.5],[121.0,36.5],[121.0,36.6],[121.1,36.6],[121.1,36.7],[121.3,36.7],[121.3,36.8],[121.7,36.8],[121.7,36.9],[122.5,36.9],[122.5,37.0],[122.6,37.0],[122.6,37.4],[122.5,37.4],[122.5,37.5],[122.3,37.5],[122.3,37.6],[121.9,37.6],[121.9,37.5],[121.6,37.5],[121.6,37.6],[121.4,37.6],[121.4,37.7],[121.2,37.7],[121.2,37.8],[121.0,37.8],[121.0,37.9],[120.9,37.9],[120.9,38.0],[120.7,38.0],[120.7,37.9],[120.5,37.9],[120.5,37.8],[120.3,37.8],[120.3,37.7],[120.2,37.7],[120.2,37.6],[120.1,37.6],[120.1,37.5],[119.9,37.5],[119.9,37.4],[119.8,37.4],[119.8,37.3],[119.7,37.3],[119.7,37.2],[119.3,37.2],[119.3,37.3],[119.1,37.3],[119.1,37.4],[119.0,37.4],[119.0,38.2],[118.9,38.2],[118.9,38.3],[118.7,38.3],[118.7,38.2],[118.0,38.2],[118.0,38.3],[117.9,38.3],[117.9,38.4],[117.8,38.4],[117.8,38.5],[117.7,38.5],[117.7,38.6],[117.6,38.6]]]]},"properties":{"start_year":-376,"end_year":-338,"source_color":"#ff00ff","polity_id":null,"polity_assignment":"unverified","geometry_origin":"raster_color_trace_stitched","pixel_size_degrees":0.1,"sources":[{"feature_id":"51:-525:#ff00ff","tile_id":"51","start_year":-525,"end_year":-338,"source_image":"data/raw/toolbay/t/51/-525.png","source_url":"https://www.toolbay.cc/history-map/t/51/-525.png"},{"feature_id":"61:-376:#ff00ff","tile_id":"61","start_year":-376,"end_year":-334,"source_image":"data/raw/toolbay/t/61/-376.png","source_url":"https://www.toolbay.cc/history-map/t/61/-376.png"}]}},{"type":"Feature","id":"merged:-376:#ff9999","bbox":[102.9,32.8,110.2,36.6],"geometry":{"type":"Polygon","coordinates":[[[109.0,36.6],[108.8,36.6],[108.8,36.5],[108.4,36.5],[108.4,36.4],[108.1,36.4],[108.1,36.3],[107.9,36.3],[107.9,36.2],[107.6,36.2],[107.6,36.1],[107.2,36.1],[107.2,36.0],[106.5,36.0],[106.5,35.9],[105.0,35.9],[105.0,35.8],[104.1,35.8],[104.1,35.7],[103.4,35.7],[103.4,35.6],[103.1,35.6],[103.1,35.5],[102.9,35.5],[102.9,35.2],[103.1,35.2],[103.1,35.1],[103.3,35.1],[103.3,35.0],[103.5,35.0],[103.5,34.9],[103.9,34.9],[103.9,34.8],[104.4,34.8],[104.4,34.7],[105.0,34.7],[105.0,34.6],[105.5,34.6],[105.5,34.5],[105.7,34.5],[105.7,34.3],[105.8,34.3],[105.8,34.1],[105.9,34.1],[105.9,34.0],[106.0,34.0],[106.0,33.8],[106.1,33.8],[106.1,32.9],[106.2,32.9],[106.2,32.8],[106.6,32.8],[106.6,32.9],[106.7,32.9],[106.7,33.0],[107.5,33.0],[107.5,33.4],[108.2,33.4],[108.2,33.3],[108.6,33.3],[108.6,33.2],[108.9,33.2],[108.9,33.1],[109.1,33.1],[109.1,33.0],[109.2,33.0],[109.2,32.9],[109.6,32.9],[109.6,33.2],[109.7,33.2],[109.7,33.5],[109.8,33.5],[109.8,33.8],[109.9,33.8],[109.9,34.0],[110.0,34.0],[110.0,34.2],[110.1,34.2],[110.1,34.4],[110.2,34.4],[110.2,35.5],[110.1,35.5],[110.1,35.7],[110.0,35.7],[110.0,35.8],[109.9,35.8],[109.9,35.9],[109.8,35.9],[109.8,36.0],[109.6,36.0],[109.6,36.1],[109.5,36.1],[109.5,36.2],[109.4,36.2],[109.4,36.3],[109.3,36.3],[109.3,36.4],[109.1,36.4],[109.1,36.5],[109.0,36.5],[109.0,36.6]]]},"properties":{"start_year":-376,"end_year":-338,"source_color":"#ff9999","polity_id":null,"polity_assignment":"unverified","geometry_origin":"raster_color_trace_stitched","pixel_size_degrees":0.1,"sources":[{"feature_id":"61:-376:#ff9999","tile_id":"61","start_year":-376,"end_year":-334,"source_image":"data/raw/toolbay/t/61/-376.png","source_url":"https://www.toolbay.cc/history-map/t/61/-376.png"}]}},{"type":"Feature","id":"merged:-376:#ffff00","bbox":[106.7,25.6,119.0,41.3],"geometry":{"type":"MultiPolygon","coordinates":[[[[108.6,33.3],[108.2,33.3],[108.2,33.4],[107.5,33.4],[107.5,32.8],[107.6,32.8],[107.6,31.4],[107.5,31.4],[107.5,31.1],[107.4,31.1],[107.4,30.5],[107.3,30.5],[107.3,30.3],[107.1,30.3],[107.1,30.1],[107.0,30.1],[107.0,29.9],[106.9,29.9],[106.9,29.7],[106.8,29.7],[106.8,29.5],[106.7,29.5],[106.7,29.0],[106.9,29.0],[106.9,28.9],[107.0,28.9],[107.0,28.8],[107.1,28.8],[107.1,28.7],[107.2,28.7],[107.2,28.6],[107.3,28.6],[107.3,28.4],[107.4,28.4],[107.4,28.3],[107.5,28.3],[107.5,28.2],[107.6,28.2],[107.6,28.0],[107.7,28.0],[107.7,27.8],[107.8,27.8],[107.8,27.6],[107.9,27.6],[107.9,27.4],[108.0,27.4],[108.0,27.3],[108.1,27.3],[108.1,27.2],[108.2,27.2],[108.2,27.1],[108.4,27.1],[108.4,27.0],[108.6,27.0],[108.6,26.9],[108.8,26.9],[108.8,26.8],[109.1,26.8],[109.1,26.7],[109.3,26.7],[109.3,26.6],[109.6,26.6],[109.6,26.5],[109.9,26.5],[109.9,26.4],[110.1,26.4],[110.1,26.3],[110.2,26.3],[110.2,26.2],[110.6,26.2],[110.6,26.1],[110.8,26.1],[110.8,26.0],[111.0,26.0],[111.0,25.9],[111.2,25.9],[111.2,25.8],[111.4,25.8],[111.4,25.7],[111.9,25.7],[111.9,25.6],[113.0,25.6],[113.0,25.7],[114.3,25.7],[114.3,25.8],[114.9,25.8],[114.9,25.9],[115.0,25.9],[115.0,26.0],[115.4,26.0],[115.4,26.1],[115.7,26.1],[115.7,26.2],[116.0,26.2],[116.0,26.3],[116.3,26.3],[116.3,26.4],[116.4,26.4],[116.4,26.5],[116.6,26.5],[116.6,26.6],[116.9,26.6],[116.9,26.7],[117.3,26.7],[117.3,26.8],[117.8,26.8],[117.8,26.9],[118.1,26.9],[118.1,27.0],[118.3,27.0],[118.3,27.1],[118.4,27.1],[118.4,27.2],[118.5,27.2],[118.5,27.3],[118.6,27.3],[118.6,27.4],[118.7,27.4],[118.7,27.5],[118.8,27.5],[118.8,27.7],[118.9,27.7],[118.9,28.8],[119.0,28.8],[119.0,29.1],[118.9,29.1],[118.9,29.5],[118.8,29.5],[118.8,29.8],[118.7,29.8],[118.7,30.0],[118.6,30.0],[118.6,30.2],[118.5,30.2],[118.5,30.3],[118.3,30.3],[118.3,30.4],[118.1,30.4],[118.1,30.5],[118.0,30.5],[118.0,30.6],[117.9,30.6],[117.9,30.7],[117.7,30.7],[117.7,30.8],[117.5,30.8],[117.5,30.9],[117.4,30.9],[117.4,31.1],[117.2,31.1],[117.2,31.2],[117.1,31.2],[117.1,31.3],[117.0,31.3],[117.0,31.4],[116.9,31.4],[116.9,33.0],[116.8,33.0],[116.8,33.2],[116.7,33.2],[116.7,33.1],[116.6,33.1],[116.6,33.0],[116.3,33.0],[116.3,32.9],[116.0,32.9],[116.0,32.8],[115.0,32.8],[115.0,32.9],[114.9,32.9],[114.9,33.0],[114.7,33.0],[114.7,33.1],[114.5,33.1],[114.5,33.2],[114.1,33.2],[114.1,33.1],[113.3,33.1],[113.3,32.9],[113.2,32.9],[113.2,32.3],[113.1,32.3],[113.1,32.0],[113.0,32.0],[113.0,31.9],[112.8,31.9],[112.8,31.8],[112.0,31.8],[112.0,31.9],[111.8,31.9],[111.8,32.0],[111.7,32.0],[111.7,32.1],[111.6,32.1],[111.6,32.2],[111.5,32.2],[111.5,32.3],[111.4,32.3],[111.4,32.4],[111.3,32.4],[111.3,32.5],[111.2,32.5],[111.2,32.6],[110.9,32.6],[110.9,32.7],[110.5,32.7],[110.5,32.8],[109.7,32.8],[109.7,32.9],[109.2,32.9],[109.2,33.0],[109.1,33.0],[109.1,33.1],[108.9,33.1],[108.9,33.2],[108.6,33.2],[108.6,33.3]],[[116.2,29.4],[116.2,29.2],[116.0,29.2],[116.0,29.4],[116.2,29.4]],[[116.5,29.1],[116.5,29.0],[116.4,29.0],[116.4,29.2],[116.6,29.2],[116.6,29.1],[116.5,29.1]]],[[[115.3,40.0],[115.6,40.0],[115.6,41.3],[115.1,41.3],[115.1,41.2],[114.6,41.2],[114.6,41.1],[114.2,41.1],[114.2,41.0],[114.1,41.0],[114.1,40.9],[114.0,40.9],[114.0,40.8],[113.9,40.8],[113.9,40.7],[113.8,40.7],[113.8,40.6],[113.7,40.6],[113.7,40.5],[112.9,40.5],[112.9,40.4],[111.1,40.4],[111.1,40.3],[110.8,40.3],[110.8,40.2],[110.7,40.2],[110.7,40.1],[110.6,40.1],[110.6,40.0],[110.4,40.0],[110.4,39.9],[110.1,39.9],[110.1,39.2],[110.2,39.2],[110.2,37.9],[110.3,37.9],[110.3,37.6],[110.4,37.6],[110.4,37.5],[110.6,37.5],[110.6,37.4],[110.7,37.4],[110.7,37.3],[110.8,37.3],[110.8,37.2],[110.9,37.2],[110.9,37.1],[111.3,37.1],[111.3,37.0],[111.4,37.0],[111.4,36.9],[112.0,36.9],[112.0,36.8],[112.3,36.8],[112.3,36.7],[112.7,36.7],[112.7,36.6],[113.1,36.6],[113.1,36.5],[114.0,36.5],[114.0,36.6],[114.3,36.6],[114.3,36.7],[114.4,36.7],[114.4,36.8],[114.7,36.8],[114.7,36.9],[115.0,36.9],[115.0,37.0],[115.2,37.0],[115.2,37.1],[115.4,37.1],[115.4,37.2],[115.6,37.2],[115.6,37.5],[115.7,37.5],[115.7,37.8],[115.8,37.8],[115.8,39.3],[115.7,39.3],[115.7,39.8],[115.6,39.8],[115.6,39.2],[115.5,39.2],[115.5,38.9],[115.4,38.9],[115.4,38.2],[115.3,38.2],[115.3,37.6],[115.2,37.6],[115.2,37.5],[115.1,37.5],[115.1,37.4],[114.9,37.4],[114.9,37.3],[114.0,37.3],[114.0,37.4],[113.9,37.4],[113.9,37.5],[113.8,37.5],[113.8,37.9],[113.7,37.9],[113.7,38.2],[113.8,38.2],[113.8,38.8],[113.9,38.8],[113.9,39.2],[114.0,39.2],[114.0,39.5],[114.2,39.5],[114.2,39.6],[114.7,39.6],[114.7,39.7],[115.0,39.7],[115.0,39.8],[115.2,39.8],[115.2,39.9],[115.3,39.9],[115.3,40.0]]]]},"properties":{"start_year":-376,"end_year":-338,"source_color":"#ffff00","polity_id":null,"polity_assignment":"unverified","geometry_origin":"raster_color_trace_stitched","pixel_size_degrees":0.1,"sources":[{"feature_id":"61:-376:#ffff00","tile_id":"61","start_year":-376,"end_year":-334,"source_image":"data/raw/toolbay/t/61/-376.png","source_url":"https://www.toolbay.cc/history-map/t/61/-376.png"}]}}]}
