{"type":"FeatureCollection","features":[{"type":"Feature","id":"merged:1225:#0000ff","bbox":[60.0,18.1,87.6,44.2],"geometry":{"type":"MultiPolygon","coordinates":[[[[87.2,22.6],[87.1,22.6],[87.1,24.0],[85.6,24.0],[85.6,23.9],[85.1,23.9],[85.1,23.8],[84.7,23.8],[84.7,23.7],[84.6,23.7],[84.6,23.6],[84.4,23.6],[84.4,23.5],[84.3,23.5],[84.3,23.4],[84.1,23.4],[84.1,23.3],[84.0,23.3],[84.0,23.2],[83.9,23.2],[83.9,23.1],[83.8,23.1],[83.8,23.0],[83.6,23.0],[83.6,22.8],[83.4,22.8],[83.4,22.6],[83.3,22.6],[83.3,22.4],[83.2,22.4],[83.2,22.3],[83.1,22.3],[83.1,22.2],[82.9,22.2],[82.9,22.0],[82.8,22.0],[82.8,21.8],[82.6,21.8],[82.6,21.7],[82.5,21.7],[82.5,21.5],[82.4,21.5],[82.4,21.4],[82.3,21.4],[82.3,21.2],[82.4,21.2],[82.4,21.1],[82.5,21.1],[82.5,21.0],[82.6,21.0],[82.6,20.8],[82.7,20.8],[82.7,20.6],[82.8,20.6],[82.8,19.3],[82.9,19.3],[82.9,19.1],[83.0,19.1],[83.0,18.8],[83.1,18.8],[83.1,18.7],[83.2,18.7],[83.2,18.5],[83.3,18.5],[83.3,18.4],[83.5,18.4],[83.5,18.3],[83.6,18.3],[83.6,18.2],[83.7,18.2],[83.7,18.1],[83.8,18.1],[83.8,18.2],[83.9,18.2],[83.9,18.3],[84.1,18.3],[84.1,18.4],[84.2,18.4],[84.2,18.5],[84.3,18.5],[84.3,18.6],[84.4,18.6],[84.4,18.7],[84.5,18.7],[84.5,18.8],[84.6,18.8],[84.6,18.9],[84.7,18.9],[84.7,19.1],[84.8,19.1],[84.8,19.2],[84.9,19.2],[84.9,19.3],[85.0,19.3],[85.0,19.4],[85.1,19.4],[85.1,19.5],[85.2,19.5],[85.2,19.6],[85.4,19.6],[85.4,19.7],[85.6,19.7],[85.6,19.8],[85.9,19.8],[85.9,19.9],[86.3,19.9],[86.3,20.0],[86.4,20.0],[86.4,20.1],[86.5,20.1],[86.5,20.2],[86.6,20.2],[86.6,20.3],[86.8,20.3],[86.8,20.4],[86.9,20.4],[86.9,20.6],[87.0,20.6],[87.0,21.0],[86.9,21.0],[86.9,21.4],[87.0,21.4],[87.0,21.5],[87.1,21.5],[87.1,21.6],[87.5,21.6],[87.5,21.7],[87.6,21.7],[87.6,21.8],[87.5,21.8],[87.5,22.0],[87.4,22.0],[87.4,22.1],[87.3,22.1],[87.3,22.4],[87.2,22.4],[87.2,22.6]]],[[[60.2,43.9],[60.1,43.9],[60.1,43.8],[60.0,43.8],[60.0,25.4],[60.7,25.4],[60.7,25.3],[61.1,25.3],[61.1,25.2],[61.3,25.2],[61.3,25.1],[62.0,25.1],[62.0,25.2],[62.5,25.2],[62.5,25.3],[63.6,25.3],[63.6,25.4],[63.7,25.4],[63.7,25.7],[63.6,25.7],[63.6,26.0],[63.5,26.0],[63.5,26.5],[63.4,26.5],[63.4,26.8],[63.3,26.8],[63.3,27.2],[63.2,27.2],[63.2,27.4],[63.1,27.4],[63.1,27.7],[63.0,27.7],[63.0,28.0],[62.9,28.0],[62.9,28.2],[62.8,28.2],[62.8,28.5],[62.7,28.5],[62.7,28.6],[62.6,28.6],[62.6,28.8],[62.5,28.8],[62.5,29.0],[62.4,29.0],[62.4,29.1],[62.3,29.1],[62.3,29.2],[62.2,29.2],[62.2,29.5],[62.1,29.5],[62.1,29.6],[62.0,29.6],[62.0,29.8],[61.9,29.8],[61.9,30.0],[61.8,30.0],[61.8,30.3],[61.7,30.3],[61.7,31.6],[61.8,31.6],[61.8,31.8],[61.9,31.8],[61.9,31.9],[62.0,31.9],[62.0,32.1],[62.1,32.1],[62.1,32.3],[62.2,32.3],[62.2,32.4],[62.3,32.4],[62.3,32.5],[62.4,32.5],[62.4,32.8],[62.5,32.8],[62.5,32.9],[62.6,32.9],[62.6,33.0],[62.7,33.0],[62.7,33.2],[62.8,33.2],[62.8,33.3],[62.9,33.3],[62.9,33.5],[63.0,33.5],[63.0,33.6],[63.1,33.6],[63.1,33.7],[63.2,33.7],[63.2,33.8],[63.3,33.8],[63.3,33.9],[63.4,33.9],[63.4,34.0],[63.5,34.0],[63.5,34.1],[63.6,34.1],[63.6,34.2],[63.7,34.2],[63.7,34.3],[63.8,34.3],[63.8,34.4],[63.9,34.4],[63.9,34.5],[64.0,34.5],[64.0,34.6],[64.1,34.6],[64.1,34.7],[64.2,34.7],[64.2,34.9],[64.3,34.9],[64.3,35.0],[64.4,35.0],[64.4,35.1],[64.5,35.1],[64.5,35.3],[64.6,35.3],[64.6,35.4],[64.8,35.4],[64.8,35.5],[64.9,35.5],[64.9,35.6],[65.1,35.6],[65.1,35.7],[65.3,35.7],[65.3,35.8],[65.4,35.8],[65.4,35.9],[65.5,35.9],[65.5,36.0],[65.6,36.0],[65.6,36.1],[65.8,36.1],[65.8,36.2],[65.9,36.2],[65.9,36.3],[66.0,36.3],[66.0,36.4],[66.2,36.4],[66.2,36.5],[66.3,36.5],[66.3,36.6],[66.4,36.6],[66.4,36.7],[66.6,36.7],[66.6,36.8],[66.8,36.8],[66.8,36.9],[67.0,36.9],[67.0,37.0],[67.1,37.0],[67.1,37.1],[67.2,37.1],[67.2,37.2],[67.4,37.2],[67.4,37.3],[67.5,37.3],[67.5,37.4],[66.3,37.4],[66.3,37.5],[65.8,37.5],[65.8,37.6],[65.5,37.6],[65.5,37.7],[65.3,37.7],[65.3,37.8],[65.1,37.8],[65.1,37.9],[64.9,37.9],[64.9,38.0],[64.7,38.0],[64.7,38.1],[64.6,38.1],[64.6,38.2],[64.4,38.2],[64.4,38.4],[64.3,38.4],[64.3,38.5],[64.2,38.5],[64.2,38.6],[64.1,38.6],[64.1,38.7],[64.0,38.7],[64.0,38.9],[63.9,38.9],[63.9,39.0],[63.8,39.0],[63.8,39.1],[63.7,39.1],[63.7,39.2],[63.6,39.2],[63.6,39.4],[63.5,39.4],[63.5,39.6],[63.4,39.6],[63.4,39.7],[63.3,39.7],[63.3,39.9],[63.2,39.9],[63.2,40.1],[63.1,40.1],[63.1,40.2],[63.0,40.2],[63.0,40.3],[62.9,40.3],[62.9,40.5],[62.8,40.5],[62.8,40.8],[62.7,40.8],[62.7,41.0],[62.6,41.0],[62.6,41.2],[62.5,41.2],[62.5,41.4],[62.4,41.4],[62.4,41.6],[62.3,41.6],[62.3,41.9],[62.2,41.9],[62.2,42.0],[62.1,42.0],[62.1,42.2],[62.0,42.2],[62.0,42.4],[61.9,42.4],[61.9,42.6],[61.8,42.6],[61.8,42.7],[61.7,42.7],[61.7,42.9],[61.6,42.9],[61.6,43.1],[61.5,43.1],[61.5,43.3],[61.4,43.3],[61.4,43.5],[61.3,43.5],[61.3,43.7],[61.2,43.7],[61.2,43.8],[61.1,43.8],[61.1,44.0],[61.0,44.0],[61.0,44.1],[60.9,44.1],[60.9,44.2],[60.6,44.2],[60.6,44.1],[60.3,44.1],[60.3,44.0],[60.2,44.0],[60.2,43.9]]]]},"properties":{"start_year":1225,"end_year":1227,"source_color":"#0000ff","polity_id":null,"polity_assignment":"unverified","geometry_origin":"raster_color_trace_stitched","pixel_size_degrees":0.1,"sources":[{"feature_id":"51:1225:#0000ff","tile_id":"51","start_year":1225,"end_year":1227,"source_image":"data/raw/toolbay/t/51/1225.png","source_url":"https://www.toolbay.cc/history-map/t/51/1225.png"}]}},{"type":"Feature","id":"merged:1225:#009900","bbox":[60.8,12.7,142.1,46.7],"geometry":{"type":"MultiPolygon","coordinates":[[[[80.7,22.2],[80.4,22.2],[80.4,22.3],[79.7,22.3],[79.7,22.4],[79.2,22.4],[79.2,22.1],[79.1,22.1],[79.1,21.8],[79.0,21.8],[79.0,21.7],[78.9,21.7],[78.9,21.5],[78.8,21.5],[78.8,21.3],[78.7,21.3],[78.7,21.2],[78.6,21.2],[78.6,21.0],[78.5,21.0],[78.5,20.9],[78.4,20.9],[78.4,20.8],[78.3,20.8],[78.3,20.6],[78.2,20.6],[78.2,20.5],[78.1,20.5],[78.1,20.4],[78.0,20.4],[78.0,20.3],[77.9,20.3],[77.9,20.1],[77.7,20.1],[77.7,20.0],[77.6,20.0],[77.6,19.8],[77.5,19.8],[77.5,19.7],[77.4,19.7],[77.4,19.5],[77.3,19.5],[77.3,19.3],[77.2,19.3],[77.2,19.2],[77.1,19.2],[77.1,19.1],[77.0,19.1],[77.0,18.8],[76.9,18.8],[76.9,18.3],[76.8,18.3],[76.8,18.0],[76.7,18.0],[76.7,17.8],[76.6,17.8],[76.6,17.7],[76.5,17.7],[76.5,17.5],[76.4,17.5],[76.4,16.9],[76.3,16.9],[76.3,16.8],[76.4,16.8],[76.4,16.7],[76.5,16.7],[76.5,16.6],[76.6,16.6],[76.6,16.5],[76.8,16.5],[76.8,16.4],[76.9,16.4],[76.9,16.3],[77.0,16.3],[77.0,16.1],[77.1,16.1],[77.1,15.9],[77.2,15.9],[77.2,15.8],[77.3,15.8],[77.3,15.7],[77.4,15.7],[77.4,15.5],[77.5,15.5],[77.5,15.3],[77.6,15.3],[77.6,15.2],[77.7,15.2],[77.7,15.1],[77.8,15.1],[77.8,14.2],[77.7,14.2],[77.7,13.8],[77.6,13.8],[77.6,13.4],[77.5,13.4],[77.5,13.1],[78.6,13.1],[78.6,13.0],[79.0,13.0],[79.0,12.9],[79.2,12.9],[79.2,12.8],[79.5,12.8],[79.5,12.7],[80.3,12.7],[80.3,13.1],[80.4,13.1],[80.4,13.6],[80.3,13.6],[80.3,14.0],[80.2,14.0],[80.2,14.9],[80.1,14.9],[80.1,15.4],[80.2,15.4],[80.2,15.5],[80.3,15.5],[80.3,15.7],[80.4,15.7],[80.4,15.8],[80.5,15.8],[80.5,15.9],[80.7,15.9],[80.7,15.8],[81.0,15.8],[81.0,15.9],[81.1,15.9],[81.1,16.0],[81.2,16.0],[81.2,16.2],[81.3,16.2],[81.3,16.3],[81.4,16.3],[81.4,16.4],[81.9,16.4],[81.9,16.5],[82.2,16.5],[82.2,16.6],[82.3,16.6],[82.3,16.7],[82.4,16.7],[82.4,17.2],[82.5,17.2],[82.5,17.3],[82.7,17.3],[82.7,17.4],[82.8,17.4],[82.8,17.5],[83.1,17.5],[83.1,17.6],[83.2,17.6],[83.2,17.7],[83.3,17.7],[83.3,17.8],[83.4,17.8],[83.4,17.9],[83.5,17.9],[83.5,18.0],[83.6,18.0],[83.6,18.1],[83.7,18.1],[83.7,18.2],[83.6,18.2],[83.6,18.3],[83.5,18.3],[83.5,18.4],[83.3,18.4],[83.3,18.5],[83.2,18.5],[83.2,18.7],[83.1,18.7],[83.1,18.8],[83.0,18.8],[83.0,19.1],[82.9,19.1],[82.9,19.3],[82.8,19.3],[82.8,20.6],[82.7,20.6],[82.7,20.8],[82.6,20.8],[82.6,21.0],[82.5,21.0],[82.5,21.1],[82.4,21.1],[82.4,21.2],[82.3,21.2],[82.3,21.4],[82.2,21.4],[82.2,21.5],[82.1,21.5],[82.1,21.7],[81.8,21.7],[81.8,21.8],[81.6,21.8],[81.6,21.9],[81.3,21.9],[81.3,22.0],[81.0,22.0],[81.0,22.1],[80.7,22.1],[80.7,22.2]]],[[[102.7,29.0],[102.6,29.0],[102.6,29.1],[102.5,29.1],[102.5,29.4],[102.4,29.4],[102.4,29.5],[102.1,29.5],[102.1,29.4],[101.9,29.4],[101.9,29.3],[101.5,29.3],[101.5,29.2],[100.9,29.2],[100.9,29.1],[98.5,29.1],[98.5,29.0],[97.6,29.0],[97.6,28.9],[97.4,28.9],[97.4,28.4],[97.5,28.4],[97.5,28.0],[97.6,28.0],[97.6,27.7],[97.7,27.7],[97.7,25.8],[97.8,25.8],[97.8,25.4],[97.7,25.4],[97.7,25.1],[97.6,25.1],[97.6,24.8],[97.5,24.8],[97.5,23.8],[97.6,23.8],[97.6,23.7],[97.8,23.7],[97.8,23.6],[97.9,23.6],[97.9,23.5],[98.1,23.5],[98.1,23.4],[98.2,23.4],[98.2,23.3],[98.5,23.3],[98.5,23.2],[98.6,23.2],[98.6,23.1],[98.9,23.1],[98.9,23.0],[99.1,23.0],[99.1,22.9],[99.3,22.9],[99.3,22.8],[99.4,22.8],[99.4,22.7],[99.6,22.7],[99.6,22.6],[99.8,22.6],[99.8,22.4],[100.1,22.4],[100.1,22.5],[100.2,22.5],[100.2,22.6],[100.4,22.6],[100.4,22.7],[100.6,22.7],[100.6,22.8],[101.0,22.8],[101.0,22.9],[101.1,22.9],[101.1,23.0],[101.4,23.0],[101.4,23.1],[101.9,23.1],[101.9,23.2],[103.8,23.2],[103.8,23.1],[104.0,23.1],[104.0,23.0],[104.4,23.0],[104.4,23.1],[104.5,23.1],[104.5,23.2],[104.6,23.2],[104.6,23.3],[104.7,23.3],[104.7,23.4],[104.8,23.4],[104.8,23.6],[104.9,23.6],[104.9,23.7],[105.0,23.7],[105.0,23.8],[105.1,23.8],[105.1,23.9],[105.2,23.9],[105.2,24.0],[105.3,24.0],[105.3,24.1],[105.4,24.1],[105.4,24.2],[105.6,24.2],[105.6,24.3],[105.7,24.3],[105.7,24.4],[105.8,24.4],[105.8,24.5],[106.9,24.5],[106.9,24.4],[107.9,24.4],[107.9,24.3],[108.3,24.3],[108.3,24.9],[108.4,24.9],[108.4,25.3],[108.5,25.3],[108.5,25.7],[108.6,25.7],[108.6,26.0],[108.7,26.0],[108.7,26.7],[108.8,26.7],[108.8,27.1],[108.7,27.1],[108.7,27.4],[108.6,27.4],[108.6,27.6],[108.5,27.6],[108.5,27.7],[108.4,27.7],[108.4,27.8],[108.3,27.8],[108.3,28.0],[107.3,28.0],[107.3,27.9],[107.2,27.9],[107.2,27.8],[106.7,27.8],[106.7,27.9],[106.5,27.9],[106.5,28.0],[106.4,28.0],[106.4,28.1],[106.2,28.1],[106.2,28.2],[106.0,28.2],[106.0,28.3],[105.6,28.3],[105.6,28.2],[105.2,28.2],[105.2,28.0],[105.1,28.0],[105.1,28.1],[104.7,28.1],[104.7,28.2],[104.5,28.2],[104.5,28.3],[104.2,28.3],[104.2,28.4],[103.8,28.4],[103.8,28.5],[103.5,28.5],[103.5,28.6],[103.0,28.6],[103.0,28.7],[102.9,28.7],[102.9,28.8],[102.7,28.8],[102.7,29.0]]],[[[129.0,33.1],[129.0,33.0],[128.9,33.0],[128.9,32.8],[129.0,32.8],[129.0,32.9],[129.1,32.9],[129.1,33.1],[129.0,33.1]]],[[[98.1,42.0],[97.7,42.0],[97.7,42.1],[97.2,42.1],[97.2,42.2],[96.7,42.2],[96.7,42.3],[96.5,42.3],[96.5,42.2],[96.1,42.2],[96.1,42.1],[96.0,42.1],[96.0,42.0],[95.6,42.0],[95.6,41.9],[95.4,41.9],[95.4,41.8],[95.3,41.8],[95.3,41.7],[95.2,41.7],[95.2,41.6],[95.1,41.6],[95.1,41.4],[95.0,41.4],[95.0,41.2],[94.9,41.2],[94.9,41.0],[94.8,41.0],[94.8,40.1],[94.9,40.1],[94.9,39.4],[95.0,39.4],[95.0,39.1],[95.1,39.1],[95.1,39.0],[95.5,39.0],[95.5,38.9],[95.7,38.9],[95.7,38.8],[95.8,38.8],[95.8,38.7],[96.1,38.7],[96.1,38.6],[96.3,38.6],[96.3,38.5],[96.7,38.5],[96.7,38.4],[97.2,38.4],[97.2,38.3],[97.7,38.3],[97.7,38.2],[98.2,38.2],[98.2,38.1],[98.5,38.1],[98.5,38.0],[99.0,38.0],[99.0,37.9],[99.3,37.9],[99.3,37.8],[99.6,37.8],[99.6,37.7],[100.0,37.7],[100.0,37.6],[100.4,37.6],[100.4,37.5],[101.0,37.5],[101.0,37.4],[101.2,37.4],[101.2,37.3],[101.3,37.3],[101.3,37.2],[101.5,37.2],[101.5,37.1],[101.7,37.1],[101.7,37.0],[101.8,37.0],[101.8,36.9],[102.0,36.9],[102.0,36.7],[102.2,36.7],[102.2,36.5],[102.5,36.5],[102.5,36.4],[102.8,36.4],[102.8,36.3],[103.0,36.3],[103.0,36.1],[103.2,36.1],[103.2,36.0],[103.4,36.0],[103.4,35.9],[103.7,35.9],[103.7,35.7],[103.8,35.7],[103.8,35.5],[103.9,35.5],[103.9,35.4],[104.3,35.4],[104.3,35.5],[104.7,35.5],[104.7,35.6],[104.9,35.6],[104.9,35.7],[105.3,35.7],[105.3,35.8],[105.5,35.8],[105.5,35.9],[105.7,35.9],[105.7,36.0],[105.9,36.0],[105.9,36.1],[106.0,36.1],[106.0,36.2],[106.3,36.2],[106.3,36.3],[106.7,36.3],[106.7,36.4],[107.1,36.4],[107.1,36.5],[107.6,36.5],[107.6,36.6],[108.0,36.6],[108.0,36.7],[108.5,36.7],[108.5,36.8],[108.7,36.8],[108.7,36.9],[108.8,36.9],[108.8,37.0],[109.1,37.0],[109.1,37.1],[109.2,37.1],[109.2,37.2],[109.6,37.2],[109.6,37.3],[110.1,37.3],[110.1,37.4],[110.2,37.4],[110.2,37.6],[110.1,37.6],[110.1,37.7],[110.0,37.7],[110.0,37.8],[109.6,37.8],[109.6,37.9],[109.3,37.9],[109.3,38.0],[109.0,38.0],[109.0,38.1],[108.9,38.1],[108.9,38.2],[108.6,38.2],[108.6,38.3],[108.3,38.3],[108.3,38.4],[108.0,38.4],[108.0,38.5],[107.2,38.5],[107.2,38.6],[105.9,38.6],[105.9,38.7],[105.7,38.7],[105.7,38.8],[105.5,38.8],[105.5,38.9],[105.3,38.9],[105.3,39.0],[105.2,39.0],[105.2,39.2],[105.1,39.2],[105.1,39.6],[105.0,39.6],[105.0,39.7],[104.9,39.7],[104.9,39.8],[104.7,39.8],[104.7,39.9],[104.6,39.9],[104.6,40.0],[104.5,40.0],[104.5,40.1],[104.2,40.1],[104.2,40.2],[104.0,40.2],[104.0,40.3],[103.6,40.3],[103.6,40.4],[102.9,40.4],[102.9,40.5],[102.7,40.5],[102.7,40.6],[102.5,40.6],[102.5,40.7],[102.2,40.7],[102.2,40.8],[102.0,40.8],[102.0,40.9],[101.8,40.9],[101.8,41.0],[101.6,41.0],[101.6,41.1],[101.1,41.1],[101.1,41.2],[100.6,41.2],[100.6,41.3],[100.4,41.3],[100.4,41.4],[99.7,41.4],[99.7,41.5],[99.5,41.5],[99.5,41.6],[99.2,41.6],[99.2,41.7],[98.7,41.7],[98.7,41.8],[98.4,41.8],[98.4,41.9],[98.1,41.9],[98.1,42.0]]],[[[81.8,44.5],[81.8,44.9],[81.7,44.9],[81.7,45.0],[81.6,45.0],[81.6,45.1],[81.5,45.1],[81.5,45.2],[81.3,45.2],[81.3,45.3],[81.2,45.3],[81.2,45.4],[81.0,45.4],[81.0,45.5],[80.8,45.5],[80.8,45.6],[80.6,45.6],[80.6,45.7],[80.2,45.7],[80.2,45.8],[79.7,45.8],[79.7,45.9],[79.4,45.9],[79.4,46.0],[79.1,46.0],[79.1,46.1],[78.7,46.1],[78.7,46.2],[78.4,46.2],[78.4,46.3],[78.1,46.3],[78.1,46.4],[77.7,46.4],[77.7,46.5],[77.5,46.5],[77.5,46.6],[76.2,46.6],[76.2,46.7],[75.8,46.7],[75.8,46.6],[75.6,46.6],[75.6,46.5],[75.1,46.5],[75.1,46.6],[74.9,46.6],[74.9,46.5],[74.7,46.5],[74.7,46.3],[74.4,46.3],[74.4,46.2],[74.3,46.2],[74.3,46.1],[74.2,46.1],[74.2,46.0],[74.1,46.0],[74.1,45.7],[74.0,45.7],[74.0,45.5],[73.9,45.5],[73.9,45.3],[73.5,45.3],[73.5,45.4],[73.4,45.4],[73.4,45.5],[73.3,45.5],[73.3,45.8],[72.8,45.8],[72.8,45.7],[71.7,45.7],[71.7,45.8],[71.4,45.8],[71.4,45.9],[71.0,45.9],[71.0,46.0],[70.4,46.0],[70.4,45.9],[67.8,45.9],[67.8,45.8],[65.9,45.8],[65.9,45.7],[65.1,45.7],[65.1,45.8],[63.9,45.8],[63.9,45.9],[62.6,45.9],[62.6,46.0],[62.2,46.0],[62.2,46.1],[61.8,46.1],[61.8,46.2],[61.4,46.2],[61.4,46.3],[61.2,46.3],[61.2,46.2],[61.1,46.2],[61.1,46.1],[61.0,46.1],[61.0,46.0],[60.9,46.0],[60.9,45.6],[61.0,45.6],[61.0,45.5],[61.1,45.5],[61.1,45.4],[61.2,45.4],[61.2,45.2],[61.3,45.2],[61.3,45.1],[61.4,45.1],[61.4,45.0],[61.4,44.9],[61.3,44.9],[61.3,44.8],[61.1,44.8],[61.1,44.7],[61.0,44.7],[61.0,44.5],[60.9,44.5],[60.9,44.3],[60.8,44.3],[60.8,44.2],[60.9,44.2],[60.9,44.1],[61.0,44.1],[61.0,44.0],[61.1,44.0],[61.1,43.8],[61.2,43.8],[61.2,43.7],[61.3,43.7],[61.3,43.5],[61.4,43.5],[61.4,43.3],[61.5,43.3],[61.5,43.1],[61.6,43.1],[61.6,42.9],[61.7,42.9],[61.7,42.7],[61.8,42.7],[61.8,42.6],[61.9,42.6],[61.9,42.4],[62.0,42.4],[62.0,42.2],[62.1,42.2],[62.1,42.0],[62.2,42.0],[62.2,41.9],[62.3,41.9],[62.3,41.6],[62.4,41.6],[62.4,41.4],[62.5,41.4],[62.5,41.2],[62.6,41.2],[62.6,41.0],[62.7,41.0],[62.7,40.8],[62.8,40.8],[62.8,40.5],[62.9,40.5],[62.9,40.3],[63.0,40.3],[63.0,40.2],[63.1,40.2],[63.1,40.1],[63.2,40.1],[63.2,39.9],[63.3,39.9],[63.3,39.7],[63.4,39.7],[63.4,39.6],[63.5,39.6],[63.5,39.4],[63.6,39.4],[63.6,39.2],[63.7,39.2],[63.7,39.1],[63.8,39.1],[63.8,39.0],[63.9,39.0],[63.9,38.9],[64.0,38.9],[64.0,38.7],[64.1,38.7],[64.1,38.6],[64.2,38.6],[64.2,38.5],[64.3,38.5],[64.3,38.4],[64.4,38.4],[64.4,38.2],[64.6,38.2],[64.6,38.1],[64.7,38.1],[64.7,38.0],[64.9,38.0],[64.9,37.9],[65.1,37.9],[65.1,37.8],[65.3,37.8],[65.3,37.7],[65.5,37.7],[65.5,37.6],[65.8,37.6],[65.8,37.5],[66.3,37.5],[66.3,37.4],[67.6,37.4],[67.6,37.5],[67.7,37.5],[67.7,37.4],[67.9,37.4],[67.9,37.3],[68.0,37.3],[68.0,37.2],[68.2,37.2],[68.2,37.1],[68.5,37.1],[68.5,37.0],[68.6,37.0],[68.6,36.9],[68.7,36.9],[68.7,37.0],[69.2,37.0],[69.2,37.1],[69.6,37.1],[69.6,37.2],[70.3,37.2],[70.3,37.1],[70.4,37.1],[70.4,37.0],[70.6,37.0],[70.6,36.9],[70.8,36.9],[70.8,36.8],[71.0,36.8],[71.0,36.7],[71.1,36.7],[71.1,36.6],[71.2,36.6],[71.2,36.5],[71.4,36.5],[71.4,36.4],[71.5,36.4],[71.5,36.3],[71.7,36.3],[71.7,36.2],[71.9,36.2],[71.9,36.1],[72.1,36.1],[72.1,36.0],[72.9,36.0],[72.9,36.1],[73.0,36.1],[73.0,36.3],[73.1,36.3],[73.1,36.4],[74.0,36.4],[74.0,36.3],[74.6,36.3],[74.6,36.4],[74.7,36.4],[74.7,36.5],[74.8,36.5],[74.8,36.6],[74.9,36.6],[74.9,36.7],[75.1,36.7],[75.1,36.8],[75.3,36.8],[75.3,36.9],[75.5,36.9],[75.5,37.0],[75.7,37.0],[75.7,37.1],[76.0,37.1],[76.0,37.2],[77.4,37.2],[77.4,37.1],[77.7,37.1],[77.7,37.2],[77.8,37.2],[77.8,37.1],[77.9,37.1],[77.9,37.0],[78.2,37.0],[78.2,36.9],[78.4,36.9],[78.4,36.8],[78.8,36.8],[78.8,36.7],[79.2,36.7],[79.2,36.6],[80.9,36.6],[80.9,36.7],[81.4,36.7],[81.4,36.8],[81.5,36.8],[81.5,37.3],[81.6,37.3],[81.6,39.2],[81.7,39.2],[81.7,39.7],[81.8,39.7],[81.8,40.2],[81.9,40.2],[81.9,40.6],[82.0,40.6],[82.0,40.9],[82.1,40.9],[82.1,41.5],[82.0,41.5],[82.0,42.0],[81.9,42.0],[81.9,42.3],[81.8,42.3],[81.8,42.7],[81.7,42.7],[81.7,43.1],[81.8,43.1],[81.8,43.9],[81.9,43.9],[81.9,44.5],[81.8,44.5]]],[[[132.4,34.0],[132.6,34.0],[132.6,34.2],[132.9,34.2],[132.9,34.3],[133.3,34.3],[133.3,34.4],[133.8,34.4],[133.8,34.5],[134.2,34.5],[134.2,34.6],[134.4,34.6],[134.4,34.7],[134.5,34.7],[134.5,34.8],[134.8,34.8],[134.8,34.7],[135.0,34.7],[135.1,34.7],[135.1,34.6],[135.2,34.6],[135.2,34.4],[135.1,34.4],[135.1,33.9],[135.2,33.9],[135.2,33.8],[135.3,33.8],[135.3,33.7],[135.4,33.7],[135.4,33.6],[135.6,33.6],[135.6,33.5],[135.9,33.5],[135.9,33.6],[136.0,33.6],[136.0,33.7],[136.1,33.7],[136.1,33.9],[136.2,33.9],[136.2,34.0],[136.3,34.0],[136.3,34.2],[136.4,34.2],[136.4,34.3],[136.9,34.3],[136.9,34.6],[136.7,34.6],[136.7,34.9],[136.9,34.9],[136.9,34.8],[137.0,34.8],[137.0,34.7],[138.2,34.7],[138.2,34.8],[138.3,34.8],[138.3,34.9],[138.4,34.9],[138.4,35.0],[138.5,35.0],[138.5,35.1],[138.7,35.1],[138.7,35.0],[138.8,35.0],[138.8,34.8],[139.1,34.8],[139.1,34.9],[139.2,34.9],[139.2,35.3],[139.3,35.3],[139.3,35.4],[139.5,35.4],[139.5,35.3],[139.8,35.3],[139.8,35.1],[140.2,35.1],[140.2,35.2],[140.3,35.2],[140.3,35.3],[140.4,35.3],[140.4,35.5],[140.5,35.5],[140.5,35.6],[140.6,35.6],[140.6,35.7],[140.7,35.7],[140.7,35.8],[140.8,35.8],[140.8,36.0],[140.7,36.0],[140.7,36.2],[140.6,36.2],[140.6,36.4],[140.7,36.4],[140.7,36.7],[140.8,36.7],[140.8,36.9],[140.9,36.9],[140.9,37.0],[141.0,37.0],[141.0,37.1],[141.1,37.1],[141.1,37.8],[141.0,37.8],[141.0,38.3],[141.1,38.3],[141.1,38.4],[141.5,38.4],[141.5,38.5],[141.6,38.5],[141.6,38.9],[141.7,38.9],[141.7,39.0],[141.8,39.0],[141.8,39.1],[141.9,39.1],[141.9,39.2],[142.0,39.2],[142.0,39.4],[142.1,39.4],[142.1,39.8],[142.0,39.8],[142.0,40.1],[141.9,40.1],[141.9,40.3],[141.8,40.3],[141.8,40.5],[141.7,40.5],[141.7,40.6],[141.6,40.6],[141.6,40.7],[141.5,40.7],[141.5,40.9],[141.4,40.9],[141.4,41.4],[141.3,41.4],[141.3,41.5],[141.1,41.5],[141.1,41.6],[140.9,41.6],[140.9,41.5],[140.8,41.5],[140.8,41.3],[140.9,41.3],[140.9,41.2],[141.0,41.2],[141.0,41.0],[140.8,41.0],[140.8,41.1],[140.7,41.1],[140.7,41.2],[140.6,41.2],[140.6,41.3],[140.4,41.3],[140.4,41.2],[140.3,41.2],[140.3,40.9],[140.2,40.9],[140.2,40.8],[140.0,40.8],[140.0,40.7],[139.9,40.7],[139.9,40.5],[140.0,40.5],[140.0,40.2],[139.9,40.2],[139.9,39.9],[140.0,39.9],[140.0,39.8],[140.1,39.8],[140.1,39.5],[140.0,39.5],[140.0,39.4],[139.9,39.4],[139.9,39.1],[139.8,39.1],[139.8,38.9],[139.7,38.9],[139.7,38.8],[139.6,38.8],[139.6,38.6],[139.5,38.6],[139.5,38.4],[139.4,38.4],[139.4,38.2],[139.3,38.2],[139.3,38.1],[139.2,38.1],[139.2,38.0],[138.9,38.0],[138.9,37.9],[138.8,37.9],[138.8,37.7],[138.7,37.7],[138.7,37.6],[138.6,37.6],[138.6,37.5],[138.5,37.5],[138.5,37.4],[138.4,37.4],[138.4,37.3],[138.2,37.3],[138.2,37.2],[138.0,37.2],[138.0,37.1],[137.6,37.1],[137.6,37.0],[137.4,37.0],[137.4,36.9],[137.2,36.9],[137.2,37.0],[137.1,37.0],[137.1,37.2],[137.2,37.2],[137.2,37.5],[136.8,37.5],[136.8,37.4],[136.7,37.4],[136.7,37.1],[136.8,37.1],[136.8,36.9],[136.7,36.9],[136.7,36.7],[136.6,36.7],[136.6,36.6],[136.5,36.6],[136.5,36.5],[136.3,36.5],[136.3,36.4],[136.2,36.4],[136.2,36.3],[136.1,36.3],[136.1,36.2],[136.0,36.2],[136.0,35.8],[135.9,35.8],[135.9,35.7],[135.7,35.7],[135.7,35.6],[135.5,35.6],[135.5,35.7],[135.4,35.7],[135.4,35.8],[135.0,35.8],[135.0,35.7],[134.3,35.7],[134.3,35.6],[133.4,35.6],[133.4,35.7],[133.0,35.7],[133.0,35.6],[132.8,35.6],[132.8,35.5],[132.7,35.5],[132.7,35.4],[132.6,35.4],[132.6,35.3],[132.4,35.3],[132.4,35.2],[132.3,35.2],[132.3,35.1],[132.2,35.1],[132.2,35.0],[132.0,35.0],[132.0,34.9],[131.9,34.9],[131.9,34.8],[131.6,34.8],[131.6,34.7],[131.5,34.7],[131.5,34.6],[131.4,34.6],[131.4,34.5],[131.0,34.5],[131.0,34.4],[130.9,34.4],[130.9,34.0],[130.5,34.0],[130.5,33.9],[130.4,33.9],[130.4,33.8],[130.2,33.8],[130.2,33.7],[130.1,33.7],[130.1,33.6],[129.9,33.6],[129.9,33.7],[129.7,33.7],[129.7,33.5],[129.5,33.5],[129.5,33.4],[129.6,33.4],[129.6,33.0],[129.7,33.0],[129.7,32.8],[129.8,32.8],[129.8,32.7],[130.0,32.7],[130.0,32.8],[129.9,32.8],[129.9,33.0],[130.1,33.0],[130.1,32.7],[130.3,32.7],[130.3,32.9],[130.4,32.9],[130.4,33.0],[130.3,33.0],[130.3,33.1],[130.2,33.1],[130.2,33.2],[130.4,33.2],[130.4,33.1],[130.5,33.1],[130.5,32.9],[130.6,32.9],[130.6,32.8],[130.5,32.8],[130.5,32.7],[130.4,32.7],[130.4,32.6],[130.2,32.6],[130.2,32.5],[130.1,32.5],[130.1,32.1],[130.2,32.1],[130.2,31.8],[130.3,31.8],[130.3,31.5],[130.2,31.5],[130.2,31.4],[130.3,31.4],[130.3,31.3],[130.5,31.3],[130.5,31.2],[130.7,31.2],[130.7,31.4],[130.6,31.4],[130.6,31.6],[130.7,31.6],[130.7,31.5],[130.8,31.5],[130.8,31.6],[130.9,31.6],[130.9,31.5],[131.0,31.5],[131.0,31.4],[130.8,31.4],[130.8,31.2],[131.1,31.2],[131.1,31.3],[131.2,31.3],[131.2,31.4],[131.4,31.4],[131.4,31.5],[131.5,31.5],[131.5,32.1],[131.6,32.1],[131.6,32.4],[131.7,32.4],[131.7,32.5],[131.8,32.5],[131.8,32.7],[131.9,32.7],[131.9,32.8],[132.0,32.8],[132.0,33.3],[131.9,33.3],[131.9,33.4],[131.8,33.4],[131.8,33.7],[131.7,33.7],[131.7,33.8],[131.5,33.8],[131.5,33.7],[131.2,33.7],[131.2,33.9],[131.1,33.9],[131.1,34.0],[131.9,34.0],[131.9,33.9],[132.0,33.9],[132.0,33.8],[132.3,33.8],[132.3,33.9],[132.4,33.9],[132.4,34.0]],[[139.9,35.3],[139.8,35.3],[139.8,35.4],[139.7,35.4],[139.7,35.5],[139.8,35.5],[139.8,35.7],[140.1,35.7],[140.1,35.6],[140.0,35.6],[140.0,35.5],[139.9,35.5],[139.9,35.3]]],[[[134.4,33.7],[134.6,33.7],[134.6,33.8],[134.7,33.8],[134.7,34.2],[134.6,34.2],[134.6,34.3],[134.5,34.3],[134.5,34.4],[134.2,34.4],[134.2,34.3],[133.9,34.3],[133.9,34.4],[133.8,34.4],[133.8,34.3],[133.6,34.3],[133.6,34.1],[133.3,34.1],[133.3,34.2],[132.9,34.2],[132.9,34.1],[132.8,34.1],[132.8,34.0],[132.7,34.0],[132.7,33.8],[132.6,33.8],[132.6,33.7],[132.4,33.7],[132.4,33.6],[132.3,33.6],[132.3,33.4],[132.4,33.4],[132.4,33.1],[132.5,33.1],[132.5,33.0],[132.6,33.0],[132.6,32.9],[132.7,32.9],[132.7,32.8],[133.0,32.8],[133.0,32.9],[133.1,32.9],[133.1,33.1],[133.2,33.1],[133.2,33.2],[133.3,33.2],[133.3,33.3],[133.4,33.3],[133.4,33.4],[133.5,33.4],[133.5,33.5],[133.6,33.5],[133.6,33.6],[133.9,33.6],[133.9,33.5],[134.0,33.5],[134.0,33.4],[134.2,33.4],[134.2,33.5],[134.3,33.5],[134.3,33.6],[134.4,33.6],[134.4,33.7]]],[[[134.9,34.5],[134.8,34.5],[134.8,34.4],[134.7,34.4],[134.7,34.2],[134.9,34.2],[134.9,34.3],[135.0,34.3],[135.0,34.6],[134.9,34.6],[134.9,34.5]]],[[[129.9,34.6],[130.0,34.6],[130.0,34.7],[129.9,34.7],[129.9,34.8],[130.0,34.8],[130.0,35.0],[129.9,35.0],[129.9,34.9],[129.8,34.9],[129.8,34.7],[129.7,34.7],[129.7,34.3],[129.8,34.3],[129.8,34.4],[129.9,34.4],[129.9,34.6]]],[[[138.6,38.1],[138.6,38.2],[138.5,38.2],[138.5,38.3],[138.6,38.3],[138.6,38.4],[138.4,38.4],[138.4,38.3],[138.3,38.3],[138.3,38.2],[138.2,38.2],[138.2,38.1],[138.3,38.1],[138.3,38.0],[138.2,38.0],[138.2,37.9],[138.4,37.9],[138.4,38.0],[138.5,38.0],[138.5,38.1],[138.6,38.1]]]]},"properties":{"start_year":1225,"end_year":1227,"source_color":"#009900","polity_id":null,"polity_assignment":"unverified","geometry_origin":"raster_color_trace_stitched","pixel_size_degrees":0.1,"sources":[{"feature_id":"50:1225:#009900","tile_id":"50","start_year":1225,"end_year":1227,"source_image":"data/raw/toolbay/t/50/1225.png","source_url":"https://www.toolbay.cc/history-map/t/50/1225.png"},{"feature_id":"51:1225:#009900","tile_id":"51","start_year":1225,"end_year":1227,"source_image":"data/raw/toolbay/t/51/1225.png","source_url":"https://www.toolbay.cc/history-map/t/51/1225.png"},{"feature_id":"61:1221:#009900","tile_id":"61","start_year":1221,"end_year":1227,"source_image":"data/raw/toolbay/t/61/1221.png","source_url":"https://www.toolbay.cc/history-map/t/61/1221.png"},{"feature_id":"71:1221:#009900","tile_id":"71","start_year":1221,"end_year":1233,"source_image":"data/raw/toolbay/t/71/1221.png","source_url":"https://www.toolbay.cc/history-map/t/71/1221.png"}]}},{"type":"Feature","id":"merged:1225:#009999","bbox":[99.4,8.6,141.1,52.0],"geometry":{"type":"MultiPolygon","coordinates":[[[[102.6,18.8],[102.6,18.9],[102.5,18.9],[102.5,19.0],[101.3,19.0],[101.3,18.8],[101.2,18.8],[101.2,18.6],[101.1,18.6],[101.1,18.4],[101.0,18.4],[101.0,18.3],[100.9,18.3],[100.9,18.0],[100.8,18.0],[100.8,17.9],[100.7,17.9],[100.7,17.8],[100.6,17.8],[100.6,17.6],[100.5,17.6],[100.5,17.5],[100.4,17.5],[100.4,17.4],[100.3,17.4],[100.3,17.2],[100.2,17.2],[100.2,17.0],[100.1,17.0],[100.1,16.8],[100.0,16.8],[100.0,16.3],[99.9,16.3],[99.9,16.0],[99.8,16.0],[99.8,15.7],[99.7,15.7],[99.7,15.2],[99.6,15.2],[99.6,15.0],[99.5,15.0],[99.5,14.6],[99.4,14.6],[99.4,14.3],[99.5,14.3],[99.5,14.1],[99.6,14.1],[99.6,14.0],[99.7,14.0],[99.7,13.9],[99.8,13.9],[99.8,13.8],[99.9,13.8],[99.9,13.7],[100.0,13.7],[100.0,13.6],[100.1,13.6],[100.1,13.5],[100.6,13.5],[100.6,13.6],[100.8,13.6],[100.8,13.5],[100.9,13.5],[100.9,12.8],[101.0,12.8],[101.0,12.7],[101.9,12.7],[101.9,12.6],[102.0,12.6],[102.0,12.5],[102.2,12.5],[102.2,12.4],[102.3,12.4],[102.3,12.2],[102.7,12.2],[102.7,12.1],[102.8,12.1],[102.8,11.8],[102.9,11.8],[102.9,11.6],[103.0,11.6],[103.0,11.3],[103.1,11.3],[103.1,10.9],[103.4,10.9],[103.4,11.0],[103.6,11.0],[103.6,10.6],[103.7,10.6],[103.7,10.5],[103.8,10.5],[103.8,10.4],[104.0,10.4],[104.0,10.5],[104.2,10.5],[104.2,10.6],[104.3,10.6],[104.3,10.5],[104.4,10.5],[104.4,10.4],[104.5,10.4],[104.5,10.3],[104.7,10.3],[104.7,10.2],[104.9,10.2],[104.9,10.1],[105.0,10.1],[105.0,9.9],[104.9,9.9],[104.9,9.7],[104.8,9.7],[104.8,8.7],[104.9,8.7],[104.9,8.6],[105.1,8.6],[105.1,8.7],[105.2,8.7],[105.2,8.8],[105.3,8.8],[105.3,8.9],[105.4,8.9],[105.4,9.0],[105.5,9.0],[105.5,9.1],[105.6,9.1],[105.6,9.2],[105.8,9.2],[105.8,9.3],[106.1,9.3],[106.1,9.4],[106.2,9.4],[106.2,9.5],[106.3,9.5],[106.3,9.6],[106.5,9.6],[106.5,9.7],[106.6,9.7],[106.6,9.8],[106.7,9.8],[106.7,10.0],[106.8,10.0],[106.8,10.4],[106.9,10.4],[106.9,10.6],[106.8,10.6],[106.8,10.7],[106.7,10.7],[106.7,10.8],[106.6,10.8],[106.6,10.9],[106.7,10.9],[106.7,11.1],[106.8,11.1],[106.8,11.3],[106.9,11.3],[106.9,11.4],[107.0,11.4],[107.0,11.6],[107.1,11.6],[107.1,11.7],[107.2,11.7],[107.2,11.8],[107.3,11.8],[107.3,12.0],[107.4,12.0],[107.4,12.3],[107.5,12.3],[107.5,12.6],[107.6,12.6],[107.6,12.8],[107.7,12.8],[107.7,14.0],[107.6,14.0],[107.6,14.2],[107.5,14.2],[107.5,14.4],[107.4,14.4],[107.4,14.5],[107.3,14.5],[107.3,14.6],[107.2,14.6],[107.2,14.7],[107.1,14.7],[107.1,14.8],[107.0,14.8],[107.0,14.9],[106.9,14.9],[106.9,15.0],[106.7,15.0],[106.7,15.1],[106.6,15.1],[106.6,15.2],[106.5,15.2],[106.5,15.3],[106.4,15.3],[106.4,15.4],[106.3,15.4],[106.3,15.5],[106.2,15.5],[106.2,15.6],[106.1,15.6],[106.1,15.7],[106.0,15.7],[106.0,15.8],[105.9,15.8],[105.9,15.9],[105.8,15.9],[105.8,16.0],[105.6,16.0],[105.6,16.1],[105.4,16.1],[105.4,16.2],[105.2,16.2],[105.2,16.3],[105.1,16.3],[105.1,16.4],[105.0,16.4],[105.0,16.5],[104.9,16.5],[104.9,16.6],[104.8,16.6],[104.8,16.8],[104.7,16.8],[104.7,16.9],[104.6,16.9],[104.6,17.1],[104.5,17.1],[104.5,17.3],[104.4,17.3],[104.4,17.6],[104.3,17.6],[104.3,18.0],[104.2,18.0],[104.2,18.1],[104.1,18.1],[104.1,18.2],[103.6,18.2],[103.6,18.3],[103.3,18.3],[103.3,18.4],[103.1,18.4],[103.1,18.5],[103.0,18.5],[103.0,18.6],[102.9,18.6],[102.9,18.7],[102.7,18.7],[102.7,18.8],[102.6,18.8]],[[105.3,10.7],[105.1,10.7],[105.1,10.8],[105.2,10.8],[105.2,10.9],[105.3,10.9],[105.3,10.7]]],[[[134.9,43.4],[134.9,43.5],[135.0,43.5],[135.1,43.5],[135.1,43.6],[135.3,43.6],[135.3,43.7],[135.4,43.7],[135.4,43.8],[135.5,43.8],[135.5,43.9],[135.6,43.9],[135.6,44.1],[135.7,44.1],[135.7,44.3],[135.8,44.3],[135.8,44.4],[135.9,44.4],[135.9,44.5],[136.2,44.5],[136.2,44.6],[136.3,44.6],[136.3,44.7],[136.4,44.7],[136.4,44.8],[136.5,44.8],[136.5,44.9],[136.6,44.9],[136.6,45.0],[136.7,45.0],[136.7,45.1],[136.8,45.1],[136.8,45.2],[136.9,45.2],[136.9,45.3],[137.0,45.3],[137.0,45.4],[137.2,45.4],[137.2,45.5],[137.3,45.5],[137.3,45.6],[137.4,45.6],[137.4,45.7],[137.5,45.7],[137.5,45.8],[137.7,45.8],[137.7,45.9],[137.8,45.9],[137.8,46.0],[137.9,46.0],[137.9,46.1],[138.0,46.1],[138.0,46.2],[138.1,46.2],[138.1,46.4],[138.2,46.4],[138.2,46.5],[138.3,46.5],[138.3,46.6],[138.4,46.6],[138.4,46.8],[138.5,46.8],[138.5,47.0],[138.6,47.0],[138.6,47.1],[138.7,47.1],[138.7,47.2],[138.8,47.2],[138.8,47.3],[139.0,47.3],[139.0,47.4],[139.1,47.4],[139.1,47.6],[139.2,47.6],[139.2,47.8],[139.3,47.8],[139.3,47.9],[139.4,47.9],[139.4,48.0],[139.6,48.0],[139.6,48.1],[139.7,48.1],[139.7,48.2],[139.9,48.2],[139.9,48.3],[140.0,48.3],[140.0,48.4],[140.1,48.4],[140.1,48.5],[140.2,48.5],[140.2,48.8],[140.3,48.8],[140.3,48.9],[140.4,48.9],[140.4,49.3],[140.5,49.3],[140.5,49.5],[140.6,49.5],[140.6,50.3],[140.5,50.3],[140.5,50.9],[140.6,50.9],[140.6,51.0],[140.7,51.0],[140.7,51.3],[140.8,51.3],[140.8,51.5],[140.9,51.5],[140.9,51.6],[141.0,51.6],[141.0,51.7],[141.1,51.7],[141.1,51.9],[140.8,51.9],[140.8,52.0],[140.1,52.0],[140.1,51.9],[139.1,51.9],[139.1,51.8],[138.5,51.8],[138.5,51.7],[138.2,51.7],[138.2,51.6],[138.0,51.6],[138.0,51.5],[137.8,51.5],[137.8,51.4],[137.7,51.4],[137.7,51.3],[137.5,51.3],[137.5,51.2],[137.2,51.2],[137.2,51.1],[137.1,51.1],[137.1,51.0],[136.9,51.0],[136.9,50.9],[136.8,50.9],[136.8,50.8],[136.6,50.8],[136.6,50.7],[136.5,50.7],[136.5,50.6],[136.4,50.6],[136.4,50.5],[136.3,50.5],[136.3,50.4],[136.1,50.4],[136.1,50.3],[135.9,50.3],[135.9,50.2],[135.8,50.2],[135.8,50.1],[135.7,50.1],[135.7,50.0],[135.5,50.0],[135.5,49.9],[135.3,49.9],[135.3,49.8],[135.1,49.8],[135.1,49.7],[135.0,49.7],[135.0,49.6],[134.9,49.6],[134.9,49.5],[133.8,49.5],[133.8,49.4],[133.6,49.4],[133.6,49.3],[133.3,49.3],[133.3,49.2],[133.1,49.2],[133.1,49.1],[132.8,49.1],[132.8,49.0],[132.7,49.0],[132.7,48.9],[132.5,48.9],[132.5,48.8],[132.3,48.8],[132.3,48.7],[132.1,48.7],[132.1,48.6],[131.8,48.6],[131.8,48.5],[131.7,48.5],[131.7,48.4],[131.3,48.4],[131.3,48.3],[131.1,48.3],[131.1,48.2],[130.9,48.2],[130.9,48.1],[130.7,48.1],[130.7,48.0],[130.5,48.0],[130.5,47.9],[130.2,47.9],[130.2,47.8],[130.0,47.8],[130.0,47.7],[129.7,47.7],[129.7,47.6],[129.4,47.6],[129.4,47.5],[129.3,47.5],[129.3,47.4],[129.1,47.4],[129.1,47.3],[128.8,47.3],[128.8,47.2],[128.6,47.2],[128.6,47.1],[128.3,47.1],[128.3,47.0],[128.0,47.0],[128.0,46.9],[127.4,46.9],[127.4,46.8],[127.0,46.8],[127.0,46.7],[126.7,46.7],[126.7,46.6],[126.5,46.6],[126.5,46.5],[126.3,46.5],[126.3,46.4],[126.1,46.4],[126.1,46.3],[125.8,46.3],[125.8,46.2],[125.6,46.2],[125.6,46.1],[125.4,46.1],[125.4,46.0],[125.2,46.0],[125.2,45.9],[124.9,45.9],[124.9,45.8],[124.5,45.8],[124.5,45.7],[124.1,45.7],[124.1,45.6],[123.8,45.6],[123.8,45.5],[123.5,45.5],[123.5,45.4],[123.1,45.4],[123.1,45.3],[122.9,45.3],[122.9,45.2],[122.5,45.2],[122.5,45.1],[122.3,45.1],[122.3,45.0],[122.1,45.0],[122.1,44.9],[121.9,44.9],[121.9,44.8],[121.7,44.8],[121.7,44.7],[121.6,44.7],[121.6,43.4],[121.7,43.4],[121.7,43.2],[121.8,43.2],[121.8,43.1],[121.9,43.1],[121.9,42.9],[122.9,42.9],[122.9,42.8],[123.3,42.8],[123.3,42.7],[123.6,42.7],[123.6,42.6],[123.8,42.6],[123.8,42.5],[124.0,42.5],[124.0,42.4],[125.0,42.4],[125.0,42.3],[125.7,42.3],[125.7,42.2],[126.0,42.2],[126.0,42.1],[126.1,42.1],[126.1,42.0],[126.3,42.0],[126.3,41.9],[126.4,41.9],[126.4,41.8],[126.6,41.8],[126.6,41.7],[126.8,41.7],[126.8,41.5],[126.9,41.5],[126.9,41.4],[127.1,41.4],[127.1,41.2],[127.2,41.2],[127.2,41.1],[127.3,41.1],[127.3,41.0],[127.4,41.0],[127.4,40.9],[127.5,40.9],[127.5,40.7],[127.6,40.7],[127.6,40.0],[127.7,40.0],[127.7,39.9],[127.9,39.9],[127.9,40.0],[128.3,40.0],[128.3,40.1],[128.5,40.1],[128.5,40.2],[128.6,40.2],[128.6,40.3],[128.8,40.3],[128.8,40.4],[128.9,40.4],[128.9,40.5],[129.1,40.5],[129.1,40.6],[129.2,40.6],[129.2,40.7],[129.4,40.7],[129.4,40.8],[129.6,40.8],[129.6,40.9],[129.7,40.9],[129.7,41.0],[129.8,41.0],[129.8,41.8],[129.9,41.8],[129.9,41.9],[130.0,41.9],[130.0,42.0],[130.1,42.0],[130.1,42.1],[130.2,42.1],[130.2,42.2],[130.4,42.2],[130.4,42.3],[130.5,42.3],[130.5,42.4],[130.6,42.4],[130.6,42.5],[130.9,42.5],[130.9,42.6],[131.2,42.6],[131.2,42.7],[131.3,42.7],[131.3,42.8],[131.4,42.8],[131.4,42.9],[131.5,42.9],[131.5,43.0],[131.9,43.0],[131.9,43.1],[132.3,43.1],[132.3,43.0],[132.4,43.0],[132.4,42.9],[132.8,42.9],[132.8,42.8],[133.0,42.8],[133.0,42.7],[133.3,42.7],[133.3,42.8],[133.7,42.8],[133.7,42.9],[134.0,42.9],[134.0,43.0],[134.2,43.0],[134.2,43.1],[134.4,43.1],[134.4,43.2],[134.5,43.2],[134.5,43.3],[134.8,43.3],[134.8,43.4],[134.9,43.4]]]]},"properties":{"start_year":1225,"end_year":1227,"source_color":"#009999","polity_id":null,"polity_assignment":"unverified","geometry_origin":"raster_color_trace_stitched","pixel_size_degrees":0.1,"sources":[{"feature_id":"60:1215:#009999","tile_id":"60","start_year":1215,"end_year":1227,"source_image":"data/raw/toolbay/t/60/1215.png","source_url":"https://www.toolbay.cc/history-map/t/60/1215.png"},{"feature_id":"61:1221:#009999","tile_id":"61","start_year":1221,"end_year":1227,"source_image":"data/raw/toolbay/t/61/1221.png","source_url":"https://www.toolbay.cc/history-map/t/61/1221.png"},{"feature_id":"70:1215:#009999","tile_id":"70","start_year":1215,"end_year":1233,"source_image":"data/raw/toolbay/t/70/1215.png","source_url":"https://www.toolbay.cc/history-map/t/70/1215.png"},{"feature_id":"71:1221:#009999","tile_id":"71","start_year":1221,"end_year":1233,"source_image":"data/raw/toolbay/t/71/1221.png","source_url":"https://www.toolbay.cc/history-map/t/71/1221.png"}]}},{"type":"Feature","id":"merged:1225:#00ff00","bbox":[73.6,12.1,127.7,42.9],"geometry":{"type":"MultiPolygon","coordinates":[[[[76.1,16.9],[76.1,17.0],[75.6,17.0],[75.6,16.9],[75.5,16.9],[75.5,16.8],[75.3,16.8],[75.3,16.7],[75.2,16.7],[75.2,16.6],[75.1,16.6],[75.1,16.5],[74.9,16.5],[74.9,16.4],[74.7,16.4],[74.7,16.3],[74.4,16.3],[74.4,16.2],[74.2,16.2],[74.2,16.1],[73.9,16.1],[73.9,16.0],[73.6,16.0],[73.6,15.9],[73.7,15.9],[73.7,15.6],[73.8,15.6],[73.8,15.4],[73.9,15.4],[73.9,15.1],[74.0,15.1],[74.0,15.0],[74.1,15.0],[74.1,14.9],[74.2,14.9],[74.2,14.7],[74.3,14.7],[74.3,14.5],[74.4,14.5],[74.4,14.3],[74.5,14.3],[74.5,14.0],[74.6,14.0],[74.6,13.7],[74.7,13.7],[74.7,13.3],[74.8,13.3],[74.8,12.8],[74.9,12.8],[74.9,12.6],[75.0,12.6],[75.0,12.4],[75.1,12.4],[75.1,12.2],[75.2,12.2],[75.2,12.1],[75.7,12.1],[75.7,12.2],[76.3,12.2],[76.3,12.3],[76.4,12.3],[76.4,12.4],[76.6,12.4],[76.6,12.5],[76.9,12.5],[76.9,12.6],[77.2,12.6],[77.2,12.7],[77.3,12.7],[77.3,12.8],[77.4,12.8],[77.4,13.1],[77.5,13.1],[77.5,13.4],[77.6,13.4],[77.6,13.8],[77.7,13.8],[77.7,14.2],[77.8,14.2],[77.8,15.1],[77.7,15.1],[77.7,15.2],[77.6,15.2],[77.6,15.3],[77.5,15.3],[77.5,15.5],[77.4,15.5],[77.4,15.7],[77.3,15.7],[77.3,15.8],[77.2,15.8],[77.2,15.9],[77.1,15.9],[77.1,16.1],[77.0,16.1],[77.0,16.3],[76.9,16.3],[76.9,16.4],[76.8,16.4],[76.8,16.5],[76.6,16.5],[76.6,16.6],[76.5,16.6],[76.5,16.7],[76.4,16.7],[76.4,16.8],[76.3,16.8],[76.3,16.9],[76.1,16.9]]],[[[106.4,23.5],[106.4,23.6],[106.3,23.6],[106.3,24.5],[105.8,24.5],[105.8,24.4],[105.7,24.4],[105.7,24.3],[105.6,24.3],[105.6,24.2],[105.4,24.2],[105.4,24.1],[105.3,24.1],[105.3,24.0],[105.2,24.0],[105.2,23.9],[105.1,23.9],[105.1,23.8],[105.0,23.8],[105.0,23.7],[104.9,23.7],[104.9,23.6],[104.8,23.6],[104.8,23.4],[104.7,23.4],[104.7,23.3],[104.6,23.3],[104.6,23.2],[104.5,23.2],[104.5,23.1],[104.4,23.1],[104.4,23.0],[104.0,23.0],[104.0,23.1],[103.8,23.1],[103.8,23.2],[101.9,23.2],[101.9,23.1],[101.4,23.1],[101.4,23.0],[101.1,23.0],[101.1,22.9],[101.0,22.9],[101.0,22.8],[100.6,22.8],[100.6,22.7],[100.4,22.7],[100.4,22.6],[100.2,22.6],[100.2,22.5],[100.1,22.5],[100.1,22.4],[100.0,22.4],[100.0,22.1],[100.1,22.1],[100.1,22.0],[100.2,22.0],[100.2,21.9],[100.3,21.9],[100.3,21.8],[100.4,21.8],[100.4,21.6],[100.5,21.6],[100.5,21.4],[100.6,21.4],[100.6,21.3],[100.7,21.3],[100.7,21.2],[100.8,21.2],[100.8,21.0],[100.9,21.0],[100.9,20.9],[101.0,20.9],[101.0,20.7],[101.1,20.7],[101.1,20.6],[101.2,20.6],[101.2,20.5],[101.3,20.5],[101.3,20.4],[101.4,20.4],[101.4,20.3],[101.5,20.3],[101.5,20.2],[101.6,20.2],[101.6,20.1],[101.7,20.1],[101.7,20.0],[101.8,20.0],[101.8,19.9],[101.9,19.9],[101.9,19.8],[102.0,19.8],[102.0,19.7],[102.1,19.7],[102.1,19.6],[102.3,19.6],[102.3,19.5],[102.5,19.5],[102.5,19.4],[102.7,19.4],[102.7,19.3],[103.0,19.3],[103.0,19.2],[103.2,19.2],[103.2,19.1],[103.3,19.1],[103.3,18.9],[103.5,18.9],[103.5,18.8],[103.6,18.8],[103.6,18.7],[103.7,18.7],[103.7,18.6],[103.8,18.6],[103.8,18.5],[103.9,18.5],[103.9,18.3],[104.1,18.3],[104.1,18.1],[104.2,18.1],[104.2,18.0],[104.3,18.0],[104.3,17.6],[104.4,17.6],[104.4,17.3],[104.5,17.3],[104.5,17.1],[104.6,17.1],[104.6,16.9],[104.7,16.9],[104.7,16.8],[104.8,16.8],[104.8,16.6],[104.9,16.6],[104.9,16.5],[105.0,16.5],[105.0,16.4],[105.1,16.4],[105.1,16.3],[105.2,16.3],[105.2,16.2],[105.4,16.2],[105.4,16.1],[105.6,16.1],[105.6,16.0],[106.6,16.0],[106.6,16.1],[106.8,16.1],[106.8,16.2],[107.0,16.2],[107.0,16.3],[107.2,16.3],[107.2,16.4],[107.3,16.4],[107.3,16.5],[107.4,16.5],[107.4,16.6],[107.5,16.6],[107.5,16.8],[107.4,16.8],[107.4,16.9],[107.3,16.9],[107.3,17.0],[107.2,17.0],[107.2,17.1],[107.1,17.1],[107.1,17.2],[107.0,17.2],[107.0,17.3],[106.9,17.3],[106.9,17.4],[106.8,17.4],[106.8,17.5],[106.7,17.5],[106.7,17.6],[106.6,17.6],[106.6,17.8],[106.5,17.8],[106.5,18.2],[106.4,18.2],[106.4,18.3],[106.2,18.3],[106.2,18.4],[106.1,18.4],[106.1,18.5],[106.0,18.5],[106.0,18.6],[105.9,18.6],[105.9,18.7],[105.8,18.7],[105.8,18.9],[105.7,18.9],[105.7,19.1],[105.8,19.1],[105.8,19.3],[105.9,19.3],[105.9,19.8],[106.0,19.8],[106.0,19.9],[106.1,19.9],[106.1,20.0],[106.2,20.0],[106.2,20.1],[106.3,20.1],[106.3,20.2],[106.4,20.2],[106.4,20.3],[106.5,20.3],[106.5,20.4],[106.6,20.4],[106.6,20.6],[106.7,20.6],[106.7,20.7],[106.9,20.7],[106.9,20.8],[107.1,20.8],[107.1,20.9],[107.5,20.9],[107.5,21.0],[107.6,21.0],[107.6,21.1],[107.7,21.1],[107.7,21.3],[107.6,21.3],[107.6,21.5],[107.5,21.5],[107.5,21.7],[107.4,21.7],[107.4,21.8],[107.3,21.8],[107.3,22.0],[107.2,22.0],[107.2,22.1],[107.1,22.1],[107.1,22.3],[107.0,22.3],[107.0,22.5],[106.9,22.5],[106.9,22.7],[106.8,22.7],[106.8,23.0],[106.7,23.0],[106.7,23.2],[106.6,23.2],[106.6,23.3],[106.5,23.3],[106.5,23.5],[106.4,23.5]]],[[[123.3,42.7],[123.3,42.8],[122.9,42.8],[122.9,42.9],[121.9,42.9],[121.9,42.8],[121.8,42.8],[121.8,42.6],[121.7,42.6],[121.7,42.4],[121.6,42.4],[121.6,42.2],[121.5,42.2],[121.5,42.0],[121.4,42.0],[121.4,41.6],[121.3,41.6],[121.3,41.0],[121.2,41.0],[121.2,40.9],[121.5,40.9],[121.5,41.0],[121.8,41.0],[121.8,40.9],[121.9,40.9],[121.9,40.8],[122.1,40.8],[122.1,40.7],[122.2,40.7],[122.2,40.4],[122.1,40.4],[122.1,40.3],[122.0,40.3],[122.0,40.2],[121.9,40.2],[121.9,40.1],[121.8,40.1],[121.8,40.0],[121.6,40.0],[121.6,39.9],[121.5,39.9],[121.5,39.8],[121.4,39.8],[121.4,39.7],[121.3,39.7],[121.3,39.5],[121.4,39.5],[121.4,39.3],[121.5,39.3],[121.5,39.2],[121.4,39.2],[121.4,39.1],[121.3,39.1],[121.3,38.8],[121.5,38.8],[121.5,38.9],[121.9,38.9],[121.9,39.0],[122.0,39.0],[122.0,39.1],[122.1,39.1],[122.1,39.2],[122.2,39.2],[122.2,39.3],[122.5,39.3],[122.5,39.4],[122.6,39.4],[122.6,39.5],[122.7,39.5],[122.7,39.6],[122.9,39.6],[122.9,39.7],[123.3,39.7],[123.3,39.8],[123.7,39.8],[123.7,39.9],[124.2,39.9],[124.2,39.8],[124.5,39.8],[124.5,39.7],[124.7,39.7],[124.7,39.6],[125.3,39.6],[125.3,39.5],[125.7,39.5],[125.7,39.6],[126.0,39.6],[126.0,39.7],[126.8,39.7],[126.8,39.6],[127.1,39.6],[127.1,39.5],[127.6,39.5],[127.6,39.8],[127.7,39.8],[127.7,40.0],[127.6,40.0],[127.6,40.7],[127.5,40.7],[127.5,40.9],[127.4,40.9],[127.4,41.0],[127.3,41.0],[127.3,41.1],[127.2,41.1],[127.2,41.2],[127.1,41.2],[127.1,41.4],[126.9,41.4],[126.9,41.5],[126.8,41.5],[126.8,41.7],[126.6,41.7],[126.6,41.8],[126.4,41.8],[126.4,41.9],[126.3,41.9],[126.3,42.0],[126.1,42.0],[126.1,42.1],[126.0,42.1],[126.0,42.2],[125.7,42.2],[125.7,42.3],[125.0,42.3],[125.0,42.4],[124.0,42.4],[124.0,42.5],[123.8,42.5],[123.8,42.6],[123.6,42.6],[123.6,42.7],[123.3,42.7]]]]},"properties":{"start_year":1225,"end_year":1227,"source_color":"#00ff00","polity_id":null,"polity_assignment":"unverified","geometry_origin":"raster_color_trace_stitched","pixel_size_degrees":0.1,"sources":[{"feature_id":"51:1225:#00ff00","tile_id":"51","start_year":1225,"end_year":1227,"source_image":"data/raw/toolbay/t/51/1225.png","source_url":"https://www.toolbay.cc/history-map/t/51/1225.png"},{"feature_id":"61:1221:#00ff00","tile_id":"61","start_year":1221,"end_year":1227,"source_image":"data/raw/toolbay/t/61/1221.png","source_url":"https://www.toolbay.cc/history-map/t/61/1221.png"}]}},{"type":"Feature","id":"merged:1225:#00ffff","bbox":[124.9,33.3,129.6,39.7],"geometry":{"type":"MultiPolygon","coordinates":[[[[126.9,33.5],[126.8,33.5],[126.8,33.6],[126.4,33.6],[126.4,33.5],[126.3,33.5],[126.3,33.4],[126.4,33.4],[126.4,33.3],[126.8,33.3],[126.8,33.4],[126.9,33.4],[126.9,33.5]]],[[[127.1,39.6],[126.8,39.6],[126.8,39.7],[126.0,39.7],[126.0,39.6],[125.7,39.6],[125.7,39.5],[125.4,39.5],[125.4,39.3],[125.3,39.3],[125.3,39.1],[125.2,39.1],[125.2,39.0],[125.1,39.0],[125.1,38.7],[125.0,38.7],[125.0,38.6],[124.9,38.6],[124.9,38.1],[125.0,38.1],[125.0,37.9],[125.1,37.9],[125.1,37.8],[125.2,37.8],[125.2,37.7],[125.4,37.7],[125.4,37.8],[125.7,37.8],[125.7,37.9],[126.0,37.9],[126.0,37.8],[126.3,37.8],[126.3,37.7],[126.4,37.7],[126.4,37.4],[126.5,37.4],[126.5,37.2],[126.4,37.2],[126.4,37.1],[126.3,37.1],[126.3,37.0],[126.2,37.0],[126.2,36.9],[126.1,36.9],[126.1,36.7],[126.2,36.7],[126.2,36.6],[126.3,36.6],[126.3,36.5],[126.4,36.5],[126.4,36.4],[126.5,36.4],[126.5,36.2],[126.6,36.2],[126.6,35.8],[126.5,35.8],[126.5,35.5],[126.4,35.5],[126.4,35.4],[126.3,35.4],[126.3,35.3],[126.2,35.3],[126.2,35.2],[126.1,35.2],[126.1,35.1],[126.0,35.1],[126.0,34.9],[125.9,34.9],[125.9,34.6],[126.0,34.6],[126.0,34.5],[126.1,34.5],[126.1,34.4],[126.5,34.4],[126.5,34.3],[126.6,34.3],[126.6,34.2],[126.9,34.2],[126.9,34.3],[127.0,34.3],[127.0,34.4],[127.5,34.4],[127.5,34.5],[127.8,34.5],[127.8,34.6],[127.9,34.6],[127.9,34.7],[128.2,34.7],[128.2,34.8],[128.3,34.8],[128.3,34.7],[128.4,34.7],[128.4,34.8],[128.7,34.8],[128.7,34.9],[128.8,34.9],[128.8,35.0],[128.9,35.0],[128.9,35.1],[129.2,35.1],[129.2,35.2],[129.3,35.2],[129.3,35.4],[129.4,35.4],[129.4,35.5],[129.5,35.5],[129.5,35.8],[129.6,35.8],[129.6,36.1],[129.5,36.1],[129.5,36.2],[129.4,36.2],[129.4,36.5],[129.5,36.5],[129.5,37.1],[129.4,37.1],[129.4,37.4],[129.3,37.4],[129.3,37.5],[129.2,37.5],[129.2,37.7],[129.1,37.7],[129.1,37.8],[129.0,37.8],[129.0,37.9],[128.9,37.9],[128.9,38.0],[128.8,38.0],[128.8,38.1],[128.7,38.1],[128.7,38.3],[128.6,38.3],[128.6,38.5],[128.5,38.5],[128.5,38.6],[128.4,38.6],[128.4,38.7],[128.3,38.7],[128.3,38.8],[128.2,38.8],[128.2,38.9],[128.1,38.9],[128.1,39.0],[127.9,39.0],[127.9,39.1],[127.8,39.1],[127.8,39.2],[127.7,39.2],[127.7,39.3],[127.6,39.3],[127.6,39.5],[127.1,39.5],[127.1,39.6]]]]},"properties":{"start_year":1225,"end_year":1227,"source_color":"#00ffff","polity_id":null,"polity_assignment":"unverified","geometry_origin":"raster_color_trace_stitched","pixel_size_degrees":0.1,"sources":[{"feature_id":"61:1221:#00ffff","tile_id":"61","start_year":1221,"end_year":1227,"source_image":"data/raw/toolbay/t/61/1221.png","source_url":"https://www.toolbay.cc/history-map/t/61/1221.png"}]}},{"type":"Feature","id":"merged:1225:#993300","bbox":[73.8,36.8,126.1,59.0],"geometry":{"type":"Polygon","coordinates":[[[88.3,37.6],[88.3,37.7],[90.0,37.7],[90.5,37.7],[90.5,37.8],[90.8,37.8],[90.8,37.9],[91.1,37.9],[91.1,38.0],[91.3,38.0],[91.3,38.1],[91.4,38.1],[91.4,38.2],[91.6,38.2],[91.6,38.3],[91.7,38.3],[91.7,38.4],[91.9,38.4],[91.9,38.5],[92.1,38.5],[92.1,38.6],[92.3,38.6],[92.3,38.7],[92.7,38.7],[92.7,38.8],[93.0,38.8],[93.0,38.9],[93.4,38.9],[93.4,39.0],[94.8,39.0],[94.8,39.1],[95.0,39.1],[95.0,39.4],[94.9,39.4],[94.9,40.1],[94.8,40.1],[94.8,41.0],[94.9,41.0],[94.9,41.2],[95.0,41.2],[95.0,41.4],[95.1,41.4],[95.1,41.6],[95.2,41.6],[95.2,41.7],[95.3,41.7],[95.3,41.8],[95.4,41.8],[95.4,41.9],[95.6,41.9],[95.6,42.0],[96.0,42.0],[96.0,42.1],[96.1,42.1],[96.1,42.2],[96.5,42.2],[96.5,42.3],[96.7,42.3],[96.7,42.2],[97.2,42.2],[97.2,42.1],[97.7,42.1],[97.7,42.0],[98.1,42.0],[98.1,41.9],[98.4,41.9],[98.4,41.8],[98.7,41.8],[98.7,41.7],[99.2,41.7],[99.2,41.6],[99.5,41.6],[99.5,41.5],[99.7,41.5],[99.7,41.4],[100.4,41.4],[100.4,41.3],[100.6,41.3],[100.6,41.2],[101.1,41.2],[101.1,41.1],[101.6,41.1],[101.6,41.0],[101.8,41.0],[101.8,40.9],[102.0,40.9],[102.0,40.8],[102.2,40.8],[102.2,40.7],[102.5,40.7],[102.5,40.6],[102.7,40.6],[102.7,40.5],[102.9,40.5],[102.9,40.4],[103.6,40.4],[103.6,40.3],[104.0,40.3],[104.0,40.2],[104.2,40.2],[104.2,40.1],[104.5,40.1],[104.5,40.0],[104.6,40.0],[104.6,39.9],[104.7,39.9],[104.7,39.8],[104.9,39.8],[104.9,39.7],[105.0,39.7],[105.0,39.6],[105.1,39.6],[105.1,39.2],[105.2,39.2],[105.2,39.0],[105.3,39.0],[105.3,38.9],[105.5,38.9],[105.5,38.8],[105.7,38.8],[105.7,38.7],[105.9,38.7],[105.9,38.6],[107.2,38.6],[107.2,38.5],[108.0,38.5],[108.0,38.4],[108.3,38.4],[108.3,38.3],[108.6,38.3],[108.6,38.2],[108.9,38.2],[108.9,38.1],[109.0,38.1],[109.0,38.0],[109.3,38.0],[109.3,37.9],[109.6,37.9],[109.6,37.8],[110.2,37.8],[110.2,37.9],[110.3,37.9],[110.3,38.0],[110.5,38.0],[110.5,38.1],[110.7,38.1],[110.7,38.2],[111.0,38.2],[111.0,38.3],[111.2,38.3],[111.2,38.4],[111.5,38.4],[111.5,38.5],[111.7,38.5],[111.7,38.6],[111.9,38.6],[111.9,38.7],[112.2,38.7],[112.2,38.8],[112.4,38.8],[112.4,38.9],[112.7,38.9],[112.7,39.0],[113.0,39.0],[113.0,39.1],[113.5,39.1],[113.5,39.2],[113.9,39.2],[113.9,39.3],[114.4,39.3],[114.4,39.4],[115.2,39.4],[115.2,39.5],[116.6,39.5],[116.6,39.4],[116.9,39.4],[116.9,39.3],[117.1,39.3],[117.1,39.2],[117.3,39.2],[117.3,39.1],[117.4,39.1],[117.4,39.0],[117.7,39.0],[117.7,39.1],[117.9,39.1],[117.9,39.2],[118.2,39.2],[118.2,39.1],[118.9,39.1],[118.9,39.2],[119.1,39.2],[119.1,39.3],[119.2,39.3],[119.2,39.5],[119.3,39.5],[119.3,39.7],[119.4,39.7],[119.4,39.8],[119.6,39.8],[119.6,39.9],[119.7,39.9],[119.7,40.0],[120.0,40.0],[120.0,40.1],[120.2,40.1],[120.2,40.2],[120.5,40.2],[120.5,40.3],[120.6,40.3],[120.6,40.5],[120.7,40.5],[120.7,40.6],[120.9,40.6],[120.9,40.7],[121.0,40.7],[121.0,40.8],[121.1,40.8],[121.1,40.9],[121.2,40.9],[121.2,41.0],[121.3,41.0],[121.3,41.6],[121.4,41.6],[121.4,42.0],[121.5,42.0],[121.5,42.2],[121.6,42.2],[121.6,42.4],[121.7,42.4],[121.7,42.6],[121.8,42.6],[121.8,42.8],[121.9,42.8],[121.9,43.1],[121.8,43.1],[121.8,43.2],[121.7,43.2],[121.7,43.4],[121.6,43.4],[121.6,44.7],[121.7,44.7],[121.7,44.8],[121.9,44.8],[121.9,44.9],[122.1,44.9],[122.1,45.0],[122.3,45.0],[122.3,45.1],[122.5,45.1],[122.5,45.2],[122.9,45.2],[122.9,45.3],[123.1,45.3],[123.1,45.4],[123.5,45.4],[123.5,45.5],[123.8,45.5],[123.8,45.6],[124.1,45.6],[124.1,45.7],[124.5,45.7],[124.5,45.8],[124.9,45.8],[124.9,45.9],[125.2,45.9],[125.2,46.0],[125.4,46.0],[125.4,46.1],[125.6,46.1],[125.6,46.2],[125.8,46.2],[125.8,46.3],[126.0,46.3],[126.0,48.6],[126.1,48.6],[126.1,49.9],[126.0,49.9],[126.0,50.3],[125.9,50.3],[125.9,50.6],[125.8,50.6],[125.8,50.8],[125.7,50.8],[125.7,50.9],[125.6,50.9],[125.6,51.0],[125.5,51.0],[125.5,51.1],[125.4,51.1],[125.4,51.2],[125.3,51.2],[125.3,51.3],[125.2,51.3],[125.2,51.4],[125.1,51.4],[125.1,51.5],[125.0,51.5],[125.0,51.7],[124.8,51.7],[124.8,51.8],[124.6,51.8],[124.6,51.9],[124.5,51.9],[124.5,52.0],[124.4,52.0],[124.4,52.1],[124.3,52.1],[124.3,52.2],[124.1,52.2],[124.1,52.3],[123.9,52.3],[123.9,52.4],[123.8,52.4],[123.8,52.5],[123.7,52.5],[123.7,52.6],[123.5,52.6],[123.5,52.7],[123.3,52.7],[123.3,52.8],[123.1,52.8],[123.1,52.9],[122.9,52.9],[122.9,53.0],[122.7,53.0],[122.7,53.1],[122.3,53.1],[122.3,53.2],[122.1,53.2],[122.1,53.3],[121.9,53.3],[121.9,53.4],[121.5,53.4],[121.5,53.5],[121.4,53.5],[121.4,53.6],[121.2,53.6],[121.2,53.7],[121.1,53.7],[121.1,53.8],[120.9,53.8],[120.9,53.9],[120.8,53.9],[120.8,54.0],[120.6,54.0],[120.6,54.1],[120.4,54.1],[120.4,54.2],[120.2,54.2],[120.2,54.3],[120.1,54.3],[120.1,54.4],[119.9,54.4],[119.9,54.5],[119.6,54.5],[119.6,54.6],[119.5,54.6],[119.5,54.7],[119.4,54.7],[119.4,54.8],[119.2,54.8],[119.2,54.9],[119.1,54.9],[119.1,55.0],[118.8,55.0],[118.8,55.1],[118.7,55.1],[118.7,55.2],[118.5,55.2],[118.5,55.3],[118.4,55.3],[118.4,55.4],[118.0,55.4],[118.0,55.5],[117.8,55.5],[117.8,55.6],[117.5,55.6],[117.5,55.7],[117.2,55.7],[117.2,55.8],[117.0,55.8],[117.0,55.9],[116.8,55.9],[116.8,56.0],[116.6,56.0],[116.6,56.1],[116.3,56.1],[116.3,56.2],[116.0,56.2],[116.0,56.3],[115.9,56.3],[115.9,56.4],[115.8,56.4],[115.8,56.5],[115.5,56.5],[115.5,56.6],[115.3,56.6],[115.3,56.7],[115.2,56.7],[115.2,56.8],[115.0,56.8],[115.0,56.9],[114.9,56.9],[114.9,57.0],[114.7,57.0],[114.7,57.1],[114.5,57.1],[114.5,57.2],[114.4,57.2],[114.4,57.3],[114.3,57.3],[114.3,57.4],[114.2,57.4],[114.2,57.5],[114.0,57.5],[114.0,57.6],[113.8,57.6],[113.8,57.7],[113.6,57.7],[113.6,57.8],[113.3,57.8],[113.3,57.9],[113.1,57.9],[113.1,58.0],[112.9,58.0],[112.9,58.1],[112.6,58.1],[112.6,58.2],[112.4,58.2],[112.4,58.3],[112.1,58.3],[112.1,58.4],[111.9,58.4],[111.9,58.5],[111.7,58.5],[111.7,58.6],[111.3,58.6],[111.3,58.7],[110.7,58.7],[110.7,58.8],[109.9,58.8],[109.9,58.9],[108.8,58.9],[108.8,59.0],[108.2,59.0],[108.2,58.9],[108.0,58.9],[108.0,58.8],[107.7,58.8],[107.7,58.7],[103.1,58.7],[103.1,58.6],[101.9,58.6],[101.9,58.5],[101.4,58.5],[101.4,58.4],[101.0,58.4],[101.0,58.3],[100.6,58.3],[100.6,58.2],[100.0,58.2],[100.0,58.1],[99.6,58.1],[99.6,58.0],[99.2,58.0],[99.2,57.9],[98.9,57.9],[98.9,57.8],[98.5,57.8],[98.5,57.7],[98.2,57.7],[98.2,57.6],[97.8,57.6],[97.8,57.5],[97.4,57.5],[97.4,57.4],[97.1,57.4],[97.1,57.3],[96.8,57.3],[96.8,57.2],[96.6,57.2],[96.6,57.1],[96.3,57.1],[96.3,57.0],[96.1,57.0],[96.1,56.9],[95.7,56.9],[95.7,56.8],[95.3,56.8],[95.3,56.7],[94.9,56.7],[94.9,56.6],[94.4,56.6],[94.4,56.5],[94.0,56.5],[94.0,56.4],[93.3,56.4],[93.3,56.3],[93.2,56.3],[93.2,56.2],[93.0,56.2],[93.0,56.1],[92.8,56.1],[92.8,56.0],[92.6,56.0],[92.6,55.9],[92.4,55.9],[92.4,55.8],[92.3,55.8],[92.3,55.7],[92.2,55.7],[92.2,55.6],[92.0,55.6],[92.0,55.5],[91.8,55.5],[91.8,55.4],[91.6,55.4],[91.6,55.3],[91.3,55.3],[91.3,55.2],[91.0,55.2],[91.0,55.1],[90.6,55.1],[90.6,55.0],[90.3,55.0],[90.3,54.9],[90.1,54.9],[90.1,54.8],[90.0,54.8],[89.9,54.8],[89.9,54.7],[89.7,54.7],[89.7,54.6],[89.3,54.6],[89.3,54.5],[88.7,54.5],[88.7,54.4],[87.8,54.4],[87.8,54.3],[87.3,54.3],[87.3,54.2],[86.8,54.2],[86.8,54.1],[86.2,54.1],[86.2,54.0],[85.7,54.0],[85.7,53.9],[84.5,53.9],[84.5,53.8],[83.2,53.8],[83.2,53.7],[82.7,53.7],[82.7,53.6],[81.5,53.6],[81.5,53.5],[80.5,53.5],[80.5,53.4],[80.0,53.4],[80.0,53.3],[79.7,53.3],[79.7,53.2],[79.3,53.2],[79.3,53.1],[78.9,53.1],[78.9,53.0],[78.6,53.0],[78.6,52.9],[78.1,52.9],[78.1,52.8],[77.5,52.8],[77.5,52.7],[77.0,52.7],[77.0,52.6],[76.5,52.6],[76.5,52.5],[76.1,52.5],[76.1,52.4],[75.9,52.4],[75.9,52.3],[75.7,52.3],[75.7,52.2],[75.6,52.2],[75.6,52.1],[75.4,52.1],[75.4,52.0],[75.2,52.0],[75.2,51.9],[75.1,51.9],[75.1,51.8],[75.0,51.8],[75.0,51.7],[74.9,51.7],[74.9,51.6],[74.7,51.6],[74.7,51.5],[74.6,51.5],[74.6,51.3],[74.5,51.3],[74.5,51.2],[74.4,51.2],[74.4,51.1],[74.3,51.1],[74.3,50.9],[74.2,50.9],[74.2,50.8],[74.1,50.8],[74.1,50.6],[74.0,50.6],[74.0,50.5],[73.9,50.5],[73.9,50.2],[73.8,50.2],[73.8,49.5],[73.9,49.5],[73.9,49.2],[74.0,49.2],[74.0,49.0],[74.1,49.0],[74.1,48.7],[74.2,48.7],[74.2,48.5],[74.3,48.5],[74.3,48.3],[74.4,48.3],[74.4,48.0],[74.5,48.0],[74.5,47.9],[74.6,47.9],[74.6,47.7],[74.7,47.7],[74.7,47.6],[74.8,47.6],[74.8,47.3],[74.9,47.3],[74.9,47.2],[75.0,47.2],[75.0,47.1],[75.2,47.1],[75.2,46.9],[75.8,46.9],[75.8,46.7],[76.2,46.7],[76.2,46.6],[77.5,46.6],[77.5,46.5],[77.7,46.5],[77.7,46.4],[78.1,46.4],[78.1,46.3],[78.4,46.3],[78.4,46.2],[78.7,46.2],[78.7,46.1],[79.1,46.1],[79.1,46.0],[79.4,46.0],[79.4,45.9],[79.7,45.9],[79.7,45.8],[80.2,45.8],[80.2,45.7],[80.6,45.7],[80.6,45.6],[80.8,45.6],[80.8,45.5],[81.0,45.5],[81.0,45.4],[81.2,45.4],[81.2,45.3],[81.3,45.3],[81.3,45.2],[81.5,45.2],[81.5,45.1],[81.6,45.1],[81.6,45.0],[81.7,45.0],[81.7,44.9],[81.8,44.9],[81.8,44.5],[81.9,44.5],[81.9,43.9],[81.8,43.9],[81.8,43.1],[81.7,43.1],[81.7,42.7],[81.8,42.7],[81.8,42.3],[81.9,42.3],[81.9,42.0],[82.0,42.0],[82.0,41.5],[82.1,41.5],[82.1,40.9],[82.0,40.9],[82.0,40.6],[81.9,40.6],[81.9,40.2],[81.8,40.2],[81.8,39.7],[81.7,39.7],[81.7,39.2],[81.6,39.2],[81.6,37.3],[81.5,37.3],[81.5,36.8],[81.9,36.8],[81.9,36.9],[82.2,36.9],[82.2,37.0],[82.4,37.0],[82.4,37.1],[82.8,37.1],[82.8,37.2],[83.1,37.2],[83.1,37.3],[83.3,37.3],[83.3,37.4],[83.8,37.4],[83.8,37.5],[84.1,37.5],[84.1,37.6],[84.4,37.6],[84.4,37.7],[84.8,37.7],[84.8,37.8],[85.2,37.8],[85.2,37.7],[85.3,37.7],[85.3,37.6],[85.5,37.6],[85.5,37.5],[85.7,37.5],[85.7,37.4],[85.9,37.4],[85.9,37.3],[87.0,37.3],[87.0,37.4],[87.3,37.4],[87.3,37.5],[87.7,37.5],[87.7,37.6],[88.3,37.6]],[[109.6,55.6],[109.6,55.8],[109.7,55.8],[109.7,55.9],[109.8,55.9],[109.8,55.5],[109.7,55.5],[109.7,55.4],[109.8,55.4],[109.8,55.0],[109.7,55.0],[109.7,54.8],[109.6,54.8],[109.6,54.4],[109.5,54.4],[109.5,54.2],[109.4,54.2],[109.4,54.1],[109.3,54.1],[109.3,53.9],[109.2,53.9],[109.2,53.6],[109.1,53.6],[109.1,53.5],[109.0,53.5],[109.0,53.4],[108.8,53.4],[108.8,53.3],[108.6,53.3],[108.6,53.2],[108.4,53.2],[108.4,53.1],[108.3,53.1],[108.3,53.0],[108.2,53.0],[108.2,52.9],[107.9,52.9],[107.9,52.8],[107.8,52.8],[107.8,52.9],[107.6,52.9],[107.6,52.8],[107.2,52.8],[107.2,52.7],[107.1,52.7],[107.1,52.6],[107.0,52.6],[107.0,52.5],[106.9,52.5],[106.9,52.4],[106.8,52.4],[106.8,52.3],[106.7,52.3],[106.7,52.2],[106.4,52.2],[106.4,52.1],[106.2,52.1],[106.2,52.0],[105.9,52.0],[105.9,51.9],[105.7,51.9],[105.7,51.8],[105.6,51.8],[105.6,51.7],[105.1,51.7],[105.1,51.6],[104.7,51.6],[104.7,51.5],[104.4,51.5],[104.4,51.6],[104.3,51.6],[104.3,51.7],[104.4,51.7],[104.4,51.8],[105.1,51.8],[105.1,51.9],[105.4,51.9],[105.4,52.0],[105.6,52.0],[105.6,52.1],[105.7,52.1],[105.7,52.2],[105.8,52.2],[105.8,52.3],[105.9,52.3],[105.9,52.4],[106.0,52.4],[106.0,52.5],[106.2,52.5],[106.2,52.6],[106.4,52.6],[106.4,52.7],[106.7,52.7],[106.7,52.8],[106.8,52.8],[106.8,52.9],[106.9,52.9],[106.9,53.1],[107.0,53.1],[107.0,53.2],[107.1,53.2],[107.1,53.3],[107.2,53.3],[107.2,53.4],[107.4,53.4],[107.4,53.5],[107.7,53.5],[107.7,53.6],[107.9,53.6],[107.9,53.7],[108.0,53.7],[108.0,53.8],[108.2,53.8],[108.2,53.9],[108.3,53.9],[108.3,54.1],[108.4,54.1],[108.4,54.2],[108.5,54.2],[108.5,54.3],[108.6,54.3],[108.6,54.5],[108.7,54.5],[108.7,54.6],[108.9,54.6],[108.9,54.8],[109.0,54.8],[109.0,54.9],[109.1,54.9],[109.1,55.1],[109.3,55.1],[109.3,55.5],[109.4,55.5],[109.4,55.6],[109.6,55.6]]]},"properties":{"start_year":1225,"end_year":1227,"source_color":"#993300","polity_id":null,"polity_assignment":"unverified","geometry_origin":"raster_color_trace_stitched","pixel_size_degrees":0.1,"sources":[{"feature_id":"50:1225:#993300","tile_id":"50","start_year":1225,"end_year":1227,"source_image":"data/raw/toolbay/t/50/1225.png","source_url":"https://www.toolbay.cc/history-map/t/50/1225.png"},{"feature_id":"51:1225:#993300","tile_id":"51","start_year":1225,"end_year":1227,"source_image":"data/raw/toolbay/t/51/1225.png","source_url":"https://www.toolbay.cc/history-map/t/51/1225.png"},{"feature_id":"60:1215:#993300","tile_id":"60","start_year":1215,"end_year":1227,"source_image":"data/raw/toolbay/t/60/1215.png","source_url":"https://www.toolbay.cc/history-map/t/60/1215.png"},{"feature_id":"61:1221:#993300","tile_id":"61","start_year":1221,"end_year":1227,"source_image":"data/raw/toolbay/t/61/1221.png","source_url":"https://www.toolbay.cc/history-map/t/61/1221.png"}]}},{"type":"Feature","id":"merged:1225:#999900","bbox":[92.1,15.8,97.8,28.9],"geometry":{"type":"Polygon","coordinates":[[[97.4,28.9],[97.1,28.9],[97.1,28.8],[95.7,28.8],[95.7,28.4],[95.6,28.4],[95.6,28.2],[95.5,28.2],[95.5,28.0],[95.4,28.0],[95.4,27.9],[95.3,27.9],[95.3,27.7],[95.2,27.7],[95.2,27.6],[95.1,27.6],[95.1,27.5],[95.0,27.5],[95.0,27.4],[94.9,27.4],[94.9,27.3],[94.8,27.3],[94.8,27.1],[94.7,27.1],[94.7,27.0],[94.6,27.0],[94.6,26.9],[94.5,26.9],[94.5,26.8],[94.4,26.8],[94.4,26.6],[94.3,26.6],[94.3,26.4],[94.2,26.4],[94.2,26.3],[94.1,26.3],[94.1,26.1],[94.0,26.1],[94.0,26.0],[93.9,26.0],[93.9,25.9],[93.8,25.9],[93.8,25.8],[93.7,25.8],[93.7,25.7],[93.6,25.7],[93.6,25.5],[93.5,25.5],[93.5,25.4],[93.4,25.4],[93.4,25.2],[93.3,25.2],[93.3,25.1],[93.2,25.1],[93.2,24.9],[93.1,24.9],[93.1,23.2],[93.2,23.2],[93.2,22.8],[93.1,22.8],[93.1,22.6],[93.0,22.6],[93.0,22.5],[92.9,22.5],[92.9,22.4],[92.8,22.4],[92.8,22.3],[92.7,22.3],[92.7,22.0],[92.6,22.0],[92.6,21.8],[92.5,21.8],[92.5,21.7],[92.4,21.7],[92.4,21.6],[92.3,21.6],[92.3,21.5],[92.2,21.5],[92.2,21.4],[92.1,21.4],[92.1,21.1],[92.2,21.1],[92.2,21.0],[92.3,21.0],[92.3,20.8],[92.4,20.8],[92.4,20.7],[92.5,20.7],[92.5,20.6],[92.6,20.6],[92.6,20.5],[92.7,20.5],[92.7,20.3],[92.8,20.3],[92.8,20.2],[92.9,20.2],[92.9,20.0],[93.0,20.0],[93.0,19.9],[93.4,19.9],[93.4,19.8],[93.5,19.8],[93.5,19.7],[93.6,19.7],[93.6,19.5],[93.5,19.5],[93.5,19.3],[93.6,19.3],[93.6,18.9],[93.7,18.9],[93.7,18.8],[94.1,18.8],[94.1,18.7],[94.2,18.7],[94.2,18.5],[94.3,18.5],[94.3,18.3],[94.4,18.3],[94.4,18.1],[94.5,18.1],[94.5,17.7],[94.6,17.7],[94.6,17.4],[94.5,17.4],[94.5,17.3],[94.4,17.3],[94.4,16.7],[94.3,16.7],[94.3,16.5],[94.2,16.5],[94.2,16.1],[94.3,16.1],[94.3,16.0],[94.5,16.0],[94.5,15.9],[94.7,15.9],[94.7,15.8],[95.5,15.8],[95.5,15.9],[95.6,15.9],[95.6,16.0],[95.7,16.0],[95.7,16.1],[95.8,16.1],[95.8,16.2],[95.9,16.2],[95.9,16.3],[96.0,16.3],[96.0,16.4],[96.4,16.4],[96.4,16.5],[96.5,16.5],[96.5,16.6],[96.7,16.6],[96.7,16.7],[96.8,16.7],[96.8,16.8],[96.9,16.8],[96.9,16.9],[97.0,16.9],[97.0,17.0],[97.1,17.0],[97.1,17.3],[97.2,17.3],[97.2,18.2],[97.3,18.2],[97.3,18.3],[97.2,18.3],[97.2,20.3],[97.1,20.3],[97.1,20.7],[97.0,20.7],[97.0,21.1],[96.9,21.1],[96.9,22.8],[97.0,22.8],[97.0,23.0],[97.1,23.0],[97.1,23.2],[97.2,23.2],[97.2,23.3],[97.3,23.3],[97.3,23.5],[97.4,23.5],[97.4,23.7],[97.5,23.7],[97.5,24.8],[97.6,24.8],[97.6,25.1],[97.7,25.1],[97.7,25.4],[97.8,25.4],[97.8,25.8],[97.7,25.8],[97.7,27.7],[97.6,27.7],[97.6,28.0],[97.5,28.0],[97.5,28.4],[97.4,28.4],[97.4,28.9]]]},"properties":{"start_year":1225,"end_year":1227,"source_color":"#999900","polity_id":null,"polity_assignment":"unverified","geometry_origin":"raster_color_trace_stitched","pixel_size_degrees":0.1,"sources":[{"feature_id":"61:1221:#999900","tile_id":"61","start_year":1221,"end_year":1227,"source_image":"data/raw/toolbay/t/61/1221.png","source_url":"https://www.toolbay.cc/history-map/t/61/1221.png"}]}},{"type":"Feature","id":"merged:1225:#ff0000","bbox":[68.1,0.0,111.9,26.7],"geometry":{"type":"MultiPolygon","coordinates":[[[[98.4,0.0],[98.7,0.0],[98.7,0.2],[98.5,0.2],[98.5,0.1],[98.4,0.1],[98.4,0.0]]],[[[104.6,0.2],[104.6,0.4],[104.3,0.4],[104.3,0.2],[104.4,0.2],[104.4,0.1],[104.5,0.1],[104.5,0.0],[104.8,0.0],[104.8,0.1],[104.7,0.1],[104.7,0.2],[104.6,0.2]]],[[[108.9,1.3],[108.9,0.4],[109.0,0.4],[109.0,0.3],[109.1,0.3],[109.1,0.2],[109.2,0.2],[109.2,0.0],[111.9,0.0],[111.9,0.1],[111.8,0.1],[111.8,0.5],[111.7,0.5],[111.7,0.6],[111.6,0.6],[111.6,0.7],[111.5,0.7],[111.5,0.8],[111.4,0.8],[111.4,0.9],[111.3,0.9],[111.3,1.1],[111.2,1.1],[111.2,1.2],[111.1,1.2],[111.1,1.5],[111.0,1.5],[111.0,1.7],[110.6,1.7],[110.6,1.8],[109.9,1.8],[109.9,1.9],[109.8,1.9],[109.8,2.0],[109.7,2.0],[109.7,2.1],[109.4,2.1],[109.4,2.0],[109.3,2.0],[109.3,1.8],[109.2,1.8],[109.2,1.7],[109.1,1.7],[109.1,1.6],[109.0,1.6],[109.0,1.3],[108.9,1.3]]],[[[97.8,1.3],[97.7,1.3],[97.7,1.4],[97.6,1.4],[97.6,1.5],[97.5,1.5],[97.5,1.6],[97.3,1.6],[97.3,1.5],[97.2,1.5],[97.2,1.3],[97.3,1.3],[97.3,1.2],[97.4,1.2],[97.4,1.0],[97.5,1.0],[97.5,0.9],[97.6,0.9],[97.6,0.8],[97.7,0.8],[97.7,0.7],[97.8,0.7],[97.8,0.8],[97.9,0.8],[97.9,1.2],[97.8,1.2],[97.8,1.3]]],[[[96.1,2.5],[96.3,2.5],[96.3,2.7],[96.2,2.7],[96.2,2.8],[96.1,2.8],[96.1,2.9],[95.8,2.9],[95.8,2.7],[95.9,2.7],[95.9,2.6],[96.1,2.6],[96.1,2.5]]],[[[99.2,0.4],[99.2,0.3],[99.4,0.3],[99.4,0.2],[99.6,0.2],[99.6,0.1],[99.7,0.1],[99.7,0.0],[103.9,0.0],[103.9,0.1],[103.8,0.1],[103.8,0.3],[103.7,0.3],[103.7,0.4],[103.6,0.4],[103.6,0.8],[104.2,0.8],[104.2,0.7],[104.4,0.7],[104.4,0.8],[104.7,0.8],[104.7,0.9],[104.8,0.9],[104.8,1.1],[104.7,1.1],[104.7,1.2],[104.6,1.2],[104.6,1.3],[104.3,1.3],[104.3,1.8],[104.2,1.8],[104.2,2.1],[104.1,2.1],[104.1,2.4],[104.0,2.4],[104.0,2.5],[103.9,2.5],[103.9,2.6],[103.8,2.6],[103.8,2.7],[103.7,2.7],[103.7,2.8],[103.6,2.8],[103.6,2.9],[103.5,2.9],[103.5,3.7],[103.4,3.7],[103.4,4.1],[103.5,4.1],[103.5,4.9],[103.4,4.9],[103.4,5.1],[103.3,5.1],[103.3,5.3],[103.2,5.3],[103.2,5.5],[103.1,5.5],[103.1,5.6],[102.9,5.6],[102.9,5.7],[102.8,5.7],[102.8,5.8],[102.7,5.8],[102.7,5.9],[102.6,5.9],[102.6,6.0],[102.5,6.0],[102.5,6.1],[102.4,6.1],[102.4,6.2],[102.3,6.2],[102.3,6.3],[102.1,6.3],[102.1,6.4],[101.9,6.4],[101.9,6.5],[101.8,6.5],[101.8,6.7],[101.7,6.7],[101.7,6.8],[101.6,6.8],[101.6,6.9],[101.5,6.9],[101.5,7.0],[100.8,7.0],[100.8,7.1],[100.7,7.1],[100.7,7.3],[100.6,7.3],[100.6,7.5],[100.5,7.5],[100.5,7.8],[100.4,7.8],[100.4,8.2],[100.3,8.2],[100.3,8.5],[100.2,8.5],[100.2,8.6],[100.1,8.6],[100.1,8.7],[99.7,8.7],[99.7,8.6],[99.6,8.6],[99.6,8.5],[99.5,8.5],[99.5,8.4],[99.3,8.4],[99.3,8.3],[99.2,8.3],[99.2,8.2],[98.8,8.2],[98.8,8.0],[98.9,8.0],[98.9,7.9],[99.0,7.9],[99.0,7.7],[99.1,7.7],[99.1,7.6],[99.2,7.6],[99.2,7.5],[99.3,7.5],[99.3,7.4],[99.4,7.4],[99.4,7.3],[99.5,7.3],[99.5,7.2],[99.6,7.2],[99.6,7.1],[99.7,7.1],[99.7,6.9],[99.8,6.9],[99.8,6.8],[99.9,6.8],[99.9,6.6],[99.8,6.6],[99.8,6.5],[99.7,6.5],[99.7,6.4],[99.8,6.4],[99.8,6.3],[100.0,6.3],[100.0,6.4],[100.2,6.4],[100.2,6.3],[100.3,6.3],[100.3,6.0],[100.4,6.0],[100.4,5.8],[100.3,5.8],[100.3,5.6],[100.2,5.6],[100.2,5.4],[100.3,5.4],[100.3,5.3],[100.4,5.3],[100.4,5.0],[100.5,5.0],[100.5,4.9],[100.6,4.9],[100.6,4.2],[100.7,4.2],[100.7,3.9],[100.8,3.9],[100.8,3.8],[100.9,3.8],[100.9,3.7],[101.0,3.7],[101.0,3.6],[101.1,3.6],[101.1,3.5],[101.2,3.5],[101.2,3.4],[101.3,3.4],[101.3,2.9],[101.4,2.9],[101.4,2.8],[101.5,2.8],[101.5,2.7],[101.8,2.7],[101.8,2.6],[101.9,2.6],[101.9,2.5],[102.0,2.5],[102.0,2.4],[102.1,2.4],[102.1,2.3],[102.3,2.3],[102.3,2.2],[102.5,2.2],[102.5,2.1],[102.6,2.1],[102.6,2.0],[102.7,2.0],[102.7,1.9],[102.9,1.9],[102.9,1.8],[103.1,1.8],[103.1,1.7],[103.3,1.7],[103.3,1.6],[103.4,1.6],[103.4,1.5],[103.5,1.5],[103.5,1.4],[103.8,1.4],[103.8,1.3],[103.9,1.3],[103.9,1.1],[103.8,1.1],[103.8,1.0],[103.1,1.0],[103.1,1.1],[103.0,1.1],[103.0,1.2],[102.9,1.2],[102.9,1.3],[102.6,1.3],[102.6,1.4],[102.5,1.4],[102.5,1.6],[102.4,1.6],[102.4,1.7],[101.9,1.7],[101.9,1.8],[101.8,1.8],[101.8,2.1],[101.7,2.1],[101.7,2.2],[101.5,2.2],[101.5,2.1],[101.3,2.1],[101.3,2.2],[101.2,2.2],[101.2,2.3],[101.1,2.3],[101.1,2.4],[100.9,2.4],[100.9,2.3],[100.5,2.3],[100.5,2.4],[100.4,2.4],[100.4,2.7],[100.3,2.7],[100.3,2.8],[100.1,2.8],[100.1,2.9],[100.0,2.9],[100.0,3.0],[99.9,3.0],[99.9,3.2],[99.8,3.2],[99.8,3.3],[99.6,3.3],[99.6,3.4],[99.5,3.4],[99.5,3.5],[99.3,3.5],[99.3,3.6],[99.2,3.6],[99.2,3.7],[99.1,3.7],[99.1,3.8],[98.8,3.8],[98.8,3.9],[98.7,3.9],[98.7,4.0],[98.6,4.0],[98.6,4.1],[98.4,4.1],[98.4,4.2],[98.3,4.2],[98.3,4.5],[98.2,4.5],[98.2,4.6],[98.1,4.6],[98.1,4.7],[98.0,4.7],[98.0,4.9],[97.9,4.9],[97.9,5.0],[97.8,5.0],[97.8,5.1],[97.7,5.1],[97.7,5.2],[97.6,5.2],[97.6,5.3],[97.1,5.3],[97.1,5.4],[96.7,5.4],[96.7,5.3],[96.3,5.3],[96.3,5.4],[96.1,5.4],[96.1,5.5],[95.9,5.5],[95.9,5.6],[95.8,5.6],[95.8,5.7],[95.5,5.7],[95.5,5.8],[95.2,5.8],[95.2,5.3],[95.3,5.3],[95.3,5.1],[95.4,5.1],[95.4,4.9],[95.5,4.9],[95.5,4.8],[95.6,4.8],[95.6,4.7],[95.7,4.7],[95.7,4.6],[95.8,4.6],[95.8,4.5],[95.9,4.5],[95.9,4.4],[96.0,4.4],[96.0,4.3],[96.1,4.3],[96.1,4.2],[96.2,4.2],[96.2,4.1],[96.3,4.1],[96.3,4.0],[96.4,4.0],[96.4,3.9],[96.5,3.9],[96.5,3.8],[96.9,3.8],[96.9,3.7],[97.0,3.7],[97.0,3.5],[97.1,3.5],[97.1,3.4],[97.2,3.4],[97.2,3.3],[97.3,3.3],[97.3,3.1],[97.4,3.1],[97.4,3.0],[97.5,3.0],[97.5,2.9],[97.6,2.9],[97.6,2.6],[97.7,2.6],[97.7,2.4],[97.8,2.4],[97.8,2.3],[98.1,2.3],[98.1,2.2],[98.2,2.2],[98.2,2.1],[98.5,2.1],[98.5,2.0],[98.6,2.0],[98.6,1.9],[98.7,1.9],[98.7,1.7],[98.8,1.7],[98.8,1.3],[98.9,1.3],[98.9,1.0],[99.0,1.0],[99.0,0.7],[99.1,0.7],[99.1,0.4],[99.2,0.4]]],[[[91.1,25.8],[91.1,25.9],[90.0,25.9],[90.0,25.8],[89.8,25.8],[89.8,25.6],[89.7,25.6],[89.7,25.5],[89.6,25.5],[89.6,25.4],[89.5,25.4],[89.5,25.2],[89.4,25.2],[89.4,25.1],[89.3,25.1],[89.3,25.0],[89.2,25.0],[89.2,24.8],[89.1,24.8],[89.1,24.7],[89.0,24.7],[89.0,24.6],[88.9,24.6],[88.9,24.4],[88.8,24.4],[88.8,24.3],[88.7,24.3],[88.7,24.0],[88.6,24.0],[88.6,23.2],[88.8,23.2],[88.8,23.1],[88.9,23.1],[88.9,23.0],[89.1,23.0],[89.1,22.9],[89.2,22.9],[89.2,22.8],[89.3,22.8],[89.3,22.7],[89.5,22.7],[89.5,22.6],[89.6,22.6],[89.6,22.5],[89.7,22.5],[89.7,22.4],[89.8,22.4],[89.8,22.3],[89.9,22.3],[89.9,22.2],[90.0,22.2],[90.0,21.9],[90.7,21.9],[90.7,22.0],[90.8,22.0],[90.8,22.1],[91.0,22.1],[91.0,22.2],[91.1,22.2],[91.1,22.5],[91.2,22.5],[91.2,22.6],[91.7,22.6],[91.7,22.5],[91.8,22.5],[91.8,21.8],[91.9,21.8],[91.9,21.5],[92.0,21.5],[92.0,21.3],[92.1,21.3],[92.1,21.4],[92.2,21.4],[92.2,21.5],[92.3,21.5],[92.3,21.6],[92.4,21.6],[92.4,21.7],[92.5,21.7],[92.5,21.8],[92.6,21.8],[92.6,22.0],[92.7,22.0],[92.7,22.3],[92.8,22.3],[92.8,22.4],[92.9,22.4],[92.9,22.5],[93.0,22.5],[93.0,22.6],[93.1,22.6],[93.1,22.8],[93.2,22.8],[93.2,23.2],[93.1,23.2],[93.1,25.0],[93.0,25.0],[93.0,25.1],[92.9,25.1],[92.9,25.2],[92.7,25.2],[92.7,25.3],[92.5,25.3],[92.5,25.4],[92.3,25.4],[92.3,25.5],[92.1,25.5],[92.1,25.6],[91.8,25.6],[91.8,25.7],[91.5,25.7],[91.5,25.8],[91.1,25.8]],[[89.9,24.3],[89.7,24.3],[89.7,24.7],[89.9,24.7],[89.9,24.3]]],[[[74.4,26.4],[74.4,26.5],[74.0,26.5],[74.0,26.6],[73.7,26.6],[73.7,26.7],[73.0,26.7],[73.0,26.6],[71.8,26.6],[71.8,26.5],[71.4,26.5],[71.4,26.4],[71.0,26.4],[71.0,26.3],[70.7,26.3],[70.7,26.2],[70.4,26.2],[70.4,26.1],[70.2,26.1],[70.2,26.0],[70.1,26.0],[70.1,25.9],[70.0,25.9],[70.0,25.8],[69.9,25.8],[69.9,25.7],[69.8,25.7],[69.8,25.5],[69.7,25.5],[69.7,25.4],[69.6,25.4],[69.6,25.3],[69.5,25.3],[69.5,25.2],[69.4,25.2],[69.4,25.1],[69.3,25.1],[69.3,24.9],[69.2,24.9],[69.2,24.8],[69.1,24.8],[69.1,24.7],[69.0,24.7],[69.0,24.6],[68.9,24.6],[68.9,24.5],[68.8,24.5],[68.8,24.4],[68.6,24.4],[68.6,24.3],[68.5,24.3],[68.5,24.2],[68.4,24.2],[68.4,24.1],[68.2,24.1],[68.2,23.9],[68.1,23.9],[68.1,23.7],[68.2,23.7],[68.2,23.6],[68.3,23.6],[68.3,23.5],[68.4,23.5],[68.4,23.4],[68.5,23.4],[68.5,23.3],[68.6,23.3],[68.6,23.2],[68.7,23.2],[68.7,23.1],[68.9,23.1],[68.9,23.0],[69.1,23.0],[69.1,22.9],[69.5,22.9],[69.5,22.8],[69.8,22.8],[69.8,22.9],[70.1,22.9],[70.1,22.8],[70.2,22.8],[70.2,22.7],[70.1,22.7],[70.1,22.6],[69.6,22.6],[69.6,22.5],[69.1,22.5],[69.1,22.4],[69.0,22.4],[69.0,22.2],[69.1,22.2],[69.1,22.1],[69.2,22.1],[69.2,22.0],[69.3,22.0],[69.3,21.9],[69.4,21.9],[69.4,21.8],[69.5,21.8],[69.5,21.7],[69.6,21.7],[69.6,21.6],[69.7,21.6],[69.7,21.5],[69.8,21.5],[69.8,21.4],[69.9,21.4],[69.9,21.3],[70.0,21.3],[70.0,21.2],[70.1,21.2],[70.1,21.1],[70.2,21.1],[70.2,21.0],[70.4,21.0],[70.4,20.9],[70.5,20.9],[70.5,20.8],[70.8,20.8],[70.8,20.7],[71.0,20.7],[71.0,20.8],[71.3,20.8],[71.3,20.9],[71.5,20.9],[71.5,21.0],[71.7,21.0],[71.7,21.1],[71.9,21.1],[71.9,21.2],[72.1,21.2],[72.1,21.3],[72.2,21.3],[72.2,21.5],[72.3,21.5],[72.3,22.0],[72.7,22.0],[72.7,22.1],[73.1,22.1],[73.1,22.2],[73.3,22.2],[73.3,22.3],[73.5,22.3],[73.5,22.4],[73.7,22.4],[73.7,22.5],[73.9,22.5],[73.9,22.6],[74.2,22.6],[74.2,22.7],[74.3,22.7],[74.3,22.8],[74.5,22.8],[74.5,22.9],[74.7,22.9],[74.7,23.0],[74.8,23.0],[74.8,23.1],[75.0,23.1],[75.0,23.2],[75.1,23.2],[75.1,23.3],[75.3,23.3],[75.3,23.4],[75.5,23.4],[75.5,23.5],[75.6,23.5],[75.6,23.6],[75.7,23.6],[75.7,23.7],[75.8,23.7],[75.8,23.8],[75.9,23.8],[75.9,23.9],[76.0,23.9],[76.0,24.4],[76.1,24.4],[76.1,24.6],[76.2,24.6],[76.2,24.9],[76.3,24.9],[76.3,26.1],[75.8,26.1],[75.8,26.2],[75.3,26.2],[75.3,26.3],[74.8,26.3],[74.8,26.4],[74.4,26.4]]]]},"properties":{"start_year":1225,"end_year":1227,"source_color":"#ff0000","polity_id":null,"polity_assignment":"unverified","geometry_origin":"raster_color_trace_stitched","pixel_size_degrees":0.1,"sources":[{"feature_id":"51:1225:#ff0000","tile_id":"51","start_year":1225,"end_year":1227,"source_image":"data/raw/toolbay/t/51/1225.png","source_url":"https://www.toolbay.cc/history-map/t/51/1225.png"},{"feature_id":"61:1221:#ff0000","tile_id":"61","start_year":1221,"end_year":1227,"source_image":"data/raw/toolbay/t/61/1221.png","source_url":"https://www.toolbay.cc/history-map/t/61/1221.png"}]}},{"type":"Feature","id":"merged:1225:#ff00ff","bbox":[75.2,8.2,80.2,13.1],"geometry":{"type":"Polygon","coordinates":[[[78.6,13.1],[77.4,13.1],[77.4,12.8],[77.3,12.8],[77.3,12.7],[77.2,12.7],[77.2,12.6],[76.9,12.6],[76.9,12.5],[76.6,12.5],[76.6,12.4],[76.4,12.4],[76.4,12.3],[76.3,12.3],[76.3,12.2],[75.7,12.2],[75.7,12.1],[75.2,12.1],[75.2,12.0],[75.3,12.0],[75.3,11.9],[75.4,11.9],[75.4,11.8],[75.5,11.8],[75.5,11.7],[75.6,11.7],[75.6,11.5],[75.7,11.5],[75.7,11.3],[75.8,11.3],[75.8,11.1],[75.9,11.1],[75.9,10.8],[76.0,10.8],[76.0,10.5],[76.1,10.5],[76.1,10.3],[76.2,10.3],[76.2,9.9],[76.3,9.9],[76.3,9.5],[76.4,9.5],[76.4,9.2],[76.5,9.2],[76.5,9.0],[76.6,9.0],[76.6,8.9],[76.7,8.9],[76.7,8.8],[76.8,8.8],[76.8,8.7],[76.9,8.7],[76.9,8.5],[77.0,8.5],[77.0,8.4],[77.1,8.4],[77.1,8.3],[77.2,8.3],[77.2,8.2],[77.8,8.2],[77.8,8.3],[78.0,8.3],[78.0,8.4],[78.1,8.4],[78.1,8.5],[78.2,8.5],[78.2,8.9],[78.3,8.9],[78.3,9.1],[78.4,9.1],[78.4,9.2],[78.8,9.2],[78.8,9.3],[78.9,9.3],[78.9,9.4],[79.0,9.4],[79.0,9.8],[79.1,9.8],[79.1,9.9],[79.2,9.9],[79.2,10.0],[79.3,10.0],[79.3,10.3],[79.4,10.3],[79.4,10.4],[79.6,10.4],[79.6,10.3],[79.8,10.3],[79.8,10.4],[79.9,10.4],[79.9,11.5],[79.8,11.5],[79.8,11.9],[79.9,11.9],[79.9,12.2],[80.0,12.2],[80.0,12.3],[80.1,12.3],[80.1,12.5],[80.2,12.5],[80.2,12.7],[79.5,12.7],[79.5,12.8],[79.2,12.8],[79.2,12.9],[79.0,12.9],[79.0,13.0],[78.6,13.0],[78.6,13.1]]]},"properties":{"start_year":1225,"end_year":1227,"source_color":"#ff00ff","polity_id":null,"polity_assignment":"unverified","geometry_origin":"raster_color_trace_stitched","pixel_size_degrees":0.1,"sources":[{"feature_id":"51:1225:#ff00ff","tile_id":"51","start_year":1225,"end_year":1227,"source_image":"data/raw/toolbay/t/51/1225.png","source_url":"https://www.toolbay.cc/history-map/t/51/1225.png"}]}},{"type":"Feature","id":"merged:1225:#ff9933","bbox":[63.0,8.4,122.4,37.5],"geometry":{"type":"MultiPolygon","coordinates":[[[[80.4,9.8],[80.3,9.8],[80.3,9.9],[80.0,9.9],[80.0,9.5],[80.1,9.5],[80.1,9.2],[80.0,9.2],[80.0,9.1],[79.9,9.1],[79.9,8.5],[79.8,8.5],[79.8,8.4],[80.5,8.4],[80.5,8.5],[80.6,8.5],[80.6,8.6],[80.8,8.6],[80.8,8.7],[81.2,8.7],[81.2,8.9],[81.1,8.9],[81.1,9.0],[81.0,9.0],[81.0,9.2],[80.9,9.2],[80.9,9.4],[80.8,9.4],[80.8,9.5],[80.7,9.5],[80.7,9.6],[80.6,9.6],[80.6,9.7],[80.4,9.7],[80.4,9.8]]],[[[120.3,34.4],[120.2,34.4],[120.2,34.5],[119.9,34.5],[119.9,34.4],[119.7,34.4],[119.7,34.3],[119.6,34.3],[119.6,34.2],[119.4,34.2],[119.4,34.1],[119.3,34.1],[119.3,34.0],[119.1,34.0],[119.1,33.9],[118.9,33.9],[118.9,33.8],[118.8,33.8],[118.8,33.7],[118.7,33.7],[118.7,33.6],[118.5,33.6],[118.5,33.5],[118.3,33.5],[118.3,33.4],[118.2,33.4],[118.2,33.3],[118.0,33.3],[118.0,33.2],[117.9,33.2],[117.9,33.1],[117.7,33.1],[117.7,33.0],[117.6,33.0],[117.6,32.9],[117.4,32.9],[117.4,32.8],[117.3,32.8],[117.3,32.7],[117.2,32.7],[117.2,32.6],[117.0,32.6],[117.0,32.5],[116.8,32.5],[116.8,32.4],[116.5,32.4],[116.5,32.3],[116.3,32.3],[116.3,32.2],[115.9,32.2],[115.9,32.1],[115.6,32.1],[115.6,32.0],[115.2,32.0],[115.2,31.9],[114.7,31.9],[114.7,31.8],[114.3,31.8],[114.3,31.7],[113.8,31.7],[113.8,31.6],[113.5,31.6],[113.5,31.5],[113.1,31.5],[113.1,31.4],[112.6,31.4],[112.6,31.3],[112.1,31.3],[112.1,31.2],[111.2,31.2],[111.2,31.3],[111.1,31.3],[111.1,31.7],[111.0,31.7],[111.0,31.9],[110.9,31.9],[110.9,32.2],[110.8,32.2],[110.8,32.3],[110.7,32.3],[110.7,32.4],[110.5,32.4],[110.5,32.5],[109.8,32.5],[109.8,32.4],[108.5,32.4],[108.5,32.5],[108.4,32.5],[108.4,32.4],[108.3,32.4],[108.3,32.5],[107.7,32.5],[107.7,32.6],[107.4,32.6],[107.4,32.7],[106.8,32.7],[106.8,32.8],[106.0,32.8],[106.0,32.9],[104.9,32.9],[104.9,33.0],[104.1,33.0],[104.1,33.1],[104.0,33.1],[104.0,32.9],[103.9,32.9],[103.9,32.4],[103.8,32.4],[103.8,32.1],[103.7,32.1],[103.7,31.9],[103.6,31.9],[103.6,31.7],[103.5,31.7],[103.5,31.3],[103.4,31.3],[103.4,31.1],[103.3,31.1],[103.3,30.5],[103.2,30.5],[103.2,30.3],[103.1,30.3],[103.1,30.2],[103.0,30.2],[103.0,30.1],[102.9,30.1],[102.9,30.0],[102.8,30.0],[102.8,29.8],[102.7,29.8],[102.7,29.6],[102.6,29.6],[102.6,29.4],[102.5,29.4],[102.5,29.1],[102.6,29.1],[102.6,29.0],[102.7,29.0],[102.7,28.8],[102.9,28.8],[102.9,28.7],[103.0,28.7],[103.0,28.6],[103.5,28.6],[103.5,28.5],[103.8,28.5],[103.8,28.4],[104.2,28.4],[104.2,28.3],[104.5,28.3],[104.5,28.2],[104.7,28.2],[104.7,28.1],[105.1,28.1],[105.1,28.0],[105.2,28.0],[105.2,28.2],[105.6,28.2],[105.6,28.3],[106.0,28.3],[106.0,28.2],[106.2,28.2],[106.2,28.1],[106.4,28.1],[106.4,28.0],[106.5,28.0],[106.5,27.9],[106.7,27.9],[106.7,27.8],[107.2,27.8],[107.2,27.9],[107.3,27.9],[107.3,28.0],[108.3,28.0],[108.3,27.8],[108.4,27.8],[108.4,27.7],[108.5,27.7],[108.5,27.6],[108.6,27.6],[108.6,27.4],[108.7,27.4],[108.7,27.1],[108.8,27.1],[108.8,26.7],[108.7,26.7],[108.7,26.0],[108.6,26.0],[108.6,25.7],[108.5,25.7],[108.5,25.3],[108.4,25.3],[108.4,24.9],[108.3,24.9],[108.3,24.3],[107.9,24.3],[107.9,24.4],[106.9,24.4],[106.9,24.5],[106.3,24.5],[106.3,23.6],[106.4,23.6],[106.4,23.5],[106.5,23.5],[106.5,23.3],[106.6,23.3],[106.6,23.2],[106.7,23.2],[106.7,23.0],[106.8,23.0],[106.8,22.7],[106.9,22.7],[106.9,22.5],[107.0,22.5],[107.0,22.3],[107.1,22.3],[107.1,22.1],[107.2,22.1],[107.2,22.0],[107.3,22.0],[107.3,21.8],[107.4,21.8],[107.4,21.7],[107.5,21.7],[107.5,21.5],[107.6,21.5],[107.6,21.3],[107.8,21.3],[107.8,21.4],[108.0,21.4],[108.0,21.5],[108.2,21.5],[108.2,21.6],[108.5,21.6],[108.5,21.7],[109.0,21.7],[109.0,21.6],[109.1,21.6],[109.1,21.5],[109.7,21.5],[109.7,20.7],[109.8,20.7],[109.8,20.5],[109.9,20.5],[109.9,20.4],[110.0,20.4],[110.0,20.3],[110.1,20.3],[110.1,20.2],[110.0,20.2],[110.0,20.1],[109.6,20.1],[109.6,20.0],[109.3,20.0],[109.3,19.9],[109.2,19.9],[109.2,19.8],[109.1,19.8],[109.1,19.7],[109.0,19.7],[109.0,19.6],[108.9,19.6],[108.9,19.5],[108.8,19.5],[108.8,19.4],[108.7,19.4],[108.7,19.3],[108.6,19.3],[108.6,18.9],[108.7,18.9],[108.7,18.6],[108.8,18.6],[108.8,18.5],[108.9,18.5],[108.9,18.4],[109.2,18.4],[109.2,18.3],[109.5,18.3],[109.5,18.2],[109.7,18.2],[109.7,18.3],[109.8,18.3],[109.8,18.4],[110.0,18.4],[110.0,18.5],[110.1,18.5],[110.1,18.6],[110.2,18.6],[110.2,18.7],[110.5,18.7],[110.5,18.8],[110.6,18.8],[110.6,19.3],[110.7,19.3],[110.7,19.4],[110.8,19.4],[110.8,19.5],[110.9,19.5],[110.9,19.6],[111.0,19.6],[111.0,20.0],[110.9,20.0],[110.9,20.1],[110.8,20.1],[110.8,20.2],[110.5,20.2],[110.5,21.0],[110.6,21.0],[110.6,21.2],[110.7,21.2],[110.7,21.3],[110.8,21.3],[110.8,21.4],[110.9,21.4],[110.9,21.5],[111.5,21.5],[111.5,21.6],[111.9,21.6],[111.9,21.7],[112.9,21.7],[112.9,21.8],[113.0,21.8],[113.0,21.9],[113.2,21.9],[113.2,22.0],[113.5,22.0],[113.5,22.1],[113.6,22.1],[113.6,22.6],[113.9,22.6],[113.9,22.2],[114.0,22.2],[114.0,22.1],[114.2,22.1],[114.2,22.2],[114.3,22.2],[114.3,22.3],[114.4,22.3],[114.4,22.4],[114.5,22.4],[114.5,22.5],[114.7,22.5],[114.7,22.6],[115.0,22.6],[115.0,22.7],[115.1,22.7],[115.1,22.8],[116.0,22.8],[116.0,22.9],[116.2,22.9],[116.2,23.0],[116.5,23.0],[116.5,23.1],[116.6,23.1],[116.6,23.2],[116.7,23.2],[116.7,23.3],[116.8,23.3],[116.8,23.4],[116.9,23.4],[116.9,23.5],[117.3,23.5],[117.3,23.6],[117.4,23.6],[117.4,23.7],[117.5,23.7],[117.5,23.8],[117.6,23.8],[117.6,23.9],[117.7,23.9],[117.7,24.0],[117.9,24.0],[117.9,24.1],[118.0,24.1],[118.0,24.2],[118.1,24.2],[118.1,24.3],[118.2,24.3],[118.2,24.4],[118.4,24.4],[118.4,24.5],[118.5,24.5],[118.5,24.6],[118.6,24.6],[118.6,24.7],[118.8,24.7],[118.8,24.8],[118.9,24.8],[118.9,25.0],[119.0,25.0],[119.0,25.1],[119.1,25.1],[119.1,25.2],[119.3,25.2],[119.3,25.3],[119.4,25.3],[119.4,25.4],[119.8,25.4],[119.8,25.5],[119.9,25.5],[119.9,25.7],[119.8,25.7],[119.8,25.8],[119.7,25.8],[119.7,26.2],[119.8,26.2],[119.8,26.3],[119.9,26.3],[119.9,26.5],[120.0,26.5],[120.0,26.6],[120.1,26.6],[120.1,26.7],[120.2,26.7],[120.2,26.9],[120.3,26.9],[120.3,27.0],[120.4,27.0],[120.4,27.2],[120.5,27.2],[120.5,27.3],[120.6,27.3],[120.6,27.4],[120.7,27.4],[120.7,27.8],[120.8,27.8],[120.8,27.9],[121.2,27.9],[121.2,28.0],[121.3,28.0],[121.3,28.2],[121.4,28.2],[121.4,28.3],[121.6,28.3],[121.6,28.4],[121.7,28.4],[121.7,28.7],[121.8,28.7],[121.8,29.0],[121.9,29.0],[121.9,29.2],[122.0,29.2],[122.0,29.6],[122.1,29.6],[122.1,29.7],[122.3,29.7],[122.3,29.8],[122.4,29.8],[122.4,30.2],[122.3,30.2],[122.3,30.3],[121.9,30.3],[121.9,30.2],[121.5,30.2],[121.5,30.3],[121.4,30.3],[121.4,30.4],[121.2,30.4],[121.2,30.5],[121.1,30.5],[121.1,30.6],[121.2,30.6],[121.2,30.7],[121.4,30.7],[121.4,30.8],[121.5,30.8],[121.5,30.9],[121.8,30.9],[121.8,31.0],[121.9,31.0],[121.9,31.2],[121.8,31.2],[121.8,31.5],[121.9,31.5],[121.9,31.7],[122.0,31.7],[122.0,31.9],[121.9,31.9],[121.9,32.0],[121.8,32.0],[121.8,32.1],[121.7,32.1],[121.7,32.2],[121.5,32.2],[121.5,32.3],[121.4,32.3],[121.4,32.5],[121.3,32.5],[121.3,32.6],[121.1,32.6],[121.1,32.7],[121.0,32.7],[121.0,33.0],[120.9,33.0],[120.9,33.1],[120.8,33.1],[120.8,33.3],[120.7,33.3],[120.7,33.5],[120.6,33.5],[120.6,33.8],[120.5,33.8],[120.5,34.0],[120.4,34.0],[120.4,34.3],[120.3,34.3],[120.3,34.4]],[[116.2,29.4],[116.2,29.2],[116.0,29.2],[116.0,29.4],[116.2,29.4]],[[116.5,29.2],[116.5,29.0],[116.4,29.0],[116.4,29.2],[116.5,29.2]]],[[[67.9,37.3],[67.9,37.4],[67.7,37.4],[67.7,37.5],[67.6,37.5],[67.6,37.4],[67.5,37.4],[67.5,37.3],[67.4,37.3],[67.4,37.2],[67.2,37.2],[67.2,37.1],[67.1,37.1],[67.1,37.0],[67.0,37.0],[67.0,36.9],[66.8,36.9],[66.8,36.8],[66.6,36.8],[66.6,36.7],[66.4,36.7],[66.4,36.6],[66.3,36.6],[66.3,36.5],[66.2,36.5],[66.2,36.4],[66.0,36.4],[66.0,36.3],[65.9,36.3],[65.9,36.2],[65.8,36.2],[65.8,36.1],[65.6,36.1],[65.6,36.0],[65.5,36.0],[65.5,35.9],[65.4,35.9],[65.4,35.8],[65.3,35.8],[65.3,35.7],[65.1,35.7],[65.1,35.6],[64.9,35.6],[64.9,35.5],[64.8,35.5],[64.8,35.4],[64.6,35.4],[64.6,35.3],[64.5,35.3],[64.5,35.1],[64.4,35.1],[64.4,35.0],[64.3,35.0],[64.3,34.9],[64.2,34.9],[64.2,34.7],[64.1,34.7],[64.1,34.6],[64.0,34.6],[64.0,34.5],[63.9,34.5],[63.9,34.4],[63.8,34.4],[63.8,34.3],[63.7,34.3],[63.7,34.2],[63.6,34.2],[63.6,34.1],[63.5,34.1],[63.5,34.0],[63.4,34.0],[63.4,33.9],[63.3,33.9],[63.3,33.8],[63.2,33.8],[63.2,33.7],[63.1,33.7],[63.1,33.6],[63.0,33.6],[63.0,33.5],[63.1,33.5],[63.1,33.4],[63.9,33.4],[63.9,33.3],[64.2,33.3],[64.2,33.2],[64.7,33.2],[64.7,33.1],[64.9,33.1],[64.9,33.0],[65.2,33.0],[65.2,32.9],[65.6,32.9],[65.6,32.8],[66.3,32.8],[66.3,32.6],[66.4,32.6],[66.4,32.4],[66.5,32.4],[66.5,32.3],[66.6,32.3],[66.6,32.1],[66.7,32.1],[66.7,32.0],[66.8,32.0],[66.8,31.9],[66.9,31.9],[66.9,31.8],[67.0,31.8],[67.0,31.7],[67.1,31.7],[67.1,31.6],[67.2,31.6],[67.2,31.5],[67.4,31.5],[67.4,31.4],[67.5,31.4],[67.5,31.3],[67.7,31.3],[67.7,31.2],[67.8,31.2],[67.8,31.1],[68.0,31.1],[68.0,31.0],[68.1,31.0],[68.1,30.9],[68.2,30.9],[68.2,30.8],[68.3,30.8],[68.3,30.7],[68.4,30.7],[68.4,30.5],[68.5,30.5],[68.5,30.3],[68.6,30.3],[68.6,30.1],[68.7,30.1],[68.7,29.8],[68.8,29.8],[68.8,29.5],[68.9,29.5],[68.9,29.2],[69.0,29.2],[69.0,28.9],[69.1,28.9],[69.1,28.6],[69.2,28.6],[69.2,28.4],[69.3,28.4],[69.3,28.2],[69.4,28.2],[69.4,28.1],[69.5,28.1],[69.5,28.0],[69.6,28.0],[69.6,27.9],[69.7,27.9],[69.7,27.8],[69.8,27.8],[69.8,27.6],[69.9,27.6],[69.9,27.5],[70.0,27.5],[70.0,27.3],[70.1,27.3],[70.1,27.2],[70.2,27.2],[70.2,27.1],[70.3,27.1],[70.3,27.0],[70.5,27.0],[70.5,26.9],[70.8,26.9],[70.8,26.8],[71.0,26.8],[71.0,26.7],[71.2,26.7],[71.2,26.6],[71.4,26.6],[71.4,26.5],[71.8,26.5],[71.8,26.6],[73.0,26.6],[73.0,26.7],[73.7,26.7],[73.7,26.6],[74.0,26.6],[74.0,26.5],[74.4,26.5],[74.4,26.4],[74.8,26.4],[74.8,26.3],[75.3,26.3],[75.3,26.2],[75.8,26.2],[75.8,26.1],[76.3,26.1],[76.3,26.0],[76.5,26.0],[76.5,25.9],[77.0,25.9],[77.0,25.8],[77.4,25.8],[77.4,25.7],[77.7,25.7],[77.7,25.6],[78.0,25.6],[78.0,25.5],[78.5,25.5],[78.5,25.4],[78.8,25.4],[78.8,25.3],[79.1,25.3],[79.1,25.2],[79.3,25.2],[79.3,25.1],[79.5,25.1],[79.5,25.0],[79.7,25.0],[79.7,24.9],[80.0,24.9],[80.0,24.8],[80.1,24.8],[80.1,24.7],[80.3,24.7],[80.3,24.6],[80.5,24.6],[80.5,24.5],[80.7,24.5],[80.7,24.4],[80.8,24.4],[80.8,24.3],[81.1,24.3],[81.1,24.2],[81.2,24.2],[81.2,24.3],[81.3,24.3],[81.3,24.2],[82.0,24.2],[82.0,24.1],[82.4,24.1],[82.4,24.0],[83.1,24.0],[83.1,23.9],[83.6,23.9],[83.6,23.8],[83.8,23.8],[83.8,23.7],[84.0,23.7],[84.0,23.6],[84.6,23.6],[84.6,23.7],[84.7,23.7],[84.7,23.8],[85.1,23.8],[85.1,23.9],[85.6,23.9],[85.6,24.0],[87.1,24.0],[87.1,23.9],[87.5,23.9],[87.5,23.8],[87.7,23.8],[87.7,23.7],[88.0,23.7],[88.0,23.6],[88.1,23.6],[88.1,23.5],[88.2,23.5],[88.2,23.4],[88.3,23.4],[88.3,23.3],[88.4,23.3],[88.4,23.2],[88.6,23.2],[88.6,24.0],[88.7,24.0],[88.7,24.3],[88.8,24.3],[88.8,24.4],[88.9,24.4],[88.9,24.6],[89.0,24.6],[89.0,24.7],[89.1,24.7],[89.1,24.8],[89.2,24.8],[89.2,25.0],[89.3,25.0],[89.3,25.1],[89.4,25.1],[89.4,25.2],[89.5,25.2],[89.5,25.4],[89.6,25.4],[89.6,25.5],[89.7,25.5],[89.7,25.6],[89.8,25.6],[89.8,25.8],[89.9,25.8],[89.9,26.1],[89.1,26.1],[89.1,26.2],[89.0,26.2],[89.0,26.3],[88.9,26.3],[88.9,26.4],[88.8,26.4],[88.8,26.5],[88.5,26.5],[88.5,26.6],[88.2,26.6],[88.2,26.7],[88.0,26.7],[88.0,26.8],[87.8,26.8],[87.8,26.9],[87.6,26.9],[87.6,27.0],[87.4,27.0],[87.4,27.1],[87.1,27.1],[87.1,27.2],[86.4,27.2],[86.4,27.3],[85.8,27.3],[85.8,27.4],[85.5,27.4],[85.5,27.5],[85.2,27.5],[85.2,27.6],[84.8,27.6],[84.8,27.7],[84.1,27.7],[84.1,27.8],[83.2,27.8],[83.2,27.9],[82.8,27.9],[82.8,28.0],[82.6,28.0],[82.6,28.1],[82.3,28.1],[82.3,28.2],[82.0,28.2],[82.0,28.3],[81.8,28.3],[81.8,28.4],[81.6,28.4],[81.6,28.5],[81.2,28.5],[81.2,28.6],[81.0,28.6],[81.0,28.7],[80.7,28.7],[80.7,28.8],[80.5,28.8],[80.5,28.9],[80.4,28.9],[80.4,29.0],[80.3,29.0],[80.3,29.1],[80.2,29.1],[80.2,29.2],[80.1,29.2],[80.1,29.3],[79.9,29.3],[79.9,29.4],[79.5,29.4],[79.5,29.5],[79.4,29.5],[79.4,29.6],[79.2,29.6],[79.2,29.7],[78.9,29.7],[78.9,29.8],[76.8,29.8],[76.8,29.9],[76.2,29.9],[76.2,30.0],[76.0,30.0],[76.0,30.1],[75.8,30.1],[75.8,30.2],[75.6,30.2],[75.6,30.3],[75.4,30.3],[75.4,30.4],[75.1,30.4],[75.1,30.5],[75.0,30.5],[75.0,30.6],[74.9,30.6],[74.9,30.7],[74.7,30.7],[74.7,30.8],[74.6,30.8],[74.6,30.9],[74.5,30.9],[74.5,31.0],[74.4,31.0],[74.4,31.2],[74.3,31.2],[74.3,31.3],[74.2,31.3],[74.2,31.5],[74.0,31.5],[74.0,31.6],[73.9,31.6],[73.9,31.7],[73.8,31.7],[73.8,31.8],[73.7,31.8],[73.7,31.9],[73.6,31.9],[73.6,32.0],[73.5,32.0],[73.5,32.1],[73.4,32.1],[73.4,32.2],[73.3,32.2],[73.3,32.4],[73.2,32.4],[73.2,32.5],[73.1,32.5],[73.1,32.6],[73.0,32.6],[73.0,32.7],[72.8,32.7],[72.8,32.9],[72.7,32.9],[72.7,33.0],[72.6,33.0],[72.6,33.2],[72.5,33.2],[72.5,33.4],[72.4,33.4],[72.4,33.6],[72.3,33.6],[72.3,33.9],[72.2,33.9],[72.2,34.1],[72.1,34.1],[72.1,34.3],[72.0,34.3],[72.0,35.6],[72.1,35.6],[72.1,35.7],[72.2,35.7],[72.2,35.9],[72.3,35.9],[72.3,36.0],[72.1,36.0],[72.1,36.1],[71.9,36.1],[71.9,36.2],[71.7,36.2],[71.7,36.3],[71.5,36.3],[71.5,36.4],[71.4,36.4],[71.4,36.5],[71.2,36.5],[71.2,36.6],[71.1,36.6],[71.1,36.7],[71.0,36.7],[71.0,36.8],[70.8,36.8],[70.8,36.9],[70.6,36.9],[70.6,37.0],[70.4,37.0],[70.4,37.1],[70.3,37.1],[70.3,37.2],[69.6,37.2],[69.6,37.1],[69.2,37.1],[69.2,37.0],[68.7,37.0],[68.7,36.9],[68.6,36.9],[68.6,37.0],[68.5,37.0],[68.5,37.1],[68.2,37.1],[68.2,37.2],[68.0,37.2],[68.0,37.3],[67.9,37.3]]]]},"properties":{"start_year":1225,"end_year":1227,"source_color":"#ff9933","polity_id":null,"polity_assignment":"unverified","geometry_origin":"raster_color_trace_stitched","pixel_size_degrees":0.1,"sources":[{"feature_id":"51:1225:#ff9933","tile_id":"51","start_year":1225,"end_year":1227,"source_image":"data/raw/toolbay/t/51/1225.png","source_url":"https://www.toolbay.cc/history-map/t/51/1225.png"},{"feature_id":"61:1221:#ff9933","tile_id":"61","start_year":1221,"end_year":1227,"source_image":"data/raw/toolbay/t/61/1221.png","source_url":"https://www.toolbay.cc/history-map/t/61/1221.png"}]}},{"type":"Feature","id":"merged:1225:#ffff00","bbox":[72.5,10.4,122.6,39.5],"geometry":{"type":"MultiPolygon","coordinates":[[[[107.8,16.6],[107.7,16.6],[107.7,16.7],[107.5,16.7],[107.5,16.6],[107.4,16.6],[107.4,16.5],[107.3,16.5],[107.3,16.4],[107.2,16.4],[107.2,16.3],[107.0,16.3],[107.0,16.2],[106.8,16.2],[106.8,16.1],[106.6,16.1],[106.6,16.0],[105.8,16.0],[105.8,15.9],[105.9,15.9],[105.9,15.8],[106.0,15.8],[106.0,15.7],[106.1,15.7],[106.1,15.6],[106.2,15.6],[106.2,15.5],[106.3,15.5],[106.3,15.4],[106.4,15.4],[106.4,15.3],[106.5,15.3],[106.5,15.2],[106.6,15.2],[106.6,15.1],[106.7,15.1],[106.7,15.0],[106.9,15.0],[106.9,14.9],[107.0,14.9],[107.0,14.8],[107.1,14.8],[107.1,14.7],[107.2,14.7],[107.2,14.6],[107.3,14.6],[107.3,14.5],[107.4,14.5],[107.4,14.4],[107.5,14.4],[107.5,14.2],[107.6,14.2],[107.6,14.0],[107.7,14.0],[107.7,12.8],[107.6,12.8],[107.6,12.6],[107.5,12.6],[107.5,12.3],[107.4,12.3],[107.4,12.0],[107.3,12.0],[107.3,11.8],[107.2,11.8],[107.2,11.7],[107.1,11.7],[107.1,11.6],[107.0,11.6],[107.0,11.4],[106.9,11.4],[106.9,11.3],[106.8,11.3],[106.8,11.1],[106.7,11.1],[106.7,10.9],[106.6,10.9],[106.6,10.8],[106.7,10.8],[106.7,10.7],[106.8,10.7],[106.8,10.6],[106.9,10.6],[106.9,10.5],[107.1,10.5],[107.1,10.4],[107.3,10.4],[107.3,10.5],[107.5,10.5],[107.5,10.6],[107.7,10.6],[107.7,10.7],[108.0,10.7],[108.0,10.8],[108.1,10.8],[108.1,10.9],[108.2,10.9],[108.2,11.0],[108.4,11.0],[108.4,11.1],[108.5,11.1],[108.5,11.2],[108.7,11.2],[108.7,11.3],[108.9,11.3],[108.9,11.4],[109.0,11.4],[109.0,11.5],[109.1,11.5],[109.1,11.6],[109.2,11.6],[109.2,11.7],[109.3,11.7],[109.3,12.3],[109.4,12.3],[109.4,12.6],[109.5,12.6],[109.5,13.1],[109.4,13.1],[109.4,13.7],[109.3,13.7],[109.3,14.3],[109.2,14.3],[109.2,14.6],[109.1,14.6],[109.1,14.9],[109.0,14.9],[109.0,15.3],[108.9,15.3],[108.9,15.4],[108.8,15.4],[108.8,15.5],[108.7,15.5],[108.7,15.6],[108.6,15.6],[108.6,15.7],[108.5,15.7],[108.5,15.9],[108.4,15.9],[108.4,16.0],[108.3,16.0],[108.3,16.2],[108.2,16.2],[108.2,16.3],[108.1,16.3],[108.1,16.4],[107.9,16.4],[107.9,16.5],[107.8,16.5],[107.8,16.6]]],[[[76.1,23.7],[75.9,23.7],[75.9,23.8],[75.8,23.8],[75.8,23.7],[75.7,23.7],[75.7,23.6],[75.6,23.6],[75.6,23.5],[75.5,23.5],[75.5,23.4],[75.3,23.4],[75.3,23.3],[75.1,23.3],[75.1,23.2],[75.0,23.2],[75.0,23.1],[74.8,23.1],[74.8,23.0],[74.7,23.0],[74.7,22.9],[74.5,22.9],[74.5,22.8],[74.3,22.8],[74.3,22.7],[74.2,22.7],[74.2,22.6],[73.9,22.6],[73.9,22.5],[73.7,22.5],[73.7,22.4],[73.5,22.4],[73.5,22.3],[73.3,22.3],[73.3,22.2],[73.1,22.2],[73.1,22.1],[72.7,22.1],[72.7,22.0],[72.5,22.0],[72.5,21.8],[72.6,21.8],[72.6,21.1],[72.7,21.1],[72.7,21.0],[72.8,21.0],[72.8,20.8],[72.9,20.8],[72.9,20.5],[72.8,20.5],[72.8,20.3],[72.7,20.3],[72.7,19.5],[72.8,19.5],[72.8,18.9],[72.9,18.9],[72.9,18.3],[73.0,18.3],[73.0,18.0],[73.1,18.0],[73.1,17.6],[73.2,17.6],[73.2,17.2],[73.3,17.2],[73.3,16.5],[73.4,16.5],[73.4,16.2],[73.5,16.2],[73.5,16.0],[73.9,16.0],[73.9,16.1],[74.2,16.1],[74.2,16.2],[74.4,16.2],[74.4,16.3],[74.7,16.3],[74.7,16.4],[74.9,16.4],[74.9,16.5],[75.1,16.5],[75.1,16.6],[75.2,16.6],[75.2,16.7],[75.3,16.7],[75.3,16.8],[75.5,16.8],[75.5,16.9],[75.6,16.9],[75.6,17.0],[76.1,17.0],[76.1,16.9],[76.4,16.9],[76.4,17.5],[76.5,17.5],[76.5,17.7],[76.6,17.7],[76.6,17.8],[76.7,17.8],[76.7,18.0],[76.8,18.0],[76.8,18.3],[76.9,18.3],[76.9,18.8],[77.0,18.8],[77.0,19.1],[77.1,19.1],[77.1,19.2],[77.2,19.2],[77.2,19.3],[77.3,19.3],[77.3,19.5],[77.4,19.5],[77.4,19.7],[77.5,19.7],[77.5,19.8],[77.6,19.8],[77.6,20.0],[77.7,20.0],[77.7,20.1],[77.9,20.1],[77.9,20.3],[78.0,20.3],[78.0,20.4],[78.1,20.4],[78.1,20.5],[78.2,20.5],[78.2,20.6],[78.3,20.6],[78.3,20.8],[78.4,20.8],[78.4,20.9],[78.5,20.9],[78.5,21.0],[78.6,21.0],[78.6,21.2],[78.7,21.2],[78.7,21.3],[78.8,21.3],[78.8,21.5],[78.9,21.5],[78.9,21.7],[79.0,21.7],[79.0,21.8],[79.1,21.8],[79.1,22.1],[79.2,22.1],[79.2,22.4],[78.4,22.4],[78.4,22.5],[78.1,22.5],[78.1,22.6],[77.9,22.6],[77.9,22.7],[77.7,22.7],[77.7,22.8],[77.5,22.8],[77.5,22.9],[77.3,22.9],[77.3,23.0],[77.0,23.0],[77.0,23.1],[76.7,23.1],[76.7,23.2],[76.5,23.2],[76.5,23.3],[76.4,23.3],[76.4,23.4],[76.3,23.4],[76.3,23.5],[76.2,23.5],[76.2,23.6],[76.1,23.6],[76.1,23.7]]],[[[116.9,39.3],[116.9,39.4],[116.6,39.4],[116.6,39.5],[115.2,39.5],[115.2,39.4],[114.4,39.4],[114.4,39.3],[113.9,39.3],[113.9,39.2],[113.5,39.2],[113.5,39.1],[113.0,39.1],[113.0,39.0],[112.7,39.0],[112.7,38.9],[112.4,38.9],[112.4,38.8],[112.2,38.8],[112.2,38.7],[111.9,38.7],[111.9,38.6],[111.7,38.6],[111.7,38.5],[111.5,38.5],[111.5,38.4],[111.2,38.4],[111.2,38.3],[111.0,38.3],[111.0,38.2],[110.7,38.2],[110.7,38.1],[110.5,38.1],[110.5,38.0],[110.3,38.0],[110.3,37.9],[110.2,37.9],[110.2,37.8],[110.0,37.8],[110.0,37.7],[110.1,37.7],[110.1,37.6],[110.2,37.6],[110.2,37.4],[110.1,37.4],[110.1,37.3],[109.6,37.3],[109.6,37.2],[109.2,37.2],[109.2,37.1],[109.1,37.1],[109.1,37.0],[108.8,37.0],[108.8,36.9],[108.7,36.9],[108.7,36.8],[108.5,36.8],[108.5,36.7],[108.0,36.7],[108.0,36.6],[107.6,36.6],[107.6,36.5],[107.1,36.5],[107.1,36.4],[106.7,36.4],[106.7,36.3],[106.3,36.3],[106.3,36.2],[106.0,36.2],[106.0,36.1],[105.9,36.1],[105.9,36.0],[105.7,36.0],[105.7,35.9],[105.5,35.9],[105.5,35.8],[105.3,35.8],[105.3,35.7],[104.9,35.7],[104.9,35.6],[104.7,35.6],[104.7,35.5],[104.3,35.5],[104.3,35.4],[104.0,35.4],[104.0,35.2],[104.1,35.2],[104.1,34.8],[104.2,34.8],[104.2,34.5],[104.3,34.5],[104.3,33.9],[104.2,33.9],[104.2,33.4],[104.1,33.4],[104.1,33.0],[104.9,33.0],[104.9,32.9],[106.0,32.9],[106.0,32.8],[106.8,32.8],[106.8,32.7],[107.4,32.7],[107.4,32.6],[107.7,32.6],[107.7,32.5],[108.3,32.5],[108.3,32.4],[108.4,32.4],[108.4,32.5],[108.5,32.5],[108.5,32.4],[109.8,32.4],[109.8,32.5],[110.5,32.5],[110.5,32.4],[110.7,32.4],[110.7,32.3],[110.8,32.3],[110.8,32.2],[110.9,32.2],[110.9,31.9],[111.0,31.9],[111.0,31.7],[111.1,31.7],[111.1,31.3],[111.2,31.3],[111.2,31.2],[112.1,31.2],[112.1,31.3],[112.6,31.3],[112.6,31.4],[113.1,31.4],[113.1,31.5],[113.5,31.5],[113.5,31.6],[113.8,31.6],[113.8,31.7],[114.3,31.7],[114.3,31.8],[114.7,31.8],[114.7,31.9],[115.2,31.9],[115.2,32.0],[115.6,32.0],[115.6,32.1],[115.9,32.1],[115.9,32.2],[116.3,32.2],[116.3,32.3],[116.5,32.3],[116.5,32.4],[116.8,32.4],[116.8,32.5],[117.0,32.5],[117.0,32.6],[117.2,32.6],[117.2,32.7],[117.3,32.7],[117.3,32.8],[117.4,32.8],[117.4,32.9],[117.6,32.9],[117.6,33.0],[117.7,33.0],[117.7,33.1],[117.9,33.1],[117.9,33.2],[118.0,33.2],[118.0,33.3],[118.2,33.3],[118.2,33.4],[118.3,33.4],[118.3,33.5],[118.5,33.5],[118.5,33.6],[118.7,33.6],[118.7,33.7],[118.8,33.7],[118.8,33.8],[118.9,33.8],[118.9,33.9],[119.1,33.9],[119.1,34.0],[119.3,34.0],[119.3,34.1],[119.4,34.1],[119.4,34.2],[119.6,34.2],[119.6,34.3],[119.7,34.3],[119.7,34.4],[119.9,34.4],[119.9,34.6],[119.7,34.6],[119.7,34.7],[119.6,34.7],[119.6,34.8],[119.5,34.8],[119.5,34.9],[119.4,34.9],[119.4,35.2],[119.5,35.2],[119.5,35.4],[119.6,35.4],[119.6,35.6],[119.7,35.6],[119.7,35.7],[120.0,35.7],[120.0,35.8],[120.1,35.8],[120.1,35.9],[120.2,35.9],[120.2,36.0],[120.3,36.0],[120.3,36.1],[120.6,36.1],[120.6,36.2],[120.7,36.2],[120.7,36.4],[120.8,36.4],[120.8,36.5],[121.0,36.5],[121.0,36.6],[121.1,36.6],[121.1,36.7],[121.3,36.7],[121.3,36.8],[121.7,36.8],[121.7,36.9],[122.5,36.9],[122.5,37.0],[122.6,37.0],[122.6,37.4],[122.5,37.4],[122.5,37.5],[122.3,37.5],[122.3,37.6],[121.9,37.6],[121.9,37.5],[121.6,37.5],[121.6,37.6],[121.4,37.6],[121.4,37.7],[121.2,37.7],[121.2,37.8],[121.0,37.8],[121.0,37.9],[120.9,37.9],[120.9,38.0],[120.7,38.0],[120.7,37.9],[120.5,37.9],[120.5,37.8],[120.3,37.8],[120.3,37.7],[120.2,37.7],[120.2,37.6],[120.1,37.6],[120.1,37.5],[119.9,37.5],[119.9,37.4],[119.8,37.4],[119.8,37.3],[119.7,37.3],[119.7,37.2],[119.3,37.2],[119.3,37.3],[119.1,37.3],[119.1,37.4],[119.0,37.4],[119.0,38.2],[118.9,38.2],[118.9,38.3],[118.7,38.3],[118.7,38.2],[118.0,38.2],[118.0,38.3],[117.9,38.3],[117.9,38.4],[117.8,38.4],[117.8,38.5],[117.7,38.5],[117.7,38.6],[117.6,38.6],[117.6,39.0],[117.4,39.0],[117.4,39.1],[117.3,39.1],[117.3,39.2],[117.1,39.2],[117.1,39.3],[116.9,39.3]]]]},"properties":{"start_year":1225,"end_year":1227,"source_color":"#ffff00","polity_id":null,"polity_assignment":"unverified","geometry_origin":"raster_color_trace_stitched","pixel_size_degrees":0.1,"sources":[{"feature_id":"51:1225:#ffff00","tile_id":"51","start_year":1225,"end_year":1227,"source_image":"data/raw/toolbay/t/51/1225.png","source_url":"https://www.toolbay.cc/history-map/t/51/1225.png"},{"feature_id":"61:1221:#ffff00","tile_id":"61","start_year":1221,"end_year":1227,"source_image":"data/raw/toolbay/t/61/1221.png","source_url":"https://www.toolbay.cc/history-map/t/61/1221.png"}]}}]}
