{"type":"FeatureCollection","features":[{"type":"Feature","id":"merged:23:#009900","bbox":[60.0,37.6,129.1,52.1],"geometry":{"type":"MultiPolygon","coordinates":[[[[127.4,40.1],[127.4,40.2],[126.6,40.2],[126.6,40.0],[126.7,40.0],[126.7,39.9],[126.8,39.9],[126.8,39.7],[126.9,39.7],[126.9,39.5],[127.0,39.5],[127.0,39.2],[127.1,39.2],[127.1,38.9],[127.2,38.9],[127.2,38.0],[127.1,38.0],[127.1,37.8],[127.0,37.8],[127.0,37.7],[128.2,37.7],[128.2,37.6],[129.1,37.6],[129.1,37.8],[129.0,37.8],[129.0,37.9],[128.9,37.9],[128.9,38.0],[128.8,38.0],[128.8,38.1],[128.7,38.1],[128.7,38.3],[128.6,38.3],[128.6,38.5],[128.5,38.5],[128.5,38.6],[128.4,38.6],[128.4,38.7],[128.3,38.7],[128.3,38.8],[128.2,38.8],[128.2,38.9],[128.1,38.9],[128.1,39.0],[127.9,39.0],[127.9,39.1],[127.8,39.1],[127.8,39.2],[127.7,39.2],[127.7,39.3],[127.6,39.3],[127.6,39.8],[127.7,39.8],[127.7,40.0],[127.6,40.0],[127.6,40.1],[127.4,40.1]]],[[[74.0,44.9],[74.0,45.0],[73.9,45.0],[73.9,45.1],[73.7,45.1],[73.7,45.3],[73.5,45.3],[73.5,45.4],[73.4,45.4],[73.4,45.5],[73.3,45.5],[73.3,46.1],[73.4,46.1],[73.4,46.2],[73.5,46.2],[73.5,46.4],[73.7,46.4],[73.7,46.5],[73.9,46.5],[73.9,46.6],[74.1,46.6],[74.1,46.7],[74.4,46.7],[74.4,46.8],[74.5,46.8],[74.5,46.9],[75.8,46.9],[75.8,46.8],[77.0,46.8],[77.0,46.9],[77.8,46.9],[77.8,47.0],[78.0,47.0],[78.0,47.1],[78.2,47.1],[78.2,47.2],[80.0,47.2],[80.0,47.3],[80.1,47.3],[80.1,47.6],[80.2,47.6],[80.2,48.0],[80.3,48.0],[80.3,48.6],[80.4,48.6],[80.4,49.0],[80.3,49.0],[80.3,49.7],[80.2,49.7],[80.2,50.4],[80.1,50.4],[80.1,50.7],[80.0,50.7],[80.0,50.9],[79.9,50.9],[79.9,51.0],[79.8,51.0],[79.8,51.1],[79.6,51.1],[79.6,51.0],[79.1,51.0],[79.1,50.9],[78.4,50.9],[78.4,51.0],[78.0,51.0],[78.0,51.1],[77.4,51.1],[77.4,51.2],[76.0,51.2],[76.0,51.3],[75.8,51.3],[75.8,51.4],[75.5,51.4],[75.5,51.5],[75.1,51.5],[75.1,51.6],[72.3,51.6],[72.3,51.5],[68.9,51.5],[68.9,51.6],[68.6,51.6],[68.6,51.7],[68.0,51.7],[68.0,51.8],[67.6,51.8],[67.6,51.9],[66.7,51.9],[66.7,52.0],[66.0,52.0],[66.0,52.1],[64.5,52.1],[64.5,52.0],[64.0,52.0],[64.0,51.9],[63.3,51.9],[63.3,51.8],[62.9,51.8],[62.9,51.7],[62.5,51.7],[62.5,51.6],[61.6,51.6],[61.6,51.5],[61.4,51.5],[61.4,51.4],[61.0,51.4],[61.0,51.3],[60.8,51.3],[60.8,51.2],[61.0,51.2],[61.0,51.1],[61.1,51.1],[61.1,51.0],[61.2,51.0],[61.2,50.9],[61.3,50.9],[61.3,50.8],[61.5,50.8],[61.5,50.7],[61.6,50.7],[61.6,50.6],[61.7,50.6],[61.7,50.5],[61.8,50.5],[61.8,50.4],[61.9,50.4],[61.9,50.3],[62.0,50.3],[62.0,50.2],[62.1,50.2],[62.1,50.1],[62.2,50.1],[62.2,50.0],[62.3,50.0],[62.3,49.8],[62.4,49.8],[62.4,49.6],[62.5,49.6],[62.5,49.5],[62.6,49.5],[62.6,49.3],[62.7,49.3],[62.7,49.1],[62.8,49.1],[62.8,48.9],[62.9,48.9],[62.9,48.7],[63.0,48.7],[63.0,48.3],[63.1,48.3],[63.1,47.9],[63.2,47.9],[63.2,47.2],[63.1,47.2],[63.1,46.5],[63.2,46.5],[63.2,45.6],[63.1,45.6],[63.1,45.5],[62.9,45.5],[62.9,45.4],[62.8,45.4],[62.8,45.3],[62.3,45.3],[62.3,45.4],[61.4,45.4],[61.4,45.3],[61.2,45.3],[61.2,45.2],[61.3,45.2],[61.3,45.1],[61.4,45.1],[61.4,45.0],[61.4,44.9],[61.3,44.9],[61.3,44.8],[61.1,44.8],[61.1,44.7],[61.0,44.7],[61.0,44.5],[60.9,44.5],[60.9,44.3],[60.8,44.3],[60.8,44.2],[60.6,44.2],[60.6,44.1],[60.3,44.1],[60.3,44.0],[60.2,44.0],[60.2,43.9],[60.1,43.9],[60.1,43.8],[60.0,43.8],[60.0,41.8],[60.1,41.8],[60.1,41.7],[60.4,41.7],[60.4,41.6],[60.6,41.6],[60.6,41.5],[60.8,41.5],[60.8,41.4],[61.1,41.4],[61.1,41.3],[61.3,41.3],[61.3,41.2],[61.5,41.2],[61.5,41.1],[61.9,41.1],[61.9,41.0],[62.0,41.0],[62.0,40.9],[62.2,40.9],[62.2,40.8],[62.7,40.8],[62.7,40.9],[63.2,40.9],[63.2,41.0],[63.5,41.0],[63.5,41.1],[64.1,41.1],[64.1,41.2],[64.3,41.2],[64.3,41.3],[64.6,41.3],[64.6,41.4],[65.0,41.4],[65.0,41.5],[65.1,41.5],[65.1,41.6],[66.0,41.6],[66.0,41.7],[66.8,41.7],[66.8,41.8],[67.1,41.8],[67.1,41.9],[67.3,41.9],[67.3,42.0],[67.7,42.0],[67.7,42.2],[67.9,42.2],[67.9,42.3],[68.0,42.3],[68.0,42.5],[69.0,42.5],[69.0,42.6],[68.9,42.6],[68.9,42.8],[68.8,42.8],[68.8,43.2],[68.7,43.2],[68.7,43.8],[68.6,43.8],[68.6,44.3],[68.7,44.3],[68.7,44.7],[68.8,44.7],[68.8,44.8],[69.4,44.8],[69.4,44.9],[69.6,44.9],[69.6,44.8],[69.9,44.8],[69.9,44.7],[70.5,44.7],[70.5,44.6],[71.1,44.6],[71.1,44.5],[71.6,44.5],[71.6,44.4],[72.9,44.4],[72.9,44.5],[73.0,44.5],[73.0,44.6],[73.2,44.6],[73.2,44.7],[73.4,44.7],[73.4,44.8],[73.6,44.8],[73.6,44.9],[74.0,44.9]]]]},"properties":{"start_year":23,"end_year":24,"source_color":"#009900","polity_id":null,"polity_assignment":"unverified","geometry_origin":"raster_color_trace_stitched","pixel_size_degrees":0.1,"sources":[{"feature_id":"50:12:#009900","tile_id":"50","start_year":12,"end_year":46,"source_image":"data/raw/toolbay/t/50/12.png","source_url":"https://www.toolbay.cc/history-map/t/50/12.png"},{"feature_id":"51:12:#009900","tile_id":"51","start_year":12,"end_year":30,"source_image":"data/raw/toolbay/t/51/12.png","source_url":"https://www.toolbay.cc/history-map/t/51/12.png"},{"feature_id":"61:23:#009900","tile_id":"61","start_year":23,"end_year":24,"source_image":"data/raw/toolbay/t/61/23.png","source_url":"https://www.toolbay.cc/history-map/t/61/23.png"}]}},{"type":"Feature","id":"merged:23:#00ff00","bbox":[73.7,10.3,127.2,46.8],"geometry":{"type":"MultiPolygon","coordinates":[[[[78.0,14.3],[77.3,14.3],[77.3,14.4],[76.6,14.4],[76.6,14.3],[75.9,14.3],[75.9,14.2],[75.1,14.2],[75.1,14.1],[74.5,14.1],[74.5,14.0],[74.6,14.0],[74.6,13.7],[74.7,13.7],[74.7,13.6],[75.0,13.6],[75.0,13.5],[75.4,13.5],[75.4,13.4],[75.8,13.4],[75.8,13.3],[75.9,13.3],[75.9,13.2],[76.0,13.2],[76.0,13.1],[76.1,13.1],[76.1,13.0],[76.2,13.0],[76.2,12.9],[76.3,12.9],[76.3,12.8],[76.5,12.8],[76.5,12.7],[76.6,12.7],[76.6,12.6],[76.7,12.6],[76.7,12.5],[76.8,12.5],[76.8,12.4],[76.9,12.4],[76.9,12.3],[77.0,12.3],[77.0,12.2],[77.2,12.2],[77.2,12.1],[77.3,12.1],[77.3,12.0],[77.4,12.0],[77.4,11.9],[77.5,11.9],[77.5,11.7],[77.7,11.7],[77.7,11.6],[77.8,11.6],[77.8,11.4],[77.9,11.4],[77.9,11.3],[78.0,11.3],[78.0,11.2],[78.1,11.2],[78.1,11.1],[78.2,11.1],[78.2,10.9],[78.4,10.9],[78.4,10.8],[78.5,10.8],[78.5,10.7],[78.6,10.7],[78.6,10.6],[78.8,10.6],[78.8,10.5],[79.4,10.5],[79.4,10.4],[79.6,10.4],[79.6,10.3],[79.8,10.3],[79.8,10.4],[79.9,10.4],[79.9,11.5],[79.8,11.5],[79.8,11.9],[79.9,11.9],[79.9,12.2],[80.0,12.2],[80.0,12.3],[80.1,12.3],[80.1,12.5],[80.2,12.5],[80.2,12.7],[80.3,12.7],[80.3,13.1],[80.4,13.1],[80.4,13.6],[80.3,13.6],[80.3,13.9],[79.6,13.9],[79.6,14.0],[79.4,14.0],[79.4,14.1],[78.5,14.1],[78.5,14.2],[78.0,14.2],[78.0,14.3]]],[[[97.9,41.0],[97.9,41.1],[96.9,41.1],[96.9,41.2],[96.4,41.2],[96.4,41.1],[96.2,41.1],[96.2,41.0],[95.8,41.0],[95.8,40.9],[95.5,40.9],[95.5,40.8],[95.0,40.8],[95.0,40.1],[95.1,40.1],[95.1,39.8],[95.2,39.8],[95.2,39.7],[95.3,39.7],[95.3,39.6],[95.5,39.6],[95.5,39.5],[96.3,39.5],[96.3,39.6],[98.2,39.6],[98.2,39.5],[99.0,39.5],[99.0,39.4],[99.5,39.4],[99.5,39.3],[99.9,39.3],[99.9,39.2],[100.1,39.2],[100.1,39.1],[100.5,39.1],[100.5,39.0],[100.9,39.0],[100.9,38.9],[101.4,38.9],[101.4,38.8],[101.7,38.8],[101.7,38.7],[102.2,38.7],[102.2,38.6],[102.4,38.6],[102.4,38.5],[102.6,38.5],[102.6,38.4],[102.7,38.4],[102.7,38.3],[102.8,38.3],[102.8,38.2],[103.0,38.2],[103.0,38.1],[103.1,38.1],[103.1,37.8],[103.2,37.8],[103.2,37.6],[103.3,37.6],[103.3,36.3],[103.4,36.3],[103.4,35.8],[103.5,35.8],[103.5,35.6],[103.6,35.6],[103.6,35.4],[103.7,35.4],[103.7,34.6],[103.8,34.6],[103.8,33.9],[103.7,33.9],[103.7,33.5],[103.6,33.5],[103.6,33.3],[103.5,33.3],[103.5,32.5],[103.4,32.5],[103.4,32.1],[103.3,32.1],[103.3,31.1],[103.2,31.1],[103.2,30.7],[103.1,30.7],[103.1,30.4],[103.0,30.4],[103.0,28.7],[103.1,28.7],[103.1,28.1],[103.2,28.1],[103.2,27.5],[103.3,27.5],[103.3,27.4],[103.5,27.4],[103.5,27.3],[103.6,27.3],[103.6,27.2],[103.7,27.2],[103.7,27.0],[103.8,27.0],[103.8,26.5],[103.7,26.5],[103.7,25.7],[103.6,25.7],[103.6,25.1],[103.5,25.1],[103.5,24.5],[103.4,24.5],[103.4,24.2],[103.3,24.2],[103.3,23.8],[103.2,23.8],[103.2,23.6],[103.1,23.6],[103.1,23.0],[103.0,23.0],[103.0,22.3],[103.1,22.3],[103.1,21.5],[103.2,21.5],[103.2,21.3],[103.3,21.3],[103.3,20.8],[103.4,20.8],[103.4,20.5],[103.5,20.5],[103.5,20.4],[103.7,20.4],[103.7,20.0],[103.8,20.0],[103.8,19.8],[103.9,19.8],[103.9,19.4],[104.0,19.4],[104.0,19.1],[104.1,19.1],[104.1,18.8],[104.2,18.8],[104.2,18.6],[104.3,18.6],[104.3,17.6],[104.4,17.6],[104.4,17.3],[104.5,17.3],[104.5,17.1],[104.6,17.1],[104.6,16.9],[104.7,16.9],[104.7,16.8],[104.8,16.8],[104.8,16.6],[104.9,16.6],[104.9,16.5],[105.0,16.5],[105.0,16.4],[105.1,16.4],[105.1,16.3],[105.2,16.3],[105.2,16.2],[105.4,16.2],[105.4,16.1],[105.6,16.1],[105.6,16.0],[106.6,16.0],[106.6,16.1],[106.8,16.1],[106.8,16.2],[107.0,16.2],[107.0,16.3],[107.2,16.3],[107.2,16.4],[107.3,16.4],[107.3,16.5],[107.4,16.5],[107.4,16.6],[107.5,16.6],[107.5,16.8],[107.4,16.8],[107.4,16.9],[107.3,16.9],[107.3,17.0],[107.2,17.0],[107.2,17.1],[107.1,17.1],[107.1,17.2],[107.0,17.2],[107.0,17.3],[106.9,17.3],[106.9,17.4],[106.8,17.4],[106.8,17.5],[106.7,17.5],[106.7,17.6],[106.6,17.6],[106.6,17.8],[106.5,17.8],[106.5,18.2],[106.4,18.2],[106.4,18.3],[106.2,18.3],[106.2,18.4],[106.1,18.4],[106.1,18.5],[106.0,18.5],[106.0,18.6],[105.9,18.6],[105.9,18.7],[105.8,18.7],[105.8,18.9],[105.7,18.9],[105.7,19.1],[105.8,19.1],[105.8,19.3],[105.9,19.3],[105.9,19.8],[106.0,19.8],[106.0,19.9],[106.1,19.9],[106.1,20.0],[106.2,20.0],[106.2,20.1],[106.3,20.1],[106.3,20.2],[106.4,20.2],[106.4,20.3],[106.5,20.3],[106.5,20.4],[106.6,20.4],[106.6,20.6],[106.7,20.6],[106.7,20.7],[106.9,20.7],[106.9,20.8],[107.1,20.8],[107.1,20.9],[107.5,20.9],[107.5,21.0],[107.6,21.0],[107.6,21.1],[107.7,21.1],[107.7,21.3],[107.8,21.3],[107.8,21.4],[108.0,21.4],[108.0,21.5],[108.2,21.5],[108.2,21.6],[108.5,21.6],[108.5,21.7],[109.0,21.7],[109.0,21.6],[109.1,21.6],[109.1,21.5],[109.7,21.5],[109.7,20.7],[109.8,20.7],[109.8,20.5],[109.9,20.5],[109.9,20.4],[110.0,20.4],[110.0,20.3],[110.1,20.3],[110.1,20.2],[110.0,20.2],[110.0,20.1],[109.6,20.1],[109.6,20.0],[109.3,20.0],[109.3,19.9],[109.2,19.9],[109.2,19.8],[109.1,19.8],[109.1,19.7],[109.0,19.7],[109.0,19.6],[108.9,19.6],[108.9,19.5],[108.8,19.5],[108.8,19.4],[108.7,19.4],[108.7,19.3],[108.6,19.3],[108.6,18.9],[108.7,18.9],[108.7,18.6],[108.8,18.6],[108.8,18.5],[108.9,18.5],[108.9,18.4],[109.2,18.4],[109.2,18.3],[109.5,18.3],[109.5,18.2],[109.7,18.2],[109.7,18.3],[109.8,18.3],[109.8,18.4],[110.0,18.4],[110.0,18.5],[110.1,18.5],[110.1,18.6],[110.2,18.6],[110.2,18.7],[110.5,18.7],[110.5,18.8],[110.6,18.8],[110.6,19.3],[110.7,19.3],[110.7,19.4],[110.8,19.4],[110.8,19.5],[110.9,19.5],[110.9,19.6],[111.0,19.6],[111.0,20.0],[110.9,20.0],[110.9,20.1],[110.8,20.1],[110.8,20.2],[110.5,20.2],[110.5,21.0],[110.6,21.0],[110.6,21.2],[110.7,21.2],[110.7,21.3],[110.8,21.3],[110.8,21.4],[110.9,21.4],[110.9,21.5],[111.5,21.5],[111.5,21.6],[111.9,21.6],[111.9,21.7],[112.9,21.7],[112.9,21.8],[113.0,21.8],[113.0,21.9],[113.2,21.9],[113.2,22.0],[113.5,22.0],[113.5,22.1],[113.6,22.1],[113.6,22.6],[113.9,22.6],[113.9,22.2],[114.0,22.2],[114.0,22.1],[114.2,22.1],[114.2,22.2],[114.3,22.2],[114.3,22.3],[114.4,22.3],[114.4,22.4],[114.5,22.4],[114.5,22.5],[114.7,22.5],[114.7,22.6],[115.0,22.6],[115.0,22.7],[115.1,22.7],[115.1,22.8],[116.0,22.8],[116.0,22.9],[116.2,22.9],[116.2,23.0],[116.5,23.0],[116.5,23.1],[116.6,23.1],[116.6,23.2],[116.7,23.2],[116.7,23.3],[116.8,23.3],[116.8,23.4],[116.9,23.4],[116.9,23.5],[117.3,23.5],[117.3,23.6],[117.4,23.6],[117.4,23.7],[117.5,23.7],[117.5,23.8],[117.6,23.8],[117.6,23.9],[117.7,23.9],[117.7,24.0],[117.9,24.0],[117.9,24.1],[118.0,24.1],[118.0,24.2],[118.1,24.2],[118.1,24.3],[118.2,24.3],[118.2,24.4],[118.4,24.4],[118.4,24.5],[118.5,24.5],[118.5,24.6],[118.6,24.6],[118.6,24.7],[118.8,24.7],[118.8,24.8],[118.9,24.8],[118.9,25.0],[119.0,25.0],[119.0,25.1],[119.1,25.1],[119.1,25.2],[119.3,25.2],[119.3,25.3],[119.4,25.3],[119.4,25.4],[119.8,25.4],[119.8,25.5],[119.9,25.5],[119.9,25.7],[119.8,25.7],[119.8,25.8],[119.7,25.8],[119.7,26.2],[119.8,26.2],[119.8,26.3],[119.9,26.3],[119.9,26.5],[120.0,26.5],[120.0,26.6],[120.1,26.6],[120.1,26.7],[120.2,26.7],[120.2,26.9],[120.3,26.9],[120.3,27.0],[120.4,27.0],[120.4,27.2],[120.5,27.2],[120.5,27.3],[120.6,27.3],[120.6,27.4],[120.7,27.4],[120.7,27.8],[120.8,27.8],[120.8,27.9],[121.2,27.9],[121.2,28.0],[121.3,28.0],[121.3,28.2],[121.4,28.2],[121.4,28.3],[121.6,28.3],[121.6,28.4],[121.7,28.4],[121.7,28.7],[121.8,28.7],[121.8,29.0],[121.9,29.0],[121.9,29.2],[122.0,29.2],[122.0,29.6],[122.1,29.6],[122.1,29.7],[122.3,29.7],[122.3,29.8],[122.4,29.8],[122.4,30.2],[122.3,30.2],[122.3,30.3],[121.9,30.3],[121.9,30.2],[121.5,30.2],[121.5,30.3],[121.4,30.3],[121.4,30.4],[121.2,30.4],[121.2,30.5],[121.1,30.5],[121.1,30.6],[121.2,30.6],[121.2,30.7],[121.4,30.7],[121.4,30.8],[121.5,30.8],[121.5,30.9],[121.8,30.9],[121.8,31.0],[121.9,31.0],[121.9,31.2],[121.8,31.2],[121.8,31.5],[121.9,31.5],[121.9,31.7],[122.0,31.7],[122.0,31.9],[121.9,31.9],[121.9,32.0],[121.8,32.0],[121.8,32.1],[121.7,32.1],[121.7,32.2],[121.5,32.2],[121.5,32.3],[121.4,32.3],[121.4,32.5],[121.3,32.5],[121.3,32.6],[121.1,32.6],[121.1,32.7],[121.0,32.7],[121.0,33.0],[120.9,33.0],[120.9,33.1],[120.8,33.1],[120.8,33.3],[120.7,33.3],[120.7,33.5],[120.6,33.5],[120.6,33.8],[120.5,33.8],[120.5,34.0],[120.4,34.0],[120.4,34.3],[120.3,34.3],[120.3,34.4],[120.2,34.4],[120.2,34.5],[119.9,34.5],[119.9,34.6],[119.7,34.6],[119.7,34.7],[119.6,34.7],[119.6,34.8],[119.5,34.8],[119.5,34.9],[119.4,34.9],[119.4,35.2],[119.5,35.2],[119.5,35.4],[119.6,35.4],[119.6,35.6],[119.7,35.6],[119.7,35.7],[120.0,35.7],[120.0,35.8],[120.1,35.8],[120.1,35.9],[120.2,35.9],[120.2,36.0],[120.3,36.0],[120.3,36.1],[120.6,36.1],[120.6,36.2],[120.7,36.2],[120.7,36.4],[120.8,36.4],[120.8,36.5],[121.0,36.5],[121.0,36.6],[121.1,36.6],[121.1,36.7],[121.3,36.7],[121.3,36.8],[121.7,36.8],[121.7,36.9],[122.5,36.9],[122.5,37.0],[122.6,37.0],[122.6,37.4],[122.5,37.4],[122.5,37.5],[122.3,37.5],[122.3,37.6],[121.9,37.6],[121.9,37.5],[121.6,37.5],[121.6,37.6],[121.4,37.6],[121.4,37.7],[121.2,37.7],[121.2,37.8],[121.0,37.8],[121.0,37.9],[120.9,37.9],[120.9,38.0],[120.7,38.0],[120.7,37.9],[120.5,37.9],[120.5,37.8],[120.3,37.8],[120.3,37.7],[120.2,37.7],[120.2,37.6],[120.1,37.6],[120.1,37.5],[119.9,37.5],[119.9,37.4],[119.8,37.4],[119.8,37.3],[119.7,37.3],[119.7,37.2],[119.3,37.2],[119.3,37.3],[119.1,37.3],[119.1,37.4],[119.0,37.4],[119.0,38.2],[118.9,38.2],[118.9,38.3],[118.7,38.3],[118.7,38.2],[118.0,38.2],[118.0,38.3],[117.9,38.3],[117.9,38.4],[117.8,38.4],[117.8,38.5],[117.7,38.5],[117.7,38.6],[117.6,38.6],[117.6,38.9],[117.1,38.9],[117.1,38.8],[116.9,38.8],[116.9,38.7],[116.7,38.7],[116.7,38.6],[116.5,38.6],[116.5,38.5],[116.3,38.5],[116.3,38.4],[116.0,38.4],[116.0,38.3],[115.9,38.3],[115.9,38.2],[115.6,38.2],[115.6,38.1],[115.4,38.1],[115.4,38.0],[115.3,38.0],[115.3,37.9],[115.1,37.9],[115.1,37.8],[115.0,37.8],[115.0,37.7],[114.7,37.7],[114.7,37.6],[114.5,37.6],[114.5,37.5],[114.2,37.5],[114.2,37.4],[114.0,37.4],[114.0,37.3],[113.1,37.3],[113.1,37.4],[112.9,37.4],[112.9,37.5],[112.8,37.5],[112.8,38.2],[112.9,38.2],[112.9,38.6],[113.0,38.6],[113.0,39.0],[113.1,39.0],[113.1,39.2],[113.2,39.2],[113.2,40.7],[111.7,40.7],[111.7,40.6],[111.4,40.6],[111.4,40.5],[111.2,40.5],[111.2,40.4],[110.9,40.4],[110.9,40.3],[110.7,40.3],[110.7,40.2],[110.5,40.2],[110.5,40.1],[110.3,40.1],[110.3,40.0],[110.1,40.0],[110.1,39.9],[110.0,39.9],[110.0,39.8],[109.9,39.8],[109.9,39.7],[109.7,39.7],[109.7,39.6],[109.5,39.6],[109.5,39.5],[109.3,39.5],[109.3,39.4],[109.1,39.4],[109.1,39.3],[108.9,39.3],[108.9,39.2],[108.6,39.2],[108.6,39.1],[108.4,39.1],[108.4,39.0],[108.3,39.0],[108.3,38.9],[108.2,38.9],[108.2,38.8],[108.1,38.8],[108.1,38.7],[107.9,38.7],[107.9,38.6],[107.8,38.6],[107.8,38.5],[107.6,38.5],[107.6,38.4],[107.4,38.4],[107.4,38.3],[107.0,38.3],[107.0,38.2],[106.9,38.2],[106.9,38.1],[106.7,38.1],[106.7,38.0],[105.7,38.0],[105.7,38.1],[105.5,38.1],[105.5,38.2],[105.4,38.2],[105.4,38.3],[105.3,38.3],[105.3,38.4],[105.2,38.4],[105.2,38.5],[105.1,38.5],[105.1,38.8],[105.0,38.8],[105.0,38.9],[104.9,38.9],[104.9,39.1],[104.8,39.1],[104.8,39.2],[104.7,39.2],[104.7,39.5],[104.6,39.5],[104.6,39.7],[104.5,39.7],[104.5,39.8],[104.4,39.8],[104.4,39.9],[104.3,39.9],[104.3,40.1],[104.2,40.1],[104.2,40.2],[104.0,40.2],[104.0,40.3],[103.8,40.3],[103.8,40.4],[103.6,40.4],[103.6,40.5],[103.3,40.5],[103.3,40.6],[102.5,40.6],[102.5,40.7],[101.1,40.7],[101.1,40.8],[99.0,40.8],[99.0,40.9],[98.9,40.9],[98.9,41.0],[97.9,41.0]],[[113.4,35.9],[113.7,35.9],[113.7,36.0],[113.9,36.0],[113.9,36.1],[114.2,36.1],[114.2,36.0],[114.5,36.0],[114.5,35.9],[114.7,35.9],[114.7,35.8],[114.8,35.8],[114.8,35.0],[114.7,35.0],[114.7,34.7],[114.6,34.7],[114.6,34.3],[114.5,34.3],[114.5,34.2],[114.4,34.2],[114.4,33.9],[114.3,33.9],[114.3,33.8],[114.2,33.8],[114.2,33.6],[114.1,33.6],[114.1,33.4],[114.0,33.4],[114.0,33.2],[113.9,33.2],[113.9,33.0],[113.8,33.0],[113.8,32.8],[113.7,32.8],[113.7,32.6],[113.6,32.6],[113.6,32.4],[113.5,32.4],[113.5,32.3],[113.4,32.3],[113.4,32.1],[113.3,32.1],[113.3,32.0],[113.2,32.0],[113.2,31.9],[111.2,31.9],[111.2,31.8],[110.0,31.8],[110.0,31.7],[108.6,31.7],[108.6,31.8],[108.4,31.8],[108.4,31.9],[108.3,31.9],[108.3,32.0],[108.2,32.0],[108.2,32.6],[108.3,32.6],[108.3,32.7],[108.4,32.7],[108.4,32.9],[108.5,32.9],[108.5,33.0],[108.6,33.0],[108.6,33.1],[108.7,33.1],[108.7,33.2],[108.9,33.2],[108.9,33.3],[109.0,33.3],[109.0,33.4],[109.2,33.4],[109.2,33.5],[109.4,33.5],[109.4,33.6],[109.7,33.6],[109.7,33.7],[109.8,33.7],[109.8,33.8],[110.1,33.8],[110.1,33.9],[110.4,33.9],[110.4,34.0],[110.7,34.0],[110.7,34.1],[110.8,34.1],[110.8,34.2],[111.0,34.2],[111.0,34.3],[111.2,34.3],[111.2,34.4],[111.4,34.4],[111.4,34.5],[111.6,34.5],[111.6,34.6],[111.7,34.6],[111.7,34.7],[111.8,34.7],[111.8,34.8],[111.9,34.8],[111.9,35.0],[112.1,35.0],[112.1,35.1],[112.2,35.1],[112.2,35.2],[112.3,35.2],[112.3,35.3],[112.4,35.3],[112.4,35.4],[112.6,35.4],[112.6,35.5],[112.7,35.5],[112.7,35.6],[113.1,35.6],[113.1,35.7],[113.3,35.7],[113.3,35.8],[113.4,35.8],[113.4,35.9]],[[116.0,29.4],[116.2,29.4],[116.2,29.2],[116.0,29.2],[116.0,29.4]],[[116.4,29.2],[116.5,29.2],[116.5,29.0],[116.4,29.0],[116.4,29.2]]],[[[124.7,41.9],[124.7,42.0],[124.5,42.0],[124.5,42.1],[123.6,42.1],[123.6,42.0],[123.3,42.0],[123.3,41.9],[123.2,41.9],[123.2,41.8],[122.9,41.8],[122.9,41.7],[122.7,41.7],[122.7,41.6],[122.6,41.6],[122.6,41.5],[122.3,41.5],[122.3,41.4],[122.0,41.4],[122.0,41.3],[121.7,41.3],[121.7,41.2],[121.6,41.2],[121.6,41.1],[121.7,41.1],[121.7,41.0],[121.8,41.0],[121.8,40.9],[121.9,40.9],[121.9,40.8],[122.1,40.8],[122.1,40.7],[122.2,40.7],[122.2,40.4],[122.1,40.4],[122.1,40.3],[122.0,40.3],[122.0,40.2],[121.9,40.2],[121.9,40.1],[121.8,40.1],[121.8,40.0],[121.6,40.0],[121.6,39.9],[121.5,39.9],[121.5,39.8],[121.4,39.8],[121.4,39.7],[121.3,39.7],[121.3,39.5],[121.4,39.5],[121.4,39.3],[121.5,39.3],[121.5,39.2],[121.4,39.2],[121.4,39.1],[121.3,39.1],[121.3,38.8],[121.5,38.8],[121.5,38.9],[121.9,38.9],[121.9,39.0],[122.0,39.0],[122.0,39.1],[122.1,39.1],[122.1,39.2],[122.2,39.2],[122.2,39.3],[122.5,39.3],[122.5,39.4],[122.6,39.4],[122.6,39.5],[122.7,39.5],[122.7,39.6],[122.9,39.6],[122.9,39.7],[123.3,39.7],[123.3,39.8],[123.7,39.8],[123.7,39.9],[124.2,39.9],[124.2,39.8],[124.5,39.8],[124.5,39.7],[124.7,39.7],[124.7,39.6],[125.3,39.6],[125.3,39.5],[125.4,39.5],[125.4,39.3],[125.3,39.3],[125.3,39.1],[125.2,39.1],[125.2,39.0],[125.1,39.0],[125.1,38.7],[125.0,38.7],[125.0,38.6],[124.9,38.6],[124.9,38.1],[125.0,38.1],[125.0,37.9],[125.1,37.9],[125.1,37.8],[125.2,37.8],[125.2,37.7],[125.4,37.7],[125.4,37.8],[125.7,37.8],[125.7,37.9],[126.0,37.9],[126.0,37.8],[126.3,37.8],[126.3,37.7],[126.4,37.7],[126.4,37.4],[126.7,37.4],[126.7,37.5],[126.8,37.5],[126.8,37.6],[127.0,37.6],[127.0,37.8],[127.1,37.8],[127.1,38.0],[127.2,38.0],[127.2,38.9],[127.1,38.9],[127.1,39.2],[127.0,39.2],[127.0,39.5],[126.9,39.5],[126.9,39.7],[126.8,39.7],[126.8,39.9],[126.7,39.9],[126.7,40.0],[126.6,40.0],[126.6,40.2],[126.5,40.2],[126.5,40.4],[126.4,40.4],[126.4,40.6],[126.3,40.6],[126.3,40.7],[126.2,40.7],[126.2,40.9],[126.1,40.9],[126.1,41.1],[126.0,41.1],[126.0,41.2],[125.8,41.2],[125.8,41.3],[125.7,41.3],[125.7,41.4],[125.6,41.4],[125.6,41.5],[125.4,41.5],[125.4,41.6],[125.3,41.6],[125.3,41.7],[125.0,41.7],[125.0,41.8],[124.9,41.8],[124.9,41.9],[124.7,41.9]]],[[[76.9,46.6],[76.8,46.6],[76.8,46.8],[75.9,46.8],[75.9,46.7],[75.8,46.7],[75.8,46.6],[75.6,46.6],[75.6,46.5],[75.1,46.5],[75.1,46.6],[74.9,46.6],[74.9,46.5],[74.7,46.5],[74.7,46.3],[74.4,46.3],[74.4,46.2],[74.3,46.2],[74.3,46.1],[74.2,46.1],[74.2,46.0],[74.1,46.0],[74.1,45.7],[74.0,45.7],[74.0,45.5],[73.9,45.5],[73.9,45.3],[73.7,45.3],[73.7,45.1],[73.9,45.1],[73.9,45.0],[75.7,45.0],[75.7,45.1],[75.9,45.1],[75.9,45.2],[76.1,45.2],[76.1,45.3],[76.2,45.3],[76.2,45.4],[76.3,45.4],[76.3,45.5],[76.4,45.5],[76.4,45.6],[76.5,45.6],[76.5,45.8],[76.6,45.8],[76.6,45.9],[76.7,45.9],[76.7,46.0],[76.8,46.0],[76.8,46.2],[76.9,46.2],[76.9,46.6]]]]},"properties":{"start_year":23,"end_year":24,"source_color":"#00ff00","polity_id":null,"polity_assignment":"unverified","geometry_origin":"raster_color_trace_stitched","pixel_size_degrees":0.1,"sources":[{"feature_id":"50:12:#00ff00","tile_id":"50","start_year":12,"end_year":46,"source_image":"data/raw/toolbay/t/50/12.png","source_url":"https://www.toolbay.cc/history-map/t/50/12.png"},{"feature_id":"51:12:#00ff00","tile_id":"51","start_year":12,"end_year":30,"source_image":"data/raw/toolbay/t/51/12.png","source_url":"https://www.toolbay.cc/history-map/t/51/12.png"},{"feature_id":"61:23:#00ff00","tile_id":"61","start_year":23,"end_year":24,"source_image":"data/raw/toolbay/t/61/23.png","source_url":"https://www.toolbay.cc/history-map/t/61/23.png"}]}},{"type":"Feature","id":"merged:23:#00ffff","bbox":[68.0,20.7,127.7,44.9],"geometry":{"type":"MultiPolygon","coordinates":[[[[70.6,29.7],[70.4,29.7],[70.4,29.8],[70.2,29.8],[70.2,29.6],[70.1,29.6],[70.1,29.3],[70.0,29.3],[70.0,29.0],[69.9,29.0],[69.9,28.9],[69.8,28.9],[69.8,28.7],[69.7,28.7],[69.7,28.6],[69.6,28.6],[69.6,28.5],[69.5,28.5],[69.5,28.4],[69.4,28.4],[69.4,28.3],[69.3,28.3],[69.3,28.2],[69.1,28.2],[69.1,28.1],[68.9,28.1],[68.9,28.0],[68.7,28.0],[68.7,27.9],[68.6,27.9],[68.6,27.8],[68.4,27.8],[68.4,27.7],[68.3,27.7],[68.3,27.6],[68.2,27.6],[68.2,27.4],[68.1,27.4],[68.1,27.0],[68.0,27.0],[68.0,26.2],[68.1,26.2],[68.1,26.0],[68.2,26.0],[68.2,25.7],[68.3,25.7],[68.3,25.6],[68.4,25.6],[68.4,25.5],[68.5,25.5],[68.5,25.2],[68.6,25.2],[68.6,25.1],[68.7,25.1],[68.7,24.9],[68.6,24.9],[68.6,24.6],[68.5,24.6],[68.5,24.4],[68.4,24.4],[68.4,24.1],[68.3,24.1],[68.3,23.9],[68.2,23.9],[68.2,23.8],[68.1,23.8],[68.1,23.7],[68.2,23.7],[68.2,23.6],[68.3,23.6],[68.3,23.5],[68.4,23.5],[68.4,23.4],[68.5,23.4],[68.5,23.3],[68.6,23.3],[68.6,23.2],[68.7,23.2],[68.7,23.1],[68.9,23.1],[68.9,23.0],[69.1,23.0],[69.1,22.9],[69.5,22.9],[69.5,22.8],[69.8,22.8],[69.8,22.9],[70.1,22.9],[70.1,22.8],[70.2,22.8],[70.2,22.7],[70.1,22.7],[70.1,22.6],[69.6,22.6],[69.6,22.5],[69.1,22.5],[69.1,22.4],[69.0,22.4],[69.0,22.2],[69.1,22.2],[69.1,22.1],[69.2,22.1],[69.2,22.0],[69.3,22.0],[69.3,21.9],[69.4,21.9],[69.4,21.8],[69.5,21.8],[69.5,21.7],[69.6,21.7],[69.6,21.6],[69.7,21.6],[69.7,21.5],[69.8,21.5],[69.8,21.4],[69.9,21.4],[69.9,21.3],[70.0,21.3],[70.0,21.2],[70.1,21.2],[70.1,21.1],[70.2,21.1],[70.2,21.0],[70.4,21.0],[70.4,20.9],[70.5,20.9],[70.5,20.8],[70.8,20.8],[70.8,20.7],[71.0,20.7],[71.0,20.8],[71.3,20.8],[71.3,20.9],[71.5,20.9],[71.5,21.0],[71.7,21.0],[71.7,21.1],[71.9,21.1],[71.9,21.2],[72.1,21.2],[72.1,21.3],[72.2,21.3],[72.2,21.5],[72.3,21.5],[72.3,22.0],[72.5,22.0],[72.5,21.8],[73.0,21.8],[73.0,21.9],[73.4,21.9],[73.4,22.0],[73.9,22.0],[73.9,22.1],[74.1,22.1],[74.1,22.2],[74.4,22.2],[74.4,22.3],[74.7,22.3],[74.7,22.4],[74.8,22.4],[74.8,22.5],[75.1,22.5],[75.1,22.6],[75.3,22.6],[75.3,22.7],[75.5,22.7],[75.5,22.8],[75.6,22.8],[75.6,22.9],[75.7,22.9],[75.7,23.1],[75.8,23.1],[75.8,23.2],[76.0,23.2],[76.0,23.3],[76.1,23.3],[76.1,23.4],[76.2,23.4],[76.2,23.5],[76.4,23.5],[76.4,23.6],[76.5,23.6],[76.5,23.7],[76.7,23.7],[76.7,23.8],[76.8,23.8],[76.8,23.9],[77.0,23.9],[77.0,24.0],[77.1,24.0],[77.1,24.1],[77.2,24.1],[77.2,24.2],[77.4,24.2],[77.4,24.3],[77.8,24.3],[77.8,24.4],[77.7,24.4],[77.7,24.6],[77.6,24.6],[77.6,24.8],[77.5,24.8],[77.5,24.9],[77.4,24.9],[77.4,25.0],[77.3,25.0],[77.3,25.2],[77.2,25.2],[77.2,25.3],[77.1,25.3],[77.1,25.5],[77.0,25.5],[77.0,25.7],[76.9,25.7],[76.9,25.9],[76.8,25.9],[76.8,26.2],[76.6,26.2],[76.6,26.3],[76.5,26.3],[76.5,26.5],[76.4,26.5],[76.4,26.6],[76.3,26.6],[76.3,26.7],[76.2,26.7],[76.2,26.8],[76.1,26.8],[76.1,26.9],[75.9,26.9],[75.9,27.0],[75.7,27.0],[75.7,27.1],[75.6,27.1],[75.6,27.2],[75.5,27.2],[75.5,27.3],[75.3,27.3],[75.3,27.4],[75.1,27.4],[75.1,27.5],[74.9,27.5],[74.9,27.6],[74.6,27.6],[74.6,27.7],[74.4,27.7],[74.4,27.8],[74.2,27.8],[74.2,27.9],[74.0,27.9],[74.0,28.0],[73.9,28.0],[73.9,28.1],[73.8,28.1],[73.8,28.2],[73.6,28.2],[73.6,28.3],[73.4,28.3],[73.4,28.4],[73.3,28.4],[73.3,28.5],[73.1,28.5],[73.1,28.6],[73.0,28.6],[73.0,28.7],[72.9,28.7],[72.9,28.8],[72.8,28.8],[72.8,28.9],[72.7,28.9],[72.7,29.0],[72.4,29.0],[72.4,29.1],[72.2,29.1],[72.2,29.2],[71.9,29.2],[71.9,29.3],[71.4,29.3],[71.4,29.4],[71.0,29.4],[71.0,29.5],[70.8,29.5],[70.8,29.6],[70.6,29.6],[70.6,29.7]]],[[[125.1,43.9],[124.7,43.9],[124.7,44.0],[124.1,44.0],[124.1,43.9],[123.7,43.9],[123.7,43.7],[123.8,43.7],[123.8,43.6],[123.9,43.6],[123.9,43.4],[124.0,43.4],[124.0,43.1],[123.9,43.1],[123.9,42.7],[123.8,42.7],[123.8,42.5],[123.7,42.5],[123.7,42.4],[123.6,42.4],[123.6,42.1],[124.5,42.1],[124.5,42.0],[124.7,42.0],[124.7,41.9],[124.9,41.9],[124.9,41.8],[125.0,41.8],[125.0,41.7],[125.3,41.7],[125.3,41.6],[125.4,41.6],[125.4,41.5],[125.6,41.5],[125.6,41.4],[125.7,41.4],[125.7,41.3],[125.8,41.3],[125.8,41.2],[126.0,41.2],[126.0,41.1],[126.1,41.1],[126.1,40.9],[126.2,40.9],[126.2,41.0],[126.3,41.0],[126.3,41.2],[126.4,41.2],[126.4,41.4],[126.5,41.4],[126.5,41.5],[126.6,41.5],[126.6,41.7],[126.7,41.7],[126.7,41.8],[126.8,41.8],[126.8,42.0],[126.9,42.0],[126.9,42.1],[127.0,42.1],[127.0,42.3],[127.1,42.3],[127.1,42.4],[127.2,42.4],[127.2,42.5],[127.3,42.5],[127.3,42.6],[127.4,42.6],[127.4,42.7],[127.6,42.7],[127.6,42.8],[127.7,42.8],[127.7,43.0],[127.6,43.0],[127.6,43.1],[127.4,43.1],[127.4,43.2],[127.0,43.2],[127.0,43.3],[126.8,43.3],[126.8,43.4],[126.6,43.4],[126.6,43.5],[126.2,43.5],[126.2,43.6],[125.9,43.6],[125.9,43.7],[125.6,43.7],[125.6,43.8],[125.1,43.8],[125.1,43.9]]],[[[69.9,44.7],[69.9,44.8],[69.6,44.8],[69.6,44.9],[69.4,44.9],[69.4,44.8],[68.8,44.8],[68.8,44.7],[68.7,44.7],[68.7,44.3],[68.6,44.3],[68.6,43.8],[68.7,43.8],[68.7,43.2],[68.8,43.2],[68.8,42.8],[68.9,42.8],[68.9,42.6],[69.0,42.6],[69.0,42.4],[69.7,42.4],[69.7,42.3],[71.1,42.3],[71.1,42.4],[71.8,42.4],[71.8,42.5],[72.1,42.5],[72.1,42.6],[72.8,42.6],[72.8,43.2],[72.7,43.2],[72.7,43.6],[72.8,43.6],[72.8,44.4],[71.6,44.4],[71.6,44.5],[71.1,44.5],[71.1,44.6],[70.5,44.6],[70.5,44.7],[69.9,44.7]]]]},"properties":{"start_year":23,"end_year":24,"source_color":"#00ffff","polity_id":null,"polity_assignment":"unverified","geometry_origin":"raster_color_trace_stitched","pixel_size_degrees":0.1,"sources":[{"feature_id":"51:12:#00ffff","tile_id":"51","start_year":12,"end_year":30,"source_image":"data/raw/toolbay/t/51/12.png","source_url":"https://www.toolbay.cc/history-map/t/51/12.png"},{"feature_id":"61:23:#00ffff","tile_id":"61","start_year":23,"end_year":24,"source_image":"data/raw/toolbay/t/61/23.png","source_url":"https://www.toolbay.cc/history-map/t/61/23.png"}]}},{"type":"Feature","id":"merged:23:#6666ff","bbox":[89.1,38.0,121.1,50.5],"geometry":{"type":"Polygon","coordinates":[[[120.6,44.8],[120.6,45.0],[121.1,45.0],[121.1,45.2],[121.0,45.2],[121.0,45.3],[120.8,45.3],[120.8,45.4],[120.7,45.4],[120.7,45.5],[120.6,45.5],[120.6,45.6],[120.5,45.6],[120.5,45.8],[120.4,45.8],[120.4,45.9],[120.3,45.9],[120.3,46.1],[120.2,46.1],[120.2,46.5],[120.1,46.5],[120.1,46.8],[120.0,46.8],[120.0,47.0],[119.9,47.0],[119.9,47.2],[119.8,47.2],[119.8,47.4],[119.7,47.4],[119.7,47.7],[119.6,47.7],[119.6,48.0],[119.5,48.0],[119.5,48.2],[119.4,48.2],[119.4,48.4],[119.3,48.4],[119.3,48.6],[119.1,48.6],[119.1,48.7],[118.9,48.7],[118.9,48.8],[118.6,48.8],[118.6,48.9],[117.7,48.9],[117.7,49.0],[117.1,49.0],[117.1,49.1],[116.8,49.1],[116.8,49.2],[116.5,49.2],[116.5,49.3],[115.4,49.3],[115.4,49.4],[112.8,49.4],[112.8,49.3],[109.7,49.3],[109.7,49.2],[109.2,49.2],[109.2,49.1],[108.8,49.1],[108.8,49.0],[108.3,49.0],[108.3,48.9],[107.9,48.9],[107.9,48.8],[107.3,48.8],[107.3,48.7],[106.8,48.7],[106.8,48.6],[106.2,48.6],[106.2,48.5],[105.9,48.5],[105.9,48.4],[105.7,48.4],[105.7,48.3],[105.5,48.3],[105.5,48.2],[105.3,48.2],[105.3,48.1],[104.0,48.1],[104.0,48.2],[103.6,48.2],[103.6,48.3],[103.3,48.3],[103.3,48.4],[103.1,48.4],[103.1,48.5],[102.8,48.5],[102.8,48.6],[102.5,48.6],[102.5,48.7],[102.2,48.7],[102.2,48.8],[101.7,48.8],[101.7,48.9],[101.4,48.9],[101.4,49.0],[101.1,49.0],[101.1,49.1],[100.9,49.1],[100.9,49.2],[100.6,49.2],[100.6,49.3],[100.3,49.3],[100.3,49.4],[99.9,49.4],[99.9,49.5],[99.7,49.5],[99.7,49.6],[99.4,49.6],[99.4,49.7],[99.1,49.7],[99.1,49.8],[98.9,49.8],[98.9,49.9],[98.6,49.9],[98.6,50.0],[98.3,50.0],[98.3,50.1],[98.1,50.1],[98.1,50.2],[97.8,50.2],[97.8,50.3],[97.5,50.3],[97.5,50.4],[96.2,50.4],[96.2,50.5],[95.6,50.5],[95.6,50.4],[95.1,50.4],[95.1,50.3],[94.6,50.3],[94.6,50.2],[94.4,50.2],[94.4,50.3],[92.7,50.3],[92.7,50.4],[92.4,50.4],[92.4,50.5],[90.6,50.5],[90.6,50.4],[90.4,50.4],[90.4,50.5],[90.0,50.5],[89.5,50.5],[89.5,50.4],[89.4,50.4],[89.4,49.7],[89.5,49.7],[89.5,49.1],[89.6,49.1],[89.6,47.5],[89.5,47.5],[89.5,47.3],[89.4,47.3],[89.4,47.1],[89.3,47.1],[89.3,45.8],[89.2,45.8],[89.2,45.6],[89.1,45.6],[89.1,45.5],[89.2,45.5],[89.2,45.4],[89.6,45.4],[89.6,45.3],[89.8,45.3],[89.8,45.2],[89.9,45.2],[89.9,45.0],[90.0,45.0],[90.0,44.7],[90.1,44.7],[90.1,44.5],[90.2,44.5],[90.2,44.1],[90.3,44.1],[90.3,43.9],[90.4,43.9],[90.4,43.7],[90.5,43.7],[90.5,43.5],[90.6,43.5],[90.6,43.3],[90.7,43.3],[90.7,43.1],[90.8,43.1],[90.8,42.9],[90.9,42.9],[90.9,42.7],[91.0,42.7],[91.0,42.5],[91.1,42.5],[91.1,42.4],[91.2,42.4],[91.2,42.2],[91.3,42.2],[91.3,42.1],[91.4,42.1],[91.4,42.0],[91.5,42.0],[91.5,41.9],[91.6,41.9],[91.6,41.8],[91.7,41.8],[91.7,41.6],[91.8,41.6],[91.8,41.5],[91.9,41.5],[91.9,41.4],[92.0,41.4],[92.0,41.3],[92.1,41.3],[92.1,41.2],[92.2,41.2],[92.2,41.1],[92.4,41.1],[92.4,41.0],[92.5,41.0],[92.5,40.9],[92.7,40.9],[92.7,40.8],[93.4,40.8],[93.4,40.7],[95.0,40.7],[95.0,40.8],[95.5,40.8],[95.5,40.9],[95.8,40.9],[95.8,41.0],[96.2,41.0],[96.2,41.1],[96.4,41.1],[96.4,41.2],[96.9,41.2],[96.9,41.1],[97.9,41.1],[97.9,41.0],[98.9,41.0],[98.9,40.9],[99.0,40.9],[99.0,40.8],[101.1,40.8],[101.1,40.7],[102.5,40.7],[102.5,40.6],[103.3,40.6],[103.3,40.5],[103.6,40.5],[103.6,40.4],[103.8,40.4],[103.8,40.3],[104.0,40.3],[104.0,40.2],[104.2,40.2],[104.2,40.1],[104.3,40.1],[104.3,39.9],[104.4,39.9],[104.4,39.8],[104.5,39.8],[104.5,39.7],[104.6,39.7],[104.6,39.5],[104.7,39.5],[104.7,39.2],[104.8,39.2],[104.8,39.1],[104.9,39.1],[104.9,38.9],[105.0,38.9],[105.0,38.8],[105.1,38.8],[105.1,38.5],[105.2,38.5],[105.2,38.4],[105.3,38.4],[105.3,38.3],[105.4,38.3],[105.4,38.2],[105.5,38.2],[105.5,38.1],[105.7,38.1],[105.7,38.0],[106.7,38.0],[106.7,38.1],[106.9,38.1],[106.9,38.2],[107.0,38.2],[107.0,38.3],[107.4,38.3],[107.4,38.4],[107.6,38.4],[107.6,38.5],[107.8,38.5],[107.8,38.6],[107.9,38.6],[107.9,38.7],[108.1,38.7],[108.1,38.8],[108.2,38.8],[108.2,38.9],[108.3,38.9],[108.3,39.0],[108.4,39.0],[108.4,39.1],[108.6,39.1],[108.6,39.2],[108.9,39.2],[108.9,39.3],[109.1,39.3],[109.1,39.4],[109.3,39.4],[109.3,39.5],[109.5,39.5],[109.5,39.6],[109.7,39.6],[109.7,39.7],[109.9,39.7],[109.9,39.8],[110.0,39.8],[110.0,39.9],[110.1,39.9],[110.1,40.0],[110.3,40.0],[110.3,40.1],[110.5,40.1],[110.5,40.2],[110.7,40.2],[110.7,40.3],[110.9,40.3],[110.9,40.4],[111.2,40.4],[111.2,40.5],[111.4,40.5],[111.4,40.6],[111.7,40.6],[111.7,40.7],[113.4,40.7],[113.4,40.8],[113.9,40.8],[113.9,40.9],[114.6,40.9],[114.6,41.0],[114.8,41.0],[114.8,41.1],[115.0,41.1],[115.0,41.2],[115.1,41.2],[115.1,41.3],[115.7,41.3],[115.7,41.4],[116.0,41.4],[116.0,41.5],[116.3,41.5],[116.3,41.6],[116.5,41.6],[116.5,41.7],[116.3,41.7],[116.3,41.9],[116.2,41.9],[116.2,42.2],[116.1,42.2],[116.1,42.4],[116.2,42.4],[116.2,42.5],[116.3,42.5],[116.3,42.6],[116.4,42.6],[116.4,42.8],[116.6,42.8],[116.6,42.9],[116.7,42.9],[116.7,43.0],[116.8,43.0],[116.8,43.1],[117.0,43.1],[117.0,43.2],[117.3,43.2],[117.3,43.3],[117.7,43.3],[117.7,43.4],[117.9,43.4],[117.9,43.5],[118.3,43.5],[118.3,43.6],[118.5,43.6],[118.5,43.7],[118.7,43.7],[118.7,43.8],[119.0,43.8],[119.0,43.9],[119.4,43.9],[119.4,44.0],[119.6,44.0],[119.6,44.1],[119.8,44.1],[119.8,44.2],[120.0,44.2],[120.0,44.4],[120.2,44.4],[120.2,44.5],[120.3,44.5],[120.3,44.6],[120.4,44.6],[120.4,44.7],[120.5,44.7],[120.5,44.8],[120.6,44.8]]]},"properties":{"start_year":23,"end_year":24,"source_color":"#6666ff","polity_id":null,"polity_assignment":"unverified","geometry_origin":"raster_color_trace_stitched","pixel_size_degrees":0.1,"sources":[{"feature_id":"50:12:#6666ff","tile_id":"50","start_year":12,"end_year":46,"source_image":"data/raw/toolbay/t/50/12.png","source_url":"https://www.toolbay.cc/history-map/t/50/12.png"},{"feature_id":"60:-176:#6666ff","tile_id":"60","start_year":-176,"end_year":46,"source_image":"data/raw/toolbay/t/60/-176.png","source_url":"https://www.toolbay.cc/history-map/t/60/-176.png"},{"feature_id":"61:23:#6666ff","tile_id":"61","start_year":23,"end_year":24,"source_image":"data/raw/toolbay/t/61/23.png","source_url":"https://www.toolbay.cc/history-map/t/61/23.png"}]}},{"type":"Feature","id":"merged:23:#999900","bbox":[112.8,37.3,121.7,42.0],"geometry":{"type":"Polygon","coordinates":[[[118.2,42.0],[117.2,42.0],[117.2,41.9],[116.9,41.9],[116.9,41.8],[116.6,41.8],[116.6,41.7],[116.5,41.7],[116.5,41.6],[116.3,41.6],[116.3,41.5],[116.0,41.5],[116.0,41.4],[115.7,41.4],[115.7,41.3],[115.1,41.3],[115.1,41.2],[115.0,41.2],[115.0,41.1],[114.8,41.1],[114.8,41.0],[114.6,41.0],[114.6,40.9],[113.9,40.9],[113.9,40.8],[113.4,40.8],[113.4,40.7],[113.2,40.7],[113.2,39.2],[113.1,39.2],[113.1,39.0],[113.0,39.0],[113.0,38.6],[112.9,38.6],[112.9,38.2],[112.8,38.2],[112.8,37.5],[112.9,37.5],[112.9,37.4],[113.1,37.4],[113.1,37.3],[114.0,37.3],[114.0,37.4],[114.2,37.4],[114.2,37.5],[114.5,37.5],[114.5,37.6],[114.7,37.6],[114.7,37.7],[115.0,37.7],[115.0,37.8],[115.1,37.8],[115.1,37.9],[115.3,37.9],[115.3,38.0],[115.4,38.0],[115.4,38.1],[115.6,38.1],[115.6,38.2],[115.9,38.2],[115.9,38.3],[116.0,38.3],[116.0,38.4],[116.3,38.4],[116.3,38.5],[116.5,38.5],[116.5,38.6],[116.7,38.6],[116.7,38.7],[116.9,38.7],[116.9,38.8],[117.1,38.8],[117.1,38.9],[117.6,38.9],[117.6,39.0],[117.7,39.0],[117.7,39.1],[117.9,39.1],[117.9,39.2],[118.2,39.2],[118.2,39.1],[118.9,39.1],[118.9,39.2],[119.1,39.2],[119.1,39.3],[119.2,39.3],[119.2,39.5],[119.3,39.5],[119.3,39.7],[119.4,39.7],[119.4,39.8],[119.6,39.8],[119.6,39.9],[119.7,39.9],[119.7,40.0],[120.0,40.0],[120.0,40.1],[120.2,40.1],[120.2,40.2],[120.5,40.2],[120.5,40.3],[120.6,40.3],[120.6,40.5],[120.7,40.5],[120.7,40.6],[120.9,40.6],[120.9,40.7],[121.0,40.7],[121.0,40.8],[121.1,40.8],[121.1,40.9],[121.5,40.9],[121.5,41.0],[121.7,41.0],[121.7,41.1],[121.6,41.1],[121.6,41.2],[121.0,41.2],[121.0,41.3],[120.4,41.3],[120.4,41.4],[120.2,41.4],[120.2,41.5],[120.0,41.5],[120.0,41.6],[119.8,41.6],[119.8,41.7],[119.4,41.7],[119.4,41.8],[119.0,41.8],[119.0,41.9],[118.2,41.9],[118.2,42.0]]]},"properties":{"start_year":23,"end_year":24,"source_color":"#999900","polity_id":null,"polity_assignment":"unverified","geometry_origin":"raster_color_trace_stitched","pixel_size_degrees":0.1,"sources":[{"feature_id":"61:23:#999900","tile_id":"61","start_year":23,"end_year":24,"source_image":"data/raw/toolbay/t/61/23.png","source_url":"https://www.toolbay.cc/history-map/t/61/23.png"}]}},{"type":"Feature","id":"merged:23:#ff0000","bbox":[61.8,8.2,79.4,42.6],"geometry":{"type":"MultiPolygon","coordinates":[[[[75.4,13.5],[75.0,13.5],[75.0,13.6],[74.7,13.6],[74.7,13.3],[74.8,13.3],[74.8,12.8],[74.9,12.8],[74.9,12.6],[75.0,12.6],[75.0,12.4],[75.1,12.4],[75.1,12.2],[75.2,12.2],[75.2,12.0],[75.3,12.0],[75.3,11.9],[75.4,11.9],[75.4,11.8],[75.5,11.8],[75.5,11.7],[75.6,11.7],[75.6,11.5],[75.7,11.5],[75.7,11.3],[75.8,11.3],[75.8,11.1],[75.9,11.1],[75.9,10.8],[76.0,10.8],[76.0,10.5],[76.1,10.5],[76.1,10.3],[76.2,10.3],[76.2,9.9],[76.3,9.9],[76.3,9.5],[76.4,9.5],[76.4,9.2],[76.5,9.2],[76.5,9.0],[76.6,9.0],[76.6,8.9],[76.7,8.9],[76.7,8.8],[76.8,8.8],[76.8,8.7],[76.9,8.7],[76.9,8.5],[77.0,8.5],[77.0,8.4],[77.1,8.4],[77.1,8.3],[77.2,8.3],[77.2,8.2],[77.8,8.2],[77.8,8.3],[78.0,8.3],[78.0,8.4],[78.1,8.4],[78.1,8.5],[78.2,8.5],[78.2,8.9],[78.3,8.9],[78.3,9.1],[78.4,9.1],[78.4,9.2],[78.8,9.2],[78.8,9.3],[78.9,9.3],[78.9,9.4],[79.0,9.4],[79.0,9.8],[79.1,9.8],[79.1,9.9],[79.2,9.9],[79.2,10.0],[79.3,10.0],[79.3,10.3],[79.4,10.3],[79.4,10.5],[78.8,10.5],[78.8,10.6],[78.6,10.6],[78.6,10.7],[78.5,10.7],[78.5,10.8],[78.4,10.8],[78.4,10.9],[78.2,10.9],[78.2,11.1],[78.1,11.1],[78.1,11.2],[78.0,11.2],[78.0,11.3],[77.9,11.3],[77.9,11.4],[77.8,11.4],[77.8,11.6],[77.7,11.6],[77.7,11.7],[77.5,11.7],[77.5,11.9],[77.4,11.9],[77.4,12.0],[77.3,12.0],[77.3,12.1],[77.2,12.1],[77.2,12.2],[77.0,12.2],[77.0,12.3],[76.9,12.3],[76.9,12.4],[76.8,12.4],[76.8,12.5],[76.7,12.5],[76.7,12.6],[76.6,12.6],[76.6,12.7],[76.5,12.7],[76.5,12.8],[76.3,12.8],[76.3,12.9],[76.2,12.9],[76.2,13.0],[76.1,13.0],[76.1,13.1],[76.0,13.1],[76.0,13.2],[75.9,13.2],[75.9,13.3],[75.8,13.3],[75.8,13.4],[75.4,13.4],[75.4,13.5]]],[[[72.7,42.3],[72.8,42.3],[72.8,42.6],[72.1,42.6],[72.1,42.5],[71.8,42.5],[71.8,42.4],[71.1,42.4],[71.1,42.3],[69.7,42.3],[69.7,42.4],[69.0,42.4],[69.0,42.5],[68.0,42.5],[68.0,42.3],[67.9,42.3],[67.9,42.2],[67.7,42.2],[67.7,42.0],[67.3,42.0],[67.3,41.9],[67.1,41.9],[67.1,41.8],[66.8,41.8],[66.8,41.7],[66.0,41.7],[66.0,41.6],[65.1,41.6],[65.1,41.5],[65.0,41.5],[65.0,41.4],[64.6,41.4],[64.6,41.3],[64.3,41.3],[64.3,41.2],[64.1,41.2],[64.1,41.1],[63.5,41.1],[63.5,41.0],[63.2,41.0],[63.2,40.9],[62.7,40.9],[62.7,40.8],[62.2,40.8],[62.2,40.9],[62.0,40.9],[62.0,41.0],[61.9,41.0],[61.9,40.9],[61.8,40.9],[61.8,39.9],[61.9,39.9],[61.9,39.1],[62.0,39.1],[62.0,38.9],[62.1,38.9],[62.1,38.7],[62.2,38.7],[62.2,38.6],[62.3,38.6],[62.3,38.5],[62.4,38.5],[62.4,38.3],[62.5,38.3],[62.5,38.0],[62.6,38.0],[62.6,37.8],[62.7,37.8],[62.7,37.6],[62.8,37.6],[62.8,37.4],[62.9,37.4],[62.9,37.2],[63.0,37.2],[63.0,37.1],[63.1,37.1],[63.1,37.0],[63.2,37.0],[63.2,36.9],[63.3,36.9],[63.3,36.8],[63.5,36.8],[63.5,36.7],[63.6,36.7],[63.6,36.6],[63.7,36.6],[63.7,36.5],[63.9,36.5],[63.9,36.4],[64.1,36.4],[64.1,36.3],[64.2,36.3],[64.2,36.2],[64.3,36.2],[64.3,36.1],[64.5,36.1],[64.5,36.0],[64.7,36.0],[64.7,35.9],[65.1,35.9],[65.1,35.8],[65.3,35.8],[65.3,35.7],[66.4,35.7],[66.4,35.8],[66.6,35.8],[66.6,35.9],[66.8,35.9],[66.8,36.0],[67.0,36.0],[67.0,36.1],[67.3,36.1],[67.3,36.2],[67.5,36.2],[67.5,36.3],[67.9,36.3],[67.9,36.4],[68.1,36.4],[68.1,36.5],[68.4,36.5],[68.4,36.6],[68.7,36.6],[68.7,36.7],[69.1,36.7],[69.1,36.8],[69.4,36.8],[69.4,36.9],[69.7,36.9],[69.7,37.0],[72.0,37.0],[72.0,36.9],[72.1,36.9],[72.1,37.2],[72.2,37.2],[72.2,37.3],[72.3,37.3],[72.3,37.4],[72.4,37.4],[72.4,37.5],[72.5,37.5],[72.5,37.6],[72.6,37.6],[72.6,37.7],[72.7,37.7],[72.7,37.8],[72.8,37.8],[72.8,37.9],[72.9,37.9],[72.9,38.0],[73.0,38.0],[73.0,38.2],[73.1,38.2],[73.1,39.3],[73.2,39.3],[73.2,40.3],[73.1,40.3],[73.1,40.7],[73.0,40.7],[73.0,41.0],[72.9,41.0],[72.9,41.9],[72.8,41.9],[72.8,42.1],[72.7,42.1],[72.7,42.3]]]]},"properties":{"start_year":23,"end_year":24,"source_color":"#ff0000","polity_id":null,"polity_assignment":"unverified","geometry_origin":"raster_color_trace_stitched","pixel_size_degrees":0.1,"sources":[{"feature_id":"51:12:#ff0000","tile_id":"51","start_year":12,"end_year":30,"source_image":"data/raw/toolbay/t/51/12.png","source_url":"https://www.toolbay.cc/history-map/t/51/12.png"}]}},{"type":"Feature","id":"merged:23:#ff00ff","bbox":[60.0,19.8,124.0,51.3],"geometry":{"type":"MultiPolygon","coordinates":[[[[90.5,26.3],[90.5,26.4],[90.0,26.4],[89.9,26.4],[89.9,26.3],[89.2,26.3],[89.2,26.4],[87.9,26.4],[87.9,26.5],[86.8,26.5],[86.8,26.6],[86.3,26.6],[86.3,26.7],[85.8,26.7],[85.8,26.8],[85.5,26.8],[85.5,26.9],[85.0,26.9],[85.0,27.0],[84.5,27.0],[84.5,27.1],[84.0,27.1],[84.0,27.2],[83.6,27.2],[83.6,27.3],[83.3,27.3],[83.3,27.4],[83.1,27.4],[83.1,27.5],[82.8,27.5],[82.8,27.6],[82.6,27.6],[82.6,27.7],[82.3,27.7],[82.3,27.8],[82.2,27.8],[82.2,27.9],[82.0,27.9],[82.0,28.0],[81.8,28.0],[81.8,28.1],[81.6,28.1],[81.6,28.2],[81.5,28.2],[81.5,28.3],[81.3,28.3],[81.3,28.4],[81.2,28.4],[81.2,28.5],[81.1,28.5],[81.1,28.6],[80.9,28.6],[80.9,28.7],[80.8,28.7],[80.8,28.8],[80.6,28.8],[80.6,28.9],[80.4,28.9],[80.4,29.0],[80.3,29.0],[80.3,29.1],[80.2,29.1],[80.2,29.2],[79.9,29.2],[79.9,29.3],[79.7,29.3],[79.7,29.4],[79.5,29.4],[79.5,29.5],[79.3,29.5],[79.3,29.6],[78.8,29.6],[78.8,29.7],[78.3,29.7],[78.3,29.6],[78.1,29.6],[78.1,29.5],[78.0,29.5],[78.0,29.3],[77.9,29.3],[77.9,29.2],[77.8,29.2],[77.8,29.1],[77.7,29.1],[77.7,29.0],[77.6,29.0],[77.6,28.9],[77.5,28.9],[77.5,28.8],[77.4,28.8],[77.4,28.7],[77.3,28.7],[77.3,28.6],[77.1,28.6],[77.1,28.5],[77.0,28.5],[77.0,28.4],[76.8,28.4],[76.8,28.3],[76.7,28.3],[76.7,28.1],[76.6,28.1],[76.6,26.6],[76.7,26.6],[76.7,26.2],[76.8,26.2],[76.8,25.9],[76.9,25.9],[76.9,25.7],[77.0,25.7],[77.0,25.5],[77.1,25.5],[77.1,25.3],[77.2,25.3],[77.2,25.2],[77.3,25.2],[77.3,25.0],[77.4,25.0],[77.4,24.9],[77.5,24.9],[77.5,24.8],[77.6,24.8],[77.6,24.6],[77.7,24.6],[77.7,24.4],[77.8,24.4],[77.8,24.2],[77.9,24.2],[77.9,24.1],[78.0,24.1],[78.0,24.0],[78.1,24.0],[78.1,23.8],[78.2,23.8],[78.2,23.7],[78.3,23.7],[78.3,23.6],[78.4,23.6],[78.4,23.4],[78.5,23.4],[78.5,23.3],[78.6,23.3],[78.6,23.2],[78.7,23.2],[78.7,23.1],[78.8,23.1],[78.8,23.0],[79.0,23.0],[79.0,22.9],[79.1,22.9],[79.1,22.8],[79.2,22.8],[79.2,22.7],[79.3,22.7],[79.3,22.6],[79.4,22.6],[79.4,22.5],[79.5,22.5],[79.5,22.4],[79.6,22.4],[79.6,22.3],[79.8,22.3],[79.8,22.2],[79.9,22.2],[79.9,22.1],[80.1,22.1],[80.1,22.0],[80.4,22.0],[80.4,21.9],[80.5,21.9],[80.5,21.8],[80.6,21.8],[80.6,21.7],[80.9,21.7],[80.9,21.6],[81.3,21.6],[81.3,21.5],[81.8,21.5],[81.8,21.4],[82.1,21.4],[82.1,21.3],[82.4,21.3],[82.4,21.2],[82.6,21.2],[82.6,21.1],[82.8,21.1],[82.8,21.0],[82.9,21.0],[82.9,20.9],[83.0,20.9],[83.0,20.8],[83.2,20.8],[83.2,20.7],[83.4,20.7],[83.4,20.6],[83.6,20.6],[83.6,20.5],[83.8,20.5],[83.8,20.4],[84.3,20.4],[84.3,20.3],[84.8,20.3],[84.8,20.2],[85.1,20.2],[85.1,20.1],[85.3,20.1],[85.3,20.0],[85.4,20.0],[85.4,19.9],[85.5,19.9],[85.5,19.8],[85.9,19.8],[85.9,19.9],[86.3,19.9],[86.3,20.0],[86.4,20.0],[86.4,20.1],[86.5,20.1],[86.5,20.2],[86.6,20.2],[86.6,20.3],[86.8,20.3],[86.8,20.4],[86.9,20.4],[86.9,20.6],[87.0,20.6],[87.0,21.0],[86.9,21.0],[86.9,21.4],[87.0,21.4],[87.0,21.5],[87.1,21.5],[87.1,21.6],[87.5,21.6],[87.5,21.7],[87.8,21.7],[87.8,21.8],[88.1,21.8],[88.1,21.7],[88.2,21.7],[88.2,21.6],[89.0,21.6],[89.0,21.7],[89.4,21.7],[89.4,21.8],[89.7,21.8],[89.7,21.9],[89.9,21.9],[89.9,22.0],[90.0,22.0],[90.0,21.9],[90.7,21.9],[90.7,22.0],[90.8,22.0],[90.8,22.1],[91.0,22.1],[91.0,22.2],[91.1,22.2],[91.1,22.5],[91.2,22.5],[91.2,22.6],[91.7,22.6],[91.7,22.5],[91.8,22.5],[91.8,22.0],[91.9,22.0],[91.9,22.1],[92.0,22.1],[92.0,22.2],[92.1,22.2],[92.1,22.3],[92.2,22.3],[92.2,22.4],[92.3,22.4],[92.3,22.6],[92.4,22.6],[92.4,22.7],[92.5,22.7],[92.5,23.5],[92.6,23.5],[92.6,24.5],[92.5,24.5],[92.5,24.8],[92.4,24.8],[92.4,25.0],[92.3,25.0],[92.3,25.1],[92.2,25.1],[92.2,25.2],[92.1,25.2],[92.1,25.3],[92.0,25.3],[92.0,25.4],[91.9,25.4],[91.9,25.5],[91.7,25.5],[91.7,25.6],[91.6,25.6],[91.6,25.7],[91.5,25.7],[91.5,25.8],[91.4,25.8],[91.4,25.9],[91.3,25.9],[91.3,26.0],[91.1,26.0],[91.1,26.1],[91.0,26.1],[91.0,26.2],[90.8,26.2],[90.8,26.3],[90.5,26.3]],[[89.9,26.1],[90.0,26.1],[90.0,25.8],[89.9,25.8],[89.9,26.1]],[[89.7,24.3],[89.7,24.7],[89.9,24.7],[89.9,24.3],[89.7,24.3]]],[[[121.6,44.8],[121.5,44.8],[121.5,44.9],[121.4,44.9],[121.4,45.0],[120.6,45.0],[120.6,44.8],[120.5,44.8],[120.5,44.7],[120.4,44.7],[120.4,44.6],[120.3,44.6],[120.3,44.5],[120.2,44.5],[120.2,44.4],[120.0,44.4],[120.0,44.2],[119.8,44.2],[119.8,44.1],[119.6,44.1],[119.6,44.0],[119.4,44.0],[119.4,43.9],[119.0,43.9],[119.0,43.8],[118.7,43.8],[118.7,43.7],[118.5,43.7],[118.5,43.6],[118.3,43.6],[118.3,43.5],[117.9,43.5],[117.9,43.4],[117.7,43.4],[117.7,43.3],[117.3,43.3],[117.3,43.2],[117.0,43.2],[117.0,43.1],[116.8,43.1],[116.8,43.0],[116.7,43.0],[116.7,42.9],[116.6,42.9],[116.6,42.8],[116.4,42.8],[116.4,42.6],[116.3,42.6],[116.3,42.5],[116.2,42.5],[116.2,42.4],[116.1,42.4],[116.1,42.2],[116.2,42.2],[116.2,41.9],[116.3,41.9],[116.3,41.7],[116.6,41.7],[116.6,41.8],[116.9,41.8],[116.9,41.9],[117.2,41.9],[117.2,42.0],[118.2,42.0],[118.2,41.9],[119.0,41.9],[119.0,41.8],[119.4,41.8],[119.4,41.7],[119.8,41.7],[119.8,41.6],[120.0,41.6],[120.0,41.5],[120.2,41.5],[120.2,41.4],[120.4,41.4],[120.4,41.3],[121.0,41.3],[121.0,41.2],[121.7,41.2],[121.7,41.3],[122.0,41.3],[122.0,41.4],[122.3,41.4],[122.3,41.5],[122.6,41.5],[122.6,41.6],[122.7,41.6],[122.7,41.7],[122.9,41.7],[122.9,41.8],[123.2,41.8],[123.2,41.9],[123.3,41.9],[123.3,42.0],[123.6,42.0],[123.6,42.4],[123.7,42.4],[123.7,42.5],[123.8,42.5],[123.8,42.7],[123.9,42.7],[123.9,43.1],[124.0,43.1],[124.0,43.4],[123.9,43.4],[123.9,43.6],[123.8,43.6],[123.8,43.7],[123.7,43.7],[123.7,43.9],[123.6,43.9],[123.6,44.0],[123.4,44.0],[123.4,44.1],[123.2,44.1],[123.2,44.2],[122.9,44.2],[122.9,44.3],[122.8,44.3],[122.8,44.4],[122.7,44.4],[122.7,44.5],[122.4,44.5],[122.4,44.6],[122.2,44.6],[122.2,44.7],[121.6,44.7],[121.6,44.8]]],[[[80.1,44.9],[80.2,44.9],[80.2,45.0],[80.4,45.0],[80.4,45.1],[80.5,45.1],[80.5,45.3],[80.6,45.3],[80.6,45.7],[80.7,45.7],[80.7,46.0],[80.8,46.0],[80.8,46.4],[80.9,46.4],[80.9,46.6],[80.8,46.6],[80.8,46.7],[80.7,46.7],[80.7,46.8],[80.6,46.8],[80.6,46.9],[80.5,46.9],[80.5,47.0],[80.3,47.0],[80.3,47.1],[80.1,47.1],[80.1,47.2],[78.2,47.2],[78.2,47.1],[78.0,47.1],[78.0,47.0],[77.8,47.0],[77.8,46.9],[77.0,46.9],[77.0,46.8],[76.8,46.8],[76.8,46.6],[76.9,46.6],[76.9,46.2],[76.8,46.2],[76.8,46.0],[76.7,46.0],[76.7,45.9],[76.6,45.9],[76.6,45.8],[76.5,45.8],[76.5,45.6],[76.4,45.6],[76.4,45.5],[76.3,45.5],[76.3,45.4],[76.2,45.4],[76.2,45.3],[76.1,45.3],[76.1,45.2],[75.9,45.2],[75.9,45.1],[75.7,45.1],[75.7,45.0],[74.0,45.0],[74.0,44.9],[73.6,44.9],[73.6,44.8],[73.4,44.8],[73.4,44.7],[73.2,44.7],[73.2,44.6],[73.0,44.6],[73.0,44.5],[72.9,44.5],[72.9,44.4],[72.8,44.4],[72.8,43.6],[72.7,43.6],[72.7,43.2],[72.8,43.2],[72.8,42.5],[74.1,42.5],[74.1,42.4],[75.3,42.4],[75.3,42.5],[75.8,42.5],[75.8,42.6],[76.3,42.6],[76.3,42.7],[76.7,42.7],[76.7,42.8],[77.0,42.8],[77.0,42.9],[77.4,42.9],[77.4,43.0],[77.7,43.0],[77.7,43.1],[78.0,43.1],[78.0,43.2],[78.2,43.2],[78.2,43.3],[78.4,43.3],[78.4,43.4],[78.5,43.4],[78.5,43.5],[78.6,43.5],[78.6,43.6],[78.8,43.6],[78.8,43.8],[79.0,43.8],[79.0,43.9],[79.1,43.9],[79.1,44.0],[79.2,44.0],[79.2,44.1],[79.3,44.1],[79.3,44.2],[79.4,44.2],[79.4,44.3],[79.5,44.3],[79.5,44.4],[79.6,44.4],[79.6,44.5],[79.7,44.5],[79.7,44.6],[79.8,44.6],[79.8,44.7],[79.9,44.7],[79.9,44.8],[80.1,44.8],[80.1,44.9]]],[[[61.1,51.1],[61.0,51.1],[61.0,51.2],[60.5,51.2],[60.5,51.3],[60.0,51.3],[60.0,46.2],[60.5,46.2],[60.5,46.3],[60.6,46.3],[60.6,46.4],[60.5,46.4],[60.5,46.6],[60.6,46.6],[60.6,46.7],[60.8,46.7],[60.8,46.6],[60.9,46.6],[60.9,46.5],[61.2,46.5],[61.2,46.6],[61.3,46.6],[61.3,46.4],[61.2,46.4],[61.2,46.2],[61.1,46.2],[61.1,46.1],[61.0,46.1],[61.0,46.0],[60.9,46.0],[60.9,45.6],[61.0,45.6],[61.0,45.5],[61.1,45.5],[61.1,45.4],[61.2,45.4],[61.2,45.3],[61.4,45.3],[61.4,45.4],[62.3,45.4],[62.3,45.3],[62.8,45.3],[62.8,45.4],[62.9,45.4],[62.9,45.5],[63.1,45.5],[63.1,45.6],[63.2,45.6],[63.2,46.5],[63.1,46.5],[63.1,47.2],[63.2,47.2],[63.2,47.9],[63.1,47.9],[63.1,48.3],[63.0,48.3],[63.0,48.7],[62.9,48.7],[62.9,48.9],[62.8,48.9],[62.8,49.1],[62.7,49.1],[62.7,49.3],[62.6,49.3],[62.6,49.5],[62.5,49.5],[62.5,49.6],[62.4,49.6],[62.4,49.8],[62.3,49.8],[62.3,50.0],[62.2,50.0],[62.2,50.1],[62.1,50.1],[62.1,50.2],[62.0,50.2],[62.0,50.3],[61.9,50.3],[61.9,50.4],[61.8,50.4],[61.8,50.5],[61.7,50.5],[61.7,50.6],[61.6,50.6],[61.6,50.7],[61.5,50.7],[61.5,50.8],[61.3,50.8],[61.3,50.9],[61.2,50.9],[61.2,51.0],[61.1,51.0],[61.1,51.1]]]]},"properties":{"start_year":23,"end_year":24,"source_color":"#ff00ff","polity_id":null,"polity_assignment":"unverified","geometry_origin":"raster_color_trace_stitched","pixel_size_degrees":0.1,"sources":[{"feature_id":"50:12:#ff00ff","tile_id":"50","start_year":12,"end_year":46,"source_image":"data/raw/toolbay/t/50/12.png","source_url":"https://www.toolbay.cc/history-map/t/50/12.png"},{"feature_id":"51:12:#ff00ff","tile_id":"51","start_year":12,"end_year":30,"source_image":"data/raw/toolbay/t/51/12.png","source_url":"https://www.toolbay.cc/history-map/t/51/12.png"},{"feature_id":"61:23:#ff00ff","tile_id":"61","start_year":23,"end_year":24,"source_image":"data/raw/toolbay/t/61/23.png","source_url":"https://www.toolbay.cc/history-map/t/61/23.png"}]}},{"type":"Feature","id":"merged:23:#ff9900","bbox":[79.5,6.0,85.6,22.0],"geometry":{"type":"MultiPolygon","coordinates":[[[[80.4,9.8],[80.3,9.8],[80.3,9.9],[80.0,9.9],[80.0,9.5],[80.1,9.5],[80.1,9.2],[80.0,9.2],[80.0,9.1],[79.9,9.1],[79.9,8.5],[79.8,8.5],[79.8,8.4],[79.7,8.4],[79.7,7.9],[79.8,7.9],[79.8,6.9],[79.9,6.9],[79.9,6.7],[80.0,6.7],[80.0,6.3],[80.1,6.3],[80.1,6.1],[80.2,6.1],[80.2,6.0],[80.8,6.0],[80.8,6.1],[81.1,6.1],[81.1,6.2],[81.4,6.2],[81.4,6.3],[81.5,6.3],[81.5,6.4],[81.6,6.4],[81.6,6.5],[81.7,6.5],[81.7,6.6],[81.8,6.6],[81.8,6.8],[81.9,6.8],[81.9,7.2],[81.8,7.2],[81.8,7.8],[81.7,7.8],[81.7,7.9],[81.6,7.9],[81.6,8.1],[81.5,8.1],[81.5,8.3],[81.4,8.3],[81.4,8.6],[81.3,8.6],[81.3,8.7],[81.2,8.7],[81.2,8.9],[81.1,8.9],[81.1,9.0],[81.0,9.0],[81.0,9.2],[80.9,9.2],[80.9,9.4],[80.8,9.4],[80.8,9.5],[80.7,9.5],[80.7,9.6],[80.6,9.6],[80.6,9.7],[80.4,9.7],[80.4,9.8]]],[[[80.5,21.9],[80.4,21.9],[80.4,22.0],[80.2,22.0],[80.2,21.7],[80.1,21.7],[80.1,21.3],[80.0,21.3],[80.0,20.4],[79.9,20.4],[79.9,20.2],[79.8,20.2],[79.8,20.1],[79.7,20.1],[79.7,19.7],[79.6,19.7],[79.6,19.5],[79.5,19.5],[79.5,18.5],[79.6,18.5],[79.6,18.3],[79.7,18.3],[79.7,17.9],[80.1,17.9],[80.1,17.8],[80.3,17.8],[80.3,17.7],[80.6,17.7],[80.6,17.6],[80.8,17.6],[80.8,17.5],[80.9,17.5],[80.9,17.4],[81.0,17.4],[81.0,17.3],[81.1,17.3],[81.1,17.1],[81.2,17.1],[81.2,17.0],[81.3,17.0],[81.3,16.9],[81.4,16.9],[81.4,16.7],[81.5,16.7],[81.5,16.6],[81.6,16.6],[81.6,16.4],[81.9,16.4],[81.9,16.5],[82.2,16.5],[82.2,16.6],[82.3,16.6],[82.3,16.7],[82.4,16.7],[82.4,17.2],[82.5,17.2],[82.5,17.3],[82.7,17.3],[82.7,17.4],[82.8,17.4],[82.8,17.5],[83.1,17.5],[83.1,17.6],[83.2,17.6],[83.2,17.7],[83.3,17.7],[83.3,17.8],[83.4,17.8],[83.4,17.9],[83.5,17.9],[83.5,18.0],[83.6,18.0],[83.6,18.1],[83.8,18.1],[83.8,18.2],[83.9,18.2],[83.9,18.3],[84.1,18.3],[84.1,18.4],[84.2,18.4],[84.2,18.5],[84.3,18.5],[84.3,18.6],[84.4,18.6],[84.4,18.7],[84.5,18.7],[84.5,18.8],[84.6,18.8],[84.6,18.9],[84.7,18.9],[84.7,19.1],[84.8,19.1],[84.8,19.2],[84.9,19.2],[84.9,19.3],[85.0,19.3],[85.0,19.4],[85.1,19.4],[85.1,19.5],[85.2,19.5],[85.2,19.6],[85.4,19.6],[85.4,19.7],[85.6,19.7],[85.6,19.8],[85.5,19.8],[85.5,19.9],[85.4,19.9],[85.4,20.0],[85.3,20.0],[85.3,20.1],[85.1,20.1],[85.1,20.2],[84.8,20.2],[84.8,20.3],[84.3,20.3],[84.3,20.4],[83.8,20.4],[83.8,20.5],[83.6,20.5],[83.6,20.6],[83.4,20.6],[83.4,20.7],[83.2,20.7],[83.2,20.8],[83.0,20.8],[83.0,20.9],[82.9,20.9],[82.9,21.0],[82.8,21.0],[82.8,21.1],[82.6,21.1],[82.6,21.2],[82.4,21.2],[82.4,21.3],[82.1,21.3],[82.1,21.4],[81.8,21.4],[81.8,21.5],[81.3,21.5],[81.3,21.6],[80.9,21.6],[80.9,21.7],[80.6,21.7],[80.6,21.8],[80.5,21.8],[80.5,21.9]]]]},"properties":{"start_year":23,"end_year":24,"source_color":"#ff9900","polity_id":null,"polity_assignment":"unverified","geometry_origin":"raster_color_trace_stitched","pixel_size_degrees":0.1,"sources":[{"feature_id":"51:12:#ff9900","tile_id":"51","start_year":12,"end_year":30,"source_image":"data/raw/toolbay/t/51/12.png","source_url":"https://www.toolbay.cc/history-map/t/51/12.png"}]}},{"type":"Feature","id":"merged:23:#ff9933","bbox":[60.0,23.8,70.5,41.8],"geometry":{"type":"Polygon","coordinates":[[[60.1,41.8],[60.0,41.8],[60.0,25.4],[60.7,25.4],[60.7,25.3],[61.1,25.3],[61.1,25.2],[61.3,25.2],[61.3,25.1],[62.0,25.1],[62.0,25.2],[62.5,25.2],[62.5,25.3],[63.6,25.3],[63.6,25.4],[64.2,25.4],[64.2,25.3],[64.8,25.3],[64.8,25.4],[65.0,25.4],[65.0,25.3],[65.2,25.3],[65.2,25.4],[66.0,25.4],[66.0,25.5],[66.5,25.5],[66.5,25.4],[66.6,25.4],[66.6,25.3],[66.7,25.3],[66.7,25.0],[66.8,25.0],[66.8,24.9],[67.0,24.9],[67.0,24.8],[67.1,24.8],[67.1,24.7],[67.2,24.7],[67.2,24.5],[67.3,24.5],[67.3,24.2],[67.4,24.2],[67.4,24.1],[67.5,24.1],[67.5,23.9],[67.6,23.9],[67.6,23.8],[68.2,23.8],[68.2,23.9],[68.3,23.9],[68.3,24.1],[68.4,24.1],[68.4,24.4],[68.5,24.4],[68.5,24.6],[68.6,24.6],[68.6,24.9],[68.7,24.9],[68.7,25.1],[68.6,25.1],[68.6,25.2],[68.5,25.2],[68.5,25.5],[68.4,25.5],[68.4,25.6],[68.3,25.6],[68.3,25.7],[68.2,25.7],[68.2,26.0],[68.1,26.0],[68.1,26.2],[68.0,26.2],[68.0,27.0],[68.1,27.0],[68.1,27.4],[68.2,27.4],[68.2,27.6],[68.3,27.6],[68.3,27.7],[68.4,27.7],[68.4,27.8],[68.6,27.8],[68.6,27.9],[68.7,27.9],[68.7,28.0],[68.9,28.0],[68.9,28.1],[69.1,28.1],[69.1,28.2],[69.3,28.2],[69.3,28.3],[69.4,28.3],[69.4,28.4],[69.5,28.4],[69.5,28.5],[69.6,28.5],[69.6,28.6],[69.7,28.6],[69.7,28.7],[69.8,28.7],[69.8,28.9],[69.9,28.9],[69.9,29.0],[70.0,29.0],[70.0,29.3],[70.1,29.3],[70.1,29.6],[70.2,29.6],[70.2,30.0],[70.3,30.0],[70.3,30.4],[70.4,30.4],[70.4,30.7],[70.5,30.7],[70.5,31.2],[70.4,31.2],[70.4,31.9],[70.3,31.9],[70.3,33.2],[70.2,33.2],[70.2,33.5],[70.1,33.5],[70.1,33.9],[70.0,33.9],[70.0,34.3],[69.9,34.3],[69.9,34.7],[69.8,34.7],[69.8,34.8],[69.7,34.8],[69.7,35.0],[69.6,35.0],[69.6,35.2],[69.5,35.2],[69.5,35.6],[69.4,35.6],[69.4,36.1],[69.3,36.1],[69.3,36.5],[69.2,36.5],[69.2,36.8],[69.1,36.8],[69.1,36.7],[68.7,36.7],[68.7,36.6],[68.4,36.6],[68.4,36.5],[68.1,36.5],[68.1,36.4],[67.9,36.4],[67.9,36.3],[67.5,36.3],[67.5,36.2],[67.3,36.2],[67.3,36.1],[67.0,36.1],[67.0,36.0],[66.8,36.0],[66.8,35.9],[66.6,35.9],[66.6,35.8],[66.4,35.8],[66.4,35.7],[65.3,35.7],[65.3,35.8],[65.1,35.8],[65.1,35.9],[64.7,35.9],[64.7,36.0],[64.5,36.0],[64.5,36.1],[64.3,36.1],[64.3,36.2],[64.2,36.2],[64.2,36.3],[64.1,36.3],[64.1,36.4],[63.9,36.4],[63.9,36.5],[63.7,36.5],[63.7,36.6],[63.6,36.6],[63.6,36.7],[63.5,36.7],[63.5,36.8],[63.3,36.8],[63.3,36.9],[63.2,36.9],[63.2,37.0],[63.1,37.0],[63.1,37.1],[63.0,37.1],[63.0,37.2],[62.9,37.2],[62.9,37.4],[62.8,37.4],[62.8,37.6],[62.7,37.6],[62.7,37.8],[62.6,37.8],[62.6,38.0],[62.5,38.0],[62.5,38.3],[62.4,38.3],[62.4,38.5],[62.3,38.5],[62.3,38.6],[62.2,38.6],[62.2,38.7],[62.1,38.7],[62.1,38.9],[62.0,38.9],[62.0,39.1],[61.9,39.1],[61.9,39.9],[61.8,39.9],[61.8,40.9],[61.9,40.9],[61.9,41.1],[61.5,41.1],[61.5,41.2],[61.3,41.2],[61.3,41.3],[61.1,41.3],[61.1,41.4],[60.8,41.4],[60.8,41.5],[60.6,41.5],[60.6,41.6],[60.4,41.6],[60.4,41.7],[60.1,41.7],[60.1,41.8]],[[67.7,24.2],[67.7,24.3],[67.9,24.3],[67.9,24.0],[67.7,24.0],[67.7,24.1],[67.6,24.1],[67.6,24.2],[67.7,24.2]]]},"properties":{"start_year":23,"end_year":24,"source_color":"#ff9933","polity_id":null,"polity_assignment":"unverified","geometry_origin":"raster_color_trace_stitched","pixel_size_degrees":0.1,"sources":[{"feature_id":"51:12:#ff9933","tile_id":"51","start_year":12,"end_year":30,"source_image":"data/raw/toolbay/t/51/12.png","source_url":"https://www.toolbay.cc/history-map/t/51/12.png"}]}},{"type":"Feature","id":"merged:23:#ff9999","bbox":[108.2,31.7,114.8,36.1],"geometry":{"type":"Polygon","coordinates":[[[114.2,36.1],[113.9,36.1],[113.9,36.0],[113.7,36.0],[113.7,35.9],[113.4,35.9],[113.4,35.8],[113.3,35.8],[113.3,35.7],[113.1,35.7],[113.1,35.6],[112.7,35.6],[112.7,35.5],[112.6,35.5],[112.6,35.4],[112.4,35.4],[112.4,35.3],[112.3,35.3],[112.3,35.2],[112.2,35.2],[112.2,35.1],[112.1,35.1],[112.1,35.0],[111.9,35.0],[111.9,34.8],[111.8,34.8],[111.8,34.7],[111.7,34.7],[111.7,34.6],[111.6,34.6],[111.6,34.5],[111.4,34.5],[111.4,34.4],[111.2,34.4],[111.2,34.3],[111.0,34.3],[111.0,34.2],[110.8,34.2],[110.8,34.1],[110.7,34.1],[110.7,34.0],[110.4,34.0],[110.4,33.9],[110.1,33.9],[110.1,33.8],[109.8,33.8],[109.8,33.7],[109.7,33.7],[109.7,33.6],[109.4,33.6],[109.4,33.5],[109.2,33.5],[109.2,33.4],[109.0,33.4],[109.0,33.3],[108.9,33.3],[108.9,33.2],[108.7,33.2],[108.7,33.1],[108.6,33.1],[108.6,33.0],[108.5,33.0],[108.5,32.9],[108.4,32.9],[108.4,32.7],[108.3,32.7],[108.3,32.6],[108.2,32.6],[108.2,32.0],[108.3,32.0],[108.3,31.9],[108.4,31.9],[108.4,31.8],[108.6,31.8],[108.6,31.7],[110.0,31.7],[110.0,31.8],[111.2,31.8],[111.2,31.9],[113.2,31.9],[113.2,32.0],[113.3,32.0],[113.3,32.1],[113.4,32.1],[113.4,32.3],[113.5,32.3],[113.5,32.4],[113.6,32.4],[113.6,32.6],[113.7,32.6],[113.7,32.8],[113.8,32.8],[113.8,33.0],[113.9,33.0],[113.9,33.2],[114.0,33.2],[114.0,33.4],[114.1,33.4],[114.1,33.6],[114.2,33.6],[114.2,33.8],[114.3,33.8],[114.3,33.9],[114.4,33.9],[114.4,34.2],[114.5,34.2],[114.5,34.3],[114.6,34.3],[114.6,34.7],[114.7,34.7],[114.7,35.0],[114.8,35.0],[114.8,35.8],[114.7,35.8],[114.7,35.9],[114.5,35.9],[114.5,36.0],[114.2,36.0],[114.2,36.1]]]},"properties":{"start_year":23,"end_year":24,"source_color":"#ff9999","polity_id":null,"polity_assignment":"unverified","geometry_origin":"raster_color_trace_stitched","pixel_size_degrees":0.1,"sources":[{"feature_id":"61:23:#ff9999","tile_id":"61","start_year":23,"end_year":24,"source_image":"data/raw/toolbay/t/61/23.png","source_url":"https://www.toolbay.cc/history-map/t/61/23.png"}]}},{"type":"Feature","id":"merged:23:#ffff00","bbox":[72.6,13.9,130.9,43.3],"geometry":{"type":"MultiPolygon","coordinates":[[[[77.8,24.2],[77.8,24.3],[77.4,24.3],[77.4,24.2],[77.2,24.2],[77.2,24.1],[77.1,24.1],[77.1,24.0],[77.0,24.0],[77.0,23.9],[76.8,23.9],[76.8,23.8],[76.7,23.8],[76.7,23.7],[76.5,23.7],[76.5,23.6],[76.4,23.6],[76.4,23.5],[76.2,23.5],[76.2,23.4],[76.1,23.4],[76.1,23.3],[76.0,23.3],[76.0,23.2],[75.8,23.2],[75.8,23.1],[75.7,23.1],[75.7,22.9],[75.6,22.9],[75.6,22.8],[75.5,22.8],[75.5,22.7],[75.3,22.7],[75.3,22.6],[75.1,22.6],[75.1,22.5],[74.8,22.5],[74.8,22.4],[74.7,22.4],[74.7,22.3],[74.4,22.3],[74.4,22.2],[74.1,22.2],[74.1,22.1],[73.9,22.1],[73.9,22.0],[73.4,22.0],[73.4,21.9],[73.0,21.9],[73.0,21.8],[72.6,21.8],[72.6,21.1],[72.7,21.1],[72.7,21.0],[72.8,21.0],[72.8,20.8],[72.9,20.8],[72.9,20.5],[72.8,20.5],[72.8,20.3],[72.7,20.3],[72.7,19.5],[72.8,19.5],[72.8,18.9],[72.9,18.9],[72.9,18.3],[73.0,18.3],[73.0,18.0],[73.1,18.0],[73.1,17.6],[73.2,17.6],[73.2,17.2],[73.3,17.2],[73.3,16.5],[73.4,16.5],[73.4,16.2],[73.5,16.2],[73.5,16.0],[73.6,16.0],[73.6,15.9],[73.7,15.9],[73.7,15.6],[73.8,15.6],[73.8,15.4],[73.9,15.4],[73.9,15.1],[74.0,15.1],[74.0,15.0],[74.1,15.0],[74.1,14.9],[74.2,14.9],[74.2,14.7],[74.3,14.7],[74.3,14.5],[74.4,14.5],[74.4,14.3],[74.5,14.3],[74.5,14.1],[75.1,14.1],[75.1,14.2],[75.9,14.2],[75.9,14.3],[76.6,14.3],[76.6,14.4],[77.3,14.4],[77.3,14.3],[78.0,14.3],[78.0,14.2],[78.5,14.2],[78.5,14.1],[79.4,14.1],[79.4,14.0],[79.6,14.0],[79.6,13.9],[80.3,13.9],[80.3,14.0],[80.2,14.0],[80.2,14.9],[80.1,14.9],[80.1,15.4],[80.2,15.4],[80.2,15.5],[80.3,15.5],[80.3,15.7],[80.4,15.7],[80.4,15.8],[80.5,15.8],[80.5,15.9],[80.7,15.9],[80.7,15.8],[81.0,15.8],[81.0,15.9],[81.1,15.9],[81.1,16.0],[81.2,16.0],[81.2,16.2],[81.3,16.2],[81.3,16.3],[81.4,16.3],[81.4,16.4],[81.6,16.4],[81.6,16.6],[81.5,16.6],[81.5,16.7],[81.4,16.7],[81.4,16.9],[81.3,16.9],[81.3,17.0],[81.2,17.0],[81.2,17.1],[81.1,17.1],[81.1,17.3],[81.0,17.3],[81.0,17.4],[80.9,17.4],[80.9,17.5],[80.8,17.5],[80.8,17.6],[80.6,17.6],[80.6,17.7],[80.3,17.7],[80.3,17.8],[80.1,17.8],[80.1,17.9],[79.7,17.9],[79.7,18.3],[79.6,18.3],[79.6,18.5],[79.5,18.5],[79.5,19.5],[79.6,19.5],[79.6,19.7],[79.7,19.7],[79.7,20.1],[79.8,20.1],[79.8,20.2],[79.9,20.2],[79.9,20.4],[80.0,20.4],[80.0,21.3],[80.1,21.3],[80.1,21.7],[80.2,21.7],[80.2,22.0],[80.1,22.0],[80.1,22.1],[79.9,22.1],[79.9,22.2],[79.8,22.2],[79.8,22.3],[79.6,22.3],[79.6,22.4],[79.5,22.4],[79.5,22.5],[79.4,22.5],[79.4,22.6],[79.3,22.6],[79.3,22.7],[79.2,22.7],[79.2,22.8],[79.1,22.8],[79.1,22.9],[79.0,22.9],[79.0,23.0],[78.8,23.0],[78.8,23.1],[78.7,23.1],[78.7,23.2],[78.6,23.2],[78.6,23.3],[78.5,23.3],[78.5,23.4],[78.4,23.4],[78.4,23.6],[78.3,23.6],[78.3,23.7],[78.2,23.7],[78.2,23.8],[78.1,23.8],[78.1,24.0],[78.0,24.0],[78.0,24.1],[77.9,24.1],[77.9,24.2],[77.8,24.2]]],[[[129.6,43.2],[129.6,43.3],[128.7,43.3],[128.7,43.2],[128.4,43.2],[128.4,43.1],[128.2,43.1],[128.2,43.0],[128.0,43.0],[128.0,42.9],[127.8,42.9],[127.8,42.8],[127.6,42.8],[127.6,42.7],[127.4,42.7],[127.4,42.6],[127.3,42.6],[127.3,42.5],[127.2,42.5],[127.2,42.4],[127.1,42.4],[127.1,42.3],[127.0,42.3],[127.0,42.1],[126.9,42.1],[126.9,42.0],[126.8,42.0],[126.8,41.8],[126.7,41.8],[126.7,41.7],[126.6,41.7],[126.6,41.5],[126.5,41.5],[126.5,41.4],[126.4,41.4],[126.4,41.2],[126.3,41.2],[126.3,41.0],[126.2,41.0],[126.2,40.7],[126.3,40.7],[126.3,40.6],[126.4,40.6],[126.4,40.4],[126.5,40.4],[126.5,40.2],[127.4,40.2],[127.4,40.1],[127.6,40.1],[127.6,40.0],[127.7,40.0],[127.7,39.9],[127.9,39.9],[127.9,40.0],[128.3,40.0],[128.3,40.1],[128.5,40.1],[128.5,40.2],[128.6,40.2],[128.6,40.3],[128.8,40.3],[128.8,40.4],[128.9,40.4],[128.9,40.5],[129.1,40.5],[129.1,40.6],[129.2,40.6],[129.2,40.7],[129.4,40.7],[129.4,40.8],[129.6,40.8],[129.6,40.9],[129.7,40.9],[129.7,41.0],[129.8,41.0],[129.8,41.8],[129.9,41.8],[129.9,41.9],[130.0,41.9],[130.0,42.0],[130.1,42.0],[130.1,42.1],[130.2,42.1],[130.2,42.2],[130.4,42.2],[130.4,42.3],[130.5,42.3],[130.5,42.4],[130.6,42.4],[130.6,42.5],[130.9,42.5],[130.9,42.6],[130.8,42.6],[130.8,42.7],[130.7,42.7],[130.7,42.8],[130.6,42.8],[130.6,42.9],[130.5,42.9],[130.5,43.0],[130.3,43.0],[130.3,43.1],[130.0,43.1],[130.0,43.2],[129.6,43.2]]]]},"properties":{"start_year":23,"end_year":24,"source_color":"#ffff00","polity_id":null,"polity_assignment":"unverified","geometry_origin":"raster_color_trace_stitched","pixel_size_degrees":0.1,"sources":[{"feature_id":"51:12:#ffff00","tile_id":"51","start_year":12,"end_year":30,"source_image":"data/raw/toolbay/t/51/12.png","source_url":"https://www.toolbay.cc/history-map/t/51/12.png"},{"feature_id":"61:23:#ffff00","tile_id":"61","start_year":23,"end_year":24,"source_image":"data/raw/toolbay/t/61/23.png","source_url":"https://www.toolbay.cc/history-map/t/61/23.png"}]}}]}
