{"type":"FeatureCollection","features":[{"type":"Feature","id":"merged:660:#009900","bbox":[60.0,25.1,129.6,38.6],"geometry":{"type":"MultiPolygon","coordinates":[[[[60.1,34.2],[60.1,34.3],[60.0,34.3],[60.0,25.4],[60.7,25.4],[60.7,25.3],[61.1,25.3],[61.1,25.2],[61.3,25.2],[61.3,25.1],[62.0,25.1],[62.0,25.2],[62.5,25.2],[62.5,25.3],[63.3,25.3],[63.3,25.5],[63.4,25.5],[63.4,26.2],[63.5,26.2],[63.5,26.7],[63.6,26.7],[63.6,27.0],[63.7,27.0],[63.7,27.3],[63.8,27.3],[63.8,27.7],[63.9,27.7],[63.9,28.0],[64.0,28.0],[64.0,28.3],[64.1,28.3],[64.1,28.5],[64.2,28.5],[64.2,28.8],[64.3,28.8],[64.3,29.3],[64.4,29.3],[64.4,29.4],[64.5,29.4],[64.5,29.6],[64.6,29.6],[64.6,29.9],[64.7,29.9],[64.7,30.0],[64.8,30.0],[64.8,30.2],[64.9,30.2],[64.9,30.3],[65.0,30.3],[65.0,30.5],[65.1,30.5],[65.1,30.6],[65.2,30.6],[65.2,30.7],[65.3,30.7],[65.3,31.4],[65.4,31.4],[65.4,31.8],[64.7,31.8],[64.7,31.9],[63.9,31.9],[63.9,32.0],[63.5,32.0],[63.5,32.1],[63.2,32.1],[63.2,32.2],[62.9,32.2],[62.9,32.3],[62.8,32.3],[62.8,32.4],[62.7,32.4],[62.7,32.5],[62.6,32.5],[62.6,32.6],[62.4,32.6],[62.4,32.7],[62.2,32.7],[62.2,32.8],[62.1,32.8],[62.1,32.9],[61.9,32.9],[61.9,33.0],[61.5,33.0],[61.5,33.1],[61.3,33.1],[61.3,33.2],[61.1,33.2],[61.1,33.3],[60.8,33.3],[60.8,33.4],[60.7,33.4],[60.7,33.5],[60.6,33.5],[60.6,33.7],[60.5,33.7],[60.5,33.8],[60.4,33.8],[60.4,33.9],[60.3,33.9],[60.3,34.0],[60.2,34.0],[60.2,34.2],[60.1,34.2]]],[[[127.2,38.5],[127.2,38.6],[127.0,38.6],[127.0,38.5],[126.8,38.5],[126.8,38.4],[126.7,38.4],[126.7,38.3],[126.5,38.3],[126.5,38.2],[126.4,38.2],[126.4,38.1],[126.3,38.1],[126.3,38.0],[126.2,38.0],[126.2,37.9],[126.0,37.9],[126.0,37.8],[126.3,37.8],[126.3,37.7],[126.4,37.7],[126.4,37.4],[126.6,37.4],[126.6,37.5],[127.5,37.5],[127.5,37.4],[127.7,37.4],[127.7,37.2],[127.8,37.2],[127.8,37.0],[127.9,37.0],[127.9,36.4],[127.8,36.4],[127.8,36.3],[127.7,36.3],[127.7,36.1],[127.6,36.1],[127.6,35.8],[127.5,35.8],[127.5,35.7],[127.4,35.7],[127.4,35.5],[127.3,35.5],[127.3,35.3],[127.2,35.3],[127.2,34.9],[127.1,34.9],[127.1,34.5],[127.0,34.5],[127.0,34.4],[127.5,34.4],[127.5,34.5],[127.8,34.5],[127.8,34.6],[127.9,34.6],[127.9,34.7],[128.2,34.7],[128.2,34.8],[128.3,34.8],[128.3,34.7],[128.4,34.7],[128.4,34.8],[128.7,34.8],[128.7,34.9],[128.8,34.9],[128.8,35.0],[128.9,35.0],[128.9,35.1],[129.2,35.1],[129.2,35.2],[129.3,35.2],[129.3,35.4],[129.4,35.4],[129.4,35.5],[129.5,35.5],[129.5,35.8],[129.6,35.8],[129.6,36.1],[129.5,36.1],[129.5,36.2],[129.4,36.2],[129.4,36.5],[129.5,36.5],[129.5,37.1],[129.4,37.1],[129.4,37.4],[129.3,37.4],[129.3,37.5],[129.2,37.5],[129.2,37.7],[129.1,37.7],[129.1,37.8],[129.0,37.8],[129.0,37.9],[128.9,37.9],[128.9,38.0],[128.8,38.0],[128.8,38.1],[128.7,38.1],[128.7,38.3],[128.6,38.3],[128.6,38.5],[128.2,38.5],[128.2,38.4],[128.0,38.4],[128.0,38.3],[127.8,38.3],[127.8,38.2],[127.6,38.2],[127.6,38.3],[127.4,38.3],[127.4,38.4],[127.3,38.4],[127.3,38.5],[127.2,38.5]]]]},"properties":{"start_year":660,"end_year":661,"source_color":"#009900","polity_id":null,"polity_assignment":"unverified","geometry_origin":"raster_color_trace_stitched","pixel_size_degrees":0.1,"sources":[{"feature_id":"51:657:#009900","tile_id":"51","start_year":657,"end_year":670,"source_image":"data/raw/toolbay/t/51/657.png","source_url":"https://www.toolbay.cc/history-map/t/51/657.png"},{"feature_id":"61:660:#009900","tile_id":"61","start_year":660,"end_year":661,"source_image":"data/raw/toolbay/t/61/660.png","source_url":"https://www.toolbay.cc/history-map/t/61/660.png"}]}},{"type":"Feature","id":"merged:660:#009999","bbox":[98.0,6.3,101.0,13.1],"geometry":{"type":"Polygon","coordinates":[[[99.4,13.1],[98.6,13.1],[98.6,12.8],[98.5,12.8],[98.5,12.7],[98.2,12.7],[98.2,12.6],[98.1,12.6],[98.1,12.5],[98.0,12.5],[98.0,12.4],[98.1,12.4],[98.1,12.3],[98.3,12.3],[98.3,12.2],[98.4,12.2],[98.4,12.1],[98.3,12.1],[98.3,11.9],[98.2,11.9],[98.2,11.6],[98.5,11.6],[98.5,11.5],[98.6,11.5],[98.6,11.1],[98.5,11.1],[98.5,11.0],[98.4,11.0],[98.4,10.8],[98.5,10.8],[98.5,10.1],[98.4,10.1],[98.4,9.5],[98.3,9.5],[98.3,8.8],[98.2,8.8],[98.2,8.5],[98.3,8.5],[98.3,8.0],[98.4,8.0],[98.4,7.9],[98.6,7.9],[98.6,8.0],[98.9,8.0],[98.9,7.9],[99.0,7.9],[99.0,7.7],[99.1,7.7],[99.1,7.6],[99.2,7.6],[99.2,7.5],[99.3,7.5],[99.3,7.4],[99.4,7.4],[99.4,7.3],[99.5,7.3],[99.5,7.2],[99.6,7.2],[99.6,7.1],[99.7,7.1],[99.7,6.9],[99.8,6.9],[99.8,6.8],[99.9,6.8],[99.9,6.6],[99.8,6.6],[99.8,6.5],[99.7,6.5],[99.7,6.4],[99.8,6.4],[99.8,6.3],[100.0,6.3],[100.0,6.4],[100.2,6.4],[100.2,6.3],[100.4,6.3],[100.4,6.4],[100.5,6.4],[100.5,6.5],[100.7,6.5],[100.7,6.6],[100.8,6.6],[100.8,6.7],[100.9,6.7],[100.9,6.9],[101.0,6.9],[101.0,7.0],[100.8,7.0],[100.8,7.1],[100.7,7.1],[100.7,7.3],[100.6,7.3],[100.6,7.5],[100.5,7.5],[100.5,7.8],[100.4,7.8],[100.4,8.2],[100.3,8.2],[100.3,8.5],[100.2,8.5],[100.2,8.6],[100.1,8.6],[100.1,8.7],[100.0,8.7],[100.0,9.2],[99.9,9.2],[99.9,9.3],[99.8,9.3],[99.8,9.4],[99.4,9.4],[99.4,9.5],[99.3,9.5],[99.3,9.7],[99.2,9.7],[99.2,10.3],[99.3,10.3],[99.3,10.7],[99.4,10.7],[99.4,10.8],[99.5,10.8],[99.5,10.9],[99.6,10.9],[99.6,11.4],[99.7,11.4],[99.7,11.7],[99.8,11.7],[99.8,11.8],[99.9,11.8],[99.9,12.1],[100.0,12.1],[100.0,12.9],[99.8,12.9],[99.8,13.0],[99.4,13.0],[99.4,13.1]]]},"properties":{"start_year":660,"end_year":661,"source_color":"#009999","polity_id":null,"polity_assignment":"unverified","geometry_origin":"raster_color_trace_stitched","pixel_size_degrees":0.1,"sources":[{"feature_id":"61:660:#009999","tile_id":"61","start_year":660,"end_year":661,"source_image":"data/raw/toolbay/t/61/660.png","source_url":"https://www.toolbay.cc/history-map/t/61/660.png"}]}},{"type":"Feature","id":"merged:660:#00ffff","bbox":[79.3,12.9,130.9,45.0],"geometry":{"type":"MultiPolygon","coordinates":[[[[100.7,19.7],[100.7,19.9],[100.6,19.9],[100.6,20.0],[100.1,20.0],[100.1,19.9],[99.8,19.9],[99.8,19.8],[99.5,19.8],[99.5,19.5],[99.4,19.5],[99.4,19.3],[99.3,19.3],[99.3,19.1],[99.2,19.1],[99.2,19.0],[99.1,19.0],[99.1,16.4],[99.0,16.4],[99.0,15.0],[98.9,15.0],[98.9,14.6],[99.0,14.6],[99.0,13.9],[99.1,13.9],[99.1,13.6],[99.0,13.6],[99.0,13.1],[99.4,13.1],[99.4,13.0],[99.8,13.0],[99.8,12.9],[100.1,12.9],[100.1,13.4],[100.2,13.4],[100.2,13.5],[100.6,13.5],[100.6,13.6],[100.7,13.6],[100.7,13.8],[100.8,13.8],[100.8,14.0],[100.9,14.0],[100.9,14.2],[101.0,14.2],[101.0,14.3],[101.1,14.3],[101.1,14.4],[101.3,14.4],[101.3,14.6],[101.4,14.6],[101.4,14.7],[101.5,14.7],[101.5,14.8],[101.6,14.8],[101.6,14.9],[101.7,14.9],[101.7,17.7],[101.6,17.7],[101.6,18.1],[101.5,18.1],[101.5,18.3],[101.4,18.3],[101.4,18.5],[101.3,18.5],[101.3,18.7],[101.2,18.7],[101.2,18.9],[101.1,18.9],[101.1,19.2],[101.0,19.2],[101.0,19.4],[100.9,19.4],[100.9,19.5],[100.8,19.5],[100.8,19.7],[100.7,19.7]]],[[[82.6,21.8],[82.5,21.8],[82.5,21.9],[82.3,21.9],[82.3,21.7],[82.2,21.7],[82.2,21.5],[82.1,21.5],[82.1,21.4],[82.0,21.4],[82.0,21.3],[81.9,21.3],[81.9,21.2],[81.8,21.2],[81.8,21.1],[81.7,21.1],[81.7,21.0],[81.6,21.0],[81.6,20.9],[81.5,20.9],[81.5,20.8],[81.4,20.8],[81.4,20.5],[81.3,20.5],[81.3,20.4],[81.2,20.4],[81.2,20.3],[81.1,20.3],[81.1,20.1],[81.0,20.1],[81.0,19.9],[80.9,19.9],[80.9,19.8],[80.8,19.8],[80.8,19.6],[80.7,19.6],[80.7,19.4],[80.6,19.4],[80.6,19.3],[80.5,19.3],[80.5,19.2],[80.4,19.2],[80.4,19.0],[80.2,19.0],[80.2,18.9],[80.1,18.9],[80.1,18.8],[80.0,18.8],[80.0,18.6],[79.9,18.6],[79.9,18.5],[79.8,18.5],[79.8,18.4],[79.7,18.4],[79.7,18.3],[79.6,18.3],[79.6,18.2],[79.5,18.2],[79.5,18.1],[79.4,18.1],[79.4,17.9],[79.3,17.9],[79.3,17.3],[79.4,17.3],[79.4,17.1],[79.5,17.1],[79.5,16.9],[79.6,16.9],[79.6,16.7],[79.7,16.7],[79.7,16.6],[79.8,16.6],[79.8,16.5],[79.9,16.5],[79.9,16.4],[80.1,16.4],[80.1,16.3],[80.2,16.3],[80.2,16.2],[80.3,16.2],[80.3,16.1],[80.4,16.1],[80.4,15.9],[80.7,15.9],[80.7,15.8],[81.0,15.8],[81.0,15.9],[81.1,15.9],[81.1,16.0],[81.2,16.0],[81.2,16.2],[81.3,16.2],[81.3,16.3],[81.4,16.3],[81.4,16.4],[81.9,16.4],[81.9,16.5],[82.2,16.5],[82.2,16.6],[82.3,16.6],[82.3,16.7],[82.4,16.7],[82.4,17.2],[82.5,17.2],[82.5,17.3],[82.7,17.3],[82.7,17.4],[82.8,17.4],[82.8,17.5],[83.1,17.5],[83.1,17.6],[83.2,17.6],[83.2,17.7],[83.3,17.7],[83.3,17.8],[83.4,17.8],[83.4,17.9],[83.5,17.9],[83.5,18.0],[83.6,18.0],[83.6,18.1],[83.8,18.1],[83.8,18.2],[83.9,18.2],[83.9,18.3],[84.1,18.3],[84.1,18.4],[84.2,18.4],[84.2,18.5],[84.3,18.5],[84.3,18.6],[84.4,18.6],[84.4,18.7],[84.5,18.7],[84.5,18.8],[84.6,18.8],[84.6,18.9],[84.7,18.9],[84.7,19.1],[84.8,19.1],[84.8,19.2],[84.9,19.2],[84.9,19.3],[85.0,19.3],[85.0,19.4],[85.1,19.4],[85.1,19.5],[85.2,19.5],[85.2,19.6],[85.4,19.6],[85.4,19.7],[85.3,19.7],[85.3,19.8],[85.2,19.8],[85.2,19.9],[85.0,19.9],[85.0,20.0],[84.9,20.0],[84.9,20.2],[84.8,20.2],[84.8,20.3],[84.7,20.3],[84.7,20.5],[84.6,20.5],[84.6,20.6],[84.5,20.6],[84.5,20.8],[84.4,20.8],[84.4,20.9],[84.3,20.9],[84.3,21.0],[84.2,21.0],[84.2,21.1],[84.1,21.1],[84.1,21.2],[84.0,21.2],[84.0,21.3],[83.9,21.3],[83.9,21.4],[83.6,21.4],[83.6,21.5],[83.2,21.5],[83.2,21.6],[82.9,21.6],[82.9,21.7],[82.6,21.7],[82.6,21.8]]],[[[93.7,37.5],[92.8,37.5],[92.8,37.6],[91.9,37.6],[91.9,37.7],[91.2,37.7],[91.2,37.6],[91.3,37.6],[91.3,37.3],[91.4,37.3],[91.4,37.2],[91.5,37.2],[91.5,37.1],[91.8,37.1],[91.8,37.0],[92.0,37.0],[92.0,36.9],[92.1,36.9],[92.1,36.8],[92.3,36.8],[92.3,36.7],[92.6,36.7],[92.6,36.6],[93.2,36.6],[93.2,36.5],[93.7,36.5],[93.7,36.4],[95.3,36.4],[95.3,36.5],[95.6,36.5],[95.6,36.6],[96.3,36.6],[96.3,36.7],[96.4,36.7],[96.4,36.8],[96.6,36.8],[96.6,36.9],[96.5,36.9],[96.5,37.0],[96.0,37.0],[96.0,37.1],[95.6,37.1],[95.6,37.2],[95.3,37.2],[95.3,37.3],[94.6,37.3],[94.6,37.4],[93.7,37.4],[93.7,37.5]]],[[[125.2,44.8],[125.1,44.8],[125.1,44.9],[124.9,44.9],[124.9,45.0],[124.2,45.0],[124.2,44.9],[124.1,44.9],[124.1,44.6],[124.0,44.6],[124.0,44.4],[123.9,44.4],[123.9,44.3],[123.8,44.3],[123.8,44.1],[123.7,44.1],[123.7,43.9],[123.6,43.9],[123.6,43.7],[123.5,43.7],[123.5,43.6],[123.4,43.6],[123.4,43.5],[123.3,43.5],[123.3,43.4],[123.2,43.4],[123.2,43.2],[123.1,43.2],[123.1,43.1],[123.0,43.1],[123.0,43.0],[122.9,43.0],[122.9,42.9],[122.8,42.9],[122.8,42.8],[122.7,42.8],[122.7,42.7],[122.6,42.7],[122.6,42.6],[122.5,42.6],[122.5,42.4],[122.4,42.4],[122.4,42.3],[122.3,42.3],[122.3,42.2],[122.2,42.2],[122.2,42.1],[122.1,42.1],[122.1,42.0],[122.0,42.0],[122.0,41.8],[121.9,41.8],[121.9,41.7],[121.8,41.7],[121.8,41.5],[121.7,41.5],[121.7,41.3],[121.6,41.3],[121.6,41.2],[121.5,41.2],[121.5,41.1],[121.4,41.1],[121.4,40.9],[121.5,40.9],[121.5,41.0],[121.8,41.0],[121.8,40.9],[121.9,40.9],[121.9,40.8],[122.1,40.8],[122.1,40.7],[122.2,40.7],[122.2,40.4],[122.1,40.4],[122.1,40.3],[122.0,40.3],[122.0,40.2],[121.9,40.2],[121.9,40.1],[121.8,40.1],[121.8,40.0],[121.6,40.0],[121.6,39.9],[121.5,39.9],[121.5,39.8],[121.4,39.8],[121.4,39.7],[121.3,39.7],[121.3,39.5],[121.4,39.5],[121.4,39.3],[121.5,39.3],[121.5,39.2],[121.4,39.2],[121.4,39.1],[121.3,39.1],[121.3,38.8],[121.5,38.8],[121.5,38.9],[121.9,38.9],[121.9,39.0],[122.0,39.0],[122.0,39.1],[122.1,39.1],[122.1,39.2],[122.2,39.2],[122.2,39.3],[122.5,39.3],[122.5,39.4],[122.6,39.4],[122.6,39.5],[122.7,39.5],[122.7,39.6],[122.9,39.6],[122.9,39.7],[123.3,39.7],[123.3,39.8],[123.7,39.8],[123.7,39.9],[124.2,39.9],[124.2,39.8],[124.5,39.8],[124.5,39.7],[124.7,39.7],[124.7,39.6],[125.3,39.6],[125.3,39.5],[125.4,39.5],[125.4,39.3],[125.3,39.3],[125.3,39.1],[125.2,39.1],[125.2,39.0],[125.1,39.0],[125.1,38.7],[125.0,38.7],[125.0,38.6],[124.9,38.6],[124.9,38.1],[125.0,38.1],[125.0,37.9],[125.1,37.9],[125.1,37.8],[125.2,37.8],[125.2,37.7],[125.4,37.7],[125.4,37.8],[125.7,37.8],[125.7,37.9],[126.2,37.9],[126.2,38.0],[126.3,38.0],[126.3,38.1],[126.4,38.1],[126.4,38.2],[126.5,38.2],[126.5,38.3],[126.7,38.3],[126.7,38.4],[126.8,38.4],[126.8,38.5],[127.0,38.5],[127.0,38.6],[127.2,38.6],[127.2,38.5],[127.3,38.5],[127.3,38.4],[127.4,38.4],[127.4,38.3],[127.6,38.3],[127.6,38.2],[127.8,38.2],[127.8,38.3],[128.0,38.3],[128.0,38.4],[128.2,38.4],[128.2,38.5],[128.5,38.5],[128.5,38.6],[128.4,38.6],[128.4,38.7],[128.3,38.7],[128.3,38.8],[128.2,38.8],[128.2,38.9],[128.1,38.9],[128.1,39.0],[127.9,39.0],[127.9,39.1],[127.8,39.1],[127.8,39.2],[127.7,39.2],[127.7,39.3],[127.6,39.3],[127.6,39.8],[127.7,39.8],[127.7,39.9],[127.9,39.9],[127.9,40.0],[128.3,40.0],[128.3,40.1],[128.5,40.1],[128.5,40.2],[128.6,40.2],[128.6,40.3],[128.8,40.3],[128.8,40.4],[128.9,40.4],[128.9,40.5],[129.1,40.5],[129.1,40.6],[129.2,40.6],[129.2,40.7],[129.4,40.7],[129.4,40.8],[129.6,40.8],[129.6,40.9],[129.7,40.9],[129.7,41.0],[129.8,41.0],[129.8,41.8],[129.9,41.8],[129.9,41.9],[130.0,41.9],[130.0,42.0],[130.1,42.0],[130.1,42.1],[130.2,42.1],[130.2,42.2],[130.4,42.2],[130.4,42.3],[130.5,42.3],[130.5,42.4],[130.6,42.4],[130.6,42.5],[130.9,42.5],[130.9,42.6],[130.8,42.6],[130.8,42.7],[130.7,42.7],[130.7,42.8],[130.6,42.8],[130.6,42.9],[130.5,42.9],[130.5,43.0],[130.3,43.0],[130.3,43.1],[130.0,43.1],[130.0,43.2],[129.6,43.2],[129.6,43.3],[128.4,43.3],[128.4,43.4],[128.2,43.4],[128.2,43.5],[128.0,43.5],[128.0,43.6],[127.9,43.6],[127.9,43.7],[127.6,43.7],[127.6,43.8],[127.3,43.8],[127.3,43.9],[127.0,43.9],[127.0,44.0],[126.7,44.0],[126.7,44.1],[126.5,44.1],[126.5,44.2],[126.3,44.2],[126.3,44.3],[126.1,44.3],[126.1,44.4],[125.8,44.4],[125.8,44.5],[125.6,44.5],[125.6,44.6],[125.4,44.6],[125.4,44.7],[125.2,44.7],[125.2,44.8]]]]},"properties":{"start_year":660,"end_year":661,"source_color":"#00ffff","polity_id":null,"polity_assignment":"unverified","geometry_origin":"raster_color_trace_stitched","pixel_size_degrees":0.1,"sources":[{"feature_id":"51:657:#00ffff","tile_id":"51","start_year":657,"end_year":670,"source_image":"data/raw/toolbay/t/51/657.png","source_url":"https://www.toolbay.cc/history-map/t/51/657.png"},{"feature_id":"61:660:#00ffff","tile_id":"61","start_year":660,"end_year":661,"source_image":"data/raw/toolbay/t/61/660.png","source_url":"https://www.toolbay.cc/history-map/t/61/660.png"}]}},{"type":"Feature","id":"merged:660:#999900","bbox":[75.1,18.2,82.4,23.6],"geometry":{"type":"Polygon","coordinates":[[[79.8,23.6],[79.2,23.6],[79.2,23.5],[79.0,23.5],[79.0,23.3],[78.9,23.3],[78.9,23.2],[78.8,23.2],[78.8,23.1],[78.7,23.1],[78.7,23.0],[78.6,23.0],[78.6,22.9],[78.5,22.9],[78.5,22.8],[78.4,22.8],[78.4,22.7],[78.3,22.7],[78.3,22.6],[78.2,22.6],[78.2,22.5],[78.1,22.5],[78.1,22.4],[76.2,22.4],[76.2,22.2],[76.3,22.2],[76.3,21.1],[76.2,21.1],[76.2,20.9],[76.1,20.9],[76.1,20.7],[76.0,20.7],[76.0,20.6],[75.9,20.6],[75.9,20.4],[75.8,20.4],[75.8,20.3],[75.7,20.3],[75.7,20.2],[75.6,20.2],[75.6,20.0],[75.5,20.0],[75.5,19.9],[75.4,19.9],[75.4,19.7],[75.3,19.7],[75.3,19.5],[75.2,19.5],[75.2,19.3],[75.1,19.3],[75.1,19.1],[75.5,19.1],[75.5,19.0],[76.2,19.0],[76.2,18.9],[77.9,18.9],[77.9,19.0],[78.4,19.0],[78.4,18.9],[78.6,18.9],[78.6,18.8],[78.9,18.8],[78.9,18.7],[79.0,18.7],[79.0,18.6],[79.1,18.6],[79.1,18.5],[79.2,18.5],[79.2,18.4],[79.3,18.4],[79.3,18.3],[79.4,18.3],[79.4,18.2],[79.6,18.2],[79.6,18.3],[79.7,18.3],[79.7,18.4],[79.8,18.4],[79.8,18.5],[79.9,18.5],[79.9,18.6],[80.0,18.6],[80.0,18.8],[80.1,18.8],[80.1,18.9],[80.2,18.9],[80.2,19.0],[80.4,19.0],[80.4,19.2],[80.5,19.2],[80.5,19.3],[80.6,19.3],[80.6,19.4],[80.7,19.4],[80.7,19.6],[80.8,19.6],[80.8,19.8],[80.9,19.8],[80.9,19.9],[81.0,19.9],[81.0,20.1],[81.1,20.1],[81.1,20.3],[81.2,20.3],[81.2,20.4],[81.3,20.4],[81.3,20.5],[81.4,20.5],[81.4,20.8],[81.5,20.8],[81.5,20.9],[81.6,20.9],[81.6,21.0],[81.7,21.0],[81.7,21.1],[81.8,21.1],[81.8,21.2],[81.9,21.2],[81.9,21.3],[82.0,21.3],[82.0,21.4],[82.1,21.4],[82.1,21.5],[82.2,21.5],[82.2,21.7],[82.3,21.7],[82.3,21.9],[82.4,21.9],[82.4,22.0],[82.3,22.0],[82.3,22.2],[82.2,22.2],[82.2,22.3],[82.0,22.3],[82.0,22.4],[81.9,22.4],[81.9,22.5],[81.8,22.5],[81.8,22.6],[81.6,22.6],[81.6,22.7],[81.5,22.7],[81.5,22.8],[81.3,22.8],[81.3,22.9],[81.2,22.9],[81.2,23.0],[81.0,23.0],[81.0,23.1],[80.7,23.1],[80.7,23.2],[80.3,23.2],[80.3,23.3],[80.2,23.3],[80.2,23.4],[79.9,23.4],[79.9,23.5],[79.8,23.5],[79.8,23.6]]]},"properties":{"start_year":660,"end_year":661,"source_color":"#999900","polity_id":null,"polity_assignment":"unverified","geometry_origin":"raster_color_trace_stitched","pixel_size_degrees":0.1,"sources":[{"feature_id":"51:657:#999900","tile_id":"51","start_year":657,"end_year":670,"source_image":"data/raw/toolbay/t/51/657.png","source_url":"https://www.toolbay.cc/history-map/t/51/657.png"}]}},{"type":"Feature","id":"merged:660:#ff0000","bbox":[68.1,0.0,103.2,33.2],"geometry":{"type":"MultiPolygon","coordinates":[[[[99.6,0.1],[99.7,0.1],[99.7,0.0],[102.5,0.0],[102.5,0.1],[102.6,0.1],[102.6,0.2],[102.7,0.2],[102.7,0.3],[102.8,0.3],[102.8,0.5],[102.9,0.5],[102.9,0.6],[103.0,0.6],[103.0,0.8],[103.1,0.8],[103.1,0.9],[103.2,0.9],[103.2,1.0],[103.1,1.0],[103.1,1.1],[103.0,1.1],[103.0,1.2],[102.9,1.2],[102.9,1.3],[102.6,1.3],[102.6,1.4],[102.5,1.4],[102.5,1.6],[102.4,1.6],[102.4,1.7],[101.9,1.7],[101.9,1.8],[101.8,1.8],[101.8,2.1],[101.7,2.1],[101.7,2.2],[101.5,2.2],[101.5,2.1],[101.3,2.1],[101.3,2.2],[101.2,2.2],[101.2,2.3],[101.1,2.3],[101.1,2.4],[100.9,2.4],[100.9,2.3],[100.5,2.3],[100.5,2.4],[100.4,2.4],[100.4,2.7],[100.3,2.7],[100.3,2.6],[100.2,2.6],[100.2,2.5],[100.1,2.5],[100.1,2.2],[100.0,2.2],[100.0,1.9],[99.9,1.9],[99.9,1.5],[99.8,1.5],[99.8,1.3],[99.7,1.3],[99.7,0.6],[99.6,0.6],[99.6,0.1]]],[[[72.6,33.1],[72.6,33.2],[72.1,33.2],[72.1,33.1],[72.0,33.1],[72.0,32.9],[71.9,32.9],[71.9,32.6],[71.8,32.6],[71.8,32.4],[71.7,32.4],[71.7,32.3],[71.6,32.3],[71.6,32.2],[71.5,32.2],[71.5,32.1],[71.4,32.1],[71.4,32.0],[71.3,32.0],[71.3,31.9],[71.1,31.9],[71.1,31.8],[71.0,31.8],[71.0,31.6],[71.1,31.6],[71.1,31.4],[71.0,31.4],[71.0,31.2],[70.9,31.2],[70.9,31.0],[70.8,31.0],[70.8,30.7],[70.7,30.7],[70.7,30.5],[70.6,30.5],[70.6,30.3],[70.5,30.3],[70.5,30.2],[70.4,30.2],[70.4,29.9],[70.3,29.9],[70.3,29.7],[70.2,29.7],[70.2,29.5],[70.1,29.5],[70.1,29.1],[70.0,29.1],[70.0,28.7],[69.9,28.7],[69.9,28.4],[69.8,28.4],[69.8,28.1],[69.9,28.1],[69.9,28.0],[69.8,28.0],[69.8,27.6],[69.7,27.6],[69.7,27.3],[69.6,27.3],[69.6,27.0],[69.5,27.0],[69.5,26.6],[69.4,26.6],[69.4,26.3],[69.3,26.3],[69.3,25.9],[69.2,25.9],[69.2,25.7],[69.1,25.7],[69.1,25.5],[69.0,25.5],[69.0,25.2],[68.9,25.2],[68.9,25.1],[68.8,25.1],[68.8,24.9],[68.7,24.9],[68.7,24.7],[68.6,24.7],[68.6,24.5],[68.5,24.5],[68.5,24.4],[68.4,24.4],[68.4,24.2],[68.3,24.2],[68.3,24.1],[68.2,24.1],[68.2,23.9],[68.1,23.9],[68.1,23.7],[68.2,23.7],[68.2,23.6],[68.3,23.6],[68.3,23.5],[68.4,23.5],[68.4,23.4],[68.5,23.4],[68.5,23.3],[68.6,23.3],[68.6,23.2],[68.7,23.2],[68.7,23.1],[68.9,23.1],[68.9,23.0],[69.1,23.0],[69.1,22.9],[69.5,22.9],[69.5,22.8],[69.8,22.8],[69.8,22.9],[70.1,22.9],[70.1,22.8],[70.2,22.8],[70.2,22.7],[70.1,22.7],[70.1,22.6],[69.6,22.6],[69.6,22.5],[69.1,22.5],[69.1,22.4],[69.0,22.4],[69.0,22.2],[69.1,22.2],[69.1,22.1],[69.2,22.1],[69.2,22.0],[69.3,22.0],[69.3,21.9],[69.4,21.9],[69.4,21.8],[69.5,21.8],[69.5,21.7],[69.6,21.7],[69.6,21.6],[69.7,21.6],[69.7,21.5],[69.8,21.5],[69.8,21.4],[69.9,21.4],[69.9,21.3],[70.0,21.3],[70.0,21.2],[70.1,21.2],[70.1,21.1],[70.2,21.1],[70.2,21.0],[70.4,21.0],[70.4,20.9],[70.5,20.9],[70.5,20.8],[70.8,20.8],[70.8,20.7],[71.0,20.7],[71.0,20.8],[71.3,20.8],[71.3,20.9],[71.5,20.9],[71.5,21.0],[71.7,21.0],[71.7,21.1],[71.9,21.1],[71.9,21.2],[72.1,21.2],[72.1,21.3],[72.2,21.3],[72.2,21.5],[72.3,21.5],[72.3,22.0],[72.5,22.0],[72.5,21.8],[72.6,21.8],[72.6,21.1],[72.7,21.1],[72.7,21.0],[72.8,21.0],[72.8,20.8],[72.9,20.8],[72.9,20.5],[72.8,20.5],[72.8,20.3],[72.7,20.3],[72.7,19.5],[72.8,19.5],[72.8,18.9],[72.9,18.9],[72.9,18.3],[73.0,18.3],[73.0,18.0],[73.1,18.0],[73.1,17.6],[73.2,17.6],[73.2,17.2],[73.3,17.2],[73.3,16.5],[73.4,16.5],[73.4,16.2],[73.5,16.2],[73.5,16.0],[73.7,16.0],[73.7,16.6],[73.8,16.6],[73.8,16.9],[73.9,16.9],[73.9,17.0],[74.0,17.0],[74.0,17.3],[74.1,17.3],[74.1,17.5],[74.2,17.5],[74.2,17.6],[74.3,17.6],[74.3,17.8],[74.4,17.8],[74.4,18.0],[74.5,18.0],[74.5,18.2],[74.6,18.2],[74.6,18.4],[74.7,18.4],[74.7,18.6],[74.8,18.6],[74.8,18.8],[74.9,18.8],[74.9,19.0],[75.0,19.0],[75.0,19.2],[75.1,19.2],[75.1,19.3],[75.2,19.3],[75.2,19.5],[75.3,19.5],[75.3,19.7],[75.4,19.7],[75.4,19.9],[75.5,19.9],[75.5,20.0],[75.6,20.0],[75.6,20.2],[75.7,20.2],[75.7,20.3],[75.8,20.3],[75.8,20.4],[75.9,20.4],[75.9,20.6],[76.0,20.6],[76.0,20.7],[76.1,20.7],[76.1,20.9],[76.2,20.9],[76.2,21.1],[76.3,21.1],[76.3,22.2],[76.2,22.2],[76.2,22.4],[75.6,22.4],[75.6,22.3],[75.3,22.3],[75.3,22.2],[74.6,22.2],[74.6,22.3],[74.5,22.3],[74.5,22.4],[74.4,22.4],[74.4,22.6],[74.3,22.6],[74.3,22.7],[74.2,22.7],[74.2,22.9],[74.1,22.9],[74.1,23.1],[73.9,23.1],[73.9,23.3],[73.8,23.3],[73.8,23.4],[73.7,23.4],[73.7,23.6],[73.6,23.6],[73.6,23.7],[73.5,23.7],[73.5,23.8],[73.4,23.8],[73.4,24.0],[73.3,24.0],[73.3,24.2],[73.2,24.2],[73.2,24.3],[73.1,24.3],[73.1,24.7],[73.0,24.7],[73.0,24.9],[72.9,24.9],[72.9,25.8],[73.0,25.8],[73.0,25.9],[73.1,25.9],[73.1,26.4],[73.2,26.4],[73.2,26.6],[73.3,26.6],[73.3,27.5],[73.2,27.5],[73.2,27.8],[73.1,27.8],[73.1,28.7],[73.2,28.7],[73.2,29.1],[73.3,29.1],[73.3,29.3],[73.4,29.3],[73.4,29.4],[73.5,29.4],[73.5,29.5],[73.6,29.5],[73.6,29.7],[73.7,29.7],[73.7,29.8],[73.8,29.8],[73.8,30.3],[73.9,30.3],[73.9,30.7],[74.0,30.7],[74.0,31.3],[74.1,31.3],[74.1,31.5],[74.2,31.5],[74.2,32.3],[74.1,32.3],[74.1,32.4],[73.9,32.4],[73.9,32.5],[73.8,32.5],[73.8,32.6],[73.7,32.6],[73.7,32.7],[73.6,32.7],[73.6,32.8],[73.4,32.8],[73.4,32.9],[73.3,32.9],[73.3,33.0],[73.1,33.0],[73.1,33.1],[72.6,33.1]]]]},"properties":{"start_year":660,"end_year":661,"source_color":"#ff0000","polity_id":null,"polity_assignment":"unverified","geometry_origin":"raster_color_trace_stitched","pixel_size_degrees":0.1,"sources":[{"feature_id":"51:657:#ff0000","tile_id":"51","start_year":657,"end_year":670,"source_image":"data/raw/toolbay/t/51/657.png","source_url":"https://www.toolbay.cc/history-map/t/51/657.png"},{"feature_id":"61:660:#ff0000","tile_id":"61","start_year":660,"end_year":661,"source_image":"data/raw/toolbay/t/61/660.png","source_url":"https://www.toolbay.cc/history-map/t/61/660.png"}]}},{"type":"Feature","id":"merged:660:#ff00ff","bbox":[79.3,8.6,107.7,37.8],"geometry":{"type":"MultiPolygon","coordinates":[[[[104.1,19.1],[104.0,19.1],[104.0,19.4],[103.8,19.4],[103.8,19.3],[103.6,19.3],[103.6,19.2],[103.4,19.2],[103.4,19.1],[103.3,19.1],[103.3,19.0],[103.2,19.0],[103.2,18.9],[103.1,18.9],[103.1,18.8],[103.0,18.8],[103.0,17.8],[103.1,17.8],[103.1,17.5],[103.2,17.5],[103.2,17.2],[103.3,17.2],[103.3,16.1],[103.2,16.1],[103.2,15.9],[103.1,15.9],[103.1,15.8],[103.0,15.8],[103.0,15.7],[102.9,15.7],[102.9,15.6],[102.8,15.6],[102.8,15.5],[102.6,15.5],[102.6,15.4],[102.4,15.4],[102.4,15.3],[102.2,15.3],[102.2,15.2],[102.1,15.2],[102.1,15.1],[101.9,15.1],[101.9,15.0],[101.8,15.0],[101.8,14.9],[101.6,14.9],[101.6,14.8],[101.5,14.8],[101.5,14.7],[101.4,14.7],[101.4,14.6],[101.3,14.6],[101.3,14.4],[101.1,14.4],[101.1,14.3],[101.0,14.3],[101.0,14.2],[100.9,14.2],[100.9,14.0],[100.8,14.0],[100.8,13.8],[100.7,13.8],[100.7,13.6],[100.8,13.6],[100.8,13.5],[100.9,13.5],[100.9,12.8],[101.0,12.8],[101.0,12.7],[101.9,12.7],[101.9,12.6],[102.0,12.6],[102.0,12.5],[102.2,12.5],[102.2,12.4],[102.3,12.4],[102.3,12.2],[102.7,12.2],[102.7,12.1],[102.8,12.1],[102.8,11.8],[102.9,11.8],[102.9,11.6],[103.0,11.6],[103.0,11.3],[103.1,11.3],[103.1,10.9],[103.4,10.9],[103.4,11.0],[103.6,11.0],[103.6,10.6],[103.7,10.6],[103.7,10.5],[103.8,10.5],[103.8,10.4],[104.0,10.4],[104.0,10.5],[104.2,10.5],[104.2,10.6],[104.3,10.6],[104.3,10.5],[104.4,10.5],[104.4,10.4],[104.5,10.4],[104.5,10.3],[104.7,10.3],[104.7,10.2],[104.9,10.2],[104.9,10.1],[105.0,10.1],[105.0,9.9],[104.9,9.9],[104.9,9.7],[104.8,9.7],[104.8,8.7],[104.9,8.7],[104.9,8.6],[105.1,8.6],[105.1,8.7],[105.2,8.7],[105.2,8.8],[105.3,8.8],[105.3,8.9],[105.4,8.9],[105.4,9.0],[105.5,9.0],[105.5,9.1],[105.6,9.1],[105.6,9.2],[105.8,9.2],[105.8,9.3],[106.1,9.3],[106.1,9.4],[106.2,9.4],[106.2,9.5],[106.3,9.5],[106.3,9.6],[106.5,9.6],[106.5,9.7],[106.6,9.7],[106.6,9.8],[106.7,9.8],[106.7,10.0],[106.8,10.0],[106.8,10.4],[106.9,10.4],[106.9,10.6],[106.8,10.6],[106.8,10.7],[106.7,10.7],[106.7,10.8],[106.6,10.8],[106.6,10.9],[106.7,10.9],[106.7,11.1],[106.8,11.1],[106.8,11.3],[106.9,11.3],[106.9,11.4],[107.0,11.4],[107.0,11.6],[107.1,11.6],[107.1,11.7],[107.2,11.7],[107.2,11.8],[107.3,11.8],[107.3,12.0],[107.4,12.0],[107.4,12.3],[107.5,12.3],[107.5,12.6],[107.6,12.6],[107.6,12.8],[107.7,12.8],[107.7,14.0],[107.6,14.0],[107.6,14.2],[107.5,14.2],[107.5,14.4],[107.4,14.4],[107.4,14.5],[107.3,14.5],[107.3,14.6],[107.2,14.6],[107.2,14.7],[107.1,14.7],[107.1,14.8],[107.0,14.8],[107.0,14.9],[106.9,14.9],[106.9,15.0],[106.7,15.0],[106.7,15.1],[106.6,15.1],[106.6,15.2],[106.5,15.2],[106.5,15.3],[106.4,15.3],[106.4,15.4],[106.3,15.4],[106.3,15.5],[106.2,15.5],[106.2,15.6],[106.1,15.6],[106.1,15.7],[106.0,15.7],[106.0,15.8],[105.9,15.8],[105.9,15.9],[105.8,15.9],[105.8,16.0],[105.6,16.0],[105.6,16.1],[105.4,16.1],[105.4,16.2],[105.2,16.2],[105.2,16.3],[105.1,16.3],[105.1,16.4],[105.0,16.4],[105.0,16.5],[104.9,16.5],[104.9,16.6],[104.8,16.6],[104.8,16.8],[104.7,16.8],[104.7,16.9],[104.6,16.9],[104.6,17.1],[104.5,17.1],[104.5,17.3],[104.4,17.3],[104.4,17.6],[104.3,17.6],[104.3,18.6],[104.2,18.6],[104.2,18.8],[104.1,18.8],[104.1,19.1]],[[105.1,10.7],[105.1,10.8],[105.2,10.8],[105.2,10.9],[105.3,10.9],[105.3,10.7],[105.1,10.7]]],[[[91.2,37.6],[91.2,37.7],[90.0,37.7],[88.3,37.7],[88.3,37.6],[87.7,37.6],[87.7,37.5],[87.3,37.5],[87.3,37.4],[87.0,37.4],[87.0,37.3],[85.9,37.3],[85.9,37.4],[85.7,37.4],[85.7,37.5],[85.5,37.5],[85.5,37.6],[85.3,37.6],[85.3,37.7],[85.2,37.7],[85.2,37.8],[84.8,37.8],[84.8,37.7],[84.4,37.7],[84.4,37.6],[84.1,37.6],[84.1,37.5],[83.8,37.5],[83.8,37.4],[83.3,37.4],[83.3,37.3],[83.1,37.3],[83.1,37.2],[82.8,37.2],[82.8,37.1],[82.4,37.1],[82.4,37.0],[82.2,37.0],[82.2,36.9],[81.9,36.9],[81.9,36.8],[81.4,36.8],[81.4,36.7],[81.1,36.7],[81.1,36.5],[81.0,36.5],[81.0,36.4],[80.9,36.4],[80.9,36.2],[80.8,36.2],[80.8,36.1],[80.7,36.1],[80.7,36.0],[80.6,36.0],[80.6,35.9],[80.5,35.9],[80.5,35.8],[80.4,35.8],[80.4,35.6],[80.3,35.6],[80.3,35.5],[80.2,35.5],[80.2,35.3],[80.1,35.3],[80.1,35.2],[80.0,35.2],[80.0,34.9],[79.9,34.9],[79.9,34.2],[79.8,34.2],[79.8,33.9],[79.7,33.9],[79.7,33.5],[79.6,33.5],[79.6,33.0],[79.5,33.0],[79.5,32.8],[79.4,32.8],[79.4,32.3],[79.3,32.3],[79.3,31.4],[79.4,31.4],[79.4,31.2],[79.5,31.2],[79.5,30.9],[79.7,30.9],[79.7,30.8],[80.1,30.8],[80.1,30.7],[80.3,30.7],[80.3,30.6],[80.6,30.6],[80.6,30.4],[80.8,30.4],[80.8,30.3],[81.1,30.3],[81.1,30.2],[81.4,30.2],[81.4,30.1],[81.6,30.1],[81.6,30.0],[81.8,30.0],[81.8,29.9],[82.0,29.9],[82.0,29.8],[82.2,29.8],[82.2,29.7],[82.5,29.7],[82.5,29.6],[83.0,29.6],[83.0,29.5],[83.3,29.5],[83.3,29.4],[83.7,29.4],[83.7,29.3],[83.8,29.3],[83.8,29.2],[84.2,29.2],[84.2,29.1],[84.7,29.1],[84.7,29.0],[85.0,29.0],[85.0,28.9],[85.3,28.9],[85.3,28.8],[85.6,28.8],[85.6,28.7],[85.8,28.7],[85.8,28.6],[85.9,28.6],[85.9,28.5],[86.1,28.5],[86.1,28.3],[86.2,28.3],[86.2,28.2],[86.3,28.2],[86.3,28.1],[86.9,28.1],[86.9,28.0],[87.5,28.0],[87.5,27.9],[87.8,27.9],[87.8,27.8],[88.2,27.8],[88.2,27.7],[88.7,27.7],[88.7,27.6],[89.1,27.6],[89.1,27.5],[90.0,27.5],[90.2,27.5],[90.2,27.6],[90.5,27.6],[90.5,27.7],[90.9,27.7],[90.9,27.8],[91.4,27.8],[91.4,27.9],[91.7,27.9],[91.7,28.0],[92.1,28.0],[92.1,28.1],[92.5,28.1],[92.5,28.2],[92.7,28.2],[92.7,28.3],[93.0,28.3],[93.0,28.4],[93.2,28.4],[93.2,28.5],[93.3,28.5],[93.3,28.6],[93.4,28.6],[93.4,28.7],[93.6,28.7],[93.6,28.8],[94.0,28.8],[94.0,28.9],[96.5,28.9],[96.5,28.8],[96.7,28.8],[96.7,28.7],[96.8,28.7],[96.8,28.6],[96.9,28.6],[96.9,28.5],[97.0,28.5],[97.0,28.4],[97.2,28.4],[97.2,28.3],[98.1,28.3],[98.1,28.2],[98.2,28.2],[98.2,28.1],[98.4,28.1],[98.4,28.0],[98.7,28.0],[98.7,28.1],[98.8,28.1],[98.8,28.2],[98.9,28.2],[98.9,29.5],[98.8,29.5],[98.8,29.8],[98.7,29.8],[98.7,30.0],[98.6,30.0],[98.6,30.1],[98.5,30.1],[98.5,30.4],[98.4,30.4],[98.4,31.1],[98.3,31.1],[98.3,31.8],[98.2,31.8],[98.2,31.9],[98.3,31.9],[98.3,32.2],[98.2,32.2],[98.2,33.3],[98.3,33.3],[98.3,33.8],[98.4,33.8],[98.4,34.2],[98.5,34.2],[98.5,35.1],[98.6,35.1],[98.6,35.2],[98.7,35.2],[98.7,36.0],[98.6,36.0],[98.6,36.2],[98.5,36.2],[98.5,36.4],[98.4,36.4],[98.4,36.5],[98.1,36.5],[98.1,36.6],[97.7,36.6],[97.7,36.7],[97.2,36.7],[97.2,36.8],[96.8,36.8],[96.8,36.9],[96.6,36.9],[96.6,36.8],[96.4,36.8],[96.4,36.7],[96.3,36.7],[96.3,36.6],[95.6,36.6],[95.6,36.5],[95.3,36.5],[95.3,36.4],[93.7,36.4],[93.7,36.5],[93.2,36.5],[93.2,36.6],[92.6,36.6],[92.6,36.7],[92.3,36.7],[92.3,36.8],[92.1,36.8],[92.1,36.9],[92.0,36.9],[92.0,37.0],[91.8,37.0],[91.8,37.1],[91.5,37.1],[91.5,37.2],[91.4,37.2],[91.4,37.3],[91.3,37.3],[91.3,37.6],[91.2,37.6]],[[95.2,29.8],[95.1,29.8],[95.1,29.7],[95.0,29.7],[95.0,29.9],[95.2,29.9],[95.2,29.8]]]]},"properties":{"start_year":660,"end_year":661,"source_color":"#ff00ff","polity_id":null,"polity_assignment":"unverified","geometry_origin":"raster_color_trace_stitched","pixel_size_degrees":0.1,"sources":[{"feature_id":"51:657:#ff00ff","tile_id":"51","start_year":657,"end_year":670,"source_image":"data/raw/toolbay/t/51/657.png","source_url":"https://www.toolbay.cc/history-map/t/51/657.png"},{"feature_id":"61:660:#ff00ff","tile_id":"61","start_year":660,"end_year":661,"source_image":"data/raw/toolbay/t/61/660.png","source_url":"https://www.toolbay.cc/history-map/t/61/660.png"}]}},{"type":"Feature","id":"merged:660:#ff9900","bbox":[79.7,6.0,81.9,9.9],"geometry":{"type":"Polygon","coordinates":[[[80.3,9.9],[80.0,9.9],[80.0,9.5],[80.1,9.5],[80.1,9.2],[80.0,9.2],[80.0,9.1],[79.9,9.1],[79.9,8.5],[79.8,8.5],[79.8,8.4],[79.7,8.4],[79.7,7.9],[79.8,7.9],[79.8,6.9],[79.9,6.9],[79.9,6.7],[80.0,6.7],[80.0,6.3],[80.1,6.3],[80.1,6.1],[80.2,6.1],[80.2,6.0],[80.8,6.0],[80.8,6.1],[81.1,6.1],[81.1,6.2],[81.4,6.2],[81.4,6.3],[81.5,6.3],[81.5,6.4],[81.6,6.4],[81.6,6.5],[81.7,6.5],[81.7,6.6],[81.8,6.6],[81.8,6.8],[81.9,6.8],[81.9,7.2],[81.8,7.2],[81.8,7.8],[81.7,7.8],[81.7,7.9],[81.6,7.9],[81.6,8.1],[81.5,8.1],[81.5,8.3],[81.4,8.3],[81.4,8.6],[81.3,8.6],[81.3,8.7],[81.2,8.7],[81.2,8.9],[81.1,8.9],[81.1,9.0],[81.0,9.0],[81.0,9.2],[80.9,9.2],[80.9,9.4],[80.8,9.4],[80.8,9.5],[80.7,9.5],[80.7,9.6],[80.6,9.6],[80.6,9.7],[80.4,9.7],[80.4,9.8],[80.3,9.8],[80.3,9.9]]]},"properties":{"start_year":660,"end_year":661,"source_color":"#ff9900","polity_id":null,"polity_assignment":"unverified","geometry_origin":"raster_color_trace_stitched","pixel_size_degrees":0.1,"sources":[{"feature_id":"51:657:#ff9900","tile_id":"51","start_year":657,"end_year":670,"source_image":"data/raw/toolbay/t/51/657.png","source_url":"https://www.toolbay.cc/history-map/t/51/657.png"}]}},{"type":"Feature","id":"merged:660:#ff9933","bbox":[60.0,16.0,141.1,61.3],"geometry":{"type":"MultiPolygon","coordinates":[[[[80.6,30.6],[80.3,30.6],[80.3,30.7],[80.1,30.7],[80.1,30.8],[79.7,30.8],[79.7,30.6],[79.6,30.6],[79.6,30.5],[79.5,30.5],[79.5,30.4],[79.2,30.4],[79.2,30.2],[79.0,30.2],[79.0,30.1],[78.9,30.1],[78.9,30.0],[78.8,30.0],[78.8,29.9],[78.7,29.9],[78.7,29.8],[78.8,29.8],[78.8,29.6],[79.1,29.6],[79.1,29.5],[79.2,29.5],[79.2,29.4],[79.4,29.4],[79.4,29.3],[79.6,29.3],[79.6,29.2],[79.8,29.2],[79.8,29.1],[79.9,29.1],[79.9,29.0],[80.1,29.0],[80.1,28.9],[80.5,28.9],[80.5,28.8],[80.7,28.8],[80.7,28.7],[80.9,28.7],[80.9,28.6],[81.2,28.6],[81.2,28.5],[81.5,28.5],[81.5,28.4],[81.7,28.4],[81.7,28.3],[82.1,28.3],[82.1,28.2],[82.5,28.2],[82.5,28.1],[82.7,28.1],[82.7,28.0],[83.3,28.0],[83.3,27.9],[83.4,27.9],[83.4,27.8],[83.7,27.8],[83.7,27.7],[84.0,27.7],[84.0,27.6],[84.4,27.6],[84.4,27.5],[84.9,27.5],[84.9,27.4],[85.2,27.4],[85.2,27.3],[85.4,27.3],[85.4,27.2],[85.5,27.2],[85.5,27.1],[85.8,27.1],[85.8,27.0],[86.1,27.0],[86.1,27.8],[86.2,27.8],[86.2,28.1],[86.3,28.1],[86.3,28.2],[86.2,28.2],[86.2,28.3],[86.1,28.3],[86.1,28.5],[85.9,28.5],[85.9,28.6],[85.8,28.6],[85.8,28.7],[85.6,28.7],[85.6,28.8],[85.3,28.8],[85.3,28.9],[85.0,28.9],[85.0,29.0],[84.7,29.0],[84.7,29.1],[84.2,29.1],[84.2,29.2],[83.8,29.2],[83.8,29.3],[83.7,29.3],[83.7,29.4],[83.3,29.4],[83.3,29.5],[83.0,29.5],[83.0,29.6],[82.5,29.6],[82.5,29.7],[82.2,29.7],[82.2,29.8],[82.0,29.8],[82.0,29.9],[81.8,29.9],[81.8,30.0],[81.6,30.0],[81.6,30.1],[81.4,30.1],[81.4,30.2],[81.1,30.2],[81.1,30.3],[80.8,30.3],[80.8,30.4],[80.6,30.4],[80.6,30.6]]],[[[123.9,44.4],[124.0,44.4],[124.0,44.6],[124.1,44.6],[124.1,44.9],[124.2,44.9],[124.2,45.0],[124.6,45.0],[124.6,45.1],[124.7,45.1],[124.7,45.3],[124.8,45.3],[124.8,45.8],[124.9,45.8],[124.9,46.1],[125.0,46.1],[125.0,46.3],[125.1,46.3],[125.1,46.6],[125.2,46.6],[125.2,47.0],[125.3,47.0],[125.3,47.1],[125.4,47.1],[125.4,47.2],[125.5,47.2],[125.5,47.5],[125.6,47.5],[125.6,47.6],[125.7,47.6],[125.7,47.8],[125.8,47.8],[125.8,48.0],[125.9,48.0],[125.9,48.1],[126.0,48.1],[126.0,48.3],[126.1,48.3],[126.1,48.5],[126.2,48.5],[126.2,48.6],[126.4,48.6],[126.4,48.8],[126.5,48.8],[126.5,49.0],[126.6,49.0],[126.6,49.3],[126.7,49.3],[126.7,49.5],[126.8,49.5],[126.8,49.9],[126.9,49.9],[126.9,50.2],[127.0,50.2],[127.0,50.4],[127.1,50.4],[127.1,50.8],[127.2,50.8],[127.2,51.2],[127.3,51.2],[127.3,51.4],[127.4,51.4],[127.4,51.6],[127.6,51.6],[127.6,51.8],[127.8,51.8],[127.8,52.0],[127.9,52.0],[127.9,52.1],[128.0,52.1],[128.0,52.2],[128.1,52.2],[128.1,52.3],[128.2,52.3],[128.2,52.5],[128.3,52.5],[128.3,52.6],[128.4,52.6],[128.4,52.8],[128.5,52.8],[128.5,53.0],[128.6,53.0],[128.6,53.2],[128.7,53.2],[128.7,53.7],[128.8,53.7],[128.8,53.9],[128.9,53.9],[128.9,55.1],[128.8,55.1],[128.8,55.3],[128.7,55.3],[128.7,55.5],[128.6,55.5],[128.6,55.6],[128.5,55.6],[128.5,55.8],[128.4,55.8],[128.4,55.9],[128.3,55.9],[128.3,56.0],[128.2,56.0],[128.2,56.1],[128.1,56.1],[128.1,56.3],[127.9,56.3],[127.9,56.5],[127.7,56.5],[127.7,56.6],[127.6,56.6],[127.6,56.7],[127.3,56.7],[127.3,56.8],[127.1,56.8],[127.1,56.9],[126.8,56.9],[126.8,57.0],[126.6,57.0],[126.6,57.1],[126.3,57.1],[126.3,57.2],[126.0,57.2],[126.0,57.3],[125.6,57.3],[125.6,57.4],[125.2,57.4],[125.2,57.5],[124.6,57.5],[124.6,57.6],[124.1,57.6],[124.1,57.7],[123.8,57.7],[123.8,57.8],[123.1,57.8],[123.1,57.9],[122.5,57.9],[122.5,58.0],[122.1,58.0],[122.1,58.1],[121.3,58.1],[121.3,58.2],[120.8,58.2],[120.8,58.3],[120.2,58.3],[120.2,58.4],[119.7,58.4],[119.7,58.5],[119.4,58.5],[119.4,58.6],[119.2,58.6],[119.2,58.7],[118.9,58.7],[118.9,58.8],[118.5,58.8],[118.5,58.9],[118.2,58.9],[118.2,59.0],[117.9,59.0],[117.9,59.1],[117.4,59.1],[117.4,59.2],[116.8,59.2],[116.8,59.3],[116.6,59.3],[116.6,59.4],[115.9,59.4],[115.9,59.5],[115.6,59.5],[115.6,59.6],[115.3,59.6],[115.3,59.7],[115.0,59.7],[115.0,59.8],[114.6,59.8],[114.6,59.9],[114.1,59.9],[114.1,60.0],[113.9,60.0],[113.9,60.1],[112.9,60.1],[112.9,60.2],[112.2,60.2],[112.2,60.3],[111.7,60.3],[111.7,60.4],[111.3,60.4],[111.3,60.5],[110.6,60.5],[110.6,60.6],[110.1,60.6],[110.1,60.7],[109.7,60.7],[109.7,60.8],[108.9,60.8],[108.9,60.9],[108.1,60.9],[108.1,61.0],[107.7,61.0],[107.7,61.1],[107.5,61.1],[107.5,61.2],[106.5,61.2],[106.5,61.3],[104.9,61.3],[104.9,61.2],[104.2,61.2],[104.2,61.1],[104.1,61.1],[104.1,61.0],[103.6,61.0],[103.6,60.9],[103.3,60.9],[103.3,60.8],[102.8,60.8],[102.8,60.7],[102.1,60.7],[102.1,60.6],[101.7,60.6],[101.7,60.5],[101.4,60.5],[101.4,60.4],[100.9,60.4],[100.9,60.3],[100.4,60.3],[100.4,60.2],[100.1,60.2],[100.1,60.1],[99.5,60.1],[99.5,60.0],[98.9,60.0],[98.9,59.9],[98.4,59.9],[98.4,59.8],[98.1,59.8],[98.1,59.7],[97.9,59.7],[97.9,59.6],[97.6,59.6],[97.6,59.5],[97.2,59.5],[97.2,59.4],[96.5,59.4],[96.5,59.3],[96.3,59.3],[96.3,59.2],[95.9,59.2],[95.9,59.1],[95.6,59.1],[95.6,59.0],[95.2,59.0],[95.2,58.9],[94.9,58.9],[94.9,58.8],[94.5,58.8],[94.5,58.7],[94.3,58.7],[94.3,58.6],[93.7,58.6],[93.7,58.5],[93.5,58.5],[93.5,58.4],[92.7,58.4],[92.7,58.2],[92.1,58.2],[92.1,58.1],[90.8,58.1],[90.8,58.2],[90.0,58.2],[90.0,58.1],[88.0,58.1],[88.0,58.0],[87.7,58.0],[87.7,57.9],[87.2,57.9],[87.2,57.8],[86.6,57.8],[86.6,57.7],[86.2,57.7],[86.2,57.6],[85.8,57.6],[85.8,57.5],[85.5,57.5],[85.5,57.4],[85.1,57.4],[85.1,57.3],[84.7,57.3],[84.7,57.2],[83.5,57.2],[83.5,57.1],[81.6,57.1],[81.6,57.2],[78.2,57.2],[78.2,57.1],[78.1,57.1],[78.1,56.9],[78.0,56.9],[78.0,56.8],[77.9,56.8],[77.9,56.7],[77.6,56.7],[77.6,56.6],[77.2,56.6],[77.2,56.5],[76.8,56.5],[76.8,56.4],[76.5,56.4],[76.5,56.3],[76.2,56.3],[76.2,56.2],[75.6,56.2],[75.6,56.1],[75.3,56.1],[75.3,56.0],[74.8,56.0],[74.8,56.1],[74.2,56.1],[74.2,56.2],[73.8,56.2],[73.8,56.3],[72.0,56.3],[72.0,56.2],[71.1,56.2],[71.1,56.1],[70.7,56.1],[70.7,56.0],[70.4,56.0],[70.4,55.9],[70.3,55.9],[70.3,55.8],[70.1,55.8],[70.1,55.7],[70.0,55.7],[70.0,55.6],[69.8,55.6],[69.8,55.5],[69.6,55.5],[69.6,55.4],[69.4,55.4],[69.4,55.3],[69.1,55.3],[69.1,55.2],[68.8,55.2],[68.8,55.1],[68.5,55.1],[68.5,55.0],[68.3,55.0],[68.3,54.9],[68.0,54.9],[68.0,54.8],[67.8,54.8],[67.8,54.7],[67.6,54.7],[67.6,54.6],[67.3,54.6],[67.3,54.5],[67.1,54.5],[67.1,54.4],[66.9,54.4],[66.9,54.3],[66.8,54.3],[66.8,54.2],[66.6,54.2],[66.6,54.1],[66.4,54.1],[66.4,54.0],[66.1,54.0],[66.1,53.9],[65.9,53.9],[65.9,53.8],[65.7,53.8],[65.7,53.7],[65.6,53.7],[65.6,53.6],[65.3,53.6],[65.3,53.5],[65.1,53.5],[65.1,53.4],[64.9,53.4],[64.9,53.3],[64.5,53.3],[64.5,53.2],[64.1,53.2],[64.1,53.1],[63.5,53.1],[63.5,53.0],[62.8,53.0],[62.8,52.9],[62.2,52.9],[62.2,52.8],[61.7,52.8],[61.7,52.7],[61.2,52.7],[61.2,52.6],[61.0,52.6],[61.0,52.5],[60.9,52.5],[60.9,52.4],[60.8,52.4],[60.8,52.3],[60.6,52.3],[60.6,52.2],[60.5,52.2],[60.5,52.0],[60.4,52.0],[60.4,51.9],[60.3,51.9],[60.3,51.8],[60.1,51.8],[60.1,51.7],[60.0,51.7],[60.0,51.6],[60.0,46.2],[60.5,46.2],[60.5,46.3],[60.6,46.3],[60.6,46.4],[60.5,46.4],[60.5,46.6],[60.6,46.6],[60.6,46.7],[60.8,46.7],[60.8,46.6],[60.9,46.6],[60.9,46.5],[61.2,46.5],[61.2,46.6],[61.3,46.6],[61.3,46.4],[61.2,46.4],[61.2,46.2],[61.1,46.2],[61.1,46.1],[61.0,46.1],[61.0,46.0],[60.9,46.0],[60.9,45.6],[61.0,45.6],[61.0,45.5],[61.1,45.5],[61.1,45.4],[61.2,45.4],[61.2,45.2],[61.3,45.2],[61.3,45.1],[61.4,45.1],[61.4,45.0],[61.4,44.9],[61.3,44.9],[61.3,44.8],[61.1,44.8],[61.1,44.7],[61.0,44.7],[61.0,44.5],[60.9,44.5],[60.9,44.3],[60.8,44.3],[60.8,44.2],[60.6,44.2],[60.6,44.1],[60.3,44.1],[60.3,44.0],[60.2,44.0],[60.2,43.9],[60.1,43.9],[60.1,43.8],[60.0,43.8],[60.0,34.4],[60.0,34.3],[60.1,34.3],[60.1,34.2],[60.2,34.2],[60.2,34.0],[60.3,34.0],[60.3,33.9],[60.4,33.9],[60.4,33.8],[60.5,33.8],[60.5,33.7],[60.6,33.7],[60.6,33.5],[60.7,33.5],[60.7,33.4],[60.8,33.4],[60.8,33.3],[61.1,33.3],[61.1,33.2],[61.3,33.2],[61.3,33.1],[61.5,33.1],[61.5,33.0],[61.9,33.0],[61.9,32.9],[62.1,32.9],[62.1,32.8],[62.2,32.8],[62.2,32.7],[62.4,32.7],[62.4,32.6],[62.6,32.6],[62.6,32.5],[62.7,32.5],[62.7,32.4],[62.8,32.4],[62.8,32.3],[62.9,32.3],[62.9,32.2],[63.2,32.2],[63.2,32.1],[63.5,32.1],[63.5,32.0],[63.9,32.0],[63.9,31.9],[64.7,31.9],[64.7,31.8],[65.7,31.8],[65.7,31.9],[67.2,31.9],[67.2,32.0],[67.9,32.0],[67.9,32.1],[68.5,32.1],[68.5,32.2],[68.9,32.2],[68.9,32.3],[69.3,32.3],[69.3,32.4],[69.8,32.4],[69.8,32.5],[70.1,32.5],[70.1,32.6],[70.4,32.6],[70.4,32.7],[70.9,32.7],[70.9,32.8],[71.9,32.8],[71.9,32.9],[72.0,32.9],[72.0,33.1],[72.1,33.1],[72.1,33.2],[72.6,33.2],[72.6,33.1],[73.1,33.1],[73.1,33.0],[73.3,33.0],[73.3,32.9],[73.4,32.9],[73.4,32.8],[73.6,32.8],[73.6,32.7],[73.7,32.7],[73.7,32.6],[73.8,32.6],[73.8,32.5],[73.9,32.5],[73.9,32.4],[74.1,32.4],[74.1,32.3],[74.2,32.3],[74.2,32.2],[75.3,32.2],[75.3,32.1],[75.7,32.1],[75.7,32.0],[76.4,32.0],[76.4,31.9],[76.8,31.9],[76.8,31.8],[77.2,31.8],[77.2,31.7],[77.4,31.7],[77.4,31.6],[77.7,31.6],[77.7,31.5],[78.0,31.5],[78.0,31.4],[78.6,31.4],[78.6,31.3],[78.9,31.3],[78.9,31.2],[79.1,31.2],[79.1,31.1],[79.3,31.1],[79.3,31.0],[79.5,31.0],[79.5,31.2],[79.4,31.2],[79.4,31.4],[79.3,31.4],[79.3,32.3],[79.4,32.3],[79.4,32.8],[79.5,32.8],[79.5,33.0],[79.6,33.0],[79.6,33.5],[79.7,33.5],[79.7,33.9],[79.8,33.9],[79.8,34.2],[79.9,34.2],[79.9,34.9],[80.0,34.9],[80.0,35.2],[80.1,35.2],[80.1,35.3],[80.2,35.3],[80.2,35.5],[80.3,35.5],[80.3,35.6],[80.4,35.6],[80.4,35.8],[80.5,35.8],[80.5,35.9],[80.6,35.9],[80.6,36.0],[80.7,36.0],[80.7,36.1],[80.8,36.1],[80.8,36.2],[80.9,36.2],[80.9,36.4],[81.0,36.4],[81.0,36.5],[81.1,36.5],[81.1,36.7],[81.4,36.7],[81.4,36.8],[81.9,36.8],[81.9,36.9],[82.2,36.9],[82.2,37.0],[82.4,37.0],[82.4,37.1],[82.8,37.1],[82.8,37.2],[83.1,37.2],[83.1,37.3],[83.3,37.3],[83.3,37.4],[83.8,37.4],[83.8,37.5],[84.1,37.5],[84.1,37.6],[84.4,37.6],[84.4,37.7],[84.8,37.7],[84.8,37.8],[85.2,37.8],[85.2,37.7],[85.3,37.7],[85.3,37.6],[85.5,37.6],[85.5,37.5],[85.7,37.5],[85.7,37.4],[85.9,37.4],[85.9,37.3],[87.0,37.3],[87.0,37.4],[87.3,37.4],[87.3,37.5],[87.7,37.5],[87.7,37.6],[88.3,37.6],[88.3,37.7],[90.0,37.7],[91.9,37.7],[91.9,37.6],[92.8,37.6],[92.8,37.5],[93.7,37.5],[93.7,37.4],[94.6,37.4],[94.6,37.3],[95.3,37.3],[95.3,37.2],[95.6,37.2],[95.6,37.1],[96.0,37.1],[96.0,37.0],[96.5,37.0],[96.5,36.9],[96.8,36.9],[96.8,36.8],[97.2,36.8],[97.2,36.7],[97.7,36.7],[97.7,36.6],[98.1,36.6],[98.1,36.5],[98.4,36.5],[98.4,36.4],[98.5,36.4],[98.5,36.2],[98.6,36.2],[98.6,36.0],[98.7,36.0],[98.7,35.2],[98.6,35.2],[98.6,35.1],[98.5,35.1],[98.5,34.2],[98.4,34.2],[98.4,33.8],[98.3,33.8],[98.3,33.3],[98.2,33.3],[98.2,32.2],[98.3,32.2],[98.3,31.9],[98.2,31.9],[98.2,31.8],[98.3,31.8],[98.3,31.1],[98.4,31.1],[98.4,30.4],[98.5,30.4],[98.5,30.1],[98.6,30.1],[98.6,30.0],[98.7,30.0],[98.7,29.8],[98.8,29.8],[98.8,29.5],[98.9,29.5],[98.9,28.2],[98.8,28.2],[98.8,28.1],[98.7,28.1],[98.7,27.9],[98.8,27.9],[98.8,27.7],[98.9,27.7],[98.9,27.6],[99.0,27.6],[99.0,27.4],[99.1,27.4],[99.1,27.2],[99.2,27.2],[99.2,27.0],[99.3,27.0],[99.3,25.8],[99.2,25.8],[99.2,25.5],[99.3,25.5],[99.3,25.4],[99.6,25.4],[99.6,25.3],[101.0,25.3],[101.0,25.2],[101.2,25.2],[101.2,25.1],[101.4,25.1],[101.4,25.0],[101.6,25.0],[101.6,24.9],[101.8,24.9],[101.8,24.8],[102.0,24.8],[102.0,24.7],[102.3,24.7],[102.3,24.6],[102.5,24.6],[102.5,24.5],[102.7,24.5],[102.7,24.4],[102.8,24.4],[102.8,24.3],[102.9,24.3],[102.9,24.2],[103.1,24.2],[103.1,23.4],[103.0,23.4],[103.0,22.3],[103.1,22.3],[103.1,21.5],[103.2,21.5],[103.2,21.3],[103.3,21.3],[103.3,20.8],[103.4,20.8],[103.4,20.5],[103.5,20.5],[103.5,20.4],[103.7,20.4],[103.7,20.0],[103.8,20.0],[103.8,19.8],[103.9,19.8],[103.9,19.4],[104.0,19.4],[104.0,19.1],[104.1,19.1],[104.1,18.8],[104.2,18.8],[104.2,18.6],[104.3,18.6],[104.3,17.6],[104.4,17.6],[104.4,17.3],[104.5,17.3],[104.5,17.1],[104.6,17.1],[104.6,16.9],[104.7,16.9],[104.7,16.8],[104.8,16.8],[104.8,16.6],[104.9,16.6],[104.9,16.5],[105.0,16.5],[105.0,16.4],[105.1,16.4],[105.1,16.3],[105.2,16.3],[105.2,16.2],[105.4,16.2],[105.4,16.1],[105.6,16.1],[105.6,16.0],[106.6,16.0],[106.6,16.1],[106.8,16.1],[106.8,16.2],[107.0,16.2],[107.0,16.3],[107.2,16.3],[107.2,16.4],[107.3,16.4],[107.3,16.5],[107.4,16.5],[107.4,16.6],[107.5,16.6],[107.5,16.8],[107.4,16.8],[107.4,16.9],[107.3,16.9],[107.3,17.0],[107.2,17.0],[107.2,17.1],[107.1,17.1],[107.1,17.2],[107.0,17.2],[107.0,17.3],[106.9,17.3],[106.9,17.4],[106.8,17.4],[106.8,17.5],[106.7,17.5],[106.7,17.6],[106.6,17.6],[106.6,17.8],[106.5,17.8],[106.5,18.2],[106.4,18.2],[106.4,18.3],[106.2,18.3],[106.2,18.4],[106.1,18.4],[106.1,18.5],[106.0,18.5],[106.0,18.6],[105.9,18.6],[105.9,18.7],[105.8,18.7],[105.8,18.9],[105.7,18.9],[105.7,19.1],[105.8,19.1],[105.8,19.3],[105.9,19.3],[105.9,19.8],[106.0,19.8],[106.0,19.9],[106.1,19.9],[106.1,20.0],[106.2,20.0],[106.2,20.1],[106.3,20.1],[106.3,20.2],[106.4,20.2],[106.4,20.3],[106.5,20.3],[106.5,20.4],[106.6,20.4],[106.6,20.6],[106.7,20.6],[106.7,20.7],[106.9,20.7],[106.9,20.8],[107.1,20.8],[107.1,20.9],[107.5,20.9],[107.5,21.0],[107.6,21.0],[107.6,21.1],[107.7,21.1],[107.7,21.3],[107.8,21.3],[107.8,21.4],[108.0,21.4],[108.0,21.5],[108.2,21.5],[108.2,21.6],[108.5,21.6],[108.5,21.7],[109.0,21.7],[109.0,21.6],[109.1,21.6],[109.1,21.5],[109.7,21.5],[109.7,20.7],[109.8,20.7],[109.8,20.5],[109.9,20.5],[109.9,20.4],[110.0,20.4],[110.0,20.3],[110.1,20.3],[110.1,20.2],[110.0,20.2],[110.0,20.1],[109.6,20.1],[109.6,20.0],[109.3,20.0],[109.3,19.9],[109.2,19.9],[109.2,19.8],[109.1,19.8],[109.1,19.7],[109.0,19.7],[109.0,19.6],[108.9,19.6],[108.9,19.5],[108.8,19.5],[108.8,19.4],[108.7,19.4],[108.7,19.3],[108.6,19.3],[108.6,18.9],[108.7,18.9],[108.7,18.6],[108.8,18.6],[108.8,18.5],[108.9,18.5],[108.9,18.4],[109.2,18.4],[109.2,18.3],[109.5,18.3],[109.5,18.2],[109.7,18.2],[109.7,18.3],[109.8,18.3],[109.8,18.4],[110.0,18.4],[110.0,18.5],[110.1,18.5],[110.1,18.6],[110.2,18.6],[110.2,18.7],[110.5,18.7],[110.5,18.8],[110.6,18.8],[110.6,19.3],[110.7,19.3],[110.7,19.4],[110.8,19.4],[110.8,19.5],[110.9,19.5],[110.9,19.6],[111.0,19.6],[111.0,20.0],[110.9,20.0],[110.9,20.1],[110.8,20.1],[110.8,20.2],[110.5,20.2],[110.5,21.0],[110.6,21.0],[110.6,21.2],[110.7,21.2],[110.7,21.3],[110.8,21.3],[110.8,21.4],[110.9,21.4],[110.9,21.5],[111.5,21.5],[111.5,21.6],[111.9,21.6],[111.9,21.7],[112.9,21.7],[112.9,21.8],[113.0,21.8],[113.0,21.9],[113.2,21.9],[113.2,22.0],[113.5,22.0],[113.5,22.1],[113.6,22.1],[113.6,22.6],[113.9,22.6],[113.9,22.2],[114.0,22.2],[114.0,22.1],[114.2,22.1],[114.2,22.2],[114.3,22.2],[114.3,22.3],[114.4,22.3],[114.4,22.4],[114.5,22.4],[114.5,22.5],[114.7,22.5],[114.7,22.6],[115.0,22.6],[115.0,22.7],[115.1,22.7],[115.1,22.8],[116.0,22.8],[116.0,22.9],[116.2,22.9],[116.2,23.0],[116.5,23.0],[116.5,23.1],[116.6,23.1],[116.6,23.2],[116.7,23.2],[116.7,23.3],[116.8,23.3],[116.8,23.4],[116.9,23.4],[116.9,23.5],[117.3,23.5],[117.3,23.6],[117.4,23.6],[117.4,23.7],[117.5,23.7],[117.5,23.8],[117.6,23.8],[117.6,23.9],[117.7,23.9],[117.7,24.0],[117.9,24.0],[117.9,24.1],[118.0,24.1],[118.0,24.2],[118.1,24.2],[118.1,24.3],[118.2,24.3],[118.2,24.4],[118.4,24.4],[118.4,24.5],[118.5,24.5],[118.5,24.6],[118.6,24.6],[118.6,24.7],[118.8,24.7],[118.8,24.8],[118.9,24.8],[118.9,25.0],[119.0,25.0],[119.0,25.1],[119.1,25.1],[119.1,25.2],[119.3,25.2],[119.3,25.3],[119.4,25.3],[119.4,25.4],[119.8,25.4],[119.8,25.5],[119.9,25.5],[119.9,25.7],[119.8,25.7],[119.8,25.8],[119.7,25.8],[119.7,26.2],[119.8,26.2],[119.8,26.3],[119.9,26.3],[119.9,26.5],[120.0,26.5],[120.0,26.6],[120.1,26.6],[120.1,26.7],[120.2,26.7],[120.2,26.9],[120.3,26.9],[120.3,27.0],[120.4,27.0],[120.4,27.2],[120.5,27.2],[120.5,27.3],[120.6,27.3],[120.6,27.4],[120.7,27.4],[120.7,27.8],[120.8,27.8],[120.8,27.9],[121.2,27.9],[121.2,28.0],[121.3,28.0],[121.3,28.2],[121.4,28.2],[121.4,28.3],[121.6,28.3],[121.6,28.4],[121.7,28.4],[121.7,28.7],[121.8,28.7],[121.8,29.0],[121.9,29.0],[121.9,29.2],[122.0,29.2],[122.0,29.6],[122.1,29.6],[122.1,29.7],[122.3,29.7],[122.3,29.8],[122.4,29.8],[122.4,30.2],[122.3,30.2],[122.3,30.3],[121.9,30.3],[121.9,30.2],[121.5,30.2],[121.5,30.3],[121.4,30.3],[121.4,30.4],[121.2,30.4],[121.2,30.5],[121.1,30.5],[121.1,30.6],[121.2,30.6],[121.2,30.7],[121.4,30.7],[121.4,30.8],[121.5,30.8],[121.5,30.9],[121.8,30.9],[121.8,31.0],[121.9,31.0],[121.9,31.2],[121.8,31.2],[121.8,31.5],[121.9,31.5],[121.9,31.7],[122.0,31.7],[122.0,31.9],[121.9,31.9],[121.9,32.0],[121.8,32.0],[121.8,32.1],[121.7,32.1],[121.7,32.2],[121.5,32.2],[121.5,32.3],[121.4,32.3],[121.4,32.5],[121.3,32.5],[121.3,32.6],[121.1,32.6],[121.1,32.7],[121.0,32.7],[121.0,33.0],[120.9,33.0],[120.9,33.1],[120.8,33.1],[120.8,33.3],[120.7,33.3],[120.7,33.5],[120.6,33.5],[120.6,33.8],[120.5,33.8],[120.5,34.0],[120.4,34.0],[120.4,34.3],[120.3,34.3],[120.3,34.4],[120.2,34.4],[120.2,34.5],[119.9,34.5],[119.9,34.6],[119.7,34.6],[119.7,34.7],[119.6,34.7],[119.6,34.8],[119.5,34.8],[119.5,34.9],[119.4,34.9],[119.4,35.2],[119.5,35.2],[119.5,35.4],[119.6,35.4],[119.6,35.6],[119.7,35.6],[119.7,35.7],[120.0,35.7],[120.0,35.8],[120.1,35.8],[120.1,35.9],[120.2,35.9],[120.2,36.0],[120.3,36.0],[120.3,36.1],[120.6,36.1],[120.6,36.2],[120.7,36.2],[120.7,36.4],[120.8,36.4],[120.8,36.5],[121.0,36.5],[121.0,36.6],[121.1,36.6],[121.1,36.7],[121.3,36.7],[121.3,36.8],[121.7,36.8],[121.7,36.9],[122.5,36.9],[122.5,37.0],[122.6,37.0],[122.6,37.4],[122.5,37.4],[122.5,37.5],[122.3,37.5],[122.3,37.6],[121.9,37.6],[121.9,37.5],[121.6,37.5],[121.6,37.6],[121.4,37.6],[121.4,37.7],[121.2,37.7],[121.2,37.8],[121.0,37.8],[121.0,37.9],[120.9,37.9],[120.9,38.0],[120.7,38.0],[120.7,37.9],[120.5,37.9],[120.5,37.8],[120.3,37.8],[120.3,37.7],[120.2,37.7],[120.2,37.6],[120.1,37.6],[120.1,37.5],[119.9,37.5],[119.9,37.4],[119.8,37.4],[119.8,37.3],[119.7,37.3],[119.7,37.2],[119.3,37.2],[119.3,37.3],[119.1,37.3],[119.1,37.4],[119.0,37.4],[119.0,38.2],[118.9,38.2],[118.9,38.3],[118.7,38.3],[118.7,38.2],[118.0,38.2],[118.0,38.3],[117.9,38.3],[117.9,38.4],[117.8,38.4],[117.8,38.5],[117.7,38.5],[117.7,38.6],[117.6,38.6],[117.6,39.0],[117.7,39.0],[117.7,39.1],[117.9,39.1],[117.9,39.2],[118.2,39.2],[118.2,39.1],[118.9,39.1],[118.9,39.2],[119.1,39.2],[119.1,39.3],[119.2,39.3],[119.2,39.5],[119.3,39.5],[119.3,39.7],[119.4,39.7],[119.4,39.8],[119.6,39.8],[119.6,39.9],[119.7,39.9],[119.7,40.0],[120.0,40.0],[120.0,40.1],[120.2,40.1],[120.2,40.2],[120.5,40.2],[120.5,40.3],[120.6,40.3],[120.6,40.5],[120.7,40.5],[120.7,40.6],[120.9,40.6],[120.9,40.7],[121.0,40.7],[121.0,40.8],[121.1,40.8],[121.1,40.9],[121.4,40.9],[121.4,41.1],[121.5,41.1],[121.5,41.2],[121.6,41.2],[121.6,41.3],[121.7,41.3],[121.7,41.5],[121.8,41.5],[121.8,41.7],[121.9,41.7],[121.9,41.8],[122.0,41.8],[122.0,42.0],[122.1,42.0],[122.1,42.1],[122.2,42.1],[122.2,42.2],[122.3,42.2],[122.3,42.3],[122.4,42.3],[122.4,42.4],[122.5,42.4],[122.5,42.6],[122.6,42.6],[122.6,42.7],[122.7,42.7],[122.7,42.8],[122.8,42.8],[122.8,42.9],[122.9,42.9],[122.9,43.0],[123.0,43.0],[123.0,43.1],[123.1,43.1],[123.1,43.2],[123.2,43.2],[123.2,43.4],[123.3,43.4],[123.3,43.5],[123.4,43.5],[123.4,43.6],[123.5,43.6],[123.5,43.7],[123.6,43.7],[123.6,43.9],[123.7,43.9],[123.7,44.1],[123.8,44.1],[123.8,44.3],[123.9,44.3],[123.9,44.4]],[[116.2,29.4],[116.2,29.2],[116.0,29.2],[116.0,29.4],[116.2,29.4]],[[116.5,29.2],[116.5,29.0],[116.4,29.0],[116.4,29.2],[116.5,29.2]],[[74.1,46.6],[74.1,46.7],[74.4,46.7],[74.4,46.8],[74.5,46.8],[74.5,46.9],[75.8,46.9],[75.8,46.8],[75.9,46.8],[75.9,46.7],[75.8,46.7],[75.8,46.6],[75.6,46.6],[75.6,46.5],[75.1,46.5],[75.1,46.6],[74.9,46.6],[74.9,46.5],[74.7,46.5],[74.7,46.3],[74.4,46.3],[74.4,46.2],[74.3,46.2],[74.3,46.1],[74.2,46.1],[74.2,46.0],[74.1,46.0],[74.1,45.7],[74.0,45.7],[74.0,45.5],[73.9,45.5],[73.9,45.3],[73.5,45.3],[73.5,45.4],[73.4,45.4],[73.4,45.5],[73.3,45.5],[73.3,46.1],[73.4,46.1],[73.4,46.2],[73.5,46.2],[73.5,46.4],[73.7,46.4],[73.7,46.5],[73.9,46.5],[73.9,46.6],[74.1,46.6]],[[109.4,55.6],[109.6,55.6],[109.6,55.8],[109.7,55.8],[109.7,55.9],[109.8,55.9],[109.8,55.5],[109.7,55.5],[109.7,55.4],[109.8,55.4],[109.8,55.0],[109.7,55.0],[109.7,54.8],[109.6,54.8],[109.6,54.4],[109.5,54.4],[109.5,54.2],[109.4,54.2],[109.4,54.1],[109.3,54.1],[109.3,53.9],[109.2,53.9],[109.2,53.6],[109.1,53.6],[109.1,53.5],[109.0,53.5],[109.0,53.4],[108.8,53.4],[108.8,53.3],[108.6,53.3],[108.6,53.2],[108.4,53.2],[108.4,53.1],[108.3,53.1],[108.3,53.0],[108.2,53.0],[108.2,52.9],[107.9,52.9],[107.9,52.8],[107.8,52.8],[107.8,52.9],[107.6,52.9],[107.6,52.8],[107.2,52.8],[107.2,52.7],[107.1,52.7],[107.1,52.6],[107.0,52.6],[107.0,52.5],[106.9,52.5],[106.9,52.4],[106.8,52.4],[106.8,52.3],[106.7,52.3],[106.7,52.2],[106.4,52.2],[106.4,52.1],[106.2,52.1],[106.2,52.0],[105.9,52.0],[105.9,51.9],[105.7,51.9],[105.7,51.8],[105.6,51.8],[105.6,51.7],[105.1,51.7],[105.1,51.6],[104.7,51.6],[104.7,51.5],[104.4,51.5],[104.4,51.6],[104.3,51.6],[104.3,51.7],[104.4,51.7],[104.4,51.8],[105.1,51.8],[105.1,51.9],[105.4,51.9],[105.4,52.0],[105.6,52.0],[105.6,52.1],[105.7,52.1],[105.7,52.2],[105.8,52.2],[105.8,52.3],[105.9,52.3],[105.9,52.4],[106.0,52.4],[106.0,52.5],[106.2,52.5],[106.2,52.6],[106.4,52.6],[106.4,52.7],[106.7,52.7],[106.7,52.8],[106.8,52.8],[106.8,52.9],[106.9,52.9],[106.9,53.1],[107.0,53.1],[107.0,53.2],[107.1,53.2],[107.1,53.3],[107.2,53.3],[107.2,53.4],[107.4,53.4],[107.4,53.5],[107.7,53.5],[107.7,53.6],[107.9,53.6],[107.9,53.7],[108.0,53.7],[108.0,53.8],[108.2,53.8],[108.2,53.9],[108.3,53.9],[108.3,54.1],[108.4,54.1],[108.4,54.2],[108.5,54.2],[108.5,54.3],[108.6,54.3],[108.6,54.5],[108.7,54.5],[108.7,54.6],[108.9,54.6],[108.9,54.8],[109.0,54.8],[109.0,54.9],[109.1,54.9],[109.1,55.1],[109.3,55.1],[109.3,55.5],[109.4,55.5],[109.4,55.6]]],[[[129.0,33.1],[129.0,33.0],[128.9,33.0],[128.9,32.8],[129.0,32.8],[129.0,32.9],[129.1,32.9],[129.1,33.1],[129.0,33.1]]],[[[127.9,37.0],[127.8,37.0],[127.8,37.2],[127.7,37.2],[127.7,37.4],[127.5,37.4],[127.5,37.5],[126.6,37.5],[126.6,37.4],[126.5,37.4],[126.5,37.2],[126.4,37.2],[126.4,37.1],[126.3,37.1],[126.3,37.0],[126.2,37.0],[126.2,36.9],[126.1,36.9],[126.1,36.7],[126.2,36.7],[126.2,36.6],[126.3,36.6],[126.3,36.5],[126.4,36.5],[126.4,36.4],[126.5,36.4],[126.5,36.2],[126.6,36.2],[126.6,35.8],[126.5,35.8],[126.5,35.5],[126.4,35.5],[126.4,35.4],[126.3,35.4],[126.3,35.3],[126.2,35.3],[126.2,35.2],[126.1,35.2],[126.1,35.1],[126.0,35.1],[126.0,34.9],[125.9,34.9],[125.9,34.6],[126.0,34.6],[126.0,34.5],[126.1,34.5],[126.1,34.4],[126.5,34.4],[126.5,34.3],[126.6,34.3],[126.6,34.2],[126.9,34.2],[126.9,34.3],[127.0,34.3],[127.0,34.5],[127.1,34.5],[127.1,34.9],[127.2,34.9],[127.2,35.3],[127.3,35.3],[127.3,35.5],[127.4,35.5],[127.4,35.7],[127.5,35.7],[127.5,35.8],[127.6,35.8],[127.6,36.1],[127.7,36.1],[127.7,36.3],[127.8,36.3],[127.8,36.4],[127.9,36.4],[127.9,37.0]]],[[[132.4,33.9],[132.4,34.0],[132.6,34.0],[132.6,34.2],[132.9,34.2],[132.9,34.3],[133.3,34.3],[133.3,34.4],[133.8,34.4],[133.8,34.5],[134.2,34.5],[134.2,34.6],[134.4,34.6],[134.4,34.7],[134.5,34.7],[134.5,34.8],[134.8,34.8],[134.8,34.7],[135.0,34.7],[135.1,34.7],[135.1,34.6],[135.2,34.6],[135.2,34.4],[135.1,34.4],[135.1,33.9],[135.2,33.9],[135.2,33.8],[135.3,33.8],[135.3,33.7],[135.4,33.7],[135.4,33.6],[135.6,33.6],[135.6,33.5],[135.9,33.5],[135.9,33.6],[136.0,33.6],[136.0,33.7],[136.1,33.7],[136.1,33.9],[136.2,33.9],[136.2,34.0],[136.3,34.0],[136.3,34.2],[136.4,34.2],[136.4,34.3],[136.9,34.3],[136.9,34.6],[136.7,34.6],[136.7,34.9],[136.9,34.9],[136.9,34.8],[137.0,34.8],[137.0,34.7],[138.2,34.7],[138.2,34.8],[138.3,34.8],[138.3,34.9],[138.4,34.9],[138.4,35.0],[138.5,35.0],[138.5,35.1],[138.7,35.1],[138.7,35.0],[138.8,35.0],[138.8,34.8],[139.1,34.8],[139.1,34.9],[139.2,34.9],[139.2,35.3],[139.3,35.3],[139.3,35.4],[139.5,35.4],[139.5,35.3],[139.8,35.3],[139.8,35.1],[140.2,35.1],[140.2,35.2],[140.3,35.2],[140.3,35.3],[140.4,35.3],[140.4,35.5],[140.5,35.5],[140.5,35.6],[140.6,35.6],[140.6,35.7],[140.7,35.7],[140.7,35.8],[140.8,35.8],[140.8,36.0],[140.7,36.0],[140.7,36.2],[140.6,36.2],[140.6,36.4],[140.7,36.4],[140.7,36.7],[140.8,36.7],[140.8,36.9],[140.9,36.9],[140.9,37.0],[141.0,37.0],[141.0,37.1],[141.1,37.1],[141.1,37.8],[141.0,37.8],[141.0,37.7],[140.9,37.7],[140.9,37.8],[140.6,37.8],[140.6,37.7],[140.0,37.7],[140.0,37.9],[139.9,37.9],[139.9,38.0],[139.8,38.0],[139.8,38.5],[139.7,38.5],[139.7,38.7],[139.6,38.7],[139.6,38.6],[139.5,38.6],[139.5,38.4],[139.4,38.4],[139.4,38.2],[139.3,38.2],[139.3,38.1],[139.2,38.1],[139.2,38.0],[138.9,38.0],[138.9,37.9],[138.8,37.9],[138.8,37.7],[138.7,37.7],[138.7,37.6],[138.6,37.6],[138.6,37.5],[138.5,37.5],[138.5,37.4],[138.4,37.4],[138.4,37.3],[138.2,37.3],[138.2,37.2],[138.0,37.2],[138.0,37.1],[137.6,37.1],[137.6,37.0],[137.4,37.0],[137.4,36.9],[137.2,36.9],[137.2,37.0],[137.1,37.0],[137.1,37.2],[137.2,37.2],[137.2,37.5],[136.8,37.5],[136.8,37.4],[136.7,37.4],[136.7,37.1],[136.8,37.1],[136.8,36.9],[136.7,36.9],[136.7,36.7],[136.6,36.7],[136.6,36.6],[136.5,36.6],[136.5,36.5],[136.3,36.5],[136.3,36.4],[136.2,36.4],[136.2,36.3],[136.1,36.3],[136.1,36.2],[136.0,36.2],[136.0,35.8],[135.9,35.8],[135.9,35.7],[135.7,35.7],[135.7,35.6],[135.5,35.6],[135.5,35.7],[135.4,35.7],[135.4,35.8],[135.0,35.8],[135.0,35.7],[134.3,35.7],[134.3,35.6],[133.4,35.6],[133.4,35.7],[133.0,35.7],[133.0,35.6],[132.8,35.6],[132.8,35.5],[132.7,35.5],[132.7,35.4],[132.6,35.4],[132.6,35.3],[132.4,35.3],[132.4,35.2],[132.3,35.2],[132.3,35.1],[132.2,35.1],[132.2,35.0],[132.0,35.0],[132.0,34.9],[131.9,34.9],[131.9,34.8],[131.6,34.8],[131.6,34.7],[131.5,34.7],[131.5,34.6],[131.4,34.6],[131.4,34.5],[131.0,34.5],[131.0,34.4],[130.9,34.4],[130.9,34.0],[130.5,34.0],[130.5,33.9],[130.4,33.9],[130.4,33.8],[130.2,33.8],[130.2,33.7],[130.1,33.7],[130.1,33.6],[129.9,33.6],[129.9,33.7],[129.7,33.7],[129.7,33.5],[129.5,33.5],[129.5,33.4],[129.6,33.4],[129.6,33.0],[129.7,33.0],[129.7,32.8],[129.8,32.8],[129.8,32.7],[130.0,32.7],[130.0,32.8],[129.9,32.8],[129.9,33.0],[130.1,33.0],[130.1,32.7],[130.3,32.7],[130.3,32.9],[130.4,32.9],[130.4,33.0],[130.3,33.0],[130.3,33.1],[130.2,33.1],[130.2,33.2],[130.4,33.2],[130.4,33.1],[130.5,33.1],[130.5,32.9],[130.6,32.9],[130.6,32.8],[130.5,32.8],[130.5,32.7],[130.4,32.7],[130.4,32.6],[130.2,32.6],[130.2,32.5],[130.1,32.5],[130.1,32.1],[130.2,32.1],[130.2,31.8],[130.3,31.8],[130.3,31.5],[130.2,31.5],[130.2,31.4],[130.3,31.4],[130.3,31.3],[130.5,31.3],[130.5,31.2],[130.7,31.2],[130.7,31.4],[130.6,31.4],[130.6,31.6],[130.7,31.6],[130.7,31.5],[130.8,31.5],[130.8,31.6],[130.9,31.6],[130.9,31.5],[131.0,31.5],[131.0,31.4],[130.8,31.4],[130.8,31.2],[131.1,31.2],[131.1,31.3],[131.2,31.3],[131.2,31.4],[131.4,31.4],[131.4,31.5],[131.5,31.5],[131.5,32.1],[131.6,32.1],[131.6,32.4],[131.7,32.4],[131.7,32.5],[131.8,32.5],[131.8,32.7],[131.9,32.7],[131.9,32.8],[132.0,32.8],[132.0,33.3],[131.9,33.3],[131.9,33.4],[131.8,33.4],[131.8,33.7],[131.7,33.7],[131.7,33.8],[131.5,33.8],[131.5,33.7],[131.2,33.7],[131.2,33.9],[131.1,33.9],[131.1,34.0],[131.9,34.0],[131.9,33.9],[132.0,33.9],[132.0,33.8],[132.3,33.8],[132.3,33.9],[132.4,33.9]],[[139.9,35.3],[139.8,35.3],[139.8,35.4],[139.7,35.4],[139.7,35.5],[139.8,35.5],[139.8,35.7],[140.1,35.7],[140.1,35.6],[140.0,35.6],[140.0,35.5],[139.9,35.5],[139.9,35.3]]],[[[134.2,34.4],[134.2,34.3],[133.9,34.3],[133.9,34.4],[133.8,34.4],[133.8,34.3],[133.6,34.3],[133.6,34.1],[133.3,34.1],[133.3,34.2],[132.9,34.2],[132.9,34.1],[132.8,34.1],[132.8,34.0],[132.7,34.0],[132.7,33.8],[132.6,33.8],[132.6,33.7],[132.4,33.7],[132.4,33.6],[132.3,33.6],[132.3,33.4],[132.4,33.4],[132.4,33.1],[132.5,33.1],[132.5,33.0],[132.6,33.0],[132.6,32.9],[132.7,32.9],[132.7,32.8],[133.0,32.8],[133.0,32.9],[133.1,32.9],[133.1,33.1],[133.2,33.1],[133.2,33.2],[133.3,33.2],[133.3,33.3],[133.4,33.3],[133.4,33.4],[133.5,33.4],[133.5,33.5],[133.6,33.5],[133.6,33.6],[133.9,33.6],[133.9,33.5],[134.0,33.5],[134.0,33.4],[134.2,33.4],[134.2,33.5],[134.3,33.5],[134.3,33.6],[134.4,33.6],[134.4,33.7],[134.6,33.7],[134.6,33.8],[134.7,33.8],[134.7,34.2],[134.6,34.2],[134.6,34.3],[134.5,34.3],[134.5,34.4],[134.2,34.4]]],[[[134.8,34.5],[134.8,34.4],[134.7,34.4],[134.7,34.2],[134.9,34.2],[134.9,34.3],[135.0,34.3],[135.0,34.6],[134.9,34.6],[134.9,34.5],[134.8,34.5]]],[[[129.9,34.4],[129.9,34.6],[130.0,34.6],[130.0,34.7],[129.9,34.7],[129.9,34.8],[130.0,34.8],[130.0,35.0],[129.9,35.0],[129.9,34.9],[129.8,34.9],[129.8,34.7],[129.7,34.7],[129.7,34.3],[129.8,34.3],[129.8,34.4],[129.9,34.4]]],[[[138.6,38.1],[138.6,38.2],[138.5,38.2],[138.5,38.3],[138.6,38.3],[138.6,38.4],[138.4,38.4],[138.4,38.3],[138.3,38.3],[138.3,38.2],[138.2,38.2],[138.2,38.1],[138.3,38.1],[138.3,38.0],[138.2,38.0],[138.2,37.9],[138.4,37.9],[138.4,38.0],[138.5,38.0],[138.5,38.1],[138.6,38.1]]]]},"properties":{"start_year":660,"end_year":661,"source_color":"#ff9933","polity_id":null,"polity_assignment":"unverified","geometry_origin":"raster_color_trace_stitched","pixel_size_degrees":0.1,"sources":[{"feature_id":"50:657:#ff9933","tile_id":"50","start_year":657,"end_year":682,"source_image":"data/raw/toolbay/t/50/657.png","source_url":"https://www.toolbay.cc/history-map/t/50/657.png"},{"feature_id":"51:657:#ff9933","tile_id":"51","start_year":657,"end_year":670,"source_image":"data/raw/toolbay/t/51/657.png","source_url":"https://www.toolbay.cc/history-map/t/51/657.png"},{"feature_id":"60:654:#ff9933","tile_id":"60","start_year":654,"end_year":682,"source_image":"data/raw/toolbay/t/60/654.png","source_url":"https://www.toolbay.cc/history-map/t/60/654.png"},{"feature_id":"61:660:#ff9933","tile_id":"61","start_year":660,"end_year":661,"source_image":"data/raw/toolbay/t/61/660.png","source_url":"https://www.toolbay.cc/history-map/t/61/660.png"},{"feature_id":"71:600:#ff9933","tile_id":"71","start_year":600,"end_year":750,"source_image":"data/raw/toolbay/t/71/600.png","source_url":"https://www.toolbay.cc/history-map/t/71/600.png"}]}},{"type":"Feature","id":"merged:660:#ffff00","bbox":[63.3,8.2,109.5,32.8],"geometry":{"type":"MultiPolygon","coordinates":[[[[107.7,16.6],[107.7,16.7],[107.5,16.7],[107.5,16.6],[107.4,16.6],[107.4,16.5],[107.3,16.5],[107.3,16.4],[107.2,16.4],[107.2,16.3],[107.0,16.3],[107.0,16.2],[106.8,16.2],[106.8,16.1],[106.6,16.1],[106.6,16.0],[105.8,16.0],[105.8,15.9],[105.9,15.9],[105.9,15.8],[106.0,15.8],[106.0,15.7],[106.1,15.7],[106.1,15.6],[106.2,15.6],[106.2,15.5],[106.3,15.5],[106.3,15.4],[106.4,15.4],[106.4,15.3],[106.5,15.3],[106.5,15.2],[106.6,15.2],[106.6,15.1],[106.7,15.1],[106.7,15.0],[106.9,15.0],[106.9,14.9],[107.0,14.9],[107.0,14.8],[107.1,14.8],[107.1,14.7],[107.2,14.7],[107.2,14.6],[107.3,14.6],[107.3,14.5],[107.4,14.5],[107.4,14.4],[107.5,14.4],[107.5,14.2],[107.6,14.2],[107.6,14.0],[107.7,14.0],[107.7,12.8],[107.6,12.8],[107.6,12.6],[107.5,12.6],[107.5,12.3],[107.4,12.3],[107.4,12.0],[107.3,12.0],[107.3,11.8],[107.2,11.8],[107.2,11.7],[107.1,11.7],[107.1,11.6],[107.0,11.6],[107.0,11.4],[106.9,11.4],[106.9,11.3],[106.8,11.3],[106.8,11.1],[106.7,11.1],[106.7,10.9],[106.6,10.9],[106.6,10.8],[106.7,10.8],[106.7,10.7],[106.8,10.7],[106.8,10.6],[106.9,10.6],[106.9,10.5],[107.1,10.5],[107.1,10.4],[107.3,10.4],[107.3,10.5],[107.5,10.5],[107.5,10.6],[107.7,10.6],[107.7,10.7],[108.0,10.7],[108.0,10.8],[108.1,10.8],[108.1,10.9],[108.2,10.9],[108.2,11.0],[108.4,11.0],[108.4,11.1],[108.5,11.1],[108.5,11.2],[108.7,11.2],[108.7,11.3],[108.9,11.3],[108.9,11.4],[109.0,11.4],[109.0,11.5],[109.1,11.5],[109.1,11.6],[109.2,11.6],[109.2,11.7],[109.3,11.7],[109.3,12.3],[109.4,12.3],[109.4,12.6],[109.5,12.6],[109.5,13.1],[109.4,13.1],[109.4,13.7],[109.3,13.7],[109.3,14.3],[109.2,14.3],[109.2,14.6],[109.1,14.6],[109.1,14.9],[109.0,14.9],[109.0,15.3],[108.9,15.3],[108.9,15.4],[108.8,15.4],[108.8,15.5],[108.7,15.5],[108.7,15.6],[108.6,15.6],[108.6,15.7],[108.5,15.7],[108.5,15.9],[108.4,15.9],[108.4,16.0],[108.3,16.0],[108.3,16.2],[108.2,16.2],[108.2,16.3],[108.1,16.3],[108.1,16.4],[107.9,16.4],[107.9,16.5],[107.8,16.5],[107.8,16.6],[107.7,16.6]]],[[[75.5,19.0],[75.5,19.1],[75.1,19.1],[75.1,19.2],[75.0,19.2],[75.0,19.0],[74.9,19.0],[74.9,18.8],[74.8,18.8],[74.8,18.6],[74.7,18.6],[74.7,18.4],[74.6,18.4],[74.6,18.2],[74.5,18.2],[74.5,18.0],[74.4,18.0],[74.4,17.8],[74.3,17.8],[74.3,17.6],[74.2,17.6],[74.2,17.5],[74.1,17.5],[74.1,17.3],[74.0,17.3],[74.0,17.0],[73.9,17.0],[73.9,16.9],[73.8,16.9],[73.8,16.6],[73.7,16.6],[73.7,16.0],[73.6,16.0],[73.6,15.9],[73.7,15.9],[73.7,15.6],[73.8,15.6],[73.8,15.4],[73.9,15.4],[73.9,15.1],[74.0,15.1],[74.0,15.0],[74.1,15.0],[74.1,14.9],[74.2,14.9],[74.2,14.7],[74.3,14.7],[74.3,14.5],[74.4,14.5],[74.4,14.3],[74.5,14.3],[74.5,14.0],[74.6,14.0],[74.6,13.7],[74.7,13.7],[74.7,13.3],[74.8,13.3],[74.8,12.8],[74.9,12.8],[74.9,12.6],[75.0,12.6],[75.0,12.4],[75.1,12.4],[75.1,12.2],[75.2,12.2],[75.2,12.0],[75.3,12.0],[75.3,11.9],[75.4,11.9],[75.4,11.8],[75.5,11.8],[75.5,11.7],[75.6,11.7],[75.6,11.5],[75.7,11.5],[75.7,11.3],[75.8,11.3],[75.8,11.1],[75.9,11.1],[75.9,10.8],[76.0,10.8],[76.0,10.5],[76.1,10.5],[76.1,10.3],[76.2,10.3],[76.2,9.9],[76.3,9.9],[76.3,9.5],[76.4,9.5],[76.4,9.2],[76.5,9.2],[76.5,9.0],[76.6,9.0],[76.6,8.9],[76.7,8.9],[76.7,8.8],[76.8,8.8],[76.8,8.7],[76.9,8.7],[76.9,8.5],[77.0,8.5],[77.0,8.4],[77.1,8.4],[77.1,8.3],[77.2,8.3],[77.2,8.2],[77.8,8.2],[77.8,8.3],[78.0,8.3],[78.0,8.4],[78.1,8.4],[78.1,8.5],[78.2,8.5],[78.2,8.9],[78.3,8.9],[78.3,9.1],[78.4,9.1],[78.4,9.2],[78.8,9.2],[78.8,9.3],[78.9,9.3],[78.9,9.4],[79.0,9.4],[79.0,9.8],[79.1,9.8],[79.1,9.9],[79.2,9.9],[79.2,10.0],[79.3,10.0],[79.3,10.3],[79.4,10.3],[79.4,10.4],[79.6,10.4],[79.6,10.3],[79.8,10.3],[79.8,10.4],[79.9,10.4],[79.9,11.5],[79.8,11.5],[79.8,11.9],[79.9,11.9],[79.9,12.2],[80.0,12.2],[80.0,12.3],[80.1,12.3],[80.1,12.5],[80.2,12.5],[80.2,12.7],[80.3,12.7],[80.3,13.1],[80.4,13.1],[80.4,13.6],[80.3,13.6],[80.3,14.0],[80.2,14.0],[80.2,14.9],[80.1,14.9],[80.1,15.4],[80.2,15.4],[80.2,15.5],[80.3,15.5],[80.3,15.7],[80.4,15.7],[80.4,15.8],[80.5,15.8],[80.5,15.9],[80.4,15.9],[80.4,16.1],[80.3,16.1],[80.3,16.2],[80.2,16.2],[80.2,16.3],[80.1,16.3],[80.1,16.4],[79.9,16.4],[79.9,16.5],[79.8,16.5],[79.8,16.6],[79.7,16.6],[79.7,16.7],[79.6,16.7],[79.6,16.9],[79.5,16.9],[79.5,17.1],[79.4,17.1],[79.4,17.3],[79.3,17.3],[79.3,17.9],[79.4,17.9],[79.4,18.1],[79.5,18.1],[79.5,18.2],[79.4,18.2],[79.4,18.3],[79.3,18.3],[79.3,18.4],[79.2,18.4],[79.2,18.5],[79.1,18.5],[79.1,18.6],[79.0,18.6],[79.0,18.7],[78.9,18.7],[78.9,18.8],[78.6,18.8],[78.6,18.9],[78.4,18.9],[78.4,19.0],[77.9,19.0],[77.9,18.9],[76.2,18.9],[76.2,19.0],[75.5,19.0]]],[[[71.8,32.4],[71.8,32.6],[71.9,32.6],[71.9,32.8],[70.9,32.8],[70.9,32.7],[70.4,32.7],[70.4,32.6],[70.1,32.6],[70.1,32.5],[69.8,32.5],[69.8,32.4],[69.3,32.4],[69.3,32.3],[68.9,32.3],[68.9,32.2],[68.5,32.2],[68.5,32.1],[67.9,32.1],[67.9,32.0],[67.2,32.0],[67.2,31.9],[65.7,31.9],[65.7,31.8],[65.4,31.8],[65.4,31.4],[65.3,31.4],[65.3,30.7],[65.2,30.7],[65.2,30.6],[65.1,30.6],[65.1,30.5],[65.0,30.5],[65.0,30.3],[64.9,30.3],[64.9,30.2],[64.8,30.2],[64.8,30.0],[64.7,30.0],[64.7,29.9],[64.6,29.9],[64.6,29.6],[64.5,29.6],[64.5,29.4],[64.4,29.4],[64.4,29.3],[64.3,29.3],[64.3,28.8],[64.2,28.8],[64.2,28.5],[64.1,28.5],[64.1,28.3],[64.0,28.3],[64.0,28.0],[63.9,28.0],[63.9,27.7],[63.8,27.7],[63.8,27.3],[63.7,27.3],[63.7,27.0],[63.6,27.0],[63.6,26.7],[63.5,26.7],[63.5,26.2],[63.4,26.2],[63.4,25.5],[63.3,25.5],[63.3,25.3],[63.6,25.3],[63.6,25.4],[64.2,25.4],[64.2,25.3],[64.8,25.3],[64.8,25.4],[65.0,25.4],[65.0,25.3],[65.2,25.3],[65.2,25.4],[66.0,25.4],[66.0,25.5],[66.5,25.5],[66.5,25.4],[66.6,25.4],[66.6,25.3],[66.7,25.3],[66.7,25.0],[66.8,25.0],[66.8,24.9],[67.0,24.9],[67.0,24.8],[67.1,24.8],[67.1,24.7],[67.2,24.7],[67.2,24.5],[67.3,24.5],[67.3,24.2],[67.4,24.2],[67.4,24.1],[67.5,24.1],[67.5,23.9],[67.6,23.9],[67.6,23.8],[68.1,23.8],[68.1,23.9],[68.2,23.9],[68.2,24.1],[68.3,24.1],[68.3,24.2],[68.4,24.2],[68.4,24.4],[68.5,24.4],[68.5,24.5],[68.6,24.5],[68.6,24.7],[68.7,24.7],[68.7,24.9],[68.8,24.9],[68.8,25.1],[68.9,25.1],[68.9,25.2],[69.0,25.2],[69.0,25.5],[69.1,25.5],[69.1,25.7],[69.2,25.7],[69.2,25.9],[69.3,25.9],[69.3,26.3],[69.4,26.3],[69.4,26.6],[69.5,26.6],[69.5,27.0],[69.6,27.0],[69.6,27.3],[69.7,27.3],[69.7,27.6],[69.8,27.6],[69.8,28.0],[69.9,28.0],[69.9,28.1],[69.8,28.1],[69.8,28.4],[69.9,28.4],[69.9,28.7],[70.0,28.7],[70.0,29.1],[70.1,29.1],[70.1,29.5],[70.2,29.5],[70.2,29.7],[70.3,29.7],[70.3,29.9],[70.4,29.9],[70.4,30.2],[70.5,30.2],[70.5,30.3],[70.6,30.3],[70.6,30.5],[70.7,30.5],[70.7,30.7],[70.8,30.7],[70.8,31.0],[70.9,31.0],[70.9,31.2],[71.0,31.2],[71.0,31.4],[71.1,31.4],[71.1,31.6],[71.0,31.6],[71.0,31.8],[71.1,31.8],[71.1,31.9],[71.3,31.9],[71.3,32.0],[71.4,32.0],[71.4,32.1],[71.5,32.1],[71.5,32.2],[71.6,32.2],[71.6,32.3],[71.7,32.3],[71.7,32.4],[71.8,32.4]],[[67.7,24.1],[67.6,24.1],[67.6,24.2],[67.7,24.2],[67.7,24.3],[67.9,24.3],[67.9,24.0],[67.7,24.0],[67.7,24.1]]]]},"properties":{"start_year":660,"end_year":661,"source_color":"#ffff00","polity_id":null,"polity_assignment":"unverified","geometry_origin":"raster_color_trace_stitched","pixel_size_degrees":0.1,"sources":[{"feature_id":"51:657:#ffff00","tile_id":"51","start_year":657,"end_year":670,"source_image":"data/raw/toolbay/t/51/657.png","source_url":"https://www.toolbay.cc/history-map/t/51/657.png"},{"feature_id":"61:660:#ffff00","tile_id":"61","start_year":660,"end_year":661,"source_image":"data/raw/toolbay/t/61/660.png","source_url":"https://www.toolbay.cc/history-map/t/61/660.png"}]}}]}
