{"type":"FeatureCollection","features":[{"type":"Feature","id":"51:-133:#009900","bbox":[60.0,40.8,74.0,45.0],"geometry":{"type":"Polygon","coordinates":[[[60.1,43.8],[60.0,43.8],[60.0,41.8],[60.1,41.8],[60.1,41.7],[60.4,41.7],[60.4,41.6],[60.6,41.6],[60.6,41.5],[60.8,41.5],[60.8,41.4],[61.1,41.4],[61.1,41.3],[61.3,41.3],[61.3,41.2],[61.5,41.2],[61.5,41.1],[61.9,41.1],[61.9,41.0],[62.0,41.0],[62.0,40.9],[62.2,40.9],[62.2,40.8],[62.7,40.8],[62.7,40.9],[63.2,40.9],[63.2,41.0],[63.5,41.0],[63.5,41.1],[64.1,41.1],[64.1,41.2],[64.3,41.2],[64.3,41.3],[64.6,41.3],[64.6,41.4],[65.0,41.4],[65.0,41.5],[65.1,41.5],[65.1,41.6],[66.0,41.6],[66.0,41.7],[66.8,41.7],[66.8,41.8],[67.1,41.8],[67.1,41.9],[67.3,41.9],[67.3,42.0],[67.7,42.0],[67.7,42.2],[67.9,42.2],[67.9,42.3],[68.0,42.3],[68.0,42.5],[69.0,42.5],[69.0,42.6],[68.9,42.6],[68.9,42.8],[68.8,42.8],[68.8,43.2],[68.7,43.2],[68.7,43.8],[68.6,43.8],[68.6,44.3],[68.7,44.3],[68.7,44.7],[68.8,44.7],[68.8,44.8],[69.4,44.8],[69.4,44.9],[69.6,44.9],[69.6,44.8],[69.9,44.8],[69.9,44.7],[70.5,44.7],[70.5,44.6],[71.1,44.6],[71.1,44.5],[71.6,44.5],[71.6,44.4],[72.9,44.4],[72.9,44.5],[73.0,44.5],[73.0,44.6],[73.2,44.6],[73.2,44.7],[73.4,44.7],[73.4,44.8],[73.6,44.8],[73.6,44.9],[74.0,44.9],[74.0,45.0],[61.4,45.0],[61.4,44.9],[61.3,44.9],[61.3,44.8],[61.1,44.8],[61.1,44.7],[61.0,44.7],[61.0,44.5],[60.9,44.5],[60.9,44.3],[60.8,44.3],[60.8,44.2],[60.6,44.2],[60.6,44.1],[60.3,44.1],[60.3,44.0],[60.2,44.0],[60.2,43.9],[60.1,43.9],[60.1,43.8]]]},"properties":{"tile_id":"51","start_year":-133,"end_year":-103,"source_image":"data/raw/toolbay/t/51/-133.png","source_url":"https://www.toolbay.cc/history-map/t/51/-133.png","source_color":"#009900","polity_id":null,"polity_assignment":"unverified","geometry_origin":"raster_color_trace","pixel_size_degrees":0.1,"source_color_pixels":3864,"simplification_degrees":0}},{"type":"Feature","id":"51:-133:#00ff00","bbox":[71.4,10.3,80.4,43.2],"geometry":{"type":"MultiPolygon","coordinates":[[[[77.3,14.3],[77.3,14.4],[76.6,14.4],[76.6,14.3],[75.9,14.3],[75.9,14.2],[75.1,14.2],[75.1,14.1],[74.5,14.1],[74.5,14.0],[74.6,14.0],[74.6,13.7],[74.7,13.7],[74.7,13.6],[75.0,13.6],[75.0,13.5],[75.4,13.5],[75.4,13.4],[75.8,13.4],[75.8,13.3],[75.9,13.3],[75.9,13.2],[76.0,13.2],[76.0,13.1],[76.1,13.1],[76.1,13.0],[76.2,13.0],[76.2,12.9],[76.3,12.9],[76.3,12.8],[76.5,12.8],[76.5,12.7],[76.6,12.7],[76.6,12.6],[76.7,12.6],[76.7,12.5],[76.8,12.5],[76.8,12.4],[76.9,12.4],[76.9,12.3],[77.0,12.3],[77.0,12.2],[77.2,12.2],[77.2,12.1],[77.3,12.1],[77.3,12.0],[77.4,12.0],[77.4,11.9],[77.5,11.9],[77.5,11.7],[77.7,11.7],[77.7,11.6],[77.8,11.6],[77.8,11.4],[77.9,11.4],[77.9,11.3],[78.0,11.3],[78.0,11.2],[78.1,11.2],[78.1,11.1],[78.2,11.1],[78.2,10.9],[78.4,10.9],[78.4,10.8],[78.5,10.8],[78.5,10.7],[78.6,10.7],[78.6,10.6],[78.8,10.6],[78.8,10.5],[79.4,10.5],[79.4,10.4],[79.6,10.4],[79.6,10.3],[79.8,10.3],[79.8,10.4],[79.9,10.4],[79.9,11.5],[79.8,11.5],[79.8,11.9],[79.9,11.9],[79.9,12.2],[80.0,12.2],[80.0,12.3],[80.1,12.3],[80.1,12.5],[80.2,12.5],[80.2,12.7],[80.3,12.7],[80.3,13.1],[80.4,13.1],[80.4,13.6],[80.3,13.6],[80.3,13.9],[79.6,13.9],[79.6,14.0],[79.4,14.0],[79.4,14.1],[78.5,14.1],[78.5,14.2],[78.0,14.2],[78.0,14.3],[77.3,14.3]]],[[[73.4,43.1],[73.4,43.2],[72.6,43.2],[72.6,43.1],[72.4,43.1],[72.4,43.0],[71.9,43.0],[71.9,42.8],[71.8,42.8],[71.8,42.5],[71.7,42.5],[71.7,41.6],[71.6,41.6],[71.6,41.2],[71.5,41.2],[71.5,40.5],[71.4,40.5],[71.4,40.0],[71.5,40.0],[71.5,39.9],[71.6,39.9],[71.6,39.6],[71.7,39.6],[71.7,39.5],[71.9,39.5],[71.9,39.4],[72.0,39.4],[72.0,39.3],[72.1,39.3],[72.1,39.2],[72.2,39.2],[72.2,39.1],[72.3,39.1],[72.3,39.0],[72.5,39.0],[72.5,38.9],[72.7,38.9],[72.7,38.8],[73.2,38.8],[73.2,38.9],[73.3,38.9],[73.3,39.0],[73.5,39.0],[73.5,39.1],[73.6,39.1],[73.6,39.2],[73.7,39.2],[73.7,39.3],[73.8,39.3],[73.8,39.4],[74.0,39.4],[74.0,39.7],[74.1,39.7],[74.1,40.0],[74.2,40.0],[74.2,40.1],[74.3,40.1],[74.3,40.3],[74.4,40.3],[74.4,40.6],[74.5,40.6],[74.5,40.7],[74.6,40.7],[74.6,41.0],[74.7,41.0],[74.7,41.3],[74.8,41.3],[74.8,41.8],[74.9,41.8],[74.9,42.3],[74.8,42.3],[74.8,42.6],[74.7,42.6],[74.7,42.8],[74.6,42.8],[74.6,43.0],[74.5,43.0],[74.5,43.1],[73.4,43.1]]]]},"properties":{"tile_id":"51","start_year":-133,"end_year":-103,"source_image":"data/raw/toolbay/t/51/-133.png","source_url":"https://www.toolbay.cc/history-map/t/51/-133.png","source_color":"#00ff00","polity_id":null,"polity_assignment":"unverified","geometry_origin":"raster_color_trace","pixel_size_degrees":0.1,"source_color_pixels":5883,"simplification_degrees":0}},{"type":"Feature","id":"51:-133:#00ffff","bbox":[68.6,42.5,72.8,44.9],"geometry":{"type":"Polygon","coordinates":[[[69.6,44.9],[69.4,44.9],[69.4,44.8],[68.8,44.8],[68.8,44.7],[68.7,44.7],[68.7,44.3],[68.6,44.3],[68.6,43.8],[68.7,43.8],[68.7,43.2],[68.8,43.2],[68.8,42.8],[68.9,42.8],[68.9,42.6],[69.0,42.6],[69.0,42.5],[71.8,42.5],[71.8,42.8],[71.9,42.8],[71.9,43.0],[72.4,43.0],[72.4,43.1],[72.6,43.1],[72.6,43.2],[72.7,43.2],[72.7,43.6],[72.8,43.6],[72.8,44.4],[71.6,44.4],[71.6,44.5],[71.1,44.5],[71.1,44.6],[70.5,44.6],[70.5,44.7],[69.9,44.7],[69.9,44.8],[69.6,44.8],[69.6,44.9]]]},"properties":{"tile_id":"51","start_year":-133,"end_year":-103,"source_image":"data/raw/toolbay/t/51/-133.png","source_url":"https://www.toolbay.cc/history-map/t/51/-133.png","source_color":"#00ffff","polity_id":null,"polity_assignment":"unverified","geometry_origin":"raster_color_trace","pixel_size_degrees":0.1,"source_color_pixels":799,"simplification_degrees":0}},{"type":"Feature","id":"51:-133:#6666ff","bbox":[73.6,36.9,90.0,45.0],"geometry":{"type":"Polygon","coordinates":[[[90.0,45.0],[78.5,45.0],[78.5,44.9],[78.3,44.9],[78.3,44.8],[78.1,44.8],[78.1,44.7],[78.0,44.7],[78.0,44.5],[77.9,44.5],[77.9,44.4],[77.7,44.4],[77.7,44.2],[77.4,44.2],[77.4,44.1],[77.2,44.1],[77.2,44.0],[76.9,44.0],[76.9,43.9],[76.8,43.9],[76.8,43.8],[76.6,43.8],[76.6,43.7],[76.3,43.7],[76.3,43.6],[76.0,43.6],[76.0,43.5],[75.8,43.5],[75.8,43.4],[75.6,43.4],[75.6,43.3],[75.1,43.3],[75.1,43.2],[74.8,43.2],[74.8,43.1],[74.5,43.1],[74.5,43.0],[74.6,43.0],[74.6,42.8],[74.7,42.8],[74.7,42.6],[74.8,42.6],[74.8,42.3],[74.9,42.3],[74.9,41.8],[74.8,41.8],[74.8,41.3],[74.7,41.3],[74.7,41.0],[74.6,41.0],[74.6,40.7],[74.5,40.7],[74.5,40.6],[74.4,40.6],[74.4,40.3],[74.3,40.3],[74.3,40.1],[74.2,40.1],[74.2,40.0],[74.1,40.0],[74.1,39.7],[74.0,39.7],[74.0,39.4],[73.8,39.4],[73.8,39.3],[73.7,39.3],[73.7,39.2],[73.6,39.2],[73.6,39.1],[73.8,39.1],[73.8,39.0],[73.9,39.0],[73.9,38.9],[74.2,38.9],[74.2,38.8],[74.3,38.8],[74.3,38.7],[74.4,38.7],[74.4,38.6],[74.7,38.6],[74.7,38.5],[74.9,38.5],[74.9,38.4],[75.1,38.4],[75.1,38.3],[75.3,38.3],[75.3,38.2],[75.6,38.2],[75.6,38.1],[75.8,38.1],[75.8,38.0],[76.0,38.0],[76.0,37.9],[76.3,37.9],[76.3,37.8],[76.4,37.8],[76.4,37.7],[76.5,37.7],[76.5,37.6],[76.6,37.6],[76.6,37.5],[77.0,37.5],[77.0,37.4],[77.5,37.4],[77.5,37.3],[77.7,37.3],[77.7,37.2],[78.3,37.2],[78.3,37.1],[78.7,37.1],[78.7,37.0],[79.9,37.0],[79.9,36.9],[80.8,36.9],[80.8,37.0],[82.4,37.0],[82.4,37.1],[82.7,37.1],[82.7,37.2],[83.9,37.2],[83.9,37.3],[84.7,37.3],[84.7,37.4],[84.9,37.4],[84.9,37.5],[85.2,37.5],[85.2,37.6],[85.4,37.6],[85.4,37.8],[85.9,37.8],[85.9,37.9],[86.3,37.9],[86.3,38.0],[86.9,38.0],[86.9,38.1],[87.1,38.1],[87.1,38.2],[87.3,38.2],[87.3,38.3],[87.5,38.3],[87.5,38.4],[87.6,38.4],[87.6,38.5],[87.8,38.5],[87.8,38.6],[88.0,38.6],[88.0,38.7],[88.2,38.7],[88.2,38.8],[89.7,38.8],[89.7,38.9],[90.0,38.9],[90.0,45.0]]]},"properties":{"tile_id":"51","start_year":-133,"end_year":-103,"source_image":"data/raw/toolbay/t/51/-133.png","source_url":"https://www.toolbay.cc/history-map/t/51/-133.png","source_color":"#6666ff","polity_id":null,"polity_assignment":"unverified","geometry_origin":"raster_color_trace","pixel_size_degrees":0.1,"source_color_pixels":10923,"simplification_degrees":0}},{"type":"Feature","id":"51:-133:#9999ff","bbox":[66.4,29.9,75.4,37.0],"geometry":{"type":"Polygon","coordinates":[[[72.0,37.0],[69.7,37.0],[69.7,36.9],[69.4,36.9],[69.4,36.8],[69.1,36.8],[69.1,36.7],[68.7,36.7],[68.7,36.6],[68.4,36.6],[68.4,36.5],[68.1,36.5],[68.1,36.4],[67.9,36.4],[67.9,36.3],[67.5,36.3],[67.5,36.2],[67.3,36.2],[67.3,36.1],[67.0,36.1],[67.0,36.0],[66.8,36.0],[66.8,35.9],[66.6,35.9],[66.6,35.8],[66.4,35.8],[66.4,35.6],[66.5,35.6],[66.5,35.5],[66.6,35.5],[66.6,35.4],[66.7,35.4],[66.7,35.3],[66.8,35.3],[66.8,35.2],[67.0,35.2],[67.0,35.0],[67.1,35.0],[67.1,34.9],[67.2,34.9],[67.2,34.8],[67.3,34.8],[67.3,34.5],[67.2,34.5],[67.2,34.2],[67.1,34.2],[67.1,34.1],[67.0,34.1],[67.0,34.0],[66.9,34.0],[66.9,33.9],[66.8,33.9],[66.8,33.7],[67.0,33.7],[67.0,33.6],[67.1,33.6],[67.1,33.5],[67.6,33.5],[67.6,33.4],[68.0,33.4],[68.0,33.3],[68.3,33.3],[68.3,33.2],[68.7,33.2],[68.7,33.1],[68.8,33.1],[68.8,33.0],[69.0,33.0],[69.0,32.9],[69.1,32.9],[69.1,32.8],[69.3,32.8],[69.3,32.7],[69.4,32.7],[69.4,32.6],[69.5,32.6],[69.5,32.5],[69.6,32.5],[69.6,32.4],[69.8,32.4],[69.8,32.3],[69.9,32.3],[69.9,32.2],[70.0,32.2],[70.0,32.1],[70.1,32.1],[70.1,32.0],[70.3,32.0],[70.3,31.9],[70.4,31.9],[70.4,31.8],[70.6,31.8],[70.6,31.7],[70.8,31.7],[70.8,31.6],[70.9,31.6],[70.9,31.5],[71.0,31.5],[71.0,31.4],[71.2,31.4],[71.2,31.3],[71.3,31.3],[71.3,31.2],[71.4,31.2],[71.4,31.1],[71.5,31.1],[71.5,31.0],[71.6,31.0],[71.6,30.9],[71.7,30.9],[71.7,30.8],[71.8,30.8],[71.8,30.6],[71.9,30.6],[71.9,30.5],[72.0,30.5],[72.0,30.4],[72.1,30.4],[72.1,30.2],[72.3,30.2],[72.3,30.1],[72.4,30.1],[72.4,30.0],[72.6,30.0],[72.6,29.9],[73.3,29.9],[73.3,30.0],[73.5,30.0],[73.5,30.1],[73.6,30.1],[73.6,30.2],[73.8,30.2],[73.8,30.3],[73.9,30.3],[73.9,30.4],[74.1,30.4],[74.1,30.5],[74.2,30.5],[74.2,30.6],[74.3,30.6],[74.3,30.7],[74.4,30.7],[74.4,30.8],[74.5,30.8],[74.5,30.9],[74.6,30.9],[74.6,31.0],[74.7,31.0],[74.7,31.2],[74.9,31.2],[74.9,31.4],[75.0,31.4],[75.0,31.6],[75.1,31.6],[75.1,31.7],[75.2,31.7],[75.2,31.9],[75.3,31.9],[75.3,32.1],[75.4,32.1],[75.4,32.4],[75.3,32.4],[75.3,32.6],[75.2,32.6],[75.2,32.8],[75.1,32.8],[75.1,33.1],[75.0,33.1],[75.0,33.3],[74.9,33.3],[74.9,33.5],[74.8,33.5],[74.8,33.7],[74.7,33.7],[74.7,34.0],[74.6,34.0],[74.6,34.2],[74.5,34.2],[74.5,34.4],[74.4,34.4],[74.4,34.5],[74.3,34.5],[74.3,34.6],[74.2,34.6],[74.2,34.8],[74.1,34.8],[74.1,34.9],[74.0,34.9],[74.0,35.1],[73.9,35.1],[73.9,35.2],[73.8,35.2],[73.8,35.3],[73.7,35.3],[73.7,35.4],[73.6,35.4],[73.6,35.5],[73.4,35.5],[73.4,35.6],[73.3,35.6],[73.3,35.7],[73.2,35.7],[73.2,35.8],[73.1,35.8],[73.1,36.0],[73.0,36.0],[73.0,36.1],[72.9,36.1],[72.9,36.2],[72.8,36.2],[72.8,36.3],[72.7,36.3],[72.7,36.4],[72.6,36.4],[72.6,36.6],[72.5,36.6],[72.5,36.7],[72.3,36.7],[72.3,36.8],[72.2,36.8],[72.2,36.9],[72.0,36.9],[72.0,37.0]]]},"properties":{"tile_id":"51","start_year":-133,"end_year":-103,"source_image":"data/raw/toolbay/t/51/-133.png","source_url":"https://www.toolbay.cc/history-map/t/51/-133.png","source_color":"#9999ff","polity_id":null,"polity_assignment":"unverified","geometry_origin":"raster_color_trace","pixel_size_degrees":0.1,"source_color_pixels":3744,"simplification_degrees":0}},{"type":"Feature","id":"51:-133:#ff0000","bbox":[61.8,8.2,79.4,42.5],"geometry":{"type":"MultiPolygon","coordinates":[[[[75.0,13.5],[75.0,13.6],[74.7,13.6],[74.7,13.3],[74.8,13.3],[74.8,12.8],[74.9,12.8],[74.9,12.6],[75.0,12.6],[75.0,12.4],[75.1,12.4],[75.1,12.2],[75.2,12.2],[75.2,12.0],[75.3,12.0],[75.3,11.9],[75.4,11.9],[75.4,11.8],[75.5,11.8],[75.5,11.7],[75.6,11.7],[75.6,11.5],[75.7,11.5],[75.7,11.3],[75.8,11.3],[75.8,11.1],[75.9,11.1],[75.9,10.8],[76.0,10.8],[76.0,10.5],[76.1,10.5],[76.1,10.3],[76.2,10.3],[76.2,9.9],[76.3,9.9],[76.3,9.5],[76.4,9.5],[76.4,9.2],[76.5,9.2],[76.5,9.0],[76.6,9.0],[76.6,8.9],[76.7,8.9],[76.7,8.8],[76.8,8.8],[76.8,8.7],[76.9,8.7],[76.9,8.5],[77.0,8.5],[77.0,8.4],[77.1,8.4],[77.1,8.3],[77.2,8.3],[77.2,8.2],[77.8,8.2],[77.8,8.3],[78.0,8.3],[78.0,8.4],[78.1,8.4],[78.1,8.5],[78.2,8.5],[78.2,8.9],[78.3,8.9],[78.3,9.1],[78.4,9.1],[78.4,9.2],[78.8,9.2],[78.8,9.3],[78.9,9.3],[78.9,9.4],[79.0,9.4],[79.0,9.8],[79.1,9.8],[79.1,9.9],[79.2,9.9],[79.2,10.0],[79.3,10.0],[79.3,10.3],[79.4,10.3],[79.4,10.5],[78.8,10.5],[78.8,10.6],[78.6,10.6],[78.6,10.7],[78.5,10.7],[78.5,10.8],[78.4,10.8],[78.4,10.9],[78.2,10.9],[78.2,11.1],[78.1,11.1],[78.1,11.2],[78.0,11.2],[78.0,11.3],[77.9,11.3],[77.9,11.4],[77.8,11.4],[77.8,11.6],[77.7,11.6],[77.7,11.7],[77.5,11.7],[77.5,11.9],[77.4,11.9],[77.4,12.0],[77.3,12.0],[77.3,12.1],[77.2,12.1],[77.2,12.2],[77.0,12.2],[77.0,12.3],[76.9,12.3],[76.9,12.4],[76.8,12.4],[76.8,12.5],[76.7,12.5],[76.7,12.6],[76.6,12.6],[76.6,12.7],[76.5,12.7],[76.5,12.8],[76.3,12.8],[76.3,12.9],[76.2,12.9],[76.2,13.0],[76.1,13.0],[76.1,13.1],[76.0,13.1],[76.0,13.2],[75.9,13.2],[75.9,13.3],[75.8,13.3],[75.8,13.4],[75.4,13.4],[75.4,13.5],[75.0,13.5]]],[[[71.7,41.6],[71.7,42.5],[68.0,42.5],[68.0,42.3],[67.9,42.3],[67.9,42.2],[67.7,42.2],[67.7,42.0],[67.3,42.0],[67.3,41.9],[67.1,41.9],[67.1,41.8],[66.8,41.8],[66.8,41.7],[66.0,41.7],[66.0,41.6],[65.1,41.6],[65.1,41.5],[65.0,41.5],[65.0,41.4],[64.6,41.4],[64.6,41.3],[64.3,41.3],[64.3,41.2],[64.1,41.2],[64.1,41.1],[63.5,41.1],[63.5,41.0],[63.2,41.0],[63.2,40.9],[62.7,40.9],[62.7,40.8],[62.2,40.8],[62.2,40.9],[62.0,40.9],[62.0,41.0],[61.9,41.0],[61.9,40.9],[61.8,40.9],[61.8,39.9],[61.9,39.9],[61.9,39.1],[62.0,39.1],[62.0,38.9],[62.1,38.9],[62.1,38.7],[62.2,38.7],[62.2,38.6],[62.3,38.6],[62.3,38.5],[62.4,38.5],[62.4,38.3],[62.5,38.3],[62.5,38.0],[62.6,38.0],[62.6,37.8],[62.7,37.8],[62.7,37.6],[62.8,37.6],[62.8,37.4],[62.9,37.4],[62.9,37.2],[63.0,37.2],[63.0,37.1],[63.1,37.1],[63.1,37.0],[63.2,37.0],[63.2,36.9],[63.3,36.9],[63.3,36.8],[63.5,36.8],[63.5,36.7],[63.6,36.7],[63.6,36.6],[63.7,36.6],[63.7,36.5],[63.9,36.5],[63.9,36.4],[64.1,36.4],[64.1,36.3],[64.2,36.3],[64.2,36.2],[64.3,36.2],[64.3,36.1],[64.5,36.1],[64.5,36.0],[64.7,36.0],[64.7,35.9],[65.1,35.9],[65.1,35.8],[65.3,35.8],[65.3,35.7],[66.4,35.7],[66.4,35.8],[66.6,35.8],[66.6,35.9],[66.8,35.9],[66.8,36.0],[67.0,36.0],[67.0,36.1],[67.3,36.1],[67.3,36.2],[67.5,36.2],[67.5,36.3],[67.9,36.3],[67.9,36.4],[68.1,36.4],[68.1,36.5],[68.4,36.5],[68.4,36.6],[68.7,36.6],[68.7,36.7],[69.1,36.7],[69.1,36.8],[69.4,36.8],[69.4,36.9],[69.7,36.9],[69.7,37.0],[72.0,37.0],[72.0,36.9],[72.1,36.9],[72.1,37.2],[72.2,37.2],[72.2,37.3],[72.3,37.3],[72.3,37.4],[72.4,37.4],[72.4,37.5],[72.5,37.5],[72.5,37.6],[72.6,37.6],[72.6,37.7],[72.7,37.7],[72.7,37.8],[72.8,37.8],[72.8,37.9],[72.9,37.9],[72.9,38.0],[73.0,38.0],[73.0,38.2],[73.1,38.2],[73.1,38.8],[72.7,38.8],[72.7,38.9],[72.5,38.9],[72.5,39.0],[72.3,39.0],[72.3,39.1],[72.2,39.1],[72.2,39.2],[72.1,39.2],[72.1,39.3],[72.0,39.3],[72.0,39.4],[71.9,39.4],[71.9,39.5],[71.7,39.5],[71.7,39.6],[71.6,39.6],[71.6,39.9],[71.5,39.9],[71.5,40.0],[71.4,40.0],[71.4,40.5],[71.5,40.5],[71.5,41.2],[71.6,41.2],[71.6,41.6],[71.7,41.6]]]]},"properties":{"tile_id":"51","start_year":-133,"end_year":-103,"source_image":"data/raw/toolbay/t/51/-133.png","source_url":"https://www.toolbay.cc/history-map/t/51/-133.png","source_color":"#ff0000","polity_id":null,"polity_assignment":"unverified","geometry_origin":"raster_color_trace","pixel_size_degrees":0.1,"source_color_pixels":7554,"simplification_degrees":0}},{"type":"Feature","id":"51:-133:#ff00ff","bbox":[72.7,19.8,90.0,45.0],"geometry":{"type":"MultiPolygon","coordinates":[[[[75.7,32.5],[75.7,32.6],[75.5,32.6],[75.5,32.5],[75.4,32.5],[75.4,32.1],[75.3,32.1],[75.3,31.9],[75.2,31.9],[75.2,31.7],[75.1,31.7],[75.1,31.6],[75.0,31.6],[75.0,31.4],[74.9,31.4],[74.9,31.2],[74.7,31.2],[74.7,31.0],[74.6,31.0],[74.6,30.9],[74.5,30.9],[74.5,30.8],[74.4,30.8],[74.4,30.7],[74.3,30.7],[74.3,30.6],[74.2,30.6],[74.2,30.5],[74.1,30.5],[74.1,30.4],[73.9,30.4],[73.9,30.3],[73.8,30.3],[73.8,30.2],[73.6,30.2],[73.6,30.1],[73.5,30.1],[73.5,30.0],[73.3,30.0],[73.3,29.9],[73.0,29.9],[73.0,29.7],[73.1,29.7],[73.1,29.6],[73.2,29.6],[73.2,29.5],[73.3,29.5],[73.3,29.3],[73.4,29.3],[73.4,29.2],[73.5,29.2],[73.5,29.1],[73.6,29.1],[73.6,29.0],[73.7,29.0],[73.7,28.9],[73.8,28.9],[73.8,28.8],[73.9,28.8],[73.9,28.6],[74.0,28.6],[74.0,28.5],[74.1,28.5],[74.1,28.4],[74.2,28.4],[74.2,28.3],[74.3,28.3],[74.3,28.2],[74.4,28.2],[74.4,28.0],[74.5,28.0],[74.5,27.9],[74.6,27.9],[74.6,27.8],[74.7,27.8],[74.7,27.6],[74.9,27.6],[74.9,27.4],[75.0,27.4],[75.0,27.3],[75.1,27.3],[75.1,27.1],[75.2,27.1],[75.2,27.0],[75.3,27.0],[75.3,26.9],[75.4,26.9],[75.4,26.8],[75.5,26.8],[75.5,26.7],[75.6,26.7],[75.6,26.6],[75.7,26.6],[75.7,26.5],[75.9,26.5],[75.9,26.4],[76.0,26.4],[76.0,26.3],[76.1,26.3],[76.1,26.2],[76.2,26.2],[76.2,26.0],[76.3,26.0],[76.3,25.9],[76.4,25.9],[76.4,25.8],[76.5,25.8],[76.5,25.6],[76.6,25.6],[76.6,25.5],[76.8,25.5],[76.8,25.3],[76.9,25.3],[76.9,25.2],[77.0,25.2],[77.0,25.1],[77.2,25.1],[77.2,24.9],[77.4,24.9],[77.4,24.7],[77.5,24.7],[77.5,24.6],[77.6,24.6],[77.6,24.5],[77.7,24.5],[77.7,24.4],[77.8,24.4],[77.8,24.2],[77.9,24.2],[77.9,24.1],[78.0,24.1],[78.0,24.0],[78.1,24.0],[78.1,23.8],[78.2,23.8],[78.2,23.7],[78.3,23.7],[78.3,23.6],[78.4,23.6],[78.4,23.4],[78.5,23.4],[78.5,23.3],[78.6,23.3],[78.6,23.2],[78.7,23.2],[78.7,23.1],[78.8,23.1],[78.8,23.0],[79.0,23.0],[79.0,22.9],[79.1,22.9],[79.1,22.8],[79.2,22.8],[79.2,22.7],[79.3,22.7],[79.3,22.6],[79.4,22.6],[79.4,22.5],[79.5,22.5],[79.5,22.4],[79.6,22.4],[79.6,22.3],[79.8,22.3],[79.8,22.2],[79.9,22.2],[79.9,22.1],[80.1,22.1],[80.1,22.0],[80.4,22.0],[80.4,21.9],[80.5,21.9],[80.5,21.8],[80.6,21.8],[80.6,21.7],[80.9,21.7],[80.9,21.6],[81.3,21.6],[81.3,21.5],[81.8,21.5],[81.8,21.4],[82.1,21.4],[82.1,21.3],[82.4,21.3],[82.4,21.2],[82.6,21.2],[82.6,21.1],[82.8,21.1],[82.8,21.0],[82.9,21.0],[82.9,20.9],[83.0,20.9],[83.0,20.8],[83.2,20.8],[83.2,20.7],[83.4,20.7],[83.4,20.6],[83.6,20.6],[83.6,20.5],[83.8,20.5],[83.8,20.4],[84.3,20.4],[84.3,20.3],[84.8,20.3],[84.8,20.2],[85.1,20.2],[85.1,20.1],[85.3,20.1],[85.3,20.0],[85.4,20.0],[85.4,19.9],[85.5,19.9],[85.5,19.8],[85.9,19.8],[85.9,19.9],[86.3,19.9],[86.3,20.0],[86.4,20.0],[86.4,20.1],[86.5,20.1],[86.5,20.2],[86.6,20.2],[86.6,20.3],[86.8,20.3],[86.8,20.4],[86.9,20.4],[86.9,20.6],[87.0,20.6],[87.0,21.0],[86.9,21.0],[86.9,21.4],[87.0,21.4],[87.0,21.5],[87.1,21.5],[87.1,21.6],[87.5,21.6],[87.5,21.7],[87.8,21.7],[87.8,21.8],[88.1,21.8],[88.1,21.7],[88.2,21.7],[88.2,21.6],[89.0,21.6],[89.0,21.7],[89.4,21.7],[89.4,21.8],[89.7,21.8],[89.7,21.9],[89.9,21.9],[89.9,22.0],[90.0,22.0],[90.0,25.8],[89.9,25.8],[89.9,26.1],[90.0,26.1],[90.0,26.4],[89.9,26.4],[89.9,26.3],[89.2,26.3],[89.2,26.4],[88.8,26.4],[88.8,26.5],[88.4,26.5],[88.4,26.6],[87.8,26.6],[87.8,26.7],[87.6,26.7],[87.6,26.8],[87.2,26.8],[87.2,26.9],[86.9,26.9],[86.9,27.0],[86.5,27.0],[86.5,27.1],[86.2,27.1],[86.2,27.2],[85.9,27.2],[85.9,27.3],[85.7,27.3],[85.7,27.4],[85.4,27.4],[85.4,27.5],[85.2,27.5],[85.2,27.6],[84.9,27.6],[84.9,27.7],[84.7,27.7],[84.7,27.8],[84.5,27.8],[84.5,27.9],[84.4,27.9],[84.4,28.0],[84.1,28.0],[84.1,28.1],[84.0,28.1],[84.0,28.2],[83.8,28.2],[83.8,28.3],[83.7,28.3],[83.7,28.4],[83.5,28.4],[83.5,28.5],[83.3,28.5],[83.3,28.6],[83.1,28.6],[83.1,28.7],[82.8,28.7],[82.8,28.8],[82.6,28.8],[82.6,28.9],[82.4,28.9],[82.4,29.0],[82.3,29.0],[82.3,29.1],[82.1,29.1],[82.1,29.2],[81.9,29.2],[81.9,29.3],[81.7,29.3],[81.7,29.4],[81.4,29.4],[81.4,29.5],[81.3,29.5],[81.3,29.6],[81.1,29.6],[81.1,29.7],[80.8,29.7],[80.8,29.8],[80.6,29.8],[80.6,29.9],[80.4,29.9],[80.4,30.0],[80.1,30.0],[80.1,30.1],[79.9,30.1],[79.9,30.2],[79.7,30.2],[79.7,30.3],[79.5,30.3],[79.5,30.4],[79.3,30.4],[79.3,30.5],[79.1,30.5],[79.1,30.6],[79.0,30.6],[79.0,30.7],[78.7,30.7],[78.7,30.8],[78.6,30.8],[78.6,30.9],[78.4,30.9],[78.4,31.0],[78.3,31.0],[78.3,31.1],[78.2,31.1],[78.2,31.2],[77.9,31.2],[77.9,31.3],[77.8,31.3],[77.8,31.4],[77.6,31.4],[77.6,31.5],[77.5,31.5],[77.5,31.6],[77.2,31.6],[77.2,31.7],[77.1,31.7],[77.1,31.8],[76.9,31.8],[76.9,31.9],[76.7,31.9],[76.7,32.0],[76.6,32.0],[76.6,32.1],[76.4,32.1],[76.4,32.2],[76.2,32.2],[76.2,32.3],[76.1,32.3],[76.1,32.4],[75.9,32.4],[75.9,32.5],[75.7,32.5]],[[89.9,24.3],[89.7,24.3],[89.7,24.7],[89.9,24.7],[89.9,24.3]]],[[[78.5,44.9],[78.5,45.0],[74.0,45.0],[74.0,44.9],[73.6,44.9],[73.6,44.8],[73.4,44.8],[73.4,44.7],[73.2,44.7],[73.2,44.6],[73.0,44.6],[73.0,44.5],[72.9,44.5],[72.9,44.4],[72.8,44.4],[72.8,43.6],[72.7,43.6],[72.7,43.2],[73.4,43.2],[73.4,43.1],[74.8,43.1],[74.8,43.2],[75.1,43.2],[75.1,43.3],[75.6,43.3],[75.6,43.4],[75.8,43.4],[75.8,43.5],[76.0,43.5],[76.0,43.6],[76.3,43.6],[76.3,43.7],[76.6,43.7],[76.6,43.8],[76.8,43.8],[76.8,43.9],[76.9,43.9],[76.9,44.0],[77.2,44.0],[77.2,44.1],[77.4,44.1],[77.4,44.2],[77.7,44.2],[77.7,44.4],[77.9,44.4],[77.9,44.5],[78.0,44.5],[78.0,44.7],[78.1,44.7],[78.1,44.8],[78.3,44.8],[78.3,44.9],[78.5,44.9]]]]},"properties":{"tile_id":"51","start_year":-133,"end_year":-103,"source_image":"data/raw/toolbay/t/51/-133.png","source_url":"https://www.toolbay.cc/history-map/t/51/-133.png","source_color":"#ff00ff","polity_id":null,"polity_assignment":"unverified","geometry_origin":"raster_color_trace","pixel_size_degrees":0.1,"source_color_pixels":13849,"simplification_degrees":0}},{"type":"Feature","id":"51:-133:#ff9900","bbox":[79.5,6.0,85.6,22.0],"geometry":{"type":"MultiPolygon","coordinates":[[[[80.3,9.8],[80.3,9.9],[80.0,9.9],[80.0,9.5],[80.1,9.5],[80.1,9.2],[80.0,9.2],[80.0,9.1],[79.9,9.1],[79.9,8.5],[79.8,8.5],[79.8,8.4],[79.7,8.4],[79.7,7.9],[79.8,7.9],[79.8,6.9],[79.9,6.9],[79.9,6.7],[80.0,6.7],[80.0,6.3],[80.1,6.3],[80.1,6.1],[80.2,6.1],[80.2,6.0],[80.8,6.0],[80.8,6.1],[81.1,6.1],[81.1,6.2],[81.4,6.2],[81.4,6.3],[81.5,6.3],[81.5,6.4],[81.6,6.4],[81.6,6.5],[81.7,6.5],[81.7,6.6],[81.8,6.6],[81.8,6.8],[81.9,6.8],[81.9,7.2],[81.8,7.2],[81.8,7.8],[81.7,7.8],[81.7,7.9],[81.6,7.9],[81.6,8.1],[81.5,8.1],[81.5,8.3],[81.4,8.3],[81.4,8.6],[81.3,8.6],[81.3,8.7],[81.2,8.7],[81.2,8.9],[81.1,8.9],[81.1,9.0],[81.0,9.0],[81.0,9.2],[80.9,9.2],[80.9,9.4],[80.8,9.4],[80.8,9.5],[80.7,9.5],[80.7,9.6],[80.6,9.6],[80.6,9.7],[80.4,9.7],[80.4,9.8],[80.3,9.8]]],[[[80.4,21.9],[80.4,22.0],[80.2,22.0],[80.2,21.7],[80.1,21.7],[80.1,21.3],[80.0,21.3],[80.0,20.4],[79.9,20.4],[79.9,20.2],[79.8,20.2],[79.8,20.1],[79.7,20.1],[79.7,19.7],[79.6,19.7],[79.6,19.5],[79.5,19.5],[79.5,18.5],[79.6,18.5],[79.6,18.3],[79.7,18.3],[79.7,17.9],[80.1,17.9],[80.1,17.8],[80.3,17.8],[80.3,17.7],[80.6,17.7],[80.6,17.6],[80.8,17.6],[80.8,17.5],[80.9,17.5],[80.9,17.4],[81.0,17.4],[81.0,17.3],[81.1,17.3],[81.1,17.1],[81.2,17.1],[81.2,17.0],[81.3,17.0],[81.3,16.9],[81.4,16.9],[81.4,16.7],[81.5,16.7],[81.5,16.6],[81.6,16.6],[81.6,16.4],[81.9,16.4],[81.9,16.5],[82.2,16.5],[82.2,16.6],[82.3,16.6],[82.3,16.7],[82.4,16.7],[82.4,17.2],[82.5,17.2],[82.5,17.3],[82.7,17.3],[82.7,17.4],[82.8,17.4],[82.8,17.5],[83.1,17.5],[83.1,17.6],[83.2,17.6],[83.2,17.7],[83.3,17.7],[83.3,17.8],[83.4,17.8],[83.4,17.9],[83.5,17.9],[83.5,18.0],[83.6,18.0],[83.6,18.1],[83.8,18.1],[83.8,18.2],[83.9,18.2],[83.9,18.3],[84.1,18.3],[84.1,18.4],[84.2,18.4],[84.2,18.5],[84.3,18.5],[84.3,18.6],[84.4,18.6],[84.4,18.7],[84.5,18.7],[84.5,18.8],[84.6,18.8],[84.6,18.9],[84.7,18.9],[84.7,19.1],[84.8,19.1],[84.8,19.2],[84.9,19.2],[84.9,19.3],[85.0,19.3],[85.0,19.4],[85.1,19.4],[85.1,19.5],[85.2,19.5],[85.2,19.6],[85.4,19.6],[85.4,19.7],[85.6,19.7],[85.6,19.8],[85.5,19.8],[85.5,19.9],[85.4,19.9],[85.4,20.0],[85.3,20.0],[85.3,20.1],[85.1,20.1],[85.1,20.2],[84.8,20.2],[84.8,20.3],[84.3,20.3],[84.3,20.4],[83.8,20.4],[83.8,20.5],[83.6,20.5],[83.6,20.6],[83.4,20.6],[83.4,20.7],[83.2,20.7],[83.2,20.8],[83.0,20.8],[83.0,20.9],[82.9,20.9],[82.9,21.0],[82.8,21.0],[82.8,21.1],[82.6,21.1],[82.6,21.2],[82.4,21.2],[82.4,21.3],[82.1,21.3],[82.1,21.4],[81.8,21.4],[81.8,21.5],[81.3,21.5],[81.3,21.6],[80.9,21.6],[80.9,21.7],[80.6,21.7],[80.6,21.8],[80.5,21.8],[80.5,21.9],[80.4,21.9]]]]},"properties":{"tile_id":"51","start_year":-133,"end_year":-103,"source_image":"data/raw/toolbay/t/51/-133.png","source_url":"https://www.toolbay.cc/history-map/t/51/-133.png","source_color":"#ff9900","polity_id":null,"polity_assignment":"unverified","geometry_origin":"raster_color_trace","pixel_size_degrees":0.1,"source_color_pixels":2413,"simplification_degrees":0}},{"type":"Feature","id":"51:-133:#ff9933","bbox":[60.0,23.8,70.5,41.8],"geometry":{"type":"Polygon","coordinates":[[[60.1,41.8],[60.0,41.8],[60.0,25.4],[60.7,25.4],[60.7,25.3],[61.1,25.3],[61.1,25.2],[61.3,25.2],[61.3,25.1],[62.0,25.1],[62.0,25.2],[62.5,25.2],[62.5,25.3],[63.6,25.3],[63.6,25.4],[64.2,25.4],[64.2,25.3],[64.8,25.3],[64.8,25.4],[65.0,25.4],[65.0,25.3],[65.2,25.3],[65.2,25.4],[66.0,25.4],[66.0,25.5],[66.5,25.5],[66.5,25.4],[66.6,25.4],[66.6,25.3],[66.7,25.3],[66.7,25.0],[66.8,25.0],[66.8,24.9],[67.0,24.9],[67.0,24.8],[67.1,24.8],[67.1,24.7],[67.2,24.7],[67.2,24.5],[67.3,24.5],[67.3,24.2],[67.4,24.2],[67.4,24.1],[67.5,24.1],[67.5,23.9],[67.6,23.9],[67.6,23.8],[68.2,23.8],[68.2,23.9],[68.3,23.9],[68.3,24.1],[68.4,24.1],[68.4,24.4],[68.5,24.4],[68.5,24.6],[68.6,24.6],[68.6,24.9],[68.7,24.9],[68.7,25.1],[68.6,25.1],[68.6,25.2],[68.5,25.2],[68.5,25.5],[68.4,25.5],[68.4,25.6],[68.3,25.6],[68.3,25.7],[68.2,25.7],[68.2,26.0],[68.1,26.0],[68.1,26.2],[68.0,26.2],[68.0,27.0],[68.1,27.0],[68.1,27.4],[68.2,27.4],[68.2,27.6],[68.3,27.6],[68.3,27.7],[68.4,27.7],[68.4,27.8],[68.6,27.8],[68.6,27.9],[68.7,27.9],[68.7,28.0],[68.9,28.0],[68.9,28.1],[69.1,28.1],[69.1,28.2],[69.3,28.2],[69.3,28.3],[69.4,28.3],[69.4,28.4],[69.5,28.4],[69.5,28.5],[69.6,28.5],[69.6,28.6],[69.7,28.6],[69.7,28.7],[69.8,28.7],[69.8,28.9],[69.9,28.9],[69.9,29.0],[70.0,29.0],[70.0,29.3],[70.1,29.3],[70.1,29.6],[70.2,29.6],[70.2,30.0],[70.3,30.0],[70.3,30.4],[70.4,30.4],[70.4,30.7],[70.5,30.7],[70.5,31.2],[70.4,31.2],[70.4,31.9],[70.3,31.9],[70.3,32.0],[70.1,32.0],[70.1,32.1],[70.0,32.1],[70.0,32.2],[69.9,32.2],[69.9,32.3],[69.8,32.3],[69.8,32.4],[69.6,32.4],[69.6,32.5],[69.5,32.5],[69.5,32.6],[69.4,32.6],[69.4,32.7],[69.3,32.7],[69.3,32.8],[69.1,32.8],[69.1,32.9],[69.0,32.9],[69.0,33.0],[68.8,33.0],[68.8,33.1],[68.7,33.1],[68.7,33.2],[68.3,33.2],[68.3,33.3],[68.0,33.3],[68.0,33.4],[67.6,33.4],[67.6,33.5],[67.1,33.5],[67.1,33.6],[67.0,33.6],[67.0,33.7],[66.8,33.7],[66.8,33.9],[66.9,33.9],[66.9,34.0],[67.0,34.0],[67.0,34.1],[67.1,34.1],[67.1,34.2],[67.2,34.2],[67.2,34.5],[67.3,34.5],[67.3,34.8],[67.2,34.8],[67.2,34.9],[67.1,34.9],[67.1,35.0],[67.0,35.0],[67.0,35.2],[66.8,35.2],[66.8,35.3],[66.7,35.3],[66.7,35.4],[66.6,35.4],[66.6,35.5],[66.5,35.5],[66.5,35.6],[66.4,35.6],[66.4,35.7],[65.3,35.7],[65.3,35.8],[65.1,35.8],[65.1,35.9],[64.7,35.9],[64.7,36.0],[64.5,36.0],[64.5,36.1],[64.3,36.1],[64.3,36.2],[64.2,36.2],[64.2,36.3],[64.1,36.3],[64.1,36.4],[63.9,36.4],[63.9,36.5],[63.7,36.5],[63.7,36.6],[63.6,36.6],[63.6,36.7],[63.5,36.7],[63.5,36.8],[63.3,36.8],[63.3,36.9],[63.2,36.9],[63.2,37.0],[63.1,37.0],[63.1,37.1],[63.0,37.1],[63.0,37.2],[62.9,37.2],[62.9,37.4],[62.8,37.4],[62.8,37.6],[62.7,37.6],[62.7,37.8],[62.6,37.8],[62.6,38.0],[62.5,38.0],[62.5,38.3],[62.4,38.3],[62.4,38.5],[62.3,38.5],[62.3,38.6],[62.2,38.6],[62.2,38.7],[62.1,38.7],[62.1,38.9],[62.0,38.9],[62.0,39.1],[61.9,39.1],[61.9,39.9],[61.8,39.9],[61.8,40.9],[61.9,40.9],[61.9,41.1],[61.5,41.1],[61.5,41.2],[61.3,41.2],[61.3,41.3],[61.1,41.3],[61.1,41.4],[60.8,41.4],[60.8,41.5],[60.6,41.5],[60.6,41.6],[60.4,41.6],[60.4,41.7],[60.1,41.7],[60.1,41.8]],[[67.7,24.2],[67.7,24.3],[67.9,24.3],[67.9,24.0],[67.7,24.0],[67.7,24.1],[67.6,24.1],[67.6,24.2],[67.7,24.2]]]},"properties":{"tile_id":"51","start_year":-133,"end_year":-103,"source_image":"data/raw/toolbay/t/51/-133.png","source_url":"https://www.toolbay.cc/history-map/t/51/-133.png","source_color":"#ff9933","polity_id":null,"polity_assignment":"unverified","geometry_origin":"raster_color_trace","pixel_size_degrees":0.1,"source_color_pixels":28751,"simplification_degrees":0}},{"type":"Feature","id":"51:-133:#ffff00","bbox":[72.6,13.9,81.6,24.3],"geometry":{"type":"Polygon","coordinates":[[[77.8,24.3],[77.4,24.3],[77.4,24.2],[77.2,24.2],[77.2,24.1],[77.1,24.1],[77.1,24.0],[77.0,24.0],[77.0,23.9],[76.8,23.9],[76.8,23.8],[76.7,23.8],[76.7,23.7],[76.5,23.7],[76.5,23.6],[76.4,23.6],[76.4,23.5],[76.2,23.5],[76.2,23.4],[76.1,23.4],[76.1,23.3],[76.0,23.3],[76.0,23.2],[75.8,23.2],[75.8,23.1],[75.7,23.1],[75.7,22.9],[75.6,22.9],[75.6,22.8],[75.5,22.8],[75.5,22.7],[75.3,22.7],[75.3,22.6],[75.1,22.6],[75.1,22.5],[74.8,22.5],[74.8,22.4],[74.7,22.4],[74.7,22.3],[74.4,22.3],[74.4,22.2],[74.1,22.2],[74.1,22.1],[73.9,22.1],[73.9,22.0],[73.4,22.0],[73.4,21.9],[73.0,21.9],[73.0,21.8],[72.6,21.8],[72.6,21.1],[72.7,21.1],[72.7,21.0],[72.8,21.0],[72.8,20.8],[72.9,20.8],[72.9,20.5],[72.8,20.5],[72.8,20.3],[72.7,20.3],[72.7,19.5],[72.8,19.5],[72.8,18.9],[72.9,18.9],[72.9,18.3],[73.0,18.3],[73.0,18.0],[73.1,18.0],[73.1,17.6],[73.2,17.6],[73.2,17.2],[73.3,17.2],[73.3,16.5],[73.4,16.5],[73.4,16.2],[73.5,16.2],[73.5,16.0],[73.6,16.0],[73.6,15.9],[73.7,15.9],[73.7,15.6],[73.8,15.6],[73.8,15.4],[73.9,15.4],[73.9,15.1],[74.0,15.1],[74.0,15.0],[74.1,15.0],[74.1,14.9],[74.2,14.9],[74.2,14.7],[74.3,14.7],[74.3,14.5],[74.4,14.5],[74.4,14.3],[74.5,14.3],[74.5,14.1],[75.1,14.1],[75.1,14.2],[75.9,14.2],[75.9,14.3],[76.6,14.3],[76.6,14.4],[77.3,14.4],[77.3,14.3],[78.0,14.3],[78.0,14.2],[78.5,14.2],[78.5,14.1],[79.4,14.1],[79.4,14.0],[79.6,14.0],[79.6,13.9],[80.3,13.9],[80.3,14.0],[80.2,14.0],[80.2,14.9],[80.1,14.9],[80.1,15.4],[80.2,15.4],[80.2,15.5],[80.3,15.5],[80.3,15.7],[80.4,15.7],[80.4,15.8],[80.5,15.8],[80.5,15.9],[80.7,15.9],[80.7,15.8],[81.0,15.8],[81.0,15.9],[81.1,15.9],[81.1,16.0],[81.2,16.0],[81.2,16.2],[81.3,16.2],[81.3,16.3],[81.4,16.3],[81.4,16.4],[81.6,16.4],[81.6,16.6],[81.5,16.6],[81.5,16.7],[81.4,16.7],[81.4,16.9],[81.3,16.9],[81.3,17.0],[81.2,17.0],[81.2,17.1],[81.1,17.1],[81.1,17.3],[81.0,17.3],[81.0,17.4],[80.9,17.4],[80.9,17.5],[80.8,17.5],[80.8,17.6],[80.6,17.6],[80.6,17.7],[80.3,17.7],[80.3,17.8],[80.1,17.8],[80.1,17.9],[79.7,17.9],[79.7,18.3],[79.6,18.3],[79.6,18.5],[79.5,18.5],[79.5,19.5],[79.6,19.5],[79.6,19.7],[79.7,19.7],[79.7,20.1],[79.8,20.1],[79.8,20.2],[79.9,20.2],[79.9,20.4],[80.0,20.4],[80.0,21.3],[80.1,21.3],[80.1,21.7],[80.2,21.7],[80.2,22.0],[80.1,22.0],[80.1,22.1],[79.9,22.1],[79.9,22.2],[79.8,22.2],[79.8,22.3],[79.6,22.3],[79.6,22.4],[79.5,22.4],[79.5,22.5],[79.4,22.5],[79.4,22.6],[79.3,22.6],[79.3,22.7],[79.2,22.7],[79.2,22.8],[79.1,22.8],[79.1,22.9],[79.0,22.9],[79.0,23.0],[78.8,23.0],[78.8,23.1],[78.7,23.1],[78.7,23.2],[78.6,23.2],[78.6,23.3],[78.5,23.3],[78.5,23.4],[78.4,23.4],[78.4,23.6],[78.3,23.6],[78.3,23.7],[78.2,23.7],[78.2,23.8],[78.1,23.8],[78.1,24.0],[78.0,24.0],[78.0,24.1],[77.9,24.1],[77.9,24.2],[77.8,24.2],[77.8,24.3]]]},"properties":{"tile_id":"51","start_year":-133,"end_year":-103,"source_image":"data/raw/toolbay/t/51/-133.png","source_url":"https://www.toolbay.cc/history-map/t/51/-133.png","source_color":"#ffff00","polity_id":null,"polity_assignment":"unverified","geometry_origin":"raster_color_trace","pixel_size_degrees":0.1,"source_color_pixels":6431,"simplification_degrees":0}}]}
