{"type":"FeatureCollection","features":[{"type":"Feature","id":"51:-190:#00ff00","bbox":[71.4,10.3,80.4,43.2],"geometry":{"type":"MultiPolygon","coordinates":[[[[77.3,14.3],[77.3,14.4],[76.6,14.4],[76.6,14.3],[75.9,14.3],[75.9,14.2],[75.1,14.2],[75.1,14.1],[74.5,14.1],[74.5,14.0],[74.6,14.0],[74.6,13.7],[74.7,13.7],[74.7,13.6],[75.0,13.6],[75.0,13.5],[75.4,13.5],[75.4,13.4],[75.8,13.4],[75.8,13.3],[75.9,13.3],[75.9,13.2],[76.0,13.2],[76.0,13.1],[76.1,13.1],[76.1,13.0],[76.2,13.0],[76.2,12.9],[76.3,12.9],[76.3,12.8],[76.5,12.8],[76.5,12.7],[76.6,12.7],[76.6,12.6],[76.7,12.6],[76.7,12.5],[76.8,12.5],[76.8,12.4],[76.9,12.4],[76.9,12.3],[77.0,12.3],[77.0,12.2],[77.2,12.2],[77.2,12.1],[77.3,12.1],[77.3,12.0],[77.4,12.0],[77.4,11.9],[77.5,11.9],[77.5,11.7],[77.7,11.7],[77.7,11.6],[77.8,11.6],[77.8,11.4],[77.9,11.4],[77.9,11.3],[78.0,11.3],[78.0,11.2],[78.1,11.2],[78.1,11.1],[78.2,11.1],[78.2,10.9],[78.4,10.9],[78.4,10.8],[78.5,10.8],[78.5,10.7],[78.6,10.7],[78.6,10.6],[78.8,10.6],[78.8,10.5],[79.4,10.5],[79.4,10.4],[79.6,10.4],[79.6,10.3],[79.8,10.3],[79.8,10.4],[79.9,10.4],[79.9,11.5],[79.8,11.5],[79.8,11.9],[79.9,11.9],[79.9,12.2],[80.0,12.2],[80.0,12.3],[80.1,12.3],[80.1,12.5],[80.2,12.5],[80.2,12.7],[80.3,12.7],[80.3,13.1],[80.4,13.1],[80.4,13.6],[80.3,13.6],[80.3,13.9],[79.6,13.9],[79.6,14.0],[79.4,14.0],[79.4,14.1],[78.5,14.1],[78.5,14.2],[78.0,14.2],[78.0,14.3],[77.3,14.3]]],[[[73.4,43.1],[73.4,43.2],[72.6,43.2],[72.6,43.1],[72.4,43.1],[72.4,43.0],[71.9,43.0],[71.9,42.8],[71.8,42.8],[71.8,42.5],[71.7,42.5],[71.7,41.6],[71.6,41.6],[71.6,41.2],[71.5,41.2],[71.5,40.5],[71.4,40.5],[71.4,40.0],[71.5,40.0],[71.5,39.7],[71.6,39.7],[71.6,39.6],[71.7,39.6],[71.7,39.5],[71.9,39.5],[71.9,39.4],[72.0,39.4],[72.0,39.3],[72.1,39.3],[72.1,39.2],[72.2,39.2],[72.2,39.1],[72.3,39.1],[72.3,39.0],[72.5,39.0],[72.5,38.9],[72.7,38.9],[72.7,38.8],[72.9,38.8],[72.9,38.9],[73.0,38.9],[73.0,39.0],[73.3,39.0],[73.3,39.3],[73.4,39.3],[73.4,39.6],[73.5,39.6],[73.5,40.0],[73.6,40.0],[73.6,40.4],[73.7,40.4],[73.7,40.5],[73.8,40.5],[73.8,40.8],[73.9,40.8],[73.9,41.4],[74.0,41.4],[74.0,41.9],[74.1,41.9],[74.1,42.5],[74.0,42.5],[74.0,42.6],[73.9,42.6],[73.9,42.8],[73.8,42.8],[73.8,42.9],[73.7,42.9],[73.7,43.1],[73.4,43.1]]]]},"properties":{"tile_id":"51","start_year":-190,"end_year":-180,"source_image":"data/raw/toolbay/t/51/-190.png","source_url":"https://www.toolbay.cc/history-map/t/51/-190.png","source_color":"#00ff00","polity_id":null,"polity_assignment":"unverified","geometry_origin":"raster_color_trace","pixel_size_degrees":0.1,"source_color_pixels":5859,"simplification_degrees":0}},{"type":"Feature","id":"51:-190:#00ffff","bbox":[60.0,25.1,72.8,44.9],"geometry":{"type":"MultiPolygon","coordinates":[[[[60.2,31.4],[60.2,31.3],[60.0,31.3],[60.0,25.4],[60.7,25.4],[60.7,25.3],[61.1,25.3],[61.1,25.2],[61.3,25.2],[61.3,25.1],[62.0,25.1],[62.0,25.2],[62.5,25.2],[62.5,25.3],[63.6,25.3],[63.6,25.4],[64.2,25.4],[64.2,25.3],[64.8,25.3],[64.8,25.4],[65.0,25.4],[65.0,25.3],[65.2,25.3],[65.2,25.4],[66.0,25.4],[66.0,25.5],[66.5,25.5],[66.5,25.4],[66.8,25.4],[66.8,25.5],[66.9,25.5],[66.9,25.7],[67.0,25.7],[67.0,25.8],[67.1,25.8],[67.1,25.9],[67.2,25.9],[67.2,26.1],[67.3,26.1],[67.3,26.3],[67.4,26.3],[67.4,26.6],[67.5,26.6],[67.5,26.7],[67.6,26.7],[67.6,26.9],[67.7,26.9],[67.7,27.2],[67.8,27.2],[67.8,27.4],[67.9,27.4],[67.9,27.6],[68.0,27.6],[68.0,27.9],[68.1,27.9],[68.1,28.4],[68.2,28.4],[68.2,28.6],[68.3,28.6],[68.3,28.8],[68.4,28.8],[68.4,29.0],[68.5,29.0],[68.5,29.2],[68.6,29.2],[68.6,29.7],[66.3,29.7],[66.3,29.8],[66.1,29.8],[66.1,29.9],[65.7,29.9],[65.7,30.0],[65.5,30.0],[65.5,30.1],[65.3,30.1],[65.3,30.2],[65.0,30.2],[65.0,30.3],[64.7,30.3],[64.7,30.4],[64.6,30.4],[64.6,30.5],[64.3,30.5],[64.3,30.6],[63.9,30.6],[63.9,30.7],[63.4,30.7],[63.4,30.8],[63.1,30.8],[63.1,30.9],[62.9,30.9],[62.9,31.0],[62.5,31.0],[62.5,31.1],[62.1,31.1],[62.1,31.2],[61.9,31.2],[61.9,31.3],[61.6,31.3],[61.6,31.4],[61.3,31.4],[61.3,31.5],[60.6,31.5],[60.6,31.4],[60.2,31.4]]],[[[69.6,44.8],[69.6,44.9],[69.4,44.9],[69.4,44.8],[68.8,44.8],[68.8,44.7],[68.7,44.7],[68.7,44.3],[68.6,44.3],[68.6,43.8],[68.7,43.8],[68.7,43.6],[68.8,43.6],[68.8,43.5],[68.9,43.5],[68.9,43.4],[69.1,43.4],[69.1,43.3],[69.3,43.3],[69.3,43.2],[69.6,43.2],[69.6,43.1],[70.0,43.1],[70.0,43.0],[70.7,43.0],[70.7,42.9],[71.9,42.9],[71.9,43.0],[72.4,43.0],[72.4,43.1],[72.6,43.1],[72.6,43.2],[72.7,43.2],[72.7,43.6],[72.8,43.6],[72.8,44.4],[71.6,44.4],[71.6,44.5],[71.1,44.5],[71.1,44.6],[70.5,44.6],[70.5,44.7],[69.9,44.7],[69.9,44.8],[69.6,44.8]]]]},"properties":{"tile_id":"51","start_year":-190,"end_year":-180,"source_image":"data/raw/toolbay/t/51/-190.png","source_url":"https://www.toolbay.cc/history-map/t/51/-190.png","source_color":"#00ffff","polity_id":null,"polity_assignment":"unverified","geometry_origin":"raster_color_trace","pixel_size_degrees":0.1,"source_color_pixels":13550,"simplification_degrees":0}},{"type":"Feature","id":"51:-190:#ff0000","bbox":[74.7,8.2,79.4,13.6],"geometry":{"type":"Polygon","coordinates":[[[75.0,13.6],[74.7,13.6],[74.7,13.3],[74.8,13.3],[74.8,12.8],[74.9,12.8],[74.9,12.6],[75.0,12.6],[75.0,12.4],[75.1,12.4],[75.1,12.2],[75.2,12.2],[75.2,12.0],[75.3,12.0],[75.3,11.9],[75.4,11.9],[75.4,11.8],[75.5,11.8],[75.5,11.7],[75.6,11.7],[75.6,11.5],[75.7,11.5],[75.7,11.3],[75.8,11.3],[75.8,11.1],[75.9,11.1],[75.9,10.8],[76.0,10.8],[76.0,10.5],[76.1,10.5],[76.1,10.3],[76.2,10.3],[76.2,9.9],[76.3,9.9],[76.3,9.5],[76.4,9.5],[76.4,9.2],[76.5,9.2],[76.5,9.0],[76.6,9.0],[76.6,8.9],[76.7,8.9],[76.7,8.8],[76.8,8.8],[76.8,8.7],[76.9,8.7],[76.9,8.5],[77.0,8.5],[77.0,8.4],[77.1,8.4],[77.1,8.3],[77.2,8.3],[77.2,8.2],[77.8,8.2],[77.8,8.3],[78.0,8.3],[78.0,8.4],[78.1,8.4],[78.1,8.5],[78.2,8.5],[78.2,8.9],[78.3,8.9],[78.3,9.1],[78.4,9.1],[78.4,9.2],[78.8,9.2],[78.8,9.3],[78.9,9.3],[78.9,9.4],[79.0,9.4],[79.0,9.8],[79.1,9.8],[79.1,9.9],[79.2,9.9],[79.2,10.0],[79.3,10.0],[79.3,10.3],[79.4,10.3],[79.4,10.5],[78.8,10.5],[78.8,10.6],[78.6,10.6],[78.6,10.7],[78.5,10.7],[78.5,10.8],[78.4,10.8],[78.4,10.9],[78.2,10.9],[78.2,11.1],[78.1,11.1],[78.1,11.2],[78.0,11.2],[78.0,11.3],[77.9,11.3],[77.9,11.4],[77.8,11.4],[77.8,11.6],[77.7,11.6],[77.7,11.7],[77.5,11.7],[77.5,11.9],[77.4,11.9],[77.4,12.0],[77.3,12.0],[77.3,12.1],[77.2,12.1],[77.2,12.2],[77.0,12.2],[77.0,12.3],[76.9,12.3],[76.9,12.4],[76.8,12.4],[76.8,12.5],[76.7,12.5],[76.7,12.6],[76.6,12.6],[76.6,12.7],[76.5,12.7],[76.5,12.8],[76.3,12.8],[76.3,12.9],[76.2,12.9],[76.2,13.0],[76.1,13.0],[76.1,13.1],[76.0,13.1],[76.0,13.2],[75.9,13.2],[75.9,13.3],[75.8,13.3],[75.8,13.4],[75.4,13.4],[75.4,13.5],[75.0,13.5],[75.0,13.6]]]},"properties":{"tile_id":"51","start_year":-190,"end_year":-180,"source_image":"data/raw/toolbay/t/51/-190.png","source_url":"https://www.toolbay.cc/history-map/t/51/-190.png","source_color":"#ff0000","polity_id":null,"polity_assignment":"unverified","geometry_origin":"raster_color_trace","pixel_size_degrees":0.1,"source_color_pixels":2267,"simplification_degrees":0}},{"type":"Feature","id":"51:-190:#ff00ff","bbox":[66.6,14.1,90.0,45.0],"geometry":{"type":"MultiPolygon","coordinates":[[[[72.3,35.2],[72.3,35.3],[72.2,35.3],[72.2,34.9],[72.1,34.9],[72.1,34.6],[72.0,34.6],[72.0,34.4],[71.9,34.4],[71.9,34.2],[71.8,34.2],[71.8,34.0],[71.7,34.0],[71.7,33.8],[71.6,33.8],[71.6,33.6],[71.5,33.6],[71.5,33.4],[71.4,33.4],[71.4,33.0],[71.3,33.0],[71.3,32.9],[71.2,32.9],[71.2,32.6],[71.1,32.6],[71.1,32.3],[71.0,32.3],[71.0,32.1],[70.9,32.1],[70.9,31.9],[70.8,31.9],[70.8,31.8],[70.7,31.8],[70.7,31.7],[70.6,31.7],[70.6,31.5],[70.5,31.5],[70.5,31.3],[70.4,31.3],[70.4,31.2],[70.3,31.2],[70.3,31.0],[70.2,31.0],[70.2,30.9],[70.1,30.9],[70.1,30.7],[70.0,30.7],[70.0,30.6],[69.9,30.6],[69.9,30.5],[69.7,30.5],[69.7,30.4],[69.6,30.4],[69.6,30.3],[69.4,30.3],[69.4,30.2],[69.3,30.2],[69.3,30.1],[69.2,30.1],[69.2,29.9],[68.9,29.9],[68.9,29.8],[68.6,29.8],[68.6,29.2],[68.5,29.2],[68.5,29.0],[68.4,29.0],[68.4,28.8],[68.3,28.8],[68.3,28.6],[68.2,28.6],[68.2,28.4],[68.1,28.4],[68.1,27.9],[68.0,27.9],[68.0,27.6],[67.9,27.6],[67.9,27.4],[67.8,27.4],[67.8,27.2],[67.7,27.2],[67.7,26.9],[67.6,26.9],[67.6,26.7],[67.5,26.7],[67.5,26.6],[67.4,26.6],[67.4,26.3],[67.3,26.3],[67.3,26.1],[67.2,26.1],[67.2,25.9],[67.1,25.9],[67.1,25.8],[67.0,25.8],[67.0,25.7],[66.9,25.7],[66.9,25.5],[66.8,25.5],[66.8,25.4],[66.6,25.4],[66.6,25.3],[66.7,25.3],[66.7,25.0],[66.8,25.0],[66.8,24.9],[67.0,24.9],[67.0,24.8],[67.1,24.8],[67.1,24.7],[67.2,24.7],[67.2,24.5],[67.3,24.5],[67.3,24.2],[67.4,24.2],[67.4,24.1],[67.5,24.1],[67.5,23.9],[67.6,23.9],[67.6,23.8],[68.1,23.8],[68.1,23.7],[68.2,23.7],[68.2,23.6],[68.3,23.6],[68.3,23.5],[68.4,23.5],[68.4,23.4],[68.5,23.4],[68.5,23.3],[68.6,23.3],[68.6,23.2],[68.7,23.2],[68.7,23.1],[68.9,23.1],[68.9,23.0],[69.1,23.0],[69.1,22.9],[69.5,22.9],[69.5,22.8],[69.8,22.8],[69.8,22.9],[70.1,22.9],[70.1,22.8],[70.2,22.8],[70.2,22.7],[70.1,22.7],[70.1,22.6],[69.6,22.6],[69.6,22.5],[69.1,22.5],[69.1,22.4],[69.0,22.4],[69.0,22.2],[69.1,22.2],[69.1,22.1],[69.2,22.1],[69.2,22.0],[69.3,22.0],[69.3,21.9],[69.4,21.9],[69.4,21.8],[69.5,21.8],[69.5,21.7],[69.6,21.7],[69.6,21.6],[69.7,21.6],[69.7,21.5],[69.8,21.5],[69.8,21.4],[69.9,21.4],[69.9,21.3],[70.0,21.3],[70.0,21.2],[70.1,21.2],[70.1,21.1],[70.2,21.1],[70.2,21.0],[70.4,21.0],[70.4,20.9],[70.5,20.9],[70.5,20.8],[70.8,20.8],[70.8,20.7],[71.0,20.7],[71.0,20.8],[71.3,20.8],[71.3,20.9],[71.5,20.9],[71.5,21.0],[71.7,21.0],[71.7,21.1],[71.9,21.1],[71.9,21.2],[72.1,21.2],[72.1,21.3],[72.2,21.3],[72.2,21.5],[72.3,21.5],[72.3,22.0],[72.5,22.0],[72.5,21.8],[72.6,21.8],[72.6,21.1],[72.7,21.1],[72.7,21.0],[72.8,21.0],[72.8,20.8],[72.9,20.8],[72.9,20.5],[72.8,20.5],[72.8,20.3],[72.7,20.3],[72.7,19.5],[72.8,19.5],[72.8,18.9],[72.9,18.9],[72.9,18.3],[73.0,18.3],[73.0,18.0],[73.1,18.0],[73.1,17.6],[73.2,17.6],[73.2,17.2],[73.3,17.2],[73.3,16.5],[73.4,16.5],[73.4,16.2],[73.5,16.2],[73.5,16.0],[73.6,16.0],[73.6,15.9],[73.7,15.9],[73.7,15.6],[73.8,15.6],[73.8,15.4],[73.9,15.4],[73.9,15.1],[74.0,15.1],[74.0,15.0],[74.1,15.0],[74.1,14.9],[74.2,14.9],[74.2,14.7],[74.3,14.7],[74.3,14.5],[74.4,14.5],[74.4,14.3],[74.5,14.3],[74.5,14.1],[75.1,14.1],[75.1,14.2],[75.9,14.2],[75.9,14.3],[76.6,14.3],[76.6,14.4],[77.1,14.4],[77.1,14.5],[76.9,14.5],[76.9,14.7],[76.8,14.7],[76.8,14.9],[76.7,14.9],[76.7,15.1],[76.6,15.1],[76.6,15.2],[76.5,15.2],[76.5,15.4],[76.4,15.4],[76.4,15.5],[76.3,15.5],[76.3,15.6],[76.2,15.6],[76.2,15.8],[76.1,15.8],[76.1,15.9],[76.0,15.9],[76.0,16.0],[75.9,16.0],[75.9,16.1],[75.8,16.1],[75.8,16.3],[75.7,16.3],[75.7,16.4],[75.6,16.4],[75.6,16.5],[75.5,16.5],[75.5,16.6],[75.4,16.6],[75.4,16.7],[75.3,16.7],[75.3,16.8],[75.2,16.8],[75.2,16.9],[75.1,16.9],[75.1,17.0],[75.0,17.0],[75.0,17.1],[74.9,17.1],[74.9,17.2],[74.8,17.2],[74.8,17.3],[74.7,17.3],[74.7,17.4],[74.6,17.4],[74.6,17.5],[74.5,17.5],[74.5,17.6],[74.4,17.6],[74.4,17.8],[74.3,17.8],[74.3,18.0],[74.2,18.0],[74.2,18.3],[74.1,18.3],[74.1,18.4],[74.0,18.4],[74.0,18.9],[74.1,18.9],[74.1,19.0],[74.3,19.0],[74.3,19.1],[74.7,19.1],[74.7,19.2],[76.8,19.2],[76.8,19.1],[77.5,19.1],[77.5,19.0],[77.8,19.0],[77.8,18.9],[78.0,18.9],[78.0,18.8],[78.3,18.8],[78.3,18.7],[78.6,18.7],[78.6,18.6],[78.8,18.6],[78.8,18.5],[79.0,18.5],[79.0,18.4],[79.1,18.4],[79.1,18.3],[79.3,18.3],[79.3,18.2],[79.5,18.2],[79.5,18.1],[79.6,18.1],[79.6,18.0],[79.7,18.0],[79.7,18.3],[79.6,18.3],[79.6,18.5],[79.5,18.5],[79.5,19.5],[79.6,19.5],[79.6,19.7],[79.7,19.7],[79.7,20.1],[79.8,20.1],[79.8,20.2],[79.9,20.2],[79.9,20.4],[80.0,20.4],[80.0,21.3],[80.1,21.3],[80.1,21.7],[80.2,21.7],[80.2,22.0],[80.4,22.0],[80.4,21.9],[80.5,21.9],[80.5,21.8],[80.6,21.8],[80.6,21.7],[80.9,21.7],[80.9,21.6],[81.3,21.6],[81.3,21.5],[81.8,21.5],[81.8,21.4],[82.1,21.4],[82.1,21.3],[82.4,21.3],[82.4,21.2],[82.6,21.2],[82.6,21.1],[82.8,21.1],[82.8,21.0],[82.9,21.0],[82.9,20.9],[83.0,20.9],[83.0,20.8],[83.2,20.8],[83.2,20.7],[83.4,20.7],[83.4,20.6],[83.6,20.6],[83.6,20.5],[83.8,20.5],[83.8,20.4],[84.3,20.4],[84.3,20.3],[84.8,20.3],[84.8,20.2],[85.1,20.2],[85.1,20.1],[85.3,20.1],[85.3,20.0],[85.4,20.0],[85.4,19.9],[85.5,19.9],[85.5,19.8],[85.9,19.8],[85.9,19.9],[86.3,19.9],[86.3,20.0],[86.4,20.0],[86.4,20.1],[86.5,20.1],[86.5,20.2],[86.6,20.2],[86.6,20.3],[86.8,20.3],[86.8,20.4],[86.9,20.4],[86.9,20.6],[87.0,20.6],[87.0,21.0],[86.9,21.0],[86.9,21.4],[87.0,21.4],[87.0,21.5],[87.1,21.5],[87.1,21.6],[87.5,21.6],[87.5,21.7],[87.8,21.7],[87.8,21.8],[88.1,21.8],[88.1,21.7],[88.2,21.7],[88.2,21.6],[89.0,21.6],[89.0,21.7],[89.4,21.7],[89.4,21.8],[89.7,21.8],[89.7,21.9],[89.9,21.9],[89.9,22.0],[90.0,22.0],[90.0,25.8],[89.9,25.8],[89.9,26.1],[90.0,26.1],[90.0,26.5],[88.8,26.5],[88.8,26.6],[87.8,26.6],[87.8,26.7],[87.4,26.7],[87.4,26.8],[86.5,26.8],[86.5,26.9],[86.3,26.9],[86.3,27.0],[86.0,27.0],[86.0,27.1],[85.7,27.1],[85.7,27.2],[85.4,27.2],[85.4,27.3],[85.1,27.3],[85.1,27.4],[84.9,27.4],[84.9,27.5],[84.7,27.5],[84.7,27.6],[84.4,27.6],[84.4,27.7],[84.2,27.7],[84.2,27.8],[83.9,27.8],[83.9,27.9],[83.5,27.9],[83.5,28.0],[83.2,28.0],[83.2,28.1],[82.9,28.1],[82.9,28.2],[82.7,28.2],[82.7,28.3],[82.4,28.3],[82.4,28.4],[81.9,28.4],[81.9,28.5],[81.8,28.5],[81.8,28.6],[81.6,28.6],[81.6,28.7],[81.1,28.7],[81.1,28.9],[80.7,28.9],[80.7,29.0],[80.5,29.0],[80.5,29.1],[80.2,29.1],[80.2,29.2],[79.9,29.2],[79.9,29.3],[79.6,29.3],[79.6,29.4],[79.4,29.4],[79.4,29.5],[79.0,29.5],[79.0,29.6],[78.8,29.6],[78.8,29.7],[78.6,29.7],[78.6,29.8],[78.4,29.8],[78.4,29.9],[78.3,29.9],[78.3,30.0],[78.0,30.0],[78.0,30.1],[77.9,30.1],[77.9,30.2],[77.7,30.2],[77.7,30.3],[77.6,30.3],[77.6,30.4],[77.4,30.4],[77.4,30.5],[77.3,30.5],[77.3,30.6],[77.2,30.6],[77.2,30.7],[77.1,30.7],[77.1,30.8],[77.0,30.8],[77.0,31.0],[76.9,31.0],[76.9,31.1],[76.8,31.1],[76.8,31.3],[76.7,31.3],[76.7,31.4],[76.6,31.4],[76.6,31.5],[76.5,31.5],[76.5,31.6],[76.4,31.6],[76.4,31.7],[76.3,31.7],[76.3,31.9],[76.2,31.9],[76.2,32.0],[76.1,32.0],[76.1,32.1],[76.0,32.1],[76.0,32.2],[75.9,32.2],[75.9,32.3],[75.8,32.3],[75.8,32.5],[75.6,32.5],[75.6,32.6],[75.4,32.6],[75.4,32.7],[75.2,32.7],[75.2,32.8],[75.0,32.8],[75.0,32.9],[74.9,32.9],[74.9,33.0],[74.8,33.0],[74.8,33.1],[74.6,33.1],[74.6,33.2],[74.5,33.2],[74.5,33.3],[74.3,33.3],[74.3,33.4],[74.2,33.4],[74.2,33.5],[74.0,33.5],[74.0,33.6],[73.9,33.6],[73.9,33.7],[73.7,33.7],[73.7,33.8],[73.6,33.8],[73.6,33.9],[73.5,33.9],[73.5,34.0],[73.4,34.0],[73.4,34.1],[73.2,34.1],[73.2,34.2],[73.1,34.2],[73.1,34.3],[72.9,34.3],[72.9,34.4],[72.8,34.4],[72.8,34.5],[72.7,34.5],[72.7,34.7],[72.6,34.7],[72.6,34.8],[72.5,34.8],[72.5,35.0],[72.4,35.0],[72.4,35.2],[72.3,35.2]],[[89.9,24.3],[89.7,24.3],[89.7,24.7],[89.9,24.7],[89.9,24.3]],[[67.6,24.2],[67.7,24.2],[67.7,24.3],[67.9,24.3],[67.9,24.0],[67.7,24.0],[67.7,24.1],[67.6,24.1],[67.6,24.2]]],[[[78.5,44.9],[78.5,45.0],[74.0,45.0],[74.0,44.9],[73.6,44.9],[73.6,44.8],[73.4,44.8],[73.4,44.7],[73.2,44.7],[73.2,44.6],[73.0,44.6],[73.0,44.5],[72.9,44.5],[72.9,44.4],[72.8,44.4],[72.8,43.6],[72.7,43.6],[72.7,43.2],[73.4,43.2],[73.4,43.1],[74.8,43.1],[74.8,43.2],[75.1,43.2],[75.1,43.3],[75.6,43.3],[75.6,43.4],[75.8,43.4],[75.8,43.5],[76.0,43.5],[76.0,43.6],[76.3,43.6],[76.3,43.7],[76.6,43.7],[76.6,43.8],[76.8,43.8],[76.8,43.9],[76.9,43.9],[76.9,44.0],[77.2,44.0],[77.2,44.1],[77.4,44.1],[77.4,44.2],[77.7,44.2],[77.7,44.4],[77.9,44.4],[77.9,44.5],[78.0,44.5],[78.0,44.7],[78.1,44.7],[78.1,44.8],[78.3,44.8],[78.3,44.9],[78.5,44.9]]]]},"properties":{"tile_id":"51","start_year":-190,"end_year":-180,"source_image":"data/raw/toolbay/t/51/-190.png","source_url":"https://www.toolbay.cc/history-map/t/51/-190.png","source_color":"#ff00ff","polity_id":null,"polity_assignment":"unverified","geometry_origin":"raster_color_trace","pixel_size_degrees":0.1,"source_color_pixels":24595,"simplification_degrees":0}},{"type":"Feature","id":"51:-190:#ff9900","bbox":[79.5,6.0,85.6,22.0],"geometry":{"type":"MultiPolygon","coordinates":[[[[80.3,9.8],[80.3,9.9],[80.0,9.9],[80.0,9.5],[80.1,9.5],[80.1,9.2],[80.0,9.2],[80.0,9.1],[79.9,9.1],[79.9,8.5],[79.8,8.5],[79.8,8.4],[79.7,8.4],[79.7,7.9],[79.8,7.9],[79.8,6.9],[79.9,6.9],[79.9,6.7],[80.0,6.7],[80.0,6.3],[80.1,6.3],[80.1,6.1],[80.2,6.1],[80.2,6.0],[80.8,6.0],[80.8,6.1],[81.1,6.1],[81.1,6.2],[81.4,6.2],[81.4,6.3],[81.5,6.3],[81.5,6.4],[81.6,6.4],[81.6,6.5],[81.7,6.5],[81.7,6.6],[81.8,6.6],[81.8,6.8],[81.9,6.8],[81.9,7.2],[81.8,7.2],[81.8,7.8],[81.7,7.8],[81.7,7.9],[81.6,7.9],[81.6,8.1],[81.5,8.1],[81.5,8.3],[81.4,8.3],[81.4,8.6],[81.3,8.6],[81.3,8.7],[81.2,8.7],[81.2,8.9],[81.1,8.9],[81.1,9.0],[81.0,9.0],[81.0,9.2],[80.9,9.2],[80.9,9.4],[80.8,9.4],[80.8,9.5],[80.7,9.5],[80.7,9.6],[80.6,9.6],[80.6,9.7],[80.4,9.7],[80.4,9.8],[80.3,9.8]]],[[[80.4,21.9],[80.4,22.0],[80.2,22.0],[80.2,21.7],[80.1,21.7],[80.1,21.3],[80.0,21.3],[80.0,20.4],[79.9,20.4],[79.9,20.2],[79.8,20.2],[79.8,20.1],[79.7,20.1],[79.7,19.7],[79.6,19.7],[79.6,19.5],[79.5,19.5],[79.5,18.5],[79.6,18.5],[79.6,18.3],[79.7,18.3],[79.7,17.9],[80.1,17.9],[80.1,17.8],[80.3,17.8],[80.3,17.7],[80.6,17.7],[80.6,17.6],[80.8,17.6],[80.8,17.5],[80.9,17.5],[80.9,17.4],[81.0,17.4],[81.0,17.3],[81.1,17.3],[81.1,17.1],[81.2,17.1],[81.2,17.0],[81.3,17.0],[81.3,16.9],[81.4,16.9],[81.4,16.7],[81.5,16.7],[81.5,16.6],[81.6,16.6],[81.6,16.4],[81.9,16.4],[81.9,16.5],[82.2,16.5],[82.2,16.6],[82.3,16.6],[82.3,16.7],[82.4,16.7],[82.4,17.2],[82.5,17.2],[82.5,17.3],[82.7,17.3],[82.7,17.4],[82.8,17.4],[82.8,17.5],[83.1,17.5],[83.1,17.6],[83.2,17.6],[83.2,17.7],[83.3,17.7],[83.3,17.8],[83.4,17.8],[83.4,17.9],[83.5,17.9],[83.5,18.0],[83.6,18.0],[83.6,18.1],[83.8,18.1],[83.8,18.2],[83.9,18.2],[83.9,18.3],[84.1,18.3],[84.1,18.4],[84.2,18.4],[84.2,18.5],[84.3,18.5],[84.3,18.6],[84.4,18.6],[84.4,18.7],[84.5,18.7],[84.5,18.8],[84.6,18.8],[84.6,18.9],[84.7,18.9],[84.7,19.1],[84.8,19.1],[84.8,19.2],[84.9,19.2],[84.9,19.3],[85.0,19.3],[85.0,19.4],[85.1,19.4],[85.1,19.5],[85.2,19.5],[85.2,19.6],[85.4,19.6],[85.4,19.7],[85.6,19.7],[85.6,19.8],[85.5,19.8],[85.5,19.9],[85.4,19.9],[85.4,20.0],[85.3,20.0],[85.3,20.1],[85.1,20.1],[85.1,20.2],[84.8,20.2],[84.8,20.3],[84.3,20.3],[84.3,20.4],[83.8,20.4],[83.8,20.5],[83.6,20.5],[83.6,20.6],[83.4,20.6],[83.4,20.7],[83.2,20.7],[83.2,20.8],[83.0,20.8],[83.0,20.9],[82.9,20.9],[82.9,21.0],[82.8,21.0],[82.8,21.1],[82.6,21.1],[82.6,21.2],[82.4,21.2],[82.4,21.3],[82.1,21.3],[82.1,21.4],[81.8,21.4],[81.8,21.5],[81.3,21.5],[81.3,21.6],[80.9,21.6],[80.9,21.7],[80.6,21.7],[80.6,21.8],[80.5,21.8],[80.5,21.9],[80.4,21.9]]]]},"properties":{"tile_id":"51","start_year":-190,"end_year":-180,"source_image":"data/raw/toolbay/t/51/-190.png","source_url":"https://www.toolbay.cc/history-map/t/51/-190.png","source_color":"#ff9900","polity_id":null,"polity_assignment":"unverified","geometry_origin":"raster_color_trace","pixel_size_degrees":0.1,"source_color_pixels":2413,"simplification_degrees":0}},{"type":"Feature","id":"51:-190:#ff9933","bbox":[60.0,31.3,61.1,39.8],"geometry":{"type":"MultiPolygon","coordinates":[[[[60.1,33.5],[60.1,33.6],[60.0,33.6],[60.0,31.3],[60.2,31.3],[60.2,31.4],[60.6,31.4],[60.6,31.5],[61.1,31.5],[61.1,32.4],[61.0,32.4],[61.0,32.5],[60.9,32.5],[60.9,32.7],[60.8,32.7],[60.8,32.8],[60.7,32.8],[60.7,32.9],[60.6,32.9],[60.6,33.0],[60.5,33.0],[60.5,33.2],[60.4,33.2],[60.4,33.3],[60.2,33.3],[60.2,33.5],[60.1,33.5]]],[[[60.1,39.3],[60.1,39.8],[60.0,39.8],[60.0,37.6],[60.1,37.6],[60.1,37.7],[60.2,37.7],[60.2,37.8],[60.3,37.8],[60.3,38.0],[60.4,38.0],[60.4,38.8],[60.3,38.8],[60.3,39.0],[60.2,39.0],[60.2,39.3],[60.1,39.3]]]]},"properties":{"tile_id":"51","start_year":-190,"end_year":-180,"source_image":"data/raw/toolbay/t/51/-190.png","source_url":"https://www.toolbay.cc/history-map/t/51/-190.png","source_color":"#ff9933","polity_id":null,"polity_assignment":"unverified","geometry_origin":"raster_color_trace","pixel_size_degrees":0.1,"source_color_pixels":8181,"simplification_degrees":0}},{"type":"Feature","id":"51:-190:#ffff00","bbox":[60.0,13.9,81.6,41.4],"geometry":{"type":"MultiPolygon","coordinates":[[[[76.8,19.1],[76.8,19.2],[74.7,19.2],[74.7,19.1],[74.3,19.1],[74.3,19.0],[74.1,19.0],[74.1,18.9],[74.0,18.9],[74.0,18.4],[74.1,18.4],[74.1,18.3],[74.2,18.3],[74.2,18.0],[74.3,18.0],[74.3,17.8],[74.4,17.8],[74.4,17.6],[74.5,17.6],[74.5,17.5],[74.6,17.5],[74.6,17.4],[74.7,17.4],[74.7,17.3],[74.8,17.3],[74.8,17.2],[74.9,17.2],[74.9,17.1],[75.0,17.1],[75.0,17.0],[75.1,17.0],[75.1,16.9],[75.2,16.9],[75.2,16.8],[75.3,16.8],[75.3,16.7],[75.4,16.7],[75.4,16.6],[75.5,16.6],[75.5,16.5],[75.6,16.5],[75.6,16.4],[75.7,16.4],[75.7,16.3],[75.8,16.3],[75.8,16.1],[75.9,16.1],[75.9,16.0],[76.0,16.0],[76.0,15.9],[76.1,15.9],[76.1,15.8],[76.2,15.8],[76.2,15.6],[76.3,15.6],[76.3,15.5],[76.4,15.5],[76.4,15.4],[76.5,15.4],[76.5,15.2],[76.6,15.2],[76.6,15.1],[76.7,15.1],[76.7,14.9],[76.8,14.9],[76.8,14.7],[76.9,14.7],[76.9,14.5],[77.1,14.5],[77.1,14.4],[77.3,14.4],[77.3,14.3],[78.0,14.3],[78.0,14.2],[78.5,14.2],[78.5,14.1],[79.4,14.1],[79.4,14.0],[79.6,14.0],[79.6,13.9],[80.3,13.9],[80.3,14.0],[80.2,14.0],[80.2,14.9],[80.1,14.9],[80.1,15.4],[80.2,15.4],[80.2,15.5],[80.3,15.5],[80.3,15.7],[80.4,15.7],[80.4,15.8],[80.5,15.8],[80.5,15.9],[80.7,15.9],[80.7,15.8],[81.0,15.8],[81.0,15.9],[81.1,15.9],[81.1,16.0],[81.2,16.0],[81.2,16.2],[81.3,16.2],[81.3,16.3],[81.4,16.3],[81.4,16.4],[81.6,16.4],[81.6,16.6],[81.5,16.6],[81.5,16.7],[81.4,16.7],[81.4,16.9],[81.3,16.9],[81.3,17.0],[81.2,17.0],[81.2,17.1],[81.1,17.1],[81.1,17.3],[81.0,17.3],[81.0,17.4],[80.9,17.4],[80.9,17.5],[80.8,17.5],[80.8,17.6],[80.6,17.6],[80.6,17.7],[80.3,17.7],[80.3,17.8],[80.1,17.8],[80.1,17.9],[79.7,17.9],[79.7,18.0],[79.6,18.0],[79.6,18.1],[79.5,18.1],[79.5,18.2],[79.3,18.2],[79.3,18.3],[79.1,18.3],[79.1,18.4],[79.0,18.4],[79.0,18.5],[78.8,18.5],[78.8,18.6],[78.6,18.6],[78.6,18.7],[78.3,18.7],[78.3,18.8],[78.0,18.8],[78.0,18.9],[77.8,18.9],[77.8,19.0],[77.5,19.0],[77.5,19.1],[76.8,19.1]]],[[[73.4,34.0],[73.5,34.0],[73.5,34.1],[73.4,34.1],[73.4,34.0]]],[[[60.2,37.7],[60.1,37.7],[60.1,37.6],[60.0,37.6],[60.0,37.5],[60.0,33.7],[60.0,33.6],[60.1,33.6],[60.1,33.5],[60.2,33.5],[60.2,33.3],[60.4,33.3],[60.4,33.2],[60.5,33.2],[60.5,33.0],[60.6,33.0],[60.6,32.9],[60.7,32.9],[60.7,32.8],[60.8,32.8],[60.8,32.7],[60.9,32.7],[60.9,32.5],[61.0,32.5],[61.0,32.4],[61.1,32.4],[61.1,31.5],[61.3,31.5],[61.3,31.4],[61.6,31.4],[61.6,31.3],[61.9,31.3],[61.9,31.2],[62.1,31.2],[62.1,31.1],[62.5,31.1],[62.5,31.0],[62.9,31.0],[62.9,30.9],[63.1,30.9],[63.1,30.8],[63.4,30.8],[63.4,30.7],[63.9,30.7],[63.9,30.6],[64.3,30.6],[64.3,30.5],[64.6,30.5],[64.6,30.4],[64.7,30.4],[64.7,30.3],[65.0,30.3],[65.0,30.2],[65.3,30.2],[65.3,30.1],[65.5,30.1],[65.5,30.0],[65.7,30.0],[65.7,29.9],[66.1,29.9],[66.1,29.8],[66.3,29.8],[66.3,29.7],[68.6,29.7],[68.6,29.8],[68.9,29.8],[68.9,29.9],[69.2,29.9],[69.2,30.1],[69.3,30.1],[69.3,30.2],[69.4,30.2],[69.4,30.3],[69.6,30.3],[69.6,30.4],[69.7,30.4],[69.7,30.5],[69.9,30.5],[69.9,30.6],[70.0,30.6],[70.0,30.7],[70.1,30.7],[70.1,30.9],[70.2,30.9],[70.2,31.0],[70.3,31.0],[70.3,31.2],[70.4,31.2],[70.4,31.3],[70.5,31.3],[70.5,31.5],[70.6,31.5],[70.6,31.7],[70.7,31.7],[70.7,31.8],[70.8,31.8],[70.8,31.9],[70.9,31.9],[70.9,32.1],[71.0,32.1],[71.0,32.3],[71.1,32.3],[71.1,32.6],[71.2,32.6],[71.2,32.9],[71.3,32.9],[71.3,33.0],[71.4,33.0],[71.4,33.4],[71.5,33.4],[71.5,33.6],[71.6,33.6],[71.6,33.8],[71.7,33.8],[71.7,34.0],[71.8,34.0],[71.8,34.2],[71.9,34.2],[71.9,34.4],[72.0,34.4],[72.0,34.6],[72.1,34.6],[72.1,34.9],[72.2,34.9],[72.2,35.4],[72.3,35.4],[72.3,35.6],[72.4,35.6],[72.4,36.3],[72.3,36.3],[72.3,36.6],[72.2,36.6],[72.2,36.7],[72.1,36.7],[72.1,36.9],[72.0,36.9],[72.0,37.0],[71.9,37.0],[71.9,37.1],[71.8,37.1],[71.8,37.3],[71.7,37.3],[71.7,37.5],[71.6,37.5],[71.6,37.6],[71.5,37.6],[71.5,37.8],[71.4,37.8],[71.4,37.9],[71.3,37.9],[71.3,38.0],[71.2,38.0],[71.2,38.1],[71.1,38.1],[71.1,38.3],[71.0,38.3],[71.0,38.4],[70.9,38.4],[70.9,38.5],[70.8,38.5],[70.8,38.6],[70.7,38.6],[70.7,38.7],[70.6,38.7],[70.6,38.8],[70.5,38.8],[70.5,39.0],[70.4,39.0],[70.4,39.1],[70.3,39.1],[70.3,39.2],[70.1,39.2],[70.1,39.3],[70.0,39.3],[70.0,39.4],[69.9,39.4],[69.9,39.5],[69.8,39.5],[69.8,39.6],[69.7,39.6],[69.7,39.7],[69.5,39.7],[69.5,39.8],[69.3,39.8],[69.3,39.9],[69.2,39.9],[69.2,40.0],[69.0,40.0],[69.0,40.1],[68.9,40.1],[68.9,40.2],[68.8,40.2],[68.8,40.3],[68.7,40.3],[68.7,40.4],[68.6,40.4],[68.6,40.5],[68.3,40.5],[68.3,40.6],[68.2,40.6],[68.2,40.7],[68.1,40.7],[68.1,40.8],[68.0,40.8],[68.0,40.9],[67.8,40.9],[67.8,41.0],[67.5,41.0],[67.5,41.1],[67.4,41.1],[67.4,41.2],[67.3,41.2],[67.3,41.3],[67.1,41.3],[67.1,41.4],[63.4,41.4],[63.4,41.3],[62.7,41.3],[62.7,41.2],[62.3,41.2],[62.3,41.1],[62.1,41.1],[62.1,41.0],[61.9,41.0],[61.9,40.9],[61.8,40.9],[61.8,40.8],[61.7,40.8],[61.7,40.7],[61.4,40.7],[61.4,40.6],[61.3,40.6],[61.3,40.5],[61.1,40.5],[61.1,40.4],[61.0,40.4],[61.0,40.3],[60.8,40.3],[60.8,40.2],[60.7,40.2],[60.7,40.1],[60.6,40.1],[60.6,40.0],[60.2,40.0],[60.2,39.9],[60.1,39.9],[60.1,39.3],[60.2,39.3],[60.2,39.0],[60.3,39.0],[60.3,38.8],[60.4,38.8],[60.4,38.0],[60.3,38.0],[60.3,37.8],[60.2,37.8],[60.2,37.7]]]]},"properties":{"tile_id":"51","start_year":-190,"end_year":-180,"source_image":"data/raw/toolbay/t/51/-190.png","source_url":"https://www.toolbay.cc/history-map/t/51/-190.png","source_color":"#ffff00","polity_id":null,"polity_assignment":"unverified","geometry_origin":"raster_color_trace","pixel_size_degrees":0.1,"source_color_pixels":14071,"simplification_degrees":0}}]}
