{"type":"FeatureCollection","features":[{"type":"Feature","id":"51:-311:#00ff00","bbox":[74.5,8.2,80.4,14.4],"geometry":{"type":"Polygon","coordinates":[[[77.3,14.4],[76.6,14.4],[76.6,14.3],[75.9,14.3],[75.9,14.2],[75.1,14.2],[75.1,14.1],[74.5,14.1],[74.5,14.0],[74.6,14.0],[74.6,13.7],[74.7,13.7],[74.7,13.3],[74.8,13.3],[74.8,12.8],[74.9,12.8],[74.9,12.6],[75.0,12.6],[75.0,12.4],[75.1,12.4],[75.1,12.2],[75.2,12.2],[75.2,12.0],[75.3,12.0],[75.3,11.9],[75.4,11.9],[75.4,11.8],[75.5,11.8],[75.5,11.7],[75.6,11.7],[75.6,11.5],[75.7,11.5],[75.7,11.3],[75.8,11.3],[75.8,11.1],[75.9,11.1],[75.9,10.8],[76.0,10.8],[76.0,10.5],[76.1,10.5],[76.1,10.3],[76.2,10.3],[76.2,9.9],[76.3,9.9],[76.3,9.5],[76.4,9.5],[76.4,9.2],[76.5,9.2],[76.5,9.0],[76.6,9.0],[76.6,8.9],[76.7,8.9],[76.7,8.8],[76.8,8.8],[76.8,8.7],[76.9,8.7],[76.9,8.5],[77.0,8.5],[77.0,8.4],[77.1,8.4],[77.1,8.3],[77.2,8.3],[77.2,8.2],[77.8,8.2],[77.8,8.3],[78.0,8.3],[78.0,8.4],[78.1,8.4],[78.1,8.5],[78.2,8.5],[78.2,8.9],[78.3,8.9],[78.3,9.1],[78.4,9.1],[78.4,9.2],[78.8,9.2],[78.8,9.3],[78.9,9.3],[78.9,9.4],[79.0,9.4],[79.0,9.8],[79.1,9.8],[79.1,9.9],[79.2,9.9],[79.2,10.0],[79.3,10.0],[79.3,10.3],[79.4,10.3],[79.4,10.4],[79.6,10.4],[79.6,10.3],[79.8,10.3],[79.8,10.4],[79.9,10.4],[79.9,11.5],[79.8,11.5],[79.8,11.9],[79.9,11.9],[79.9,12.2],[80.0,12.2],[80.0,12.3],[80.1,12.3],[80.1,12.5],[80.2,12.5],[80.2,12.7],[80.3,12.7],[80.3,13.1],[80.4,13.1],[80.4,13.6],[80.3,13.6],[80.3,13.9],[79.6,13.9],[79.6,14.0],[79.4,14.0],[79.4,14.1],[78.5,14.1],[78.5,14.2],[78.0,14.2],[78.0,14.3],[77.3,14.3],[77.3,14.4]]]},"properties":{"tile_id":"51","start_year":-311,"end_year":-305,"source_image":"data/raw/toolbay/t/51/-311.png","source_url":"https://www.toolbay.cc/history-map/t/51/-311.png","source_color":"#00ff00","polity_id":null,"polity_assignment":"unverified","geometry_origin":"raster_color_trace","pixel_size_degrees":0.1,"source_color_pixels":3485,"simplification_degrees":0}},{"type":"Feature","id":"51:-311:#00ffff","bbox":[60.0,25.1,67.8,37.2],"geometry":{"type":"Polygon","coordinates":[[[61.1,37.0],[60.0,37.0],[60.0,25.4],[60.7,25.4],[60.7,25.3],[61.1,25.3],[61.1,25.2],[61.3,25.2],[61.3,25.1],[62.0,25.1],[62.0,25.2],[62.5,25.2],[62.5,25.3],[63.6,25.3],[63.6,25.4],[64.2,25.4],[64.2,25.3],[64.8,25.3],[64.8,25.4],[65.0,25.4],[65.0,25.3],[65.2,25.3],[65.2,25.4],[66.0,25.4],[66.0,25.5],[66.1,25.5],[66.1,25.8],[66.0,25.8],[66.0,26.2],[65.9,26.2],[65.9,26.6],[65.8,26.6],[65.8,27.0],[65.7,27.0],[65.7,27.4],[65.6,27.4],[65.6,28.0],[65.5,28.0],[65.5,29.1],[65.6,29.1],[65.6,29.6],[65.8,29.6],[65.8,29.7],[66.0,29.7],[66.0,29.8],[66.1,29.8],[66.1,29.9],[66.9,29.9],[66.9,30.0],[67.1,30.0],[67.1,30.3],[67.2,30.3],[67.2,30.7],[67.3,30.7],[67.3,31.1],[67.4,31.1],[67.4,31.8],[67.5,31.8],[67.5,32.1],[67.6,32.1],[67.6,32.9],[67.7,32.9],[67.7,33.7],[67.8,33.7],[67.8,34.8],[67.7,34.8],[67.7,34.9],[67.6,34.9],[67.6,35.0],[67.4,35.0],[67.4,35.1],[67.2,35.1],[67.2,35.2],[67.0,35.2],[67.0,35.3],[66.9,35.3],[66.9,35.4],[66.8,35.4],[66.8,35.5],[66.6,35.5],[66.6,35.6],[66.5,35.6],[66.5,35.7],[66.4,35.7],[66.4,35.8],[66.3,35.8],[66.3,36.0],[66.2,36.0],[66.2,36.6],[64.9,36.6],[64.9,36.7],[64.6,36.7],[64.6,36.8],[64.1,36.8],[64.1,36.9],[63.7,36.9],[63.7,37.0],[63.3,37.0],[63.3,37.1],[62.8,37.1],[62.8,37.2],[61.9,37.2],[61.9,37.1],[61.1,37.1],[61.1,37.0]]]},"properties":{"tile_id":"51","start_year":-311,"end_year":-305,"source_image":"data/raw/toolbay/t/51/-311.png","source_url":"https://www.toolbay.cc/history-map/t/51/-311.png","source_color":"#00ffff","polity_id":null,"polity_assignment":"unverified","geometry_origin":"raster_color_trace","pixel_size_degrees":0.1,"source_color_pixels":23612,"simplification_degrees":0}},{"type":"Feature","id":"51:-311:#ff00ff","bbox":[65.5,20.7,90.0,36.6],"geometry":{"type":"Polygon","coordinates":[[[66.4,36.6],[66.2,36.6],[66.2,36.0],[66.3,36.0],[66.3,35.8],[66.4,35.8],[66.4,35.7],[66.5,35.7],[66.5,35.6],[66.6,35.6],[66.6,35.5],[66.8,35.5],[66.8,35.4],[66.9,35.4],[66.9,35.3],[67.0,35.3],[67.0,35.2],[67.2,35.2],[67.2,35.1],[67.4,35.1],[67.4,35.0],[67.6,35.0],[67.6,34.9],[67.7,34.9],[67.7,34.8],[67.8,34.8],[67.8,33.7],[67.7,33.7],[67.7,32.9],[67.6,32.9],[67.6,32.1],[67.5,32.1],[67.5,31.8],[67.4,31.8],[67.4,31.1],[67.3,31.1],[67.3,30.7],[67.2,30.7],[67.2,30.3],[67.1,30.3],[67.1,30.0],[66.9,30.0],[66.9,29.9],[66.1,29.9],[66.1,29.8],[66.0,29.8],[66.0,29.7],[65.8,29.7],[65.8,29.6],[65.6,29.6],[65.6,29.1],[65.5,29.1],[65.5,28.0],[65.6,28.0],[65.6,27.4],[65.7,27.4],[65.7,27.0],[65.8,27.0],[65.8,26.6],[65.9,26.6],[65.9,26.2],[66.0,26.2],[66.0,25.8],[66.1,25.8],[66.1,25.5],[66.5,25.5],[66.5,25.4],[66.6,25.4],[66.6,25.3],[66.7,25.3],[66.7,25.0],[66.8,25.0],[66.8,24.9],[67.0,24.9],[67.0,24.8],[67.1,24.8],[67.1,24.7],[67.2,24.7],[67.2,24.5],[67.3,24.5],[67.3,24.2],[67.4,24.2],[67.4,24.1],[67.5,24.1],[67.5,23.9],[67.6,23.9],[67.6,23.8],[68.1,23.8],[68.1,23.7],[68.2,23.7],[68.2,23.6],[68.3,23.6],[68.3,23.5],[68.4,23.5],[68.4,23.4],[68.5,23.4],[68.5,23.3],[68.6,23.3],[68.6,23.2],[68.7,23.2],[68.7,23.1],[68.9,23.1],[68.9,23.0],[69.1,23.0],[69.1,22.9],[69.5,22.9],[69.5,22.8],[69.8,22.8],[69.8,22.9],[70.1,22.9],[70.1,22.8],[70.2,22.8],[70.2,22.7],[70.1,22.7],[70.1,22.6],[69.6,22.6],[69.6,22.5],[69.1,22.5],[69.1,22.4],[69.0,22.4],[69.0,22.2],[69.1,22.2],[69.1,22.1],[69.2,22.1],[69.2,22.0],[69.3,22.0],[69.3,21.9],[69.4,21.9],[69.4,21.8],[69.5,21.8],[69.5,21.7],[69.6,21.7],[69.6,21.6],[69.7,21.6],[69.7,21.5],[69.8,21.5],[69.8,21.4],[69.9,21.4],[69.9,21.3],[70.0,21.3],[70.0,21.2],[70.1,21.2],[70.1,21.1],[70.2,21.1],[70.2,21.0],[70.4,21.0],[70.4,20.9],[70.5,20.9],[70.5,20.8],[70.8,20.8],[70.8,20.7],[71.0,20.7],[71.0,20.8],[71.3,20.8],[71.3,20.9],[71.5,20.9],[71.5,21.0],[71.7,21.0],[71.7,21.1],[71.9,21.1],[71.9,21.2],[72.1,21.2],[72.1,21.3],[72.2,21.3],[72.2,21.5],[72.3,21.5],[72.3,22.0],[72.5,22.0],[72.5,21.9],[72.7,21.9],[72.7,22.0],[73.1,22.0],[73.1,22.1],[74.1,22.1],[74.1,22.2],[74.6,22.2],[74.6,22.3],[75.1,22.3],[75.1,22.4],[75.7,22.4],[75.7,22.5],[75.9,22.5],[75.9,22.6],[76.4,22.6],[76.4,22.7],[76.9,22.7],[76.9,22.8],[77.5,22.8],[77.5,22.9],[77.9,22.9],[77.9,23.0],[78.2,23.0],[78.2,23.1],[78.7,23.1],[78.7,23.2],[79.3,23.2],[79.3,23.3],[80.0,23.3],[80.0,23.4],[80.4,23.4],[80.4,23.3],[80.7,23.3],[80.7,23.2],[80.9,23.2],[80.9,23.1],[81.2,23.1],[81.2,23.0],[81.5,23.0],[81.5,22.9],[81.8,22.9],[81.8,22.7],[81.9,22.7],[81.9,22.6],[82.2,22.6],[82.2,22.5],[82.6,22.5],[82.6,22.4],[82.8,22.4],[82.8,22.3],[82.9,22.3],[82.9,22.2],[83.1,22.2],[83.1,22.1],[83.9,22.1],[83.9,22.0],[84.1,22.0],[84.1,21.9],[84.9,21.9],[84.9,21.8],[85.3,21.8],[85.3,21.7],[85.4,21.7],[85.4,21.6],[85.5,21.6],[85.5,21.5],[85.6,21.5],[85.6,21.4],[85.8,21.4],[85.8,21.3],[85.9,21.3],[85.9,21.2],[86.1,21.2],[86.1,21.1],[86.2,21.1],[86.2,21.0],[86.3,21.0],[86.3,20.9],[86.4,20.9],[86.4,20.8],[86.6,20.8],[86.6,20.7],[87.0,20.7],[87.0,21.0],[86.9,21.0],[86.9,21.4],[87.0,21.4],[87.0,21.5],[87.1,21.5],[87.1,21.6],[87.5,21.6],[87.5,21.7],[87.8,21.7],[87.8,21.8],[88.1,21.8],[88.1,21.7],[88.2,21.7],[88.2,21.6],[89.0,21.6],[89.0,21.7],[89.4,21.7],[89.4,21.8],[89.7,21.8],[89.7,21.9],[89.9,21.9],[89.9,22.0],[90.0,22.0],[90.0,25.8],[89.9,25.8],[89.9,26.1],[90.0,26.1],[90.0,26.5],[88.8,26.5],[88.8,26.6],[87.8,26.6],[87.8,26.7],[87.4,26.7],[87.4,26.8],[86.5,26.8],[86.5,26.9],[86.3,26.9],[86.3,27.0],[86.0,27.0],[86.0,27.1],[85.7,27.1],[85.7,27.2],[85.4,27.2],[85.4,27.3],[85.1,27.3],[85.1,27.4],[84.9,27.4],[84.9,27.5],[84.7,27.5],[84.7,27.6],[84.4,27.6],[84.4,27.7],[84.2,27.7],[84.2,27.8],[83.9,27.8],[83.9,27.9],[83.5,27.9],[83.5,28.0],[83.2,28.0],[83.2,28.1],[82.9,28.1],[82.9,28.2],[82.7,28.2],[82.7,28.3],[82.4,28.3],[82.4,28.4],[81.9,28.4],[81.9,28.5],[81.8,28.5],[81.8,28.6],[81.6,28.6],[81.6,28.7],[81.1,28.7],[81.1,28.9],[80.7,28.9],[80.7,29.0],[80.5,29.0],[80.5,29.1],[80.2,29.1],[80.2,29.2],[79.9,29.2],[79.9,29.3],[79.6,29.3],[79.6,29.4],[79.4,29.4],[79.4,29.5],[79.0,29.5],[79.0,29.6],[78.8,29.6],[78.8,29.7],[78.6,29.7],[78.6,29.8],[78.4,29.8],[78.4,29.9],[78.3,29.9],[78.3,30.0],[78.0,30.0],[78.0,30.1],[77.9,30.1],[77.9,30.2],[77.7,30.2],[77.7,30.3],[77.6,30.3],[77.6,30.4],[77.4,30.4],[77.4,30.5],[77.3,30.5],[77.3,30.6],[77.2,30.6],[77.2,30.7],[77.1,30.7],[77.1,30.8],[77.0,30.8],[77.0,31.0],[76.9,31.0],[76.9,31.1],[76.8,31.1],[76.8,31.3],[76.7,31.3],[76.7,31.4],[76.6,31.4],[76.6,31.5],[76.5,31.5],[76.5,31.6],[76.4,31.6],[76.4,31.7],[76.3,31.7],[76.3,31.9],[76.2,31.9],[76.2,32.0],[76.1,32.0],[76.1,32.1],[76.0,32.1],[76.0,32.2],[75.9,32.2],[75.9,32.3],[75.8,32.3],[75.8,32.5],[75.6,32.5],[75.6,32.6],[75.4,32.6],[75.4,32.7],[75.2,32.7],[75.2,32.8],[75.0,32.8],[75.0,32.9],[74.9,32.9],[74.9,33.0],[74.8,33.0],[74.8,33.1],[74.6,33.1],[74.6,33.2],[74.5,33.2],[74.5,33.3],[74.3,33.3],[74.3,33.4],[74.2,33.4],[74.2,33.5],[74.0,33.5],[74.0,33.6],[73.9,33.6],[73.9,33.7],[73.7,33.7],[73.7,33.8],[73.6,33.8],[73.6,33.9],[73.5,33.9],[73.5,34.1],[73.4,34.1],[73.4,34.2],[73.3,34.2],[73.3,34.3],[73.2,34.3],[73.2,34.4],[73.1,34.4],[73.1,34.5],[73.0,34.5],[73.0,34.6],[72.9,34.6],[72.9,34.7],[72.8,34.7],[72.8,34.8],[72.6,34.8],[72.6,34.9],[72.5,34.9],[72.5,35.0],[72.2,35.0],[72.2,35.1],[72.0,35.1],[72.0,35.2],[71.6,35.2],[71.6,35.3],[70.8,35.3],[70.8,35.4],[69.8,35.4],[69.8,35.5],[69.5,35.5],[69.5,35.6],[69.2,35.6],[69.2,35.7],[68.9,35.7],[68.9,35.8],[68.7,35.8],[68.7,35.9],[68.4,35.9],[68.4,36.0],[68.2,36.0],[68.2,36.1],[67.9,36.1],[67.9,36.2],[67.7,36.2],[67.7,36.3],[67.4,36.3],[67.4,36.4],[66.9,36.4],[66.9,36.5],[66.4,36.5],[66.4,36.6]],[[89.7,24.3],[89.7,24.7],[89.9,24.7],[89.9,24.3],[89.7,24.3]],[[67.7,24.2],[67.7,24.3],[67.9,24.3],[67.9,24.0],[67.7,24.0],[67.7,24.1],[67.6,24.1],[67.6,24.2],[67.7,24.2]]]},"properties":{"tile_id":"51","start_year":-311,"end_year":-305,"source_image":"data/raw/toolbay/t/51/-311.png","source_url":"https://www.toolbay.cc/history-map/t/51/-311.png","source_color":"#ff00ff","polity_id":null,"polity_assignment":"unverified","geometry_origin":"raster_color_trace","pixel_size_degrees":0.1,"source_color_pixels":20122,"simplification_degrees":0}},{"type":"Feature","id":"51:-311:#ff9900","bbox":[79.5,6.0,87.0,23.2],"geometry":{"type":"MultiPolygon","coordinates":[[[[80.3,9.8],[80.3,9.9],[80.0,9.9],[80.0,9.5],[80.1,9.5],[80.1,9.2],[80.0,9.2],[80.0,9.1],[79.9,9.1],[79.9,8.5],[79.8,8.5],[79.8,8.4],[79.7,8.4],[79.7,7.9],[79.8,7.9],[79.8,6.9],[79.9,6.9],[79.9,6.7],[80.0,6.7],[80.0,6.3],[80.1,6.3],[80.1,6.1],[80.2,6.1],[80.2,6.0],[80.8,6.0],[80.8,6.1],[81.1,6.1],[81.1,6.2],[81.4,6.2],[81.4,6.3],[81.5,6.3],[81.5,6.4],[81.6,6.4],[81.6,6.5],[81.7,6.5],[81.7,6.6],[81.8,6.6],[81.8,6.8],[81.9,6.8],[81.9,7.2],[81.8,7.2],[81.8,7.8],[81.7,7.8],[81.7,7.9],[81.6,7.9],[81.6,8.1],[81.5,8.1],[81.5,8.3],[81.4,8.3],[81.4,8.6],[81.3,8.6],[81.3,8.7],[81.2,8.7],[81.2,8.9],[81.1,8.9],[81.1,9.0],[81.0,9.0],[81.0,9.2],[80.9,9.2],[80.9,9.4],[80.8,9.4],[80.8,9.5],[80.7,9.5],[80.7,9.6],[80.6,9.6],[80.6,9.7],[80.4,9.7],[80.4,9.8],[80.3,9.8]]],[[[80.9,23.1],[80.9,23.2],[80.6,23.2],[80.6,23.0],[80.5,23.0],[80.5,22.8],[80.4,22.8],[80.4,22.4],[80.3,22.4],[80.3,22.0],[80.2,22.0],[80.2,21.7],[80.1,21.7],[80.1,21.3],[80.0,21.3],[80.0,20.4],[79.9,20.4],[79.9,20.2],[79.8,20.2],[79.8,20.1],[79.7,20.1],[79.7,19.7],[79.6,19.7],[79.6,19.5],[79.5,19.5],[79.5,18.5],[79.6,18.5],[79.6,18.3],[79.7,18.3],[79.7,17.9],[80.1,17.9],[80.1,17.8],[80.3,17.8],[80.3,17.7],[80.6,17.7],[80.6,17.6],[80.8,17.6],[80.8,17.5],[80.9,17.5],[80.9,17.4],[81.0,17.4],[81.0,17.3],[81.1,17.3],[81.1,17.1],[81.2,17.1],[81.2,17.0],[81.3,17.0],[81.3,16.9],[81.4,16.9],[81.4,16.7],[81.5,16.7],[81.5,16.6],[81.6,16.6],[81.6,16.4],[81.9,16.4],[81.9,16.5],[82.2,16.5],[82.2,16.6],[82.3,16.6],[82.3,16.7],[82.4,16.7],[82.4,17.2],[82.5,17.2],[82.5,17.3],[82.7,17.3],[82.7,17.4],[82.8,17.4],[82.8,17.5],[83.1,17.5],[83.1,17.6],[83.2,17.6],[83.2,17.7],[83.3,17.7],[83.3,17.8],[83.4,17.8],[83.4,17.9],[83.5,17.9],[83.5,18.0],[83.6,18.0],[83.6,18.1],[83.8,18.1],[83.8,18.2],[83.9,18.2],[83.9,18.3],[84.1,18.3],[84.1,18.4],[84.2,18.4],[84.2,18.5],[84.3,18.5],[84.3,18.6],[84.4,18.6],[84.4,18.7],[84.5,18.7],[84.5,18.8],[84.6,18.8],[84.6,18.9],[84.7,18.9],[84.7,19.1],[84.8,19.1],[84.8,19.2],[84.9,19.2],[84.9,19.3],[85.0,19.3],[85.0,19.4],[85.1,19.4],[85.1,19.5],[85.2,19.5],[85.2,19.6],[85.4,19.6],[85.4,19.7],[85.6,19.7],[85.6,19.8],[85.9,19.8],[85.9,19.9],[86.3,19.9],[86.3,20.0],[86.4,20.0],[86.4,20.1],[86.5,20.1],[86.5,20.2],[86.6,20.2],[86.6,20.3],[86.8,20.3],[86.8,20.4],[86.9,20.4],[86.9,20.6],[87.0,20.6],[87.0,20.7],[86.6,20.7],[86.6,20.8],[86.4,20.8],[86.4,20.9],[86.3,20.9],[86.3,21.0],[86.2,21.0],[86.2,21.1],[86.1,21.1],[86.1,21.2],[85.9,21.2],[85.9,21.3],[85.8,21.3],[85.8,21.4],[85.6,21.4],[85.6,21.5],[85.5,21.5],[85.5,21.6],[85.4,21.6],[85.4,21.7],[85.3,21.7],[85.3,21.8],[84.9,21.8],[84.9,21.9],[84.1,21.9],[84.1,22.0],[83.9,22.0],[83.9,22.1],[83.1,22.1],[83.1,22.2],[82.9,22.2],[82.9,22.3],[82.8,22.3],[82.8,22.4],[82.6,22.4],[82.6,22.5],[82.2,22.5],[82.2,22.6],[81.9,22.6],[81.9,22.7],[81.8,22.7],[81.8,22.9],[81.5,22.9],[81.5,23.0],[81.2,23.0],[81.2,23.1],[80.9,23.1]]]]},"properties":{"tile_id":"51","start_year":-311,"end_year":-305,"source_image":"data/raw/toolbay/t/51/-311.png","source_url":"https://www.toolbay.cc/history-map/t/51/-311.png","source_color":"#ff9900","polity_id":null,"polity_assignment":"unverified","geometry_origin":"raster_color_trace","pixel_size_degrees":0.1,"source_color_pixels":3306,"simplification_degrees":0}},{"type":"Feature","id":"51:-311:#ffff00","bbox":[76.9,13.9,81.6,18.2],"geometry":{"type":"Polygon","coordinates":[[[78.3,18.2],[77.7,18.2],[77.7,18.1],[77.6,18.1],[77.6,17.9],[77.5,17.9],[77.5,17.6],[77.4,17.6],[77.4,17.3],[77.3,17.3],[77.3,17.1],[77.2,17.1],[77.2,17.0],[77.1,17.0],[77.1,16.6],[77.0,16.6],[77.0,16.3],[76.9,16.3],[76.9,14.7],[77.0,14.7],[77.0,14.5],[77.1,14.5],[77.1,14.4],[77.3,14.4],[77.3,14.3],[78.0,14.3],[78.0,14.2],[78.5,14.2],[78.5,14.1],[79.4,14.1],[79.4,14.0],[79.6,14.0],[79.6,13.9],[80.3,13.9],[80.3,14.0],[80.2,14.0],[80.2,14.9],[80.1,14.9],[80.1,15.4],[80.2,15.4],[80.2,15.5],[80.3,15.5],[80.3,15.7],[80.4,15.7],[80.4,15.8],[80.5,15.8],[80.5,15.9],[80.7,15.9],[80.7,15.8],[81.0,15.8],[81.0,15.9],[81.1,15.9],[81.1,16.0],[81.2,16.0],[81.2,16.2],[81.3,16.2],[81.3,16.3],[81.4,16.3],[81.4,16.4],[81.6,16.4],[81.6,16.6],[81.5,16.6],[81.5,16.7],[81.4,16.7],[81.4,16.9],[81.3,16.9],[81.3,17.0],[81.2,17.0],[81.2,17.1],[81.1,17.1],[81.1,17.3],[81.0,17.3],[81.0,17.4],[80.9,17.4],[80.9,17.5],[80.8,17.5],[80.8,17.6],[80.6,17.6],[80.6,17.7],[80.3,17.7],[80.3,17.8],[80.1,17.8],[80.1,17.9],[79.6,17.9],[79.6,18.0],[78.6,18.0],[78.6,18.1],[78.3,18.1],[78.3,18.2]]]},"properties":{"tile_id":"51","start_year":-311,"end_year":-305,"source_image":"data/raw/toolbay/t/51/-311.png","source_url":"https://www.toolbay.cc/history-map/t/51/-311.png","source_color":"#ffff00","polity_id":null,"polity_assignment":"unverified","geometry_origin":"raster_color_trace","pixel_size_degrees":0.1,"source_color_pixels":1401,"simplification_degrees":0}}]}
