{"type":"FeatureCollection","features":[{"type":"Feature","id":"51:-338:#00ffff","bbox":[60.0,25.1,69.3,45.0],"geometry":{"type":"Polygon","coordinates":[[[60.1,43.8],[60.0,43.8],[60.0,25.4],[60.7,25.4],[60.7,25.3],[61.1,25.3],[61.1,25.2],[61.3,25.2],[61.3,25.1],[62.0,25.1],[62.0,25.2],[62.5,25.2],[62.5,25.3],[63.6,25.3],[63.6,25.4],[64.2,25.4],[64.2,25.3],[64.8,25.3],[64.8,25.4],[65.0,25.4],[65.0,25.3],[65.2,25.3],[65.2,25.4],[65.6,25.4],[65.6,25.6],[65.5,25.6],[65.5,25.9],[65.4,25.9],[65.4,26.4],[65.3,26.4],[65.3,26.9],[65.4,26.9],[65.4,27.3],[65.5,27.3],[65.5,27.8],[65.6,27.8],[65.6,28.2],[65.7,28.2],[65.7,28.5],[65.8,28.5],[65.8,29.0],[65.9,29.0],[65.9,29.2],[66.0,29.2],[66.0,29.4],[66.1,29.4],[66.1,29.6],[66.3,29.6],[66.3,29.7],[66.4,29.7],[66.4,30.1],[66.5,30.1],[66.5,30.3],[66.6,30.3],[66.6,30.5],[66.7,30.5],[66.7,30.7],[66.8,30.7],[66.8,30.9],[66.9,30.9],[66.9,31.1],[67.0,31.1],[67.0,31.2],[67.1,31.2],[67.1,32.9],[67.2,32.9],[67.2,33.2],[67.3,33.2],[67.3,34.2],[67.4,34.2],[67.4,34.3],[67.5,34.3],[67.5,34.5],[67.7,34.5],[67.7,34.7],[67.8,34.7],[67.8,34.8],[67.9,34.8],[67.9,34.9],[68.0,34.9],[68.0,35.1],[68.1,35.1],[68.1,35.2],[68.2,35.2],[68.2,35.3],[68.3,35.3],[68.3,35.4],[68.4,35.4],[68.4,35.5],[68.5,35.5],[68.5,35.7],[68.6,35.7],[68.6,35.9],[68.7,35.9],[68.7,36.2],[68.8,36.2],[68.8,36.4],[68.9,36.4],[68.9,36.6],[69.0,36.6],[69.0,37.0],[69.1,37.0],[69.1,37.2],[69.2,37.2],[69.2,37.8],[69.3,37.8],[69.3,38.4],[69.2,38.4],[69.2,39.0],[69.1,39.0],[69.1,39.2],[69.0,39.2],[69.0,39.4],[68.9,39.4],[68.9,39.6],[68.8,39.6],[68.8,39.7],[68.7,39.7],[68.7,39.9],[68.6,39.9],[68.6,40.1],[68.5,40.1],[68.5,40.2],[68.4,40.2],[68.4,40.6],[68.3,40.6],[68.3,41.0],[68.2,41.0],[68.2,41.3],[68.1,41.3],[68.1,41.7],[68.0,41.7],[68.0,41.9],[67.9,41.9],[67.9,42.1],[67.8,42.1],[67.8,42.4],[67.7,42.4],[67.7,42.6],[67.6,42.6],[67.6,42.8],[67.5,42.8],[67.5,43.1],[67.4,43.1],[67.4,43.3],[67.3,43.3],[67.3,43.6],[67.2,43.6],[67.2,43.8],[67.1,43.8],[67.1,44.1],[67.0,44.1],[67.0,44.3],[66.9,44.3],[66.9,44.4],[66.8,44.4],[66.8,44.7],[66.6,44.7],[66.6,44.8],[66.4,44.8],[66.4,44.9],[66.2,44.9],[66.2,45.0],[63.8,45.0],[63.8,44.9],[63.6,44.9],[63.6,44.8],[63.4,44.8],[63.4,44.7],[63.0,44.7],[63.0,44.6],[62.7,44.6],[62.7,44.5],[62.4,44.5],[62.4,44.4],[62.1,44.4],[62.1,44.3],[60.8,44.3],[60.8,44.2],[60.6,44.2],[60.6,44.1],[60.3,44.1],[60.3,44.0],[60.2,44.0],[60.2,43.9],[60.1,43.9],[60.1,43.8]]]},"properties":{"tile_id":"51","start_year":-338,"end_year":-330,"source_image":"data/raw/toolbay/t/51/-338.png","source_url":"https://www.toolbay.cc/history-map/t/51/-338.png","source_color":"#00ffff","polity_id":null,"polity_assignment":"unverified","geometry_origin":"raster_color_trace","pixel_size_degrees":0.1,"source_color_pixels":33537,"simplification_degrees":0}},{"type":"Feature","id":"51:-338:#ff00ff","bbox":[78.5,20.7,89.9,26.3],"geometry":{"type":"Polygon","coordinates":[[[87.5,26.3],[87.0,26.3],[87.0,26.2],[86.7,26.2],[86.7,26.1],[86.2,26.1],[86.2,26.0],[86.0,26.0],[86.0,25.9],[85.9,25.9],[85.9,25.8],[85.8,25.8],[85.8,25.6],[85.7,25.6],[85.7,25.5],[85.5,25.5],[85.5,25.4],[85.2,25.4],[85.2,25.3],[84.0,25.3],[84.0,25.4],[83.8,25.4],[83.8,25.5],[83.4,25.5],[83.4,25.6],[83.0,25.6],[83.0,25.7],[82.9,25.7],[82.9,25.8],[82.7,25.8],[82.7,25.7],[82.6,25.7],[82.6,25.6],[82.3,25.6],[82.3,25.5],[82.2,25.5],[82.2,25.3],[82.1,25.3],[82.1,25.2],[81.9,25.2],[81.9,25.1],[81.6,25.1],[81.6,25.0],[80.5,25.0],[80.5,25.1],[80.2,25.1],[80.2,25.2],[79.2,25.2],[79.2,25.1],[79.0,25.1],[79.0,25.0],[78.5,25.0],[78.5,24.5],[78.6,24.5],[78.6,24.4],[78.7,24.4],[78.7,24.3],[78.8,24.3],[78.8,24.2],[79.0,24.2],[79.0,24.1],[79.1,24.1],[79.1,24.0],[79.3,24.0],[79.3,23.9],[79.4,23.9],[79.4,23.8],[79.6,23.8],[79.6,23.7],[79.8,23.7],[79.8,23.6],[80.0,23.6],[80.0,23.5],[80.2,23.5],[80.2,23.4],[80.4,23.4],[80.4,23.3],[80.7,23.3],[80.7,23.2],[80.9,23.2],[80.9,23.1],[81.2,23.1],[81.2,23.0],[81.5,23.0],[81.5,22.9],[81.8,22.9],[81.8,22.7],[81.9,22.7],[81.9,22.6],[82.2,22.6],[82.2,22.5],[82.6,22.5],[82.6,22.4],[82.8,22.4],[82.8,22.3],[82.9,22.3],[82.9,22.2],[83.1,22.2],[83.1,22.1],[83.9,22.1],[83.9,22.0],[84.1,22.0],[84.1,21.9],[84.9,21.9],[84.9,21.8],[85.3,21.8],[85.3,21.7],[85.4,21.7],[85.4,21.6],[85.5,21.6],[85.5,21.5],[85.6,21.5],[85.6,21.4],[85.8,21.4],[85.8,21.3],[85.9,21.3],[85.9,21.2],[86.1,21.2],[86.1,21.1],[86.2,21.1],[86.2,21.0],[86.3,21.0],[86.3,20.9],[86.4,20.9],[86.4,20.8],[86.6,20.8],[86.6,20.7],[87.0,20.7],[87.0,21.0],[86.9,21.0],[86.9,21.4],[87.0,21.4],[87.0,21.5],[87.1,21.5],[87.1,21.6],[87.5,21.6],[87.5,21.7],[87.8,21.7],[87.8,21.8],[88.1,21.8],[88.1,21.7],[88.2,21.7],[88.2,21.6],[89.0,21.6],[89.0,21.7],[89.4,21.7],[89.4,21.8],[89.7,21.8],[89.7,21.9],[89.9,21.9],[89.9,22.2],[89.7,22.2],[89.7,22.4],[89.6,22.4],[89.6,22.6],[89.5,22.6],[89.5,23.3],[89.4,23.3],[89.4,23.9],[89.5,23.9],[89.5,24.5],[89.6,24.5],[89.6,25.0],[89.5,25.0],[89.5,25.1],[89.4,25.1],[89.4,25.2],[89.2,25.2],[89.2,25.3],[89.1,25.3],[89.1,25.4],[88.9,25.4],[88.9,25.5],[88.6,25.5],[88.6,25.6],[88.4,25.6],[88.4,25.7],[88.1,25.7],[88.1,25.8],[88.0,25.8],[88.0,25.9],[87.9,25.9],[87.9,26.0],[87.8,26.0],[87.8,26.1],[87.6,26.1],[87.6,26.2],[87.5,26.2],[87.5,26.3]]]},"properties":{"tile_id":"51","start_year":-338,"end_year":-330,"source_image":"data/raw/toolbay/t/51/-338.png","source_url":"https://www.toolbay.cc/history-map/t/51/-338.png","source_color":"#ff00ff","polity_id":null,"polity_assignment":"unverified","geometry_origin":"raster_color_trace","pixel_size_degrees":0.1,"source_color_pixels":3514,"simplification_degrees":0}}]}
