{"type":"FeatureCollection","features":[{"type":"Feature","id":"51:-539:#00ffff","bbox":[60.0,28.1,67.3,38.0],"geometry":{"type":"Polygon","coordinates":[[[60.1,38.0],[60.0,38.0],[60.0,28.1],[60.1,28.1],[60.1,28.3],[60.6,28.3],[60.6,28.4],[60.8,28.4],[60.8,28.5],[61.3,28.5],[61.3,28.6],[61.5,28.6],[61.5,28.7],[61.8,28.7],[61.8,28.8],[62.1,28.8],[62.1,28.9],[65.4,28.9],[65.4,29.0],[65.6,29.0],[65.6,29.1],[65.8,29.1],[65.8,29.2],[66.0,29.2],[66.0,29.4],[66.1,29.4],[66.1,29.6],[66.3,29.6],[66.3,29.7],[66.4,29.7],[66.4,30.1],[66.5,30.1],[66.5,30.3],[66.6,30.3],[66.6,30.5],[66.7,30.5],[66.7,30.7],[66.8,30.7],[66.8,30.9],[66.9,30.9],[66.9,31.1],[67.0,31.1],[67.0,31.2],[67.1,31.2],[67.1,32.9],[67.2,32.9],[67.2,33.2],[67.3,33.2],[67.3,34.5],[67.2,34.5],[67.2,34.9],[67.1,34.9],[67.1,35.2],[67.0,35.2],[67.0,35.5],[66.9,35.5],[66.9,35.6],[66.8,35.6],[66.8,35.7],[66.7,35.7],[66.7,35.8],[66.6,35.8],[66.6,35.9],[66.4,35.9],[66.4,36.0],[66.3,36.0],[66.3,36.1],[66.1,36.1],[66.1,36.2],[66.0,36.2],[66.0,36.3],[65.9,36.3],[65.9,36.4],[65.8,36.4],[65.8,36.5],[65.7,36.5],[65.7,36.6],[65.5,36.6],[65.5,36.7],[65.3,36.7],[65.3,36.8],[65.0,36.8],[65.0,36.9],[64.7,36.9],[64.7,36.8],[63.1,36.8],[63.1,36.9],[62.8,36.9],[62.8,37.0],[62.7,37.0],[62.7,37.1],[62.5,37.1],[62.5,37.2],[62.4,37.2],[62.4,37.3],[61.8,37.3],[61.8,37.4],[61.2,37.4],[61.2,37.5],[61.1,37.5],[61.1,37.6],[60.7,37.6],[60.7,37.7],[60.5,37.7],[60.5,37.8],[60.4,37.8],[60.4,37.9],[60.1,37.9],[60.1,38.0]]]},"properties":{"tile_id":"51","start_year":-539,"end_year":-529,"source_image":"data/raw/toolbay/t/51/-539.png","source_url":"https://www.toolbay.cc/history-map/t/51/-539.png","source_color":"#00ffff","polity_id":null,"polity_assignment":"unverified","geometry_origin":"raster_color_trace","pixel_size_degrees":0.1,"source_color_pixels":20937,"simplification_degrees":0}}]}
