{"type":"FeatureCollection","features":[{"type":"Feature","id":"51:-625:#00ff00","bbox":[60.0,28.1,60.4,32.9],"geometry":{"type":"Polygon","coordinates":[[[60.1,32.9],[60.0,32.9],[60.0,28.1],[60.1,28.1],[60.1,28.3],[60.2,28.3],[60.2,28.5],[60.3,28.5],[60.3,28.9],[60.4,28.9],[60.4,29.4],[60.3,29.4],[60.3,32.0],[60.2,32.0],[60.2,32.3],[60.1,32.3],[60.1,32.9]]]},"properties":{"tile_id":"51","start_year":-625,"end_year":-612,"source_image":"data/raw/toolbay/t/51/-625.png","source_url":"https://www.toolbay.cc/history-map/t/51/-625.png","source_color":"#00ff00","polity_id":null,"polity_assignment":"unverified","geometry_origin":"raster_color_trace","pixel_size_degrees":0.1,"source_color_pixels":11653,"simplification_degrees":0}}]}
