{"type":"FeatureCollection","features":[{"type":"Feature","id":"51:1018:#009900","bbox":[72.0,6.0,87.2,36.4],"geometry":{"type":"MultiPolygon","coordinates":[[[[80.3,9.8],[80.3,9.9],[80.0,9.9],[80.0,9.5],[80.1,9.5],[80.1,9.2],[80.0,9.2],[80.0,9.1],[79.9,9.1],[79.9,8.5],[79.8,8.5],[79.8,8.4],[79.7,8.4],[79.7,7.9],[79.8,7.9],[79.8,6.9],[79.9,6.9],[79.9,6.7],[80.0,6.7],[80.0,6.3],[80.1,6.3],[80.1,6.1],[80.2,6.1],[80.2,6.0],[80.8,6.0],[80.8,6.1],[81.1,6.1],[81.1,6.2],[81.4,6.2],[81.4,6.3],[81.5,6.3],[81.5,6.4],[81.6,6.4],[81.6,6.5],[81.7,6.5],[81.7,6.6],[81.8,6.6],[81.8,6.8],[81.9,6.8],[81.9,7.2],[81.8,7.2],[81.8,7.8],[81.7,7.8],[81.7,7.9],[81.6,7.9],[81.6,8.1],[81.5,8.1],[81.5,8.3],[81.4,8.3],[81.4,8.6],[81.3,8.6],[81.3,8.7],[81.2,8.7],[81.2,8.9],[81.1,8.9],[81.1,9.0],[81.0,9.0],[81.0,9.2],[80.9,9.2],[80.9,9.4],[80.8,9.4],[80.8,9.5],[80.7,9.5],[80.7,9.6],[80.6,9.6],[80.6,9.7],[80.4,9.7],[80.4,9.8],[80.3,9.8]]],[[[86.0,23.2],[85.8,23.2],[85.8,23.3],[85.3,23.3],[85.3,23.2],[85.1,23.2],[85.1,23.1],[85.0,23.1],[85.0,23.0],[84.9,23.0],[84.9,22.9],[84.7,22.9],[84.7,22.8],[84.6,22.8],[84.6,22.7],[84.5,22.7],[84.5,22.6],[84.4,22.6],[84.4,22.5],[84.3,22.5],[84.3,22.4],[84.2,22.4],[84.2,22.3],[84.1,22.3],[84.1,22.2],[84.0,22.2],[84.0,22.1],[83.9,22.1],[83.9,22.0],[83.8,22.0],[83.8,21.9],[83.7,21.9],[83.7,21.7],[83.5,21.7],[83.5,21.6],[83.4,21.6],[83.4,21.4],[83.2,21.4],[83.2,21.3],[83.1,21.3],[83.1,21.1],[83.0,21.1],[83.0,21.0],[82.9,21.0],[82.9,20.9],[82.8,20.9],[82.8,20.8],[82.7,20.8],[82.7,20.7],[82.6,20.7],[82.6,20.6],[82.5,20.6],[82.5,20.4],[82.4,20.4],[82.4,20.3],[82.3,20.3],[82.3,19.9],[82.2,19.9],[82.2,19.7],[82.1,19.7],[82.1,19.4],[82.0,19.4],[82.0,19.0],[81.9,19.0],[81.9,18.9],[81.8,18.9],[81.8,18.8],[81.7,18.8],[81.7,18.7],[81.6,18.7],[81.6,18.5],[81.5,18.5],[81.5,18.4],[81.4,18.4],[81.4,18.3],[81.3,18.3],[81.3,18.2],[81.2,18.2],[81.2,18.1],[81.1,18.1],[81.1,18.0],[81.0,18.0],[81.0,17.9],[80.9,17.9],[80.9,17.8],[80.8,17.8],[80.8,17.7],[80.6,17.7],[80.6,17.6],[80.5,17.6],[80.5,17.5],[80.4,17.5],[80.4,17.4],[80.3,17.4],[80.3,17.3],[80.1,17.3],[80.1,17.2],[80.0,17.2],[80.0,17.1],[79.8,17.1],[79.8,17.0],[79.7,17.0],[79.7,16.9],[79.6,16.9],[79.6,16.7],[79.5,16.7],[79.5,16.6],[79.4,16.6],[79.4,16.5],[79.3,16.5],[79.3,16.4],[79.2,16.4],[79.2,16.2],[79.1,16.2],[79.1,16.1],[79.0,16.1],[79.0,16.0],[78.9,16.0],[78.9,15.8],[78.8,15.8],[78.8,15.7],[78.3,15.7],[78.3,15.6],[78.1,15.6],[78.1,15.5],[77.7,15.5],[77.7,15.4],[77.3,15.4],[77.3,15.3],[77.0,15.3],[77.0,15.2],[76.7,15.2],[76.7,15.1],[76.5,15.1],[76.5,15.0],[76.4,15.0],[76.4,14.9],[76.2,14.9],[76.2,14.8],[75.8,14.8],[75.8,14.7],[75.3,14.7],[75.3,14.6],[74.4,14.6],[74.4,14.3],[74.5,14.3],[74.5,14.0],[74.6,14.0],[74.6,13.7],[74.7,13.7],[74.7,13.3],[74.8,13.3],[74.8,12.8],[74.9,12.8],[74.9,12.6],[75.0,12.6],[75.0,12.4],[75.1,12.4],[75.1,12.2],[75.2,12.2],[75.2,12.0],[75.3,12.0],[75.3,11.9],[75.4,11.9],[75.4,11.8],[75.5,11.8],[75.5,11.7],[75.6,11.7],[75.6,11.5],[75.7,11.5],[75.7,11.3],[75.8,11.3],[75.8,11.1],[75.9,11.1],[75.9,10.8],[76.0,10.8],[76.0,10.5],[76.1,10.5],[76.1,10.3],[76.2,10.3],[76.2,9.9],[76.3,9.9],[76.3,9.5],[76.4,9.5],[76.4,9.2],[76.5,9.2],[76.5,9.0],[76.6,9.0],[76.6,8.9],[76.7,8.9],[76.7,8.8],[76.8,8.8],[76.8,8.7],[76.9,8.7],[76.9,8.5],[77.0,8.5],[77.0,8.4],[77.1,8.4],[77.1,8.3],[77.2,8.3],[77.2,8.2],[77.8,8.2],[77.8,8.3],[78.0,8.3],[78.0,8.4],[78.1,8.4],[78.1,8.5],[78.2,8.5],[78.2,8.9],[78.3,8.9],[78.3,9.1],[78.4,9.1],[78.4,9.2],[78.8,9.2],[78.8,9.3],[78.9,9.3],[78.9,9.4],[79.0,9.4],[79.0,9.8],[79.1,9.8],[79.1,9.9],[79.2,9.9],[79.2,10.0],[79.3,10.0],[79.3,10.3],[79.4,10.3],[79.4,10.4],[79.6,10.4],[79.6,10.3],[79.8,10.3],[79.8,10.4],[79.9,10.4],[79.9,11.5],[79.8,11.5],[79.8,11.9],[79.9,11.9],[79.9,12.2],[80.0,12.2],[80.0,12.3],[80.1,12.3],[80.1,12.5],[80.2,12.5],[80.2,12.7],[80.3,12.7],[80.3,13.1],[80.4,13.1],[80.4,13.6],[80.3,13.6],[80.3,14.0],[80.2,14.0],[80.2,14.9],[80.1,14.9],[80.1,15.4],[80.2,15.4],[80.2,15.5],[80.3,15.5],[80.3,15.7],[80.4,15.7],[80.4,15.8],[80.5,15.8],[80.5,15.9],[80.7,15.9],[80.7,15.8],[81.0,15.8],[81.0,15.9],[81.1,15.9],[81.1,16.0],[81.2,16.0],[81.2,16.2],[81.3,16.2],[81.3,16.3],[81.4,16.3],[81.4,16.4],[81.9,16.4],[81.9,16.5],[82.2,16.5],[82.2,16.6],[82.3,16.6],[82.3,16.7],[82.4,16.7],[82.4,17.2],[82.5,17.2],[82.5,17.3],[82.7,17.3],[82.7,17.4],[82.8,17.4],[82.8,17.5],[83.1,17.5],[83.1,17.6],[83.2,17.6],[83.2,17.7],[83.3,17.7],[83.3,17.8],[83.4,17.8],[83.4,17.9],[83.5,17.9],[83.5,18.0],[83.6,18.0],[83.6,18.1],[83.8,18.1],[83.8,18.2],[83.9,18.2],[83.9,18.3],[84.1,18.3],[84.1,18.4],[84.2,18.4],[84.2,18.5],[84.3,18.5],[84.3,18.6],[84.4,18.6],[84.4,18.7],[84.5,18.7],[84.5,18.8],[84.6,18.8],[84.6,18.9],[84.7,18.9],[84.7,19.1],[84.8,19.1],[84.8,19.2],[84.9,19.2],[84.9,19.3],[85.0,19.3],[85.0,19.4],[85.1,19.4],[85.1,19.5],[85.2,19.5],[85.2,19.6],[85.4,19.6],[85.4,19.7],[85.6,19.7],[85.6,19.8],[85.9,19.8],[85.9,19.9],[86.3,19.9],[86.3,20.0],[86.4,20.0],[86.4,20.1],[86.5,20.1],[86.5,20.2],[86.6,20.2],[86.6,20.3],[86.8,20.3],[86.8,20.4],[86.9,20.4],[86.9,20.6],[87.0,20.6],[87.0,21.0],[86.9,21.0],[86.9,21.4],[87.0,21.4],[87.0,21.5],[87.1,21.5],[87.1,21.6],[87.2,21.6],[87.2,21.7],[87.1,21.7],[87.1,22.1],[87.0,22.1],[87.0,22.3],[86.9,22.3],[86.9,22.4],[86.8,22.4],[86.8,22.5],[86.7,22.5],[86.7,22.6],[86.6,22.6],[86.6,22.7],[86.5,22.7],[86.5,22.9],[86.3,22.9],[86.3,23.0],[86.2,23.0],[86.2,23.1],[86.0,23.1],[86.0,23.2]]],[[[74.9,36.3],[74.0,36.3],[74.0,36.4],[73.1,36.4],[73.1,36.3],[73.0,36.3],[73.0,36.1],[72.9,36.1],[72.9,36.0],[72.3,36.0],[72.3,35.9],[72.2,35.9],[72.2,35.7],[72.1,35.7],[72.1,35.6],[72.0,35.6],[72.0,34.3],[72.1,34.3],[72.1,34.1],[72.2,34.1],[72.2,33.9],[72.3,33.9],[72.3,33.6],[72.4,33.6],[72.4,33.4],[72.5,33.4],[72.5,33.2],[72.6,33.2],[72.6,33.0],[72.7,33.0],[72.7,32.9],[72.8,32.9],[72.8,32.7],[73.0,32.7],[73.0,32.6],[73.1,32.6],[73.1,32.5],[73.2,32.5],[73.2,32.4],[73.3,32.4],[73.3,32.2],[73.4,32.2],[73.4,32.1],[73.5,32.1],[73.5,32.0],[73.6,32.0],[73.6,31.9],[73.7,31.9],[73.7,31.8],[73.8,31.8],[73.8,31.7],[73.9,31.7],[73.9,31.6],[74.0,31.6],[74.0,31.5],[74.2,31.5],[74.2,31.3],[74.3,31.3],[74.3,31.2],[74.4,31.2],[74.4,31.0],[74.5,31.0],[74.5,30.9],[74.6,30.9],[74.6,30.8],[74.7,30.8],[74.7,30.7],[74.9,30.7],[74.9,30.6],[75.0,30.6],[75.0,30.5],[75.1,30.5],[75.1,30.4],[75.4,30.4],[75.4,30.3],[75.6,30.3],[75.6,30.2],[75.8,30.2],[75.8,30.1],[76.0,30.1],[76.0,30.0],[76.2,30.0],[76.2,29.9],[76.8,29.9],[76.8,29.8],[78.7,29.8],[78.7,29.9],[78.8,29.9],[78.8,30.0],[78.9,30.0],[78.9,30.1],[79.0,30.1],[79.0,30.2],[79.2,30.2],[79.2,30.4],[79.5,30.4],[79.5,30.5],[79.6,30.5],[79.6,30.6],[79.7,30.6],[79.7,30.9],[79.5,30.9],[79.5,31.1],[79.4,31.1],[79.4,31.2],[79.3,31.2],[79.3,31.3],[79.1,31.3],[79.1,31.4],[78.9,31.4],[78.9,31.5],[78.8,31.5],[78.8,31.6],[78.7,31.6],[78.7,31.7],[78.6,31.7],[78.6,31.8],[78.5,31.8],[78.5,31.9],[78.4,31.9],[78.4,32.0],[78.3,32.0],[78.3,32.1],[78.2,32.1],[78.2,32.2],[78.0,32.2],[78.0,32.3],[77.8,32.3],[77.8,32.4],[77.7,32.4],[77.7,32.5],[77.5,32.5],[77.5,32.7],[77.4,32.7],[77.4,32.8],[77.3,32.8],[77.3,32.9],[77.2,32.9],[77.2,33.0],[77.1,33.0],[77.1,33.1],[77.0,33.1],[77.0,33.2],[76.8,33.2],[76.8,33.3],[76.7,33.3],[76.7,33.4],[76.6,33.4],[76.6,33.5],[76.5,33.5],[76.5,33.7],[76.3,33.7],[76.3,33.8],[76.2,33.8],[76.2,33.9],[76.1,33.9],[76.1,34.0],[76.0,34.0],[76.0,34.2],[75.9,34.2],[75.9,34.3],[75.8,34.3],[75.8,34.4],[75.7,34.4],[75.7,34.5],[75.6,34.5],[75.6,34.7],[75.5,34.7],[75.5,34.9],[75.4,34.9],[75.4,35.0],[75.3,35.0],[75.3,35.1],[75.2,35.1],[75.2,35.4],[75.1,35.4],[75.1,35.6],[75.0,35.6],[75.0,35.9],[74.9,35.9],[74.9,36.3]]]]},"properties":{"tile_id":"51","start_year":1018,"end_year":1032,"source_image":"data/raw/toolbay/t/51/1018.png","source_url":"https://www.toolbay.cc/history-map/t/51/1018.png","source_color":"#009900","polity_id":null,"polity_assignment":"unverified","geometry_origin":"raster_color_trace","pixel_size_degrees":0.1,"source_color_pixels":9081,"simplification_degrees":0}},{"type":"Feature","id":"51:1018:#00ff00","bbox":[83.0,21.6,90.0,43.3],"geometry":{"type":"MultiPolygon","coordinates":[[[[86.9,28.0],[86.9,28.1],[86.2,28.1],[86.2,27.8],[86.1,27.8],[86.1,27.1],[85.5,27.1],[85.5,27.2],[85.4,27.2],[85.4,27.3],[85.2,27.3],[85.2,27.4],[84.9,27.4],[84.9,27.5],[84.4,27.5],[84.4,27.6],[84.0,27.6],[84.0,27.7],[83.7,27.7],[83.7,27.6],[83.6,27.6],[83.6,27.2],[83.5,27.2],[83.5,27.0],[83.4,27.0],[83.4,26.7],[83.3,26.7],[83.3,26.3],[83.2,26.3],[83.2,26.1],[83.1,26.1],[83.1,25.5],[83.0,25.5],[83.0,25.4],[83.1,25.4],[83.1,25.2],[83.2,25.2],[83.2,25.1],[83.3,25.1],[83.3,24.9],[83.4,24.9],[83.4,24.8],[83.5,24.8],[83.5,24.6],[83.6,24.6],[83.6,24.4],[83.7,24.4],[83.7,24.2],[83.8,24.2],[83.8,23.8],[83.9,23.8],[83.9,23.6],[84.0,23.6],[84.0,23.4],[84.1,23.4],[84.1,23.3],[84.2,23.3],[84.2,23.2],[84.3,23.2],[84.3,23.1],[84.4,23.1],[84.4,23.0],[84.5,23.0],[84.5,22.9],[84.9,22.9],[84.9,23.0],[85.0,23.0],[85.0,23.1],[85.1,23.1],[85.1,23.2],[85.3,23.2],[85.3,23.3],[85.8,23.3],[85.8,23.2],[86.0,23.2],[86.0,23.1],[86.2,23.1],[86.2,23.0],[86.3,23.0],[86.3,22.9],[86.5,22.9],[86.5,22.7],[86.6,22.7],[86.6,22.6],[86.7,22.6],[86.7,22.5],[86.8,22.5],[86.8,22.4],[86.9,22.4],[86.9,22.3],[87.0,22.3],[87.0,22.1],[87.1,22.1],[87.1,21.7],[87.2,21.7],[87.2,21.6],[87.5,21.6],[87.5,21.7],[87.8,21.7],[87.8,21.8],[88.1,21.8],[88.1,21.7],[88.2,21.7],[88.2,21.6],[89.0,21.6],[89.0,21.7],[89.4,21.7],[89.4,21.8],[89.7,21.8],[89.7,21.9],[89.9,21.9],[89.9,22.0],[90.0,22.0],[90.0,25.8],[89.9,25.8],[89.9,26.1],[90.0,26.1],[90.0,27.5],[89.1,27.5],[89.1,27.6],[88.7,27.6],[88.7,27.7],[88.2,27.7],[88.2,27.8],[87.8,27.8],[87.8,27.9],[87.5,27.9],[87.5,28.0],[86.9,28.0]],[[89.9,24.3],[89.7,24.3],[89.7,24.7],[89.9,24.7],[89.9,24.3]]],[[[90.0,37.7],[90.0,43.3],[88.9,43.3],[88.9,43.2],[88.5,43.2],[88.5,43.1],[88.1,43.1],[88.1,43.0],[87.8,43.0],[87.8,42.9],[87.0,42.9],[87.0,42.8],[86.3,42.8],[86.3,42.7],[85.5,42.7],[85.5,42.6],[85.0,42.6],[85.0,42.5],[84.7,42.5],[84.7,42.4],[84.3,42.4],[84.3,42.3],[83.1,42.3],[83.1,42.0],[83.2,42.0],[83.2,41.9],[83.3,41.9],[83.3,41.8],[83.4,41.8],[83.4,41.7],[83.5,41.7],[83.5,41.6],[83.7,41.6],[83.7,41.5],[83.8,41.5],[83.8,41.3],[83.9,41.3],[83.9,41.2],[84.0,41.2],[84.0,40.9],[84.1,40.9],[84.1,40.5],[84.2,40.5],[84.2,39.9],[84.3,39.9],[84.3,39.6],[84.4,39.6],[84.4,39.4],[84.5,39.4],[84.5,39.1],[84.6,39.1],[84.6,39.0],[84.7,39.0],[84.7,38.8],[84.8,38.8],[84.8,38.4],[84.9,38.4],[84.9,38.1],[85.0,38.1],[85.0,38.0],[85.1,38.0],[85.1,37.8],[85.2,37.8],[85.2,37.7],[85.3,37.7],[85.3,37.6],[85.5,37.6],[85.5,37.5],[85.7,37.5],[85.7,37.4],[85.9,37.4],[85.9,37.3],[87.0,37.3],[87.0,37.4],[87.3,37.4],[87.3,37.5],[87.7,37.5],[87.7,37.6],[88.3,37.6],[88.3,37.7],[90.0,37.7]]]]},"properties":{"tile_id":"51","start_year":1018,"end_year":1032,"source_image":"data/raw/toolbay/t/51/1018.png","source_url":"https://www.toolbay.cc/history-map/t/51/1018.png","source_color":"#00ff00","polity_id":null,"polity_assignment":"unverified","geometry_origin":"raster_color_trace","pixel_size_degrees":0.1,"source_color_pixels":6454,"simplification_degrees":0}},{"type":"Feature","id":"51:1018:#00ffff","bbox":[60.0,36.0,87.7,45.0],"geometry":{"type":"Polygon","coordinates":[[[60.1,43.8],[60.0,43.8],[60.0,37.5],[60.0,37.4],[60.6,37.4],[60.6,37.3],[60.9,37.3],[60.9,37.2],[61.3,37.2],[61.3,37.1],[61.7,37.1],[61.7,37.0],[62.0,37.0],[62.0,36.9],[62.4,36.9],[62.4,36.8],[62.8,36.8],[62.8,36.7],[63.2,36.7],[63.2,36.6],[63.7,36.6],[63.7,36.5],[64.2,36.5],[64.2,36.4],[64.6,36.4],[64.6,36.3],[66.2,36.3],[66.2,36.4],[66.6,36.4],[66.6,36.5],[67.2,36.5],[67.2,36.6],[67.6,36.6],[67.6,36.7],[68.0,36.7],[68.0,36.8],[68.4,36.8],[68.4,36.9],[68.7,36.9],[68.7,37.0],[69.2,37.0],[69.2,37.1],[69.6,37.1],[69.6,37.2],[70.3,37.2],[70.3,37.1],[70.4,37.1],[70.4,37.0],[70.6,37.0],[70.6,36.9],[70.8,36.9],[70.8,36.8],[71.0,36.8],[71.0,36.7],[71.1,36.7],[71.1,36.6],[71.2,36.6],[71.2,36.5],[71.4,36.5],[71.4,36.4],[71.5,36.4],[71.5,36.3],[71.7,36.3],[71.7,36.2],[71.9,36.2],[71.9,36.1],[72.1,36.1],[72.1,36.0],[72.9,36.0],[72.9,36.1],[73.0,36.1],[73.0,36.3],[73.1,36.3],[73.1,36.4],[74.0,36.4],[74.0,36.3],[74.6,36.3],[74.6,36.4],[74.7,36.4],[74.7,36.5],[74.8,36.5],[74.8,36.6],[74.9,36.6],[74.9,36.7],[75.1,36.7],[75.1,36.8],[75.3,36.8],[75.3,36.9],[75.5,36.9],[75.5,37.0],[75.7,37.0],[75.7,37.1],[76.0,37.1],[76.0,37.2],[77.4,37.2],[77.4,37.1],[77.7,37.1],[77.7,37.2],[77.8,37.2],[77.8,37.1],[77.9,37.1],[77.9,37.0],[78.2,37.0],[78.2,36.9],[78.4,36.9],[78.4,36.8],[78.8,36.8],[78.8,36.7],[79.2,36.7],[79.2,36.6],[80.9,36.6],[80.9,36.7],[81.4,36.7],[81.4,36.8],[81.9,36.8],[81.9,36.9],[82.2,36.9],[82.2,37.0],[82.4,37.0],[82.4,37.1],[82.8,37.1],[82.8,37.2],[83.1,37.2],[83.1,37.3],[83.3,37.3],[83.3,37.4],[83.8,37.4],[83.8,37.5],[84.1,37.5],[84.1,37.6],[84.4,37.6],[84.4,37.7],[84.8,37.7],[84.8,37.8],[85.1,37.8],[85.1,38.0],[85.0,38.0],[85.0,38.1],[84.9,38.1],[84.9,38.4],[84.8,38.4],[84.8,38.8],[84.7,38.8],[84.7,39.0],[84.6,39.0],[84.6,39.1],[84.5,39.1],[84.5,39.4],[84.4,39.4],[84.4,39.6],[84.3,39.6],[84.3,39.9],[84.2,39.9],[84.2,40.5],[84.1,40.5],[84.1,40.9],[84.0,40.9],[84.0,41.2],[83.9,41.2],[83.9,41.3],[83.8,41.3],[83.8,41.5],[83.7,41.5],[83.7,41.6],[83.5,41.6],[83.5,41.7],[83.4,41.7],[83.4,41.8],[83.3,41.8],[83.3,41.9],[83.2,41.9],[83.2,42.0],[83.1,42.0],[83.1,42.3],[84.3,42.3],[84.3,42.4],[84.7,42.4],[84.7,42.5],[85.0,42.5],[85.0,42.6],[85.5,42.6],[85.5,42.7],[86.3,42.7],[86.3,42.8],[87.0,42.8],[87.0,42.9],[87.7,42.9],[87.7,43.0],[87.6,43.0],[87.6,43.1],[87.5,43.1],[87.5,43.2],[87.3,43.2],[87.3,43.3],[87.1,43.3],[87.1,43.4],[87.0,43.4],[87.0,43.5],[86.9,43.5],[86.9,43.6],[86.7,43.6],[86.7,43.7],[86.6,43.7],[86.6,43.8],[86.4,43.8],[86.4,43.9],[86.3,43.9],[86.3,44.0],[86.2,44.0],[86.2,44.1],[86.1,44.1],[86.1,44.2],[85.9,44.2],[85.9,44.3],[85.8,44.3],[85.8,44.4],[85.6,44.4],[85.6,44.5],[85.5,44.5],[85.5,44.6],[85.3,44.6],[85.3,44.7],[85.2,44.7],[85.2,44.8],[85.1,44.8],[85.1,44.9],[85.0,44.9],[85.0,45.0],[68.0,45.0],[68.0,44.9],[67.8,44.9],[67.8,44.8],[67.5,44.8],[67.5,44.7],[67.4,44.7],[67.4,44.6],[67.2,44.6],[67.2,44.5],[67.1,44.5],[67.1,44.4],[67.0,44.4],[67.0,44.3],[66.8,44.3],[66.8,44.2],[66.7,44.2],[66.7,44.1],[66.5,44.1],[66.5,44.0],[66.3,44.0],[66.3,43.9],[66.0,43.9],[66.0,43.8],[65.7,43.8],[65.7,43.7],[63.9,43.7],[63.9,43.8],[63.7,43.8],[63.7,43.9],[63.4,43.9],[63.4,44.0],[63.2,44.0],[63.2,44.1],[63.0,44.1],[63.0,44.2],[62.8,44.2],[62.8,44.3],[62.7,44.3],[62.7,44.4],[62.6,44.4],[62.6,44.5],[62.4,44.5],[62.4,44.6],[62.3,44.6],[62.3,44.7],[62.2,44.7],[62.2,44.8],[62.1,44.8],[62.1,44.9],[62.0,44.9],[62.0,45.0],[61.4,45.0],[61.4,44.9],[61.3,44.9],[61.3,44.8],[61.1,44.8],[61.1,44.7],[61.0,44.7],[61.0,44.5],[60.9,44.5],[60.9,44.3],[60.8,44.3],[60.8,44.2],[60.6,44.2],[60.6,44.1],[60.3,44.1],[60.3,44.0],[60.2,44.0],[60.2,43.9],[60.1,43.9],[60.1,43.8]]]},"properties":{"tile_id":"51","start_year":1018,"end_year":1032,"source_image":"data/raw/toolbay/t/51/1018.png","source_url":"https://www.toolbay.cc/history-map/t/51/1018.png","source_color":"#00ffff","polity_id":null,"polity_assignment":"unverified","geometry_origin":"raster_color_trace","pixel_size_degrees":0.1,"source_color_pixels":20235,"simplification_degrees":0}},{"type":"Feature","id":"51:1018:#999900","bbox":[72.8,14.5,82.9,22.5],"geometry":{"type":"Polygon","coordinates":[[[78.4,22.5],[78.1,22.5],[78.1,22.4],[75.6,22.4],[75.6,22.3],[75.3,22.3],[75.3,22.2],[74.7,22.2],[74.7,21.6],[74.6,21.6],[74.6,21.2],[74.5,21.2],[74.5,21.1],[74.4,21.1],[74.4,21.0],[74.3,21.0],[74.3,20.8],[74.2,20.8],[74.2,20.7],[74.1,20.7],[74.1,20.6],[74.0,20.6],[74.0,20.4],[73.9,20.4],[73.9,20.2],[73.8,20.2],[73.8,20.1],[73.7,20.1],[73.7,20.0],[73.6,20.0],[73.6,19.9],[73.5,19.9],[73.5,19.8],[73.4,19.8],[73.4,19.7],[73.2,19.7],[73.2,19.6],[72.8,19.6],[72.8,18.9],[72.9,18.9],[72.9,18.3],[73.0,18.3],[73.0,18.0],[73.1,18.0],[73.1,17.6],[73.2,17.6],[73.2,17.2],[73.3,17.2],[73.3,16.5],[73.4,16.5],[73.4,16.2],[73.5,16.2],[73.5,16.0],[73.6,16.0],[73.6,15.9],[73.7,15.9],[73.7,15.6],[73.8,15.6],[73.8,15.4],[73.9,15.4],[73.9,15.1],[74.0,15.1],[74.0,15.0],[74.1,15.0],[74.1,14.9],[74.2,14.9],[74.2,14.7],[74.3,14.7],[74.3,14.5],[74.4,14.5],[74.4,14.6],[75.3,14.6],[75.3,14.7],[75.8,14.7],[75.8,14.8],[76.2,14.8],[76.2,14.9],[76.4,14.9],[76.4,15.0],[76.5,15.0],[76.5,15.1],[76.7,15.1],[76.7,15.2],[77.0,15.2],[77.0,15.3],[77.3,15.3],[77.3,15.4],[77.7,15.4],[77.7,15.5],[78.1,15.5],[78.1,15.6],[78.3,15.6],[78.3,15.7],[78.8,15.7],[78.8,15.8],[78.9,15.8],[78.9,16.0],[79.0,16.0],[79.0,16.1],[79.1,16.1],[79.1,16.2],[79.2,16.2],[79.2,16.4],[79.3,16.4],[79.3,16.5],[79.4,16.5],[79.4,16.6],[79.5,16.6],[79.5,16.7],[79.6,16.7],[79.6,16.9],[79.7,16.9],[79.7,17.0],[79.8,17.0],[79.8,17.1],[80.0,17.1],[80.0,17.2],[80.1,17.2],[80.1,17.3],[80.3,17.3],[80.3,17.4],[80.4,17.4],[80.4,17.5],[80.5,17.5],[80.5,17.6],[80.6,17.6],[80.6,17.7],[80.8,17.7],[80.8,17.8],[80.9,17.8],[80.9,17.9],[81.0,17.9],[81.0,18.0],[81.1,18.0],[81.1,18.1],[81.2,18.1],[81.2,18.2],[81.3,18.2],[81.3,18.3],[81.4,18.3],[81.4,18.4],[81.5,18.4],[81.5,18.5],[81.6,18.5],[81.6,18.7],[81.7,18.7],[81.7,18.8],[81.8,18.8],[81.8,18.9],[81.9,18.9],[81.9,19.0],[82.0,19.0],[82.0,19.4],[82.1,19.4],[82.1,19.7],[82.2,19.7],[82.2,19.9],[82.3,19.9],[82.3,20.3],[82.4,20.3],[82.4,20.4],[82.5,20.4],[82.5,20.6],[82.6,20.6],[82.6,20.7],[82.7,20.7],[82.7,20.8],[82.8,20.8],[82.8,20.9],[82.9,20.9],[82.9,21.1],[82.8,21.1],[82.8,21.2],[82.6,21.2],[82.6,21.3],[82.3,21.3],[82.3,21.4],[82.2,21.4],[82.2,21.5],[82.1,21.5],[82.1,21.7],[81.8,21.7],[81.8,21.8],[81.6,21.8],[81.6,21.9],[81.3,21.9],[81.3,22.0],[81.0,22.0],[81.0,22.1],[80.7,22.1],[80.7,22.2],[80.4,22.2],[80.4,22.3],[79.7,22.3],[79.7,22.4],[78.4,22.4],[78.4,22.5]]]},"properties":{"tile_id":"51","start_year":1018,"end_year":1032,"source_image":"data/raw/toolbay/t/51/1018.png","source_url":"https://www.toolbay.cc/history-map/t/51/1018.png","source_color":"#999900","polity_id":null,"polity_assignment":"unverified","geometry_origin":"raster_color_trace","pixel_size_degrees":0.1,"source_color_pixels":5386,"simplification_degrees":0}},{"type":"Feature","id":"51:1018:#ff00ff","bbox":[74.6,30.6,84.5,37.2],"geometry":{"type":"Polygon","coordinates":[[[77.4,37.2],[76.0,37.2],[76.0,37.1],[75.7,37.1],[75.7,37.0],[75.5,37.0],[75.5,36.9],[75.3,36.9],[75.3,36.8],[75.1,36.8],[75.1,36.7],[74.9,36.7],[74.9,36.6],[74.8,36.6],[74.8,36.5],[74.7,36.5],[74.7,36.4],[74.6,36.4],[74.6,36.3],[74.9,36.3],[74.9,35.9],[75.0,35.9],[75.0,35.6],[75.1,35.6],[75.1,35.4],[75.2,35.4],[75.2,35.1],[75.3,35.1],[75.3,35.0],[75.4,35.0],[75.4,34.9],[75.5,34.9],[75.5,34.7],[75.6,34.7],[75.6,34.5],[75.7,34.5],[75.7,34.4],[75.8,34.4],[75.8,34.3],[75.9,34.3],[75.9,34.2],[76.0,34.2],[76.0,34.0],[76.1,34.0],[76.1,33.9],[76.2,33.9],[76.2,33.8],[76.3,33.8],[76.3,33.7],[76.5,33.7],[76.5,33.5],[76.6,33.5],[76.6,33.4],[76.7,33.4],[76.7,33.3],[76.8,33.3],[76.8,33.2],[77.0,33.2],[77.0,33.1],[77.1,33.1],[77.1,33.0],[77.2,33.0],[77.2,32.9],[77.3,32.9],[77.3,32.8],[77.4,32.8],[77.4,32.7],[77.5,32.7],[77.5,32.5],[77.7,32.5],[77.7,32.4],[77.8,32.4],[77.8,32.3],[78.0,32.3],[78.0,32.2],[78.2,32.2],[78.2,32.1],[78.3,32.1],[78.3,32.0],[78.4,32.0],[78.4,31.9],[78.5,31.9],[78.5,31.8],[78.6,31.8],[78.6,31.7],[78.7,31.7],[78.7,31.6],[78.8,31.6],[78.8,31.5],[78.9,31.5],[78.9,31.4],[79.1,31.4],[79.1,31.3],[79.3,31.3],[79.3,31.2],[79.4,31.2],[79.4,31.1],[79.5,31.1],[79.5,30.9],[79.7,30.9],[79.7,30.8],[80.1,30.8],[80.1,30.7],[80.3,30.7],[80.3,30.6],[80.6,30.6],[80.6,30.7],[80.7,30.7],[80.7,30.8],[81.1,30.8],[81.1,30.9],[81.3,30.9],[81.3,31.0],[81.4,31.0],[81.4,31.1],[81.5,31.1],[81.5,31.2],[81.6,31.2],[81.6,31.4],[81.7,31.4],[81.7,31.5],[81.8,31.5],[81.8,31.6],[81.9,31.6],[81.9,31.7],[82.0,31.7],[82.0,31.8],[82.1,31.8],[82.1,31.9],[82.2,31.9],[82.2,32.0],[82.3,32.0],[82.3,32.1],[82.4,32.1],[82.4,32.2],[82.5,32.2],[82.5,32.3],[82.6,32.3],[82.6,32.5],[82.7,32.5],[82.7,32.6],[82.9,32.6],[82.9,32.7],[83.0,32.7],[83.0,32.8],[83.1,32.8],[83.1,32.9],[83.2,32.9],[83.2,33.0],[83.3,33.0],[83.3,33.1],[83.4,33.1],[83.4,33.2],[83.5,33.2],[83.5,33.3],[83.6,33.3],[83.6,34.0],[83.7,34.0],[83.7,34.2],[83.8,34.2],[83.8,34.4],[83.9,34.4],[83.9,34.5],[84.0,34.5],[84.0,34.7],[84.1,34.7],[84.1,34.8],[84.2,34.8],[84.2,35.0],[84.3,35.0],[84.3,35.2],[84.4,35.2],[84.4,35.6],[84.5,35.6],[84.5,35.8],[84.4,35.8],[84.4,36.2],[84.3,36.2],[84.3,36.3],[84.2,36.3],[84.2,36.5],[84.1,36.5],[84.1,36.7],[84.0,36.7],[84.0,36.8],[83.8,36.8],[83.8,36.9],[83.6,36.9],[83.6,37.0],[83.4,37.0],[83.4,37.1],[83.2,37.1],[83.2,37.2],[82.8,37.2],[82.8,37.1],[82.4,37.1],[82.4,37.0],[82.2,37.0],[82.2,36.9],[81.9,36.9],[81.9,36.8],[81.4,36.8],[81.4,36.7],[80.9,36.7],[80.9,36.6],[79.2,36.6],[79.2,36.7],[78.8,36.7],[78.8,36.8],[78.4,36.8],[78.4,36.9],[78.2,36.9],[78.2,37.0],[77.9,37.0],[77.9,37.1],[77.8,37.1],[77.8,37.2],[77.7,37.2],[77.7,37.1],[77.4,37.1],[77.4,37.2]]]},"properties":{"tile_id":"51","start_year":1018,"end_year":1032,"source_image":"data/raw/toolbay/t/51/1018.png","source_url":"https://www.toolbay.cc/history-map/t/51/1018.png","source_color":"#ff00ff","polity_id":null,"polity_assignment":"unverified","geometry_origin":"raster_color_trace","pixel_size_degrees":0.1,"source_color_pixels":4708,"simplification_degrees":0}},{"type":"Feature","id":"51:1018:#ff9933","bbox":[60.0,24.9,86.3,37.4],"geometry":{"type":"MultiPolygon","coordinates":[[[[80.1,30.7],[80.1,30.8],[79.7,30.8],[79.7,30.6],[79.6,30.6],[79.6,30.5],[79.5,30.5],[79.5,30.4],[79.2,30.4],[79.2,30.2],[79.0,30.2],[79.0,30.1],[78.9,30.1],[78.9,30.0],[78.8,30.0],[78.8,29.9],[78.7,29.9],[78.7,29.8],[78.8,29.8],[78.8,29.6],[79.1,29.6],[79.1,29.5],[79.2,29.5],[79.2,29.4],[79.4,29.4],[79.4,29.3],[79.6,29.3],[79.6,29.2],[79.8,29.2],[79.8,29.1],[79.9,29.1],[79.9,29.0],[80.1,29.0],[80.1,28.9],[80.5,28.9],[80.5,28.8],[80.7,28.8],[80.7,28.7],[80.9,28.7],[80.9,28.6],[81.2,28.6],[81.2,28.5],[81.5,28.5],[81.5,28.4],[81.7,28.4],[81.7,28.3],[82.1,28.3],[82.1,28.2],[82.5,28.2],[82.5,28.1],[82.7,28.1],[82.7,28.0],[83.3,28.0],[83.3,27.9],[83.4,27.9],[83.4,27.8],[83.7,27.8],[83.7,27.7],[84.0,27.7],[84.0,27.6],[84.4,27.6],[84.4,27.5],[84.9,27.5],[84.9,27.4],[85.2,27.4],[85.2,27.3],[85.4,27.3],[85.4,27.2],[85.5,27.2],[85.5,27.1],[86.1,27.1],[86.1,27.8],[86.2,27.8],[86.2,28.1],[86.3,28.1],[86.3,28.2],[86.2,28.2],[86.2,28.3],[86.1,28.3],[86.1,28.5],[85.9,28.5],[85.9,28.6],[85.8,28.6],[85.8,28.7],[85.6,28.7],[85.6,28.8],[85.3,28.8],[85.3,28.9],[85.0,28.9],[85.0,29.0],[84.7,29.0],[84.7,29.1],[84.2,29.1],[84.2,29.2],[83.8,29.2],[83.8,29.3],[83.7,29.3],[83.7,29.4],[83.3,29.4],[83.3,29.5],[83.0,29.5],[83.0,29.6],[82.5,29.6],[82.5,29.7],[82.2,29.7],[82.2,29.8],[82.0,29.8],[82.0,29.9],[81.8,29.9],[81.8,30.0],[81.6,30.0],[81.6,30.1],[81.4,30.1],[81.4,30.2],[81.1,30.2],[81.1,30.3],[80.8,30.3],[80.8,30.4],[80.6,30.4],[80.6,30.6],[80.3,30.6],[80.3,30.7],[80.1,30.7]]],[[[60.6,37.3],[60.6,37.4],[60.0,37.4],[60.0,25.4],[60.7,25.4],[60.7,25.3],[61.1,25.3],[61.1,25.2],[61.3,25.2],[61.3,25.1],[62.0,25.1],[62.0,25.2],[62.5,25.2],[62.5,25.3],[63.6,25.3],[63.6,25.4],[64.2,25.4],[64.2,25.3],[64.8,25.3],[64.8,25.4],[65.0,25.4],[65.0,25.3],[65.2,25.3],[65.2,25.4],[66.1,25.4],[66.1,25.5],[66.5,25.5],[66.5,25.4],[66.6,25.4],[66.6,25.3],[66.7,25.3],[66.7,25.0],[66.8,25.0],[66.8,24.9],[67.2,24.9],[67.2,25.0],[67.5,25.0],[67.5,25.1],[67.6,25.1],[67.6,25.2],[67.8,25.2],[67.8,25.3],[68.0,25.3],[68.0,25.4],[68.2,25.4],[68.2,25.5],[68.5,25.5],[68.5,25.6],[68.7,25.6],[68.7,25.7],[69.1,25.7],[69.1,25.8],[69.4,25.8],[69.4,25.9],[69.7,25.9],[69.7,26.0],[69.9,26.0],[69.9,26.1],[70.2,26.1],[70.2,26.2],[70.4,26.2],[70.4,26.3],[70.9,26.3],[70.9,26.4],[71.3,26.4],[71.3,26.5],[72.1,26.5],[72.1,26.6],[75.1,26.6],[75.1,26.7],[75.8,26.7],[75.8,26.8],[75.9,26.8],[75.9,26.9],[76.0,26.9],[76.0,27.0],[76.1,27.0],[76.1,27.1],[76.3,27.1],[76.3,27.3],[76.4,27.3],[76.4,27.4],[76.5,27.4],[76.5,27.5],[76.7,27.5],[76.7,27.9],[76.8,27.9],[76.8,28.1],[76.9,28.1],[76.9,28.4],[77.0,28.4],[77.0,28.8],[77.1,28.8],[77.1,29.1],[77.2,29.1],[77.2,29.4],[77.3,29.4],[77.3,29.7],[77.2,29.7],[77.2,29.8],[76.8,29.8],[76.8,29.9],[76.2,29.9],[76.2,30.0],[76.0,30.0],[76.0,30.1],[75.8,30.1],[75.8,30.2],[75.6,30.2],[75.6,30.3],[75.4,30.3],[75.4,30.4],[75.1,30.4],[75.1,30.5],[75.0,30.5],[75.0,30.6],[74.9,30.6],[74.9,30.7],[74.7,30.7],[74.7,30.8],[74.6,30.8],[74.6,30.9],[74.5,30.9],[74.5,31.0],[74.4,31.0],[74.4,31.2],[74.3,31.2],[74.3,31.3],[74.2,31.3],[74.2,31.5],[74.0,31.5],[74.0,31.6],[73.9,31.6],[73.9,31.7],[73.8,31.7],[73.8,31.8],[73.7,31.8],[73.7,31.9],[73.6,31.9],[73.6,32.0],[73.5,32.0],[73.5,32.1],[73.4,32.1],[73.4,32.2],[73.3,32.2],[73.3,32.4],[73.2,32.4],[73.2,32.5],[73.1,32.5],[73.1,32.6],[73.0,32.6],[73.0,32.7],[72.8,32.7],[72.8,32.9],[72.7,32.9],[72.7,33.0],[72.6,33.0],[72.6,33.2],[72.5,33.2],[72.5,33.4],[72.4,33.4],[72.4,33.6],[72.3,33.6],[72.3,33.9],[72.2,33.9],[72.2,34.1],[72.1,34.1],[72.1,34.3],[72.0,34.3],[72.0,35.6],[72.1,35.6],[72.1,35.7],[72.2,35.7],[72.2,35.9],[72.3,35.9],[72.3,36.0],[72.1,36.0],[72.1,36.1],[71.9,36.1],[71.9,36.2],[71.7,36.2],[71.7,36.3],[71.5,36.3],[71.5,36.4],[71.4,36.4],[71.4,36.5],[71.2,36.5],[71.2,36.6],[71.1,36.6],[71.1,36.7],[71.0,36.7],[71.0,36.8],[70.8,36.8],[70.8,36.9],[70.6,36.9],[70.6,37.0],[70.4,37.0],[70.4,37.1],[70.3,37.1],[70.3,37.2],[69.6,37.2],[69.6,37.1],[69.2,37.1],[69.2,37.0],[68.7,37.0],[68.7,36.9],[68.4,36.9],[68.4,36.8],[68.0,36.8],[68.0,36.7],[67.6,36.7],[67.6,36.6],[67.2,36.6],[67.2,36.5],[66.6,36.5],[66.6,36.4],[66.2,36.4],[66.2,36.3],[64.6,36.3],[64.6,36.4],[64.2,36.4],[64.2,36.5],[63.7,36.5],[63.7,36.6],[63.2,36.6],[63.2,36.7],[62.8,36.7],[62.8,36.8],[62.4,36.8],[62.4,36.9],[62.0,36.9],[62.0,37.0],[61.7,37.0],[61.7,37.1],[61.3,37.1],[61.3,37.2],[60.9,37.2],[60.9,37.3],[60.6,37.3]]]]},"properties":{"tile_id":"51","start_year":1018,"end_year":1032,"source_image":"data/raw/toolbay/t/51/1018.png","source_url":"https://www.toolbay.cc/history-map/t/51/1018.png","source_color":"#ff9933","polity_id":null,"polity_assignment":"unverified","geometry_origin":"raster_color_trace","pixel_size_degrees":0.1,"source_color_pixels":24070,"simplification_degrees":0}}]}
