{"type":"FeatureCollection","features":[{"type":"Feature","id":"51:1240:#0000ff","bbox":[82.3,18.1,87.6,24.0],"geometry":{"type":"Polygon","coordinates":[[[87.1,24.0],[85.6,24.0],[85.6,23.9],[85.1,23.9],[85.1,23.8],[84.7,23.8],[84.7,23.7],[84.6,23.7],[84.6,23.6],[84.4,23.6],[84.4,23.5],[84.3,23.5],[84.3,23.4],[84.1,23.4],[84.1,23.3],[84.0,23.3],[84.0,23.2],[83.9,23.2],[83.9,23.1],[83.8,23.1],[83.8,23.0],[83.6,23.0],[83.6,22.8],[83.4,22.8],[83.4,22.6],[83.3,22.6],[83.3,22.4],[83.2,22.4],[83.2,22.3],[83.1,22.3],[83.1,22.2],[82.9,22.2],[82.9,22.0],[82.8,22.0],[82.8,21.8],[82.6,21.8],[82.6,21.7],[82.5,21.7],[82.5,21.5],[82.4,21.5],[82.4,21.4],[82.3,21.4],[82.3,21.2],[82.4,21.2],[82.4,21.1],[82.5,21.1],[82.5,21.0],[82.6,21.0],[82.6,20.8],[82.7,20.8],[82.7,20.6],[82.8,20.6],[82.8,19.3],[82.9,19.3],[82.9,19.1],[83.0,19.1],[83.0,18.8],[83.1,18.8],[83.1,18.7],[83.2,18.7],[83.2,18.5],[83.3,18.5],[83.3,18.4],[83.5,18.4],[83.5,18.3],[83.6,18.3],[83.6,18.2],[83.7,18.2],[83.7,18.1],[83.8,18.1],[83.8,18.2],[83.9,18.2],[83.9,18.3],[84.1,18.3],[84.1,18.4],[84.2,18.4],[84.2,18.5],[84.3,18.5],[84.3,18.6],[84.4,18.6],[84.4,18.7],[84.5,18.7],[84.5,18.8],[84.6,18.8],[84.6,18.9],[84.7,18.9],[84.7,19.1],[84.8,19.1],[84.8,19.2],[84.9,19.2],[84.9,19.3],[85.0,19.3],[85.0,19.4],[85.1,19.4],[85.1,19.5],[85.2,19.5],[85.2,19.6],[85.4,19.6],[85.4,19.7],[85.6,19.7],[85.6,19.8],[85.9,19.8],[85.9,19.9],[86.3,19.9],[86.3,20.0],[86.4,20.0],[86.4,20.1],[86.5,20.1],[86.5,20.2],[86.6,20.2],[86.6,20.3],[86.8,20.3],[86.8,20.4],[86.9,20.4],[86.9,20.6],[87.0,20.6],[87.0,21.0],[86.9,21.0],[86.9,21.4],[87.0,21.4],[87.0,21.5],[87.1,21.5],[87.1,21.6],[87.5,21.6],[87.5,21.7],[87.6,21.7],[87.6,21.8],[87.5,21.8],[87.5,22.0],[87.4,22.0],[87.4,22.1],[87.3,22.1],[87.3,22.4],[87.2,22.4],[87.2,22.6],[87.1,22.6],[87.1,24.0]]]},"properties":{"tile_id":"51","start_year":1240,"end_year":1242,"source_image":"data/raw/toolbay/t/51/1240.png","source_url":"https://www.toolbay.cc/history-map/t/51/1240.png","source_color":"#0000ff","polity_id":null,"polity_assignment":"unverified","geometry_origin":"raster_color_trace","pixel_size_degrees":0.1,"source_color_pixels":1867,"simplification_degrees":0}},{"type":"Feature","id":"51:1240:#009900","bbox":[60.8,12.7,83.7,45.0],"geometry":{"type":"MultiPolygon","coordinates":[[[[79.7,22.3],[79.7,22.4],[79.2,22.4],[79.2,22.1],[79.1,22.1],[79.1,21.8],[79.0,21.8],[79.0,21.7],[78.9,21.7],[78.9,21.5],[78.8,21.5],[78.8,21.3],[78.7,21.3],[78.7,21.2],[78.6,21.2],[78.6,21.0],[78.5,21.0],[78.5,20.9],[78.4,20.9],[78.4,20.8],[78.3,20.8],[78.3,20.6],[78.2,20.6],[78.2,20.5],[78.1,20.5],[78.1,20.4],[78.0,20.4],[78.0,20.3],[77.9,20.3],[77.9,20.1],[77.7,20.1],[77.7,20.0],[77.6,20.0],[77.6,19.8],[77.5,19.8],[77.5,19.7],[77.4,19.7],[77.4,19.5],[77.3,19.5],[77.3,19.3],[77.2,19.3],[77.2,19.2],[77.1,19.2],[77.1,19.1],[77.0,19.1],[77.0,18.8],[76.9,18.8],[76.9,18.3],[76.8,18.3],[76.8,18.0],[76.7,18.0],[76.7,17.8],[76.6,17.8],[76.6,17.7],[76.5,17.7],[76.5,17.5],[76.4,17.5],[76.4,16.9],[76.3,16.9],[76.3,16.8],[76.4,16.8],[76.4,16.7],[76.5,16.7],[76.5,16.6],[76.6,16.6],[76.6,16.5],[76.8,16.5],[76.8,16.4],[76.9,16.4],[76.9,16.3],[77.0,16.3],[77.0,16.1],[77.1,16.1],[77.1,15.9],[77.2,15.9],[77.2,15.8],[77.3,15.8],[77.3,15.7],[77.4,15.7],[77.4,15.5],[77.5,15.5],[77.5,15.3],[77.6,15.3],[77.6,15.2],[77.7,15.2],[77.7,15.1],[77.8,15.1],[77.8,14.2],[77.7,14.2],[77.7,13.8],[77.6,13.8],[77.6,13.4],[77.5,13.4],[77.5,13.1],[78.6,13.1],[78.6,13.0],[79.0,13.0],[79.0,12.9],[79.2,12.9],[79.2,12.8],[79.5,12.8],[79.5,12.7],[80.3,12.7],[80.3,13.1],[80.4,13.1],[80.4,13.6],[80.3,13.6],[80.3,14.0],[80.2,14.0],[80.2,14.9],[80.1,14.9],[80.1,15.4],[80.2,15.4],[80.2,15.5],[80.3,15.5],[80.3,15.7],[80.4,15.7],[80.4,15.8],[80.5,15.8],[80.5,15.9],[80.7,15.9],[80.7,15.8],[81.0,15.8],[81.0,15.9],[81.1,15.9],[81.1,16.0],[81.2,16.0],[81.2,16.2],[81.3,16.2],[81.3,16.3],[81.4,16.3],[81.4,16.4],[81.9,16.4],[81.9,16.5],[82.2,16.5],[82.2,16.6],[82.3,16.6],[82.3,16.7],[82.4,16.7],[82.4,17.2],[82.5,17.2],[82.5,17.3],[82.7,17.3],[82.7,17.4],[82.8,17.4],[82.8,17.5],[83.1,17.5],[83.1,17.6],[83.2,17.6],[83.2,17.7],[83.3,17.7],[83.3,17.8],[83.4,17.8],[83.4,17.9],[83.5,17.9],[83.5,18.0],[83.6,18.0],[83.6,18.1],[83.7,18.1],[83.7,18.2],[83.6,18.2],[83.6,18.3],[83.5,18.3],[83.5,18.4],[83.3,18.4],[83.3,18.5],[83.2,18.5],[83.2,18.7],[83.1,18.7],[83.1,18.8],[83.0,18.8],[83.0,19.1],[82.9,19.1],[82.9,19.3],[82.8,19.3],[82.8,20.6],[82.7,20.6],[82.7,20.8],[82.6,20.8],[82.6,21.0],[82.5,21.0],[82.5,21.1],[82.4,21.1],[82.4,21.2],[82.3,21.2],[82.3,21.4],[82.2,21.4],[82.2,21.5],[82.1,21.5],[82.1,21.7],[81.8,21.7],[81.8,21.8],[81.6,21.8],[81.6,21.9],[81.3,21.9],[81.3,22.0],[81.0,22.0],[81.0,22.1],[80.7,22.1],[80.7,22.2],[80.4,22.2],[80.4,22.3],[79.7,22.3]]],[[[81.7,44.9],[81.7,45.0],[61.4,45.0],[61.4,44.9],[61.3,44.9],[61.3,44.8],[61.1,44.8],[61.1,44.7],[61.0,44.7],[61.0,44.5],[60.9,44.5],[60.9,44.3],[60.8,44.3],[60.8,44.2],[60.9,44.2],[60.9,44.1],[61.0,44.1],[61.0,44.0],[61.1,44.0],[61.1,43.8],[61.2,43.8],[61.2,43.7],[61.3,43.7],[61.3,43.5],[61.4,43.5],[61.4,43.3],[61.5,43.3],[61.5,43.1],[61.6,43.1],[61.6,42.9],[61.7,42.9],[61.7,42.7],[61.8,42.7],[61.8,42.6],[61.9,42.6],[61.9,42.4],[62.0,42.4],[62.0,42.2],[62.1,42.2],[62.1,42.0],[62.2,42.0],[62.2,41.9],[62.3,41.9],[62.3,41.6],[62.4,41.6],[62.4,41.4],[62.5,41.4],[62.5,41.2],[62.6,41.2],[62.6,41.0],[62.7,41.0],[62.7,40.8],[62.8,40.8],[62.8,40.5],[62.9,40.5],[62.9,40.3],[63.0,40.3],[63.0,40.2],[63.1,40.2],[63.1,40.1],[63.2,40.1],[63.2,39.9],[63.3,39.9],[63.3,39.7],[63.4,39.7],[63.4,39.6],[63.5,39.6],[63.5,39.4],[63.6,39.4],[63.6,39.2],[63.7,39.2],[63.7,39.1],[63.8,39.1],[63.8,39.0],[63.9,39.0],[63.9,38.9],[64.0,38.9],[64.0,38.7],[64.1,38.7],[64.1,38.6],[64.2,38.6],[64.2,38.5],[64.3,38.5],[64.3,38.4],[64.4,38.4],[64.4,38.2],[64.6,38.2],[64.6,38.1],[64.7,38.1],[64.7,38.0],[64.9,38.0],[64.9,37.9],[65.1,37.9],[65.1,37.8],[65.3,37.8],[65.3,37.7],[65.5,37.7],[65.5,37.6],[65.8,37.6],[65.8,37.5],[66.3,37.5],[66.3,37.4],[67.6,37.4],[67.6,37.5],[67.7,37.5],[67.7,37.4],[67.9,37.4],[67.9,37.3],[68.0,37.3],[68.0,37.2],[68.2,37.2],[68.2,37.1],[68.5,37.1],[68.5,37.0],[68.6,37.0],[68.6,36.9],[68.7,36.9],[68.7,37.0],[69.2,37.0],[69.2,37.1],[69.6,37.1],[69.6,37.2],[70.3,37.2],[70.3,37.1],[70.4,37.1],[70.4,37.0],[70.6,37.0],[70.6,36.9],[70.8,36.9],[70.8,36.8],[71.0,36.8],[71.0,36.7],[71.1,36.7],[71.1,36.6],[71.2,36.6],[71.2,36.5],[71.4,36.5],[71.4,36.4],[71.5,36.4],[71.5,36.3],[71.7,36.3],[71.7,36.2],[71.9,36.2],[71.9,36.1],[72.1,36.1],[72.1,36.0],[72.9,36.0],[72.9,36.1],[73.0,36.1],[73.0,36.3],[73.1,36.3],[73.1,36.4],[74.0,36.4],[74.0,36.3],[74.6,36.3],[74.6,36.4],[74.7,36.4],[74.7,36.5],[74.8,36.5],[74.8,36.6],[74.9,36.6],[74.9,36.7],[75.1,36.7],[75.1,36.8],[75.3,36.8],[75.3,36.9],[75.5,36.9],[75.5,37.0],[75.7,37.0],[75.7,37.1],[76.0,37.1],[76.0,37.2],[77.4,37.2],[77.4,37.1],[77.7,37.1],[77.7,37.2],[77.8,37.2],[77.8,37.1],[77.9,37.1],[77.9,37.0],[78.2,37.0],[78.2,36.9],[78.4,36.9],[78.4,36.8],[78.8,36.8],[78.8,36.7],[79.2,36.7],[79.2,36.6],[80.9,36.6],[80.9,36.7],[81.4,36.7],[81.4,36.8],[81.5,36.8],[81.5,37.3],[81.6,37.3],[81.6,39.2],[81.7,39.2],[81.7,39.7],[81.8,39.7],[81.8,40.2],[81.9,40.2],[81.9,40.6],[82.0,40.6],[82.0,40.9],[82.1,40.9],[82.1,41.5],[82.0,41.5],[82.0,42.0],[81.9,42.0],[81.9,42.3],[81.8,42.3],[81.8,42.7],[81.7,42.7],[81.7,43.1],[81.8,43.1],[81.8,43.9],[81.9,43.9],[81.9,44.5],[81.8,44.5],[81.8,44.9],[81.7,44.9]]]]},"properties":{"tile_id":"51","start_year":1240,"end_year":1242,"source_image":"data/raw/toolbay/t/51/1240.png","source_url":"https://www.toolbay.cc/history-map/t/51/1240.png","source_color":"#009900","polity_id":null,"polity_assignment":"unverified","geometry_origin":"raster_color_trace","pixel_size_degrees":0.1,"source_color_pixels":19407,"simplification_degrees":0}},{"type":"Feature","id":"51:1240:#00ff00","bbox":[73.6,12.1,77.8,17.0],"geometry":{"type":"Polygon","coordinates":[[[76.1,17.0],[75.6,17.0],[75.6,16.9],[75.5,16.9],[75.5,16.8],[75.3,16.8],[75.3,16.7],[75.2,16.7],[75.2,16.6],[75.1,16.6],[75.1,16.5],[74.9,16.5],[74.9,16.4],[74.7,16.4],[74.7,16.3],[74.4,16.3],[74.4,16.2],[74.2,16.2],[74.2,16.1],[73.9,16.1],[73.9,16.0],[73.6,16.0],[73.6,15.9],[73.7,15.9],[73.7,15.6],[73.8,15.6],[73.8,15.4],[73.9,15.4],[73.9,15.1],[74.0,15.1],[74.0,15.0],[74.1,15.0],[74.1,14.9],[74.2,14.9],[74.2,14.7],[74.3,14.7],[74.3,14.5],[74.4,14.5],[74.4,14.3],[74.5,14.3],[74.5,14.0],[74.6,14.0],[74.6,13.7],[74.7,13.7],[74.7,13.3],[74.8,13.3],[74.8,12.8],[74.9,12.8],[74.9,12.6],[75.0,12.6],[75.0,12.4],[75.1,12.4],[75.1,12.2],[75.2,12.2],[75.2,12.1],[75.7,12.1],[75.7,12.2],[76.3,12.2],[76.3,12.3],[76.4,12.3],[76.4,12.4],[76.6,12.4],[76.6,12.5],[76.9,12.5],[76.9,12.6],[77.2,12.6],[77.2,12.7],[77.3,12.7],[77.3,12.8],[77.4,12.8],[77.4,13.1],[77.5,13.1],[77.5,13.4],[77.6,13.4],[77.6,13.8],[77.7,13.8],[77.7,14.2],[77.8,14.2],[77.8,15.1],[77.7,15.1],[77.7,15.2],[77.6,15.2],[77.6,15.3],[77.5,15.3],[77.5,15.5],[77.4,15.5],[77.4,15.7],[77.3,15.7],[77.3,15.8],[77.2,15.8],[77.2,15.9],[77.1,15.9],[77.1,16.1],[77.0,16.1],[77.0,16.3],[76.9,16.3],[76.9,16.4],[76.8,16.4],[76.8,16.5],[76.6,16.5],[76.6,16.6],[76.5,16.6],[76.5,16.7],[76.4,16.7],[76.4,16.8],[76.3,16.8],[76.3,16.9],[76.1,16.9],[76.1,17.0]]]},"properties":{"tile_id":"51","start_year":1240,"end_year":1242,"source_image":"data/raw/toolbay/t/51/1240.png","source_url":"https://www.toolbay.cc/history-map/t/51/1240.png","source_color":"#00ff00","polity_id":null,"polity_assignment":"unverified","geometry_origin":"raster_color_trace","pixel_size_degrees":0.1,"source_color_pixels":1339,"simplification_degrees":0}},{"type":"Feature","id":"51:1240:#993300","bbox":[60.0,25.1,90.0,45.0],"geometry":{"type":"MultiPolygon","coordinates":[[[[60.1,43.9],[60.1,43.8],[60.0,43.8],[60.0,25.4],[60.7,25.4],[60.7,25.3],[61.1,25.3],[61.1,25.2],[61.3,25.2],[61.3,25.1],[62.0,25.1],[62.0,25.2],[62.5,25.2],[62.5,25.3],[63.6,25.3],[63.6,25.4],[63.7,25.4],[63.7,25.7],[63.6,25.7],[63.6,26.0],[63.5,26.0],[63.5,26.5],[63.4,26.5],[63.4,26.8],[63.3,26.8],[63.3,27.2],[63.2,27.2],[63.2,27.4],[63.1,27.4],[63.1,27.7],[63.0,27.7],[63.0,28.0],[62.9,28.0],[62.9,28.2],[62.8,28.2],[62.8,28.5],[62.7,28.5],[62.7,28.6],[62.6,28.6],[62.6,28.8],[62.5,28.8],[62.5,29.0],[62.4,29.0],[62.4,29.1],[62.3,29.1],[62.3,29.2],[62.2,29.2],[62.2,29.5],[62.1,29.5],[62.1,29.6],[62.0,29.6],[62.0,29.8],[61.9,29.8],[61.9,30.0],[61.8,30.0],[61.8,30.3],[61.7,30.3],[61.7,31.6],[61.8,31.6],[61.8,31.8],[61.9,31.8],[61.9,31.9],[62.0,31.9],[62.0,32.1],[62.1,32.1],[62.1,32.3],[62.2,32.3],[62.2,32.4],[62.3,32.4],[62.3,32.5],[62.4,32.5],[62.4,32.8],[62.5,32.8],[62.5,32.9],[62.6,32.9],[62.6,33.0],[62.7,33.0],[62.7,33.2],[62.8,33.2],[62.8,33.3],[62.9,33.3],[62.9,33.5],[63.0,33.5],[63.0,33.6],[63.1,33.6],[63.1,33.7],[63.2,33.7],[63.2,33.8],[63.3,33.8],[63.3,33.9],[63.4,33.9],[63.4,34.0],[63.5,34.0],[63.5,34.1],[63.6,34.1],[63.6,34.2],[63.7,34.2],[63.7,34.3],[63.8,34.3],[63.8,34.4],[63.9,34.4],[63.9,34.5],[64.0,34.5],[64.0,34.6],[64.1,34.6],[64.1,34.7],[64.2,34.7],[64.2,34.9],[64.3,34.9],[64.3,35.0],[64.4,35.0],[64.4,35.1],[64.5,35.1],[64.5,35.3],[64.6,35.3],[64.6,35.4],[64.8,35.4],[64.8,35.5],[64.9,35.5],[64.9,35.6],[65.1,35.6],[65.1,35.7],[65.3,35.7],[65.3,35.8],[65.4,35.8],[65.4,35.9],[65.5,35.9],[65.5,36.0],[65.6,36.0],[65.6,36.1],[65.8,36.1],[65.8,36.2],[65.9,36.2],[65.9,36.3],[66.0,36.3],[66.0,36.4],[66.2,36.4],[66.2,36.5],[66.3,36.5],[66.3,36.6],[66.4,36.6],[66.4,36.7],[66.6,36.7],[66.6,36.8],[66.8,36.8],[66.8,36.9],[67.0,36.9],[67.0,37.0],[67.1,37.0],[67.1,37.1],[67.2,37.1],[67.2,37.2],[67.4,37.2],[67.4,37.3],[67.5,37.3],[67.5,37.4],[66.3,37.4],[66.3,37.5],[65.8,37.5],[65.8,37.6],[65.5,37.6],[65.5,37.7],[65.3,37.7],[65.3,37.8],[65.1,37.8],[65.1,37.9],[64.9,37.9],[64.9,38.0],[64.7,38.0],[64.7,38.1],[64.6,38.1],[64.6,38.2],[64.4,38.2],[64.4,38.4],[64.3,38.4],[64.3,38.5],[64.2,38.5],[64.2,38.6],[64.1,38.6],[64.1,38.7],[64.0,38.7],[64.0,38.9],[63.9,38.9],[63.9,39.0],[63.8,39.0],[63.8,39.1],[63.7,39.1],[63.7,39.2],[63.6,39.2],[63.6,39.4],[63.5,39.4],[63.5,39.6],[63.4,39.6],[63.4,39.7],[63.3,39.7],[63.3,39.9],[63.2,39.9],[63.2,40.1],[63.1,40.1],[63.1,40.2],[63.0,40.2],[63.0,40.3],[62.9,40.3],[62.9,40.5],[62.8,40.5],[62.8,40.8],[62.7,40.8],[62.7,41.0],[62.6,41.0],[62.6,41.2],[62.5,41.2],[62.5,41.4],[62.4,41.4],[62.4,41.6],[62.3,41.6],[62.3,41.9],[62.2,41.9],[62.2,42.0],[62.1,42.0],[62.1,42.2],[62.0,42.2],[62.0,42.4],[61.9,42.4],[61.9,42.6],[61.8,42.6],[61.8,42.7],[61.7,42.7],[61.7,42.9],[61.6,42.9],[61.6,43.1],[61.5,43.1],[61.5,43.3],[61.4,43.3],[61.4,43.5],[61.3,43.5],[61.3,43.7],[61.2,43.7],[61.2,43.8],[61.1,43.8],[61.1,44.0],[61.0,44.0],[61.0,44.1],[60.9,44.1],[60.9,44.2],[60.6,44.2],[60.6,44.1],[60.3,44.1],[60.3,44.0],[60.2,44.0],[60.2,43.9],[60.1,43.9]]],[[[90.0,27.6],[90.0,45.0],[81.7,45.0],[81.7,44.9],[81.8,44.9],[81.8,44.5],[81.9,44.5],[81.9,43.9],[81.8,43.9],[81.8,43.1],[81.7,43.1],[81.7,42.7],[81.8,42.7],[81.8,42.3],[81.9,42.3],[81.9,42.0],[82.0,42.0],[82.0,41.5],[82.1,41.5],[82.1,40.9],[82.0,40.9],[82.0,40.6],[81.9,40.6],[81.9,40.2],[81.8,40.2],[81.8,39.7],[81.7,39.7],[81.7,39.2],[81.6,39.2],[81.6,37.3],[81.5,37.3],[81.5,36.8],[81.4,36.8],[81.4,36.7],[80.9,36.7],[80.9,36.6],[79.2,36.6],[79.2,36.7],[78.8,36.7],[78.8,36.8],[78.4,36.8],[78.4,36.9],[78.2,36.9],[78.2,37.0],[77.9,37.0],[77.9,37.1],[77.8,37.1],[77.8,37.2],[77.7,37.2],[77.7,37.1],[77.4,37.1],[77.4,37.2],[76.0,37.2],[76.0,37.1],[75.7,37.1],[75.7,37.0],[75.5,37.0],[75.5,36.9],[75.3,36.9],[75.3,36.8],[75.1,36.8],[75.1,36.7],[74.9,36.7],[74.9,36.6],[74.8,36.6],[74.8,36.5],[74.7,36.5],[74.7,36.4],[74.6,36.4],[74.6,35.8],[74.7,35.8],[74.7,35.6],[74.8,35.6],[74.8,35.4],[74.9,35.4],[74.9,35.3],[75.0,35.3],[75.0,35.2],[75.1,35.2],[75.1,35.1],[75.2,35.1],[75.2,35.0],[75.3,35.0],[75.3,34.8],[75.4,34.8],[75.4,34.7],[75.5,34.7],[75.5,34.6],[75.6,34.6],[75.6,34.5],[75.7,34.5],[75.7,34.4],[75.8,34.4],[75.8,34.3],[76.0,34.3],[76.0,34.2],[76.1,34.2],[76.1,34.1],[76.2,34.1],[76.2,34.0],[76.3,34.0],[76.3,33.9],[76.4,33.9],[76.4,33.8],[76.5,33.8],[76.5,33.7],[76.7,33.7],[76.7,33.6],[76.8,33.6],[76.8,33.5],[77.0,33.5],[77.0,33.4],[77.1,33.4],[77.1,33.3],[77.3,33.3],[77.3,33.2],[77.4,33.2],[77.4,33.1],[77.5,33.1],[77.5,33.0],[77.6,33.0],[77.6,32.7],[77.7,32.7],[77.7,32.4],[77.8,32.4],[77.8,32.1],[77.9,32.1],[77.9,32.0],[78.0,32.0],[78.0,31.8],[78.1,31.8],[78.1,31.6],[78.2,31.6],[78.2,31.5],[78.3,31.5],[78.3,31.4],[79.7,31.4],[79.7,31.3],[80.1,31.3],[80.1,31.2],[80.3,31.2],[80.3,31.1],[80.4,31.1],[80.4,31.0],[80.6,31.0],[80.6,30.9],[80.7,30.9],[80.7,30.8],[80.8,30.8],[80.8,30.7],[81.0,30.7],[81.0,30.6],[81.1,30.6],[81.1,30.5],[81.4,30.5],[81.4,30.4],[81.5,30.4],[81.5,30.3],[81.7,30.3],[81.7,30.2],[81.8,30.2],[81.8,30.1],[82.0,30.1],[82.0,30.0],[82.2,30.0],[82.2,29.9],[82.5,29.9],[82.5,29.8],[82.8,29.8],[82.8,29.7],[83.2,29.7],[83.2,29.6],[83.8,29.6],[83.8,29.5],[84.1,29.5],[84.1,29.4],[84.4,29.4],[84.4,29.3],[84.9,29.3],[84.9,29.2],[85.1,29.2],[85.1,29.1],[85.3,29.1],[85.3,29.0],[85.5,29.0],[85.5,28.9],[85.7,28.9],[85.7,28.8],[85.9,28.8],[85.9,28.7],[86.3,28.7],[86.3,28.6],[86.6,28.6],[86.6,28.5],[87.0,28.5],[87.0,28.4],[87.3,28.4],[87.3,28.3],[87.6,28.3],[87.6,28.2],[88.0,28.2],[88.0,28.1],[88.3,28.1],[88.3,28.0],[88.6,28.0],[88.6,27.9],[88.8,27.9],[88.8,27.8],[89.0,27.8],[89.0,27.7],[89.3,27.7],[89.3,27.6],[90.0,27.6]]]]},"properties":{"tile_id":"51","start_year":1240,"end_year":1242,"source_image":"data/raw/toolbay/t/51/1240.png","source_url":"https://www.toolbay.cc/history-map/t/51/1240.png","source_color":"#993300","polity_id":null,"polity_assignment":"unverified","geometry_origin":"raster_color_trace","pixel_size_degrees":0.1,"source_color_pixels":42885,"simplification_degrees":0}},{"type":"Feature","id":"51:1240:#ff0000","bbox":[68.1,20.7,76.3,26.7],"geometry":{"type":"Polygon","coordinates":[[[73.7,26.7],[73.0,26.7],[73.0,26.6],[71.8,26.6],[71.8,26.5],[71.4,26.5],[71.4,26.4],[71.0,26.4],[71.0,26.3],[70.7,26.3],[70.7,26.2],[70.4,26.2],[70.4,26.1],[70.2,26.1],[70.2,26.0],[70.1,26.0],[70.1,25.9],[70.0,25.9],[70.0,25.8],[69.9,25.8],[69.9,25.7],[69.8,25.7],[69.8,25.5],[69.7,25.5],[69.7,25.4],[69.6,25.4],[69.6,25.3],[69.5,25.3],[69.5,25.2],[69.4,25.2],[69.4,25.1],[69.3,25.1],[69.3,24.9],[69.2,24.9],[69.2,24.8],[69.1,24.8],[69.1,24.7],[69.0,24.7],[69.0,24.6],[68.9,24.6],[68.9,24.5],[68.8,24.5],[68.8,24.4],[68.6,24.4],[68.6,24.3],[68.5,24.3],[68.5,24.2],[68.4,24.2],[68.4,24.1],[68.2,24.1],[68.2,23.9],[68.1,23.9],[68.1,23.7],[68.2,23.7],[68.2,23.6],[68.3,23.6],[68.3,23.5],[68.4,23.5],[68.4,23.4],[68.5,23.4],[68.5,23.3],[68.6,23.3],[68.6,23.2],[68.7,23.2],[68.7,23.1],[68.9,23.1],[68.9,23.0],[69.1,23.0],[69.1,22.9],[69.5,22.9],[69.5,22.8],[69.8,22.8],[69.8,22.9],[70.1,22.9],[70.1,22.8],[70.2,22.8],[70.2,22.7],[70.1,22.7],[70.1,22.6],[69.6,22.6],[69.6,22.5],[69.1,22.5],[69.1,22.4],[69.0,22.4],[69.0,22.2],[69.1,22.2],[69.1,22.1],[69.2,22.1],[69.2,22.0],[69.3,22.0],[69.3,21.9],[69.4,21.9],[69.4,21.8],[69.5,21.8],[69.5,21.7],[69.6,21.7],[69.6,21.6],[69.7,21.6],[69.7,21.5],[69.8,21.5],[69.8,21.4],[69.9,21.4],[69.9,21.3],[70.0,21.3],[70.0,21.2],[70.1,21.2],[70.1,21.1],[70.2,21.1],[70.2,21.0],[70.4,21.0],[70.4,20.9],[70.5,20.9],[70.5,20.8],[70.8,20.8],[70.8,20.7],[71.0,20.7],[71.0,20.8],[71.3,20.8],[71.3,20.9],[71.5,20.9],[71.5,21.0],[71.7,21.0],[71.7,21.1],[71.9,21.1],[71.9,21.2],[72.1,21.2],[72.1,21.3],[72.2,21.3],[72.2,21.5],[72.3,21.5],[72.3,22.0],[72.7,22.0],[72.7,22.1],[73.1,22.1],[73.1,22.2],[73.3,22.2],[73.3,22.3],[73.5,22.3],[73.5,22.4],[73.7,22.4],[73.7,22.5],[73.9,22.5],[73.9,22.6],[74.2,22.6],[74.2,22.7],[74.3,22.7],[74.3,22.8],[74.5,22.8],[74.5,22.9],[74.7,22.9],[74.7,23.0],[74.8,23.0],[74.8,23.1],[75.0,23.1],[75.0,23.2],[75.1,23.2],[75.1,23.3],[75.3,23.3],[75.3,23.4],[75.5,23.4],[75.5,23.5],[75.6,23.5],[75.6,23.6],[75.7,23.6],[75.7,23.7],[75.8,23.7],[75.8,23.8],[75.9,23.8],[75.9,23.9],[76.0,23.9],[76.0,24.4],[76.1,24.4],[76.1,24.6],[76.2,24.6],[76.2,24.9],[76.3,24.9],[76.3,26.1],[75.8,26.1],[75.8,26.2],[75.3,26.2],[75.3,26.3],[74.8,26.3],[74.8,26.4],[74.4,26.4],[74.4,26.5],[74.0,26.5],[74.0,26.6],[73.7,26.6],[73.7,26.7]]]},"properties":{"tile_id":"51","start_year":1240,"end_year":1242,"source_image":"data/raw/toolbay/t/51/1240.png","source_url":"https://www.toolbay.cc/history-map/t/51/1240.png","source_color":"#ff0000","polity_id":null,"polity_assignment":"unverified","geometry_origin":"raster_color_trace","pixel_size_degrees":0.1,"source_color_pixels":3054,"simplification_degrees":0}},{"type":"Feature","id":"51:1240:#ff00ff","bbox":[75.2,8.2,80.2,13.1],"geometry":{"type":"Polygon","coordinates":[[[78.6,13.1],[77.4,13.1],[77.4,12.8],[77.3,12.8],[77.3,12.7],[77.2,12.7],[77.2,12.6],[76.9,12.6],[76.9,12.5],[76.6,12.5],[76.6,12.4],[76.4,12.4],[76.4,12.3],[76.3,12.3],[76.3,12.2],[75.7,12.2],[75.7,12.1],[75.2,12.1],[75.2,12.0],[75.3,12.0],[75.3,11.9],[75.4,11.9],[75.4,11.8],[75.5,11.8],[75.5,11.7],[75.6,11.7],[75.6,11.5],[75.7,11.5],[75.7,11.3],[75.8,11.3],[75.8,11.1],[75.9,11.1],[75.9,10.8],[76.0,10.8],[76.0,10.5],[76.1,10.5],[76.1,10.3],[76.2,10.3],[76.2,9.9],[76.3,9.9],[76.3,9.5],[76.4,9.5],[76.4,9.2],[76.5,9.2],[76.5,9.0],[76.6,9.0],[76.6,8.9],[76.7,8.9],[76.7,8.8],[76.8,8.8],[76.8,8.7],[76.9,8.7],[76.9,8.5],[77.0,8.5],[77.0,8.4],[77.1,8.4],[77.1,8.3],[77.2,8.3],[77.2,8.2],[77.8,8.2],[77.8,8.3],[78.0,8.3],[78.0,8.4],[78.1,8.4],[78.1,8.5],[78.2,8.5],[78.2,8.9],[78.3,8.9],[78.3,9.1],[78.4,9.1],[78.4,9.2],[78.8,9.2],[78.8,9.3],[78.9,9.3],[78.9,9.4],[79.0,9.4],[79.0,9.8],[79.1,9.8],[79.1,9.9],[79.2,9.9],[79.2,10.0],[79.3,10.0],[79.3,10.3],[79.4,10.3],[79.4,10.4],[79.6,10.4],[79.6,10.3],[79.8,10.3],[79.8,10.4],[79.9,10.4],[79.9,11.5],[79.8,11.5],[79.8,11.9],[79.9,11.9],[79.9,12.2],[80.0,12.2],[80.0,12.3],[80.1,12.3],[80.1,12.5],[80.2,12.5],[80.2,12.7],[79.5,12.7],[79.5,12.8],[79.2,12.8],[79.2,12.9],[79.0,12.9],[79.0,13.0],[78.6,13.0],[78.6,13.1]]]},"properties":{"tile_id":"51","start_year":1240,"end_year":1242,"source_image":"data/raw/toolbay/t/51/1240.png","source_url":"https://www.toolbay.cc/history-map/t/51/1240.png","source_color":"#ff00ff","polity_id":null,"polity_assignment":"unverified","geometry_origin":"raster_color_trace","pixel_size_degrees":0.1,"source_color_pixels":2834,"simplification_degrees":0}},{"type":"Feature","id":"51:1240:#ff9933","bbox":[63.0,8.4,90.0,37.5],"geometry":{"type":"MultiPolygon","coordinates":[[[[80.3,9.8],[80.3,9.9],[80.0,9.9],[80.0,9.5],[80.1,9.5],[80.1,9.2],[80.0,9.2],[80.0,9.1],[79.9,9.1],[79.9,8.5],[79.8,8.5],[79.8,8.4],[80.5,8.4],[80.5,8.5],[80.6,8.5],[80.6,8.6],[80.8,8.6],[80.8,8.7],[81.2,8.7],[81.2,8.9],[81.1,8.9],[81.1,9.0],[81.0,9.0],[81.0,9.2],[80.9,9.2],[80.9,9.4],[80.8,9.4],[80.8,9.5],[80.7,9.5],[80.7,9.6],[80.6,9.6],[80.6,9.7],[80.4,9.7],[80.4,9.8],[80.3,9.8]]],[[[67.7,37.4],[67.7,37.5],[67.6,37.5],[67.6,37.4],[67.5,37.4],[67.5,37.3],[67.4,37.3],[67.4,37.2],[67.2,37.2],[67.2,37.1],[67.1,37.1],[67.1,37.0],[67.0,37.0],[67.0,36.9],[66.8,36.9],[66.8,36.8],[66.6,36.8],[66.6,36.7],[66.4,36.7],[66.4,36.6],[66.3,36.6],[66.3,36.5],[66.2,36.5],[66.2,36.4],[66.0,36.4],[66.0,36.3],[65.9,36.3],[65.9,36.2],[65.8,36.2],[65.8,36.1],[65.6,36.1],[65.6,36.0],[65.5,36.0],[65.5,35.9],[65.4,35.9],[65.4,35.8],[65.3,35.8],[65.3,35.7],[65.1,35.7],[65.1,35.6],[64.9,35.6],[64.9,35.5],[64.8,35.5],[64.8,35.4],[64.6,35.4],[64.6,35.3],[64.5,35.3],[64.5,35.1],[64.4,35.1],[64.4,35.0],[64.3,35.0],[64.3,34.9],[64.2,34.9],[64.2,34.7],[64.1,34.7],[64.1,34.6],[64.0,34.6],[64.0,34.5],[63.9,34.5],[63.9,34.4],[63.8,34.4],[63.8,34.3],[63.7,34.3],[63.7,34.2],[63.6,34.2],[63.6,34.1],[63.5,34.1],[63.5,34.0],[63.4,34.0],[63.4,33.9],[63.3,33.9],[63.3,33.8],[63.2,33.8],[63.2,33.7],[63.1,33.7],[63.1,33.6],[63.0,33.6],[63.0,33.5],[63.1,33.5],[63.1,33.4],[63.9,33.4],[63.9,33.3],[64.2,33.3],[64.2,33.2],[64.7,33.2],[64.7,33.1],[64.9,33.1],[64.9,33.0],[65.2,33.0],[65.2,32.9],[65.6,32.9],[65.6,32.8],[66.3,32.8],[66.3,32.6],[66.4,32.6],[66.4,32.4],[66.5,32.4],[66.5,32.3],[66.6,32.3],[66.6,32.1],[66.7,32.1],[66.7,32.0],[66.8,32.0],[66.8,31.9],[66.9,31.9],[66.9,31.8],[67.0,31.8],[67.0,31.7],[67.1,31.7],[67.1,31.6],[67.2,31.6],[67.2,31.5],[67.4,31.5],[67.4,31.4],[67.5,31.4],[67.5,31.3],[67.7,31.3],[67.7,31.2],[67.8,31.2],[67.8,31.1],[68.0,31.1],[68.0,31.0],[68.1,31.0],[68.1,30.9],[68.2,30.9],[68.2,30.8],[68.3,30.8],[68.3,30.7],[68.4,30.7],[68.4,30.5],[68.5,30.5],[68.5,30.3],[68.6,30.3],[68.6,30.1],[68.7,30.1],[68.7,29.8],[68.8,29.8],[68.8,29.5],[68.9,29.5],[68.9,29.2],[69.0,29.2],[69.0,28.9],[69.1,28.9],[69.1,28.6],[69.2,28.6],[69.2,28.4],[69.3,28.4],[69.3,28.2],[69.4,28.2],[69.4,28.1],[69.5,28.1],[69.5,28.0],[69.6,28.0],[69.6,27.9],[69.7,27.9],[69.7,27.8],[69.8,27.8],[69.8,27.6],[69.9,27.6],[69.9,27.5],[70.0,27.5],[70.0,27.3],[70.1,27.3],[70.1,27.2],[70.2,27.2],[70.2,27.1],[70.3,27.1],[70.3,27.0],[70.5,27.0],[70.5,26.9],[70.8,26.9],[70.8,26.8],[71.0,26.8],[71.0,26.7],[71.2,26.7],[71.2,26.6],[71.4,26.6],[71.4,26.5],[71.8,26.5],[71.8,26.6],[73.0,26.6],[73.0,26.7],[73.7,26.7],[73.7,26.6],[74.0,26.6],[74.0,26.5],[74.4,26.5],[74.4,26.4],[74.8,26.4],[74.8,26.3],[75.3,26.3],[75.3,26.2],[75.8,26.2],[75.8,26.1],[76.3,26.1],[76.3,26.0],[76.5,26.0],[76.5,25.9],[77.0,25.9],[77.0,25.8],[77.4,25.8],[77.4,25.7],[77.7,25.7],[77.7,25.6],[78.0,25.6],[78.0,25.5],[78.5,25.5],[78.5,25.4],[78.8,25.4],[78.8,25.3],[79.1,25.3],[79.1,25.2],[79.3,25.2],[79.3,25.1],[79.5,25.1],[79.5,25.0],[79.7,25.0],[79.7,24.9],[80.0,24.9],[80.0,24.8],[80.1,24.8],[80.1,24.7],[80.3,24.7],[80.3,24.6],[80.5,24.6],[80.5,24.5],[80.7,24.5],[80.7,24.4],[80.8,24.4],[80.8,24.3],[81.1,24.3],[81.1,24.2],[81.2,24.2],[81.2,24.3],[81.3,24.3],[81.3,24.2],[82.0,24.2],[82.0,24.1],[82.4,24.1],[82.4,24.0],[83.1,24.0],[83.1,23.9],[83.6,23.9],[83.6,23.8],[83.8,23.8],[83.8,23.7],[84.0,23.7],[84.0,23.6],[84.6,23.6],[84.6,23.7],[84.7,23.7],[84.7,23.8],[85.1,23.8],[85.1,23.9],[85.6,23.9],[85.6,24.0],[87.1,24.0],[87.1,23.9],[87.5,23.9],[87.5,23.8],[87.7,23.8],[87.7,23.7],[88.0,23.7],[88.0,23.6],[88.1,23.6],[88.1,23.5],[88.2,23.5],[88.2,23.4],[88.3,23.4],[88.3,23.3],[88.4,23.3],[88.4,23.2],[88.8,23.2],[88.8,23.1],[88.9,23.1],[88.9,23.0],[89.1,23.0],[89.1,22.9],[89.2,22.9],[89.2,22.8],[89.3,22.8],[89.3,22.7],[89.5,22.7],[89.5,22.6],[89.6,22.6],[89.6,22.5],[89.7,22.5],[89.7,22.4],[89.8,22.4],[89.8,22.3],[89.9,22.3],[89.9,22.2],[90.0,22.2],[90.0,25.8],[89.9,25.8],[89.9,26.1],[89.1,26.1],[89.1,26.2],[89.0,26.2],[89.0,26.3],[88.9,26.3],[88.9,26.4],[88.8,26.4],[88.8,26.5],[88.5,26.5],[88.5,26.6],[88.2,26.6],[88.2,26.7],[88.0,26.7],[88.0,26.8],[87.8,26.8],[87.8,26.9],[87.6,26.9],[87.6,27.0],[87.4,27.0],[87.4,27.1],[87.1,27.1],[87.1,27.2],[86.4,27.2],[86.4,27.3],[85.8,27.3],[85.8,27.4],[85.5,27.4],[85.5,27.5],[85.2,27.5],[85.2,27.6],[84.8,27.6],[84.8,27.7],[84.1,27.7],[84.1,27.8],[83.2,27.8],[83.2,27.9],[82.8,27.9],[82.8,28.0],[82.6,28.0],[82.6,28.1],[82.3,28.1],[82.3,28.2],[82.0,28.2],[82.0,28.3],[81.8,28.3],[81.8,28.4],[81.6,28.4],[81.6,28.5],[81.2,28.5],[81.2,28.6],[81.0,28.6],[81.0,28.7],[80.7,28.7],[80.7,28.8],[80.5,28.8],[80.5,28.9],[80.4,28.9],[80.4,29.0],[80.3,29.0],[80.3,29.1],[80.2,29.1],[80.2,29.2],[80.1,29.2],[80.1,29.3],[79.9,29.3],[79.9,29.4],[79.6,29.4],[79.6,29.5],[79.5,29.5],[79.5,29.6],[79.4,29.6],[79.4,29.8],[79.3,29.8],[79.3,29.9],[79.2,29.9],[79.2,30.1],[79.1,30.1],[79.1,30.2],[79.0,30.2],[79.0,30.3],[78.9,30.3],[78.9,30.5],[78.8,30.5],[78.8,30.6],[78.7,30.6],[78.7,30.7],[78.6,30.7],[78.6,30.9],[78.5,30.9],[78.5,31.1],[78.4,31.1],[78.4,31.3],[78.3,31.3],[78.3,31.5],[78.2,31.5],[78.2,31.6],[78.1,31.6],[78.1,31.8],[78.0,31.8],[78.0,32.0],[77.9,32.0],[77.9,32.1],[77.8,32.1],[77.8,32.4],[77.7,32.4],[77.7,32.7],[77.6,32.7],[77.6,33.0],[77.5,33.0],[77.5,33.1],[77.4,33.1],[77.4,33.2],[77.3,33.2],[77.3,33.3],[77.1,33.3],[77.1,33.4],[77.0,33.4],[77.0,33.5],[76.8,33.5],[76.8,33.6],[76.7,33.6],[76.7,33.7],[76.5,33.7],[76.5,33.8],[76.4,33.8],[76.4,33.9],[76.3,33.9],[76.3,34.0],[76.2,34.0],[76.2,34.1],[76.1,34.1],[76.1,34.2],[76.0,34.2],[76.0,34.3],[75.8,34.3],[75.8,34.4],[75.7,34.4],[75.7,34.5],[75.6,34.5],[75.6,34.6],[75.5,34.6],[75.5,34.7],[75.4,34.7],[75.4,34.8],[75.3,34.8],[75.3,35.0],[75.2,35.0],[75.2,35.1],[75.1,35.1],[75.1,35.2],[75.0,35.2],[75.0,35.3],[74.9,35.3],[74.9,35.4],[74.8,35.4],[74.8,35.6],[74.7,35.6],[74.7,35.8],[74.6,35.8],[74.6,36.3],[74.0,36.3],[74.0,36.4],[73.1,36.4],[73.1,36.3],[73.0,36.3],[73.0,36.1],[72.9,36.1],[72.9,36.0],[72.1,36.0],[72.1,36.1],[71.9,36.1],[71.9,36.2],[71.7,36.2],[71.7,36.3],[71.5,36.3],[71.5,36.4],[71.4,36.4],[71.4,36.5],[71.2,36.5],[71.2,36.6],[71.1,36.6],[71.1,36.7],[71.0,36.7],[71.0,36.8],[70.8,36.8],[70.8,36.9],[70.6,36.9],[70.6,37.0],[70.4,37.0],[70.4,37.1],[70.3,37.1],[70.3,37.2],[69.6,37.2],[69.6,37.1],[69.2,37.1],[69.2,37.0],[68.7,37.0],[68.7,36.9],[68.6,36.9],[68.6,37.0],[68.5,37.0],[68.5,37.1],[68.2,37.1],[68.2,37.2],[68.0,37.2],[68.0,37.3],[67.9,37.3],[67.9,37.4],[67.7,37.4]],[[89.9,24.3],[89.7,24.3],[89.7,24.7],[89.9,24.7],[89.9,24.3]]]]},"properties":{"tile_id":"51","start_year":1240,"end_year":1242,"source_image":"data/raw/toolbay/t/51/1240.png","source_url":"https://www.toolbay.cc/history-map/t/51/1240.png","source_color":"#ff9933","polity_id":null,"polity_assignment":"unverified","geometry_origin":"raster_color_trace","pixel_size_degrees":0.1,"source_color_pixels":15235,"simplification_degrees":0}},{"type":"Feature","id":"51:1240:#ffff00","bbox":[72.5,16.0,79.2,23.8],"geometry":{"type":"Polygon","coordinates":[[[75.9,23.8],[75.8,23.8],[75.8,23.7],[75.7,23.7],[75.7,23.6],[75.6,23.6],[75.6,23.5],[75.5,23.5],[75.5,23.4],[75.3,23.4],[75.3,23.3],[75.1,23.3],[75.1,23.2],[75.0,23.2],[75.0,23.1],[74.8,23.1],[74.8,23.0],[74.7,23.0],[74.7,22.9],[74.5,22.9],[74.5,22.8],[74.3,22.8],[74.3,22.7],[74.2,22.7],[74.2,22.6],[73.9,22.6],[73.9,22.5],[73.7,22.5],[73.7,22.4],[73.5,22.4],[73.5,22.3],[73.3,22.3],[73.3,22.2],[73.1,22.2],[73.1,22.1],[72.7,22.1],[72.7,22.0],[72.5,22.0],[72.5,21.8],[72.6,21.8],[72.6,21.1],[72.7,21.1],[72.7,21.0],[72.8,21.0],[72.8,20.8],[72.9,20.8],[72.9,20.5],[72.8,20.5],[72.8,20.3],[72.7,20.3],[72.7,19.5],[72.8,19.5],[72.8,18.9],[72.9,18.9],[72.9,18.3],[73.0,18.3],[73.0,18.0],[73.1,18.0],[73.1,17.6],[73.2,17.6],[73.2,17.2],[73.3,17.2],[73.3,16.5],[73.4,16.5],[73.4,16.2],[73.5,16.2],[73.5,16.0],[73.9,16.0],[73.9,16.1],[74.2,16.1],[74.2,16.2],[74.4,16.2],[74.4,16.3],[74.7,16.3],[74.7,16.4],[74.9,16.4],[74.9,16.5],[75.1,16.5],[75.1,16.6],[75.2,16.6],[75.2,16.7],[75.3,16.7],[75.3,16.8],[75.5,16.8],[75.5,16.9],[75.6,16.9],[75.6,17.0],[76.1,17.0],[76.1,16.9],[76.4,16.9],[76.4,17.5],[76.5,17.5],[76.5,17.7],[76.6,17.7],[76.6,17.8],[76.7,17.8],[76.7,18.0],[76.8,18.0],[76.8,18.3],[76.9,18.3],[76.9,18.8],[77.0,18.8],[77.0,19.1],[77.1,19.1],[77.1,19.2],[77.2,19.2],[77.2,19.3],[77.3,19.3],[77.3,19.5],[77.4,19.5],[77.4,19.7],[77.5,19.7],[77.5,19.8],[77.6,19.8],[77.6,20.0],[77.7,20.0],[77.7,20.1],[77.9,20.1],[77.9,20.3],[78.0,20.3],[78.0,20.4],[78.1,20.4],[78.1,20.5],[78.2,20.5],[78.2,20.6],[78.3,20.6],[78.3,20.8],[78.4,20.8],[78.4,20.9],[78.5,20.9],[78.5,21.0],[78.6,21.0],[78.6,21.2],[78.7,21.2],[78.7,21.3],[78.8,21.3],[78.8,21.5],[78.9,21.5],[78.9,21.7],[79.0,21.7],[79.0,21.8],[79.1,21.8],[79.1,22.1],[79.2,22.1],[79.2,22.4],[78.4,22.4],[78.4,22.5],[78.1,22.5],[78.1,22.6],[77.9,22.6],[77.9,22.7],[77.7,22.7],[77.7,22.8],[77.5,22.8],[77.5,22.9],[77.3,22.9],[77.3,23.0],[77.0,23.0],[77.0,23.1],[76.7,23.1],[76.7,23.2],[76.5,23.2],[76.5,23.3],[76.4,23.3],[76.4,23.4],[76.3,23.4],[76.3,23.5],[76.2,23.5],[76.2,23.6],[76.1,23.6],[76.1,23.7],[75.9,23.7],[75.9,23.8]]]},"properties":{"tile_id":"51","start_year":1240,"end_year":1242,"source_image":"data/raw/toolbay/t/51/1240.png","source_url":"https://www.toolbay.cc/history-map/t/51/1240.png","source_color":"#ffff00","polity_id":null,"polity_assignment":"unverified","geometry_origin":"raster_color_trace","pixel_size_degrees":0.1,"source_color_pixels":3041,"simplification_degrees":0}}]}
