{"type":"FeatureCollection","features":[{"type":"Feature","id":"51:1335:#009900","bbox":[60.8,36.0,82.1,45.0],"geometry":{"type":"Polygon","coordinates":[[[81.7,45.0],[61.4,45.0],[61.4,44.9],[61.3,44.9],[61.3,44.8],[61.1,44.8],[61.1,44.7],[61.0,44.7],[61.0,44.5],[60.9,44.5],[60.9,44.3],[60.8,44.3],[60.8,44.2],[60.9,44.2],[60.9,44.1],[61.0,44.1],[61.0,44.0],[61.1,44.0],[61.1,43.8],[61.2,43.8],[61.2,43.7],[61.3,43.7],[61.3,43.5],[61.4,43.5],[61.4,43.3],[61.5,43.3],[61.5,43.1],[61.6,43.1],[61.6,42.9],[61.7,42.9],[61.7,42.7],[61.8,42.7],[61.8,42.6],[61.9,42.6],[61.9,42.4],[62.0,42.4],[62.0,42.2],[62.1,42.2],[62.1,42.0],[62.2,42.0],[62.2,41.9],[62.3,41.9],[62.3,41.6],[62.4,41.6],[62.4,41.4],[62.5,41.4],[62.5,41.2],[62.6,41.2],[62.6,41.0],[62.7,41.0],[62.7,40.8],[62.8,40.8],[62.8,40.5],[62.9,40.5],[62.9,40.3],[63.0,40.3],[63.0,40.2],[63.1,40.2],[63.1,40.1],[63.2,40.1],[63.2,39.9],[63.3,39.9],[63.3,39.7],[63.4,39.7],[63.4,39.6],[63.5,39.6],[63.5,39.4],[63.6,39.4],[63.6,39.2],[63.7,39.2],[63.7,39.1],[63.8,39.1],[63.8,39.0],[63.9,39.0],[63.9,38.9],[64.0,38.9],[64.0,38.7],[64.1,38.7],[64.1,38.6],[64.2,38.6],[64.2,38.5],[64.3,38.5],[64.3,38.4],[64.4,38.4],[64.4,38.2],[64.6,38.2],[64.6,38.1],[64.7,38.1],[64.7,38.0],[64.9,38.0],[64.9,37.9],[65.1,37.9],[65.1,37.8],[65.3,37.8],[65.3,37.7],[65.5,37.7],[65.5,37.6],[65.8,37.6],[65.8,37.5],[66.3,37.5],[66.3,37.4],[67.6,37.4],[67.6,37.5],[67.7,37.5],[67.7,37.4],[67.9,37.4],[67.9,37.3],[68.0,37.3],[68.0,37.2],[68.2,37.2],[68.2,37.1],[68.5,37.1],[68.5,37.0],[68.6,37.0],[68.6,36.9],[68.7,36.9],[68.7,37.0],[69.2,37.0],[69.2,37.1],[69.6,37.1],[69.6,37.2],[70.3,37.2],[70.3,37.1],[70.4,37.1],[70.4,37.0],[70.6,37.0],[70.6,36.9],[70.8,36.9],[70.8,36.8],[71.0,36.8],[71.0,36.7],[71.1,36.7],[71.1,36.6],[71.2,36.6],[71.2,36.5],[71.4,36.5],[71.4,36.4],[71.5,36.4],[71.5,36.3],[71.7,36.3],[71.7,36.2],[71.9,36.2],[71.9,36.1],[72.1,36.1],[72.1,36.0],[72.9,36.0],[72.9,36.1],[73.0,36.1],[73.0,36.3],[73.1,36.3],[73.1,36.4],[74.0,36.4],[74.0,36.3],[74.6,36.3],[74.6,36.4],[74.7,36.4],[74.7,36.5],[74.8,36.5],[74.8,36.6],[74.9,36.6],[74.9,36.7],[75.1,36.7],[75.1,36.8],[75.3,36.8],[75.3,36.9],[75.5,36.9],[75.5,37.0],[75.7,37.0],[75.7,37.1],[76.0,37.1],[76.0,37.2],[77.4,37.2],[77.4,37.1],[77.7,37.1],[77.7,37.2],[77.8,37.2],[77.8,37.1],[77.9,37.1],[77.9,37.0],[78.2,37.0],[78.2,36.9],[78.4,36.9],[78.4,36.8],[78.8,36.8],[78.8,36.7],[79.2,36.7],[79.2,36.6],[80.9,36.6],[80.9,36.7],[81.4,36.7],[81.4,36.8],[81.5,36.8],[81.5,37.3],[81.6,37.3],[81.6,39.2],[81.7,39.2],[81.7,39.7],[81.8,39.7],[81.8,40.2],[81.9,40.2],[81.9,40.6],[82.0,40.6],[82.0,40.9],[82.1,40.9],[82.1,41.5],[82.0,41.5],[82.0,42.0],[81.9,42.0],[81.9,42.3],[81.8,42.3],[81.8,42.7],[81.7,42.7],[81.7,43.1],[81.8,43.1],[81.8,43.9],[81.9,43.9],[81.9,44.5],[81.8,44.5],[81.8,44.9],[81.7,44.9],[81.7,45.0]]]},"properties":{"tile_id":"51","start_year":1335,"end_year":1336,"source_image":"data/raw/toolbay/t/51/1335.png","source_url":"https://www.toolbay.cc/history-map/t/51/1335.png","source_color":"#009900","polity_id":null,"polity_assignment":"unverified","geometry_origin":"raster_color_trace","pixel_size_degrees":0.1,"source_color_pixels":15392,"simplification_degrees":0}},{"type":"Feature","id":"51:1335:#00ff00","bbox":[73.6,12.1,78.5,17.0],"geometry":{"type":"Polygon","coordinates":[[[77.2,17.0],[75.6,17.0],[75.6,16.9],[75.5,16.9],[75.5,16.8],[75.3,16.8],[75.3,16.7],[75.2,16.7],[75.2,16.6],[75.1,16.6],[75.1,16.5],[74.9,16.5],[74.9,16.4],[74.7,16.4],[74.7,16.3],[74.4,16.3],[74.4,16.2],[74.2,16.2],[74.2,16.1],[73.9,16.1],[73.9,16.0],[73.6,16.0],[73.6,15.9],[73.7,15.9],[73.7,15.6],[73.8,15.6],[73.8,15.4],[73.9,15.4],[73.9,15.1],[74.0,15.1],[74.0,15.0],[74.1,15.0],[74.1,14.9],[74.2,14.9],[74.2,14.7],[74.3,14.7],[74.3,14.5],[74.4,14.5],[74.4,14.3],[74.5,14.3],[74.5,14.0],[74.6,14.0],[74.6,13.7],[74.7,13.7],[74.7,13.3],[74.8,13.3],[74.8,12.8],[74.9,12.8],[74.9,12.6],[75.0,12.6],[75.0,12.4],[75.1,12.4],[75.1,12.2],[75.2,12.2],[75.2,12.1],[75.7,12.1],[75.7,12.2],[76.3,12.2],[76.3,12.3],[76.4,12.3],[76.4,12.4],[76.6,12.4],[76.6,12.5],[76.9,12.5],[76.9,12.6],[77.2,12.6],[77.2,12.7],[77.3,12.7],[77.3,12.8],[77.4,12.8],[77.4,13.1],[77.5,13.1],[77.5,13.2],[77.7,13.2],[77.7,13.3],[77.8,13.3],[77.8,13.8],[77.9,13.8],[77.9,13.9],[78.0,13.9],[78.0,15.5],[78.1,15.5],[78.1,15.8],[78.2,15.8],[78.2,16.0],[78.3,16.0],[78.3,16.3],[78.4,16.3],[78.4,16.6],[78.5,16.6],[78.5,16.9],[77.2,16.9],[77.2,17.0]]]},"properties":{"tile_id":"51","start_year":1335,"end_year":1336,"source_image":"data/raw/toolbay/t/51/1335.png","source_url":"https://www.toolbay.cc/history-map/t/51/1335.png","source_color":"#00ff00","polity_id":null,"polity_assignment":"unverified","geometry_origin":"raster_color_trace","pixel_size_degrees":0.1,"source_color_pixels":3186,"simplification_degrees":0}},{"type":"Feature","id":"51:1335:#993300","bbox":[74.6,27.6,90.0,45.0],"geometry":{"type":"Polygon","coordinates":[[[90.0,45.0],[81.7,45.0],[81.7,44.9],[81.8,44.9],[81.8,44.5],[81.9,44.5],[81.9,43.9],[81.8,43.9],[81.8,43.1],[81.7,43.1],[81.7,42.7],[81.8,42.7],[81.8,42.3],[81.9,42.3],[81.9,42.0],[82.0,42.0],[82.0,41.5],[82.1,41.5],[82.1,40.9],[82.0,40.9],[82.0,40.6],[81.9,40.6],[81.9,40.2],[81.8,40.2],[81.8,39.7],[81.7,39.7],[81.7,39.2],[81.6,39.2],[81.6,37.3],[81.5,37.3],[81.5,36.8],[81.4,36.8],[81.4,36.7],[80.9,36.7],[80.9,36.6],[79.2,36.6],[79.2,36.7],[78.8,36.7],[78.8,36.8],[78.4,36.8],[78.4,36.9],[78.2,36.9],[78.2,37.0],[77.9,37.0],[77.9,37.1],[77.8,37.1],[77.8,37.2],[77.7,37.2],[77.7,37.1],[77.4,37.1],[77.4,37.2],[76.0,37.2],[76.0,37.1],[75.7,37.1],[75.7,37.0],[75.5,37.0],[75.5,36.9],[75.3,36.9],[75.3,36.8],[75.1,36.8],[75.1,36.7],[74.9,36.7],[74.9,36.6],[74.8,36.6],[74.8,36.5],[74.7,36.5],[74.7,36.4],[74.6,36.4],[74.6,35.8],[74.7,35.8],[74.7,35.6],[74.8,35.6],[74.8,35.4],[74.9,35.4],[74.9,35.3],[75.0,35.3],[75.0,35.2],[75.1,35.2],[75.1,35.1],[75.2,35.1],[75.2,35.0],[75.3,35.0],[75.3,34.8],[75.4,34.8],[75.4,34.7],[75.5,34.7],[75.5,34.6],[75.6,34.6],[75.6,34.5],[75.7,34.5],[75.7,34.4],[75.8,34.4],[75.8,34.3],[76.0,34.3],[76.0,34.2],[76.1,34.2],[76.1,34.1],[76.2,34.1],[76.2,34.0],[76.3,34.0],[76.3,33.9],[76.4,33.9],[76.4,33.8],[76.5,33.8],[76.5,33.7],[76.7,33.7],[76.7,33.6],[76.8,33.6],[76.8,33.5],[77.0,33.5],[77.0,33.4],[77.1,33.4],[77.1,33.3],[77.3,33.3],[77.3,33.2],[77.4,33.2],[77.4,33.1],[77.5,33.1],[77.5,33.0],[77.6,33.0],[77.6,32.7],[77.7,32.7],[77.7,32.4],[77.8,32.4],[77.8,32.1],[77.9,32.1],[77.9,32.0],[78.0,32.0],[78.0,31.8],[78.1,31.8],[78.1,31.6],[78.2,31.6],[78.2,31.5],[78.3,31.5],[78.3,31.4],[79.7,31.4],[79.7,31.3],[80.1,31.3],[80.1,31.2],[80.3,31.2],[80.3,31.1],[80.4,31.1],[80.4,31.0],[80.6,31.0],[80.6,30.9],[80.7,30.9],[80.7,30.8],[80.8,30.8],[80.8,30.7],[81.0,30.7],[81.0,30.6],[81.1,30.6],[81.1,30.5],[81.4,30.5],[81.4,30.4],[81.5,30.4],[81.5,30.3],[81.7,30.3],[81.7,30.2],[81.8,30.2],[81.8,30.1],[82.0,30.1],[82.0,30.0],[82.2,30.0],[82.2,29.9],[82.5,29.9],[82.5,29.8],[82.8,29.8],[82.8,29.7],[83.2,29.7],[83.2,29.6],[83.8,29.6],[83.8,29.5],[84.1,29.5],[84.1,29.4],[84.4,29.4],[84.4,29.3],[84.9,29.3],[84.9,29.2],[85.1,29.2],[85.1,29.1],[85.3,29.1],[85.3,29.0],[85.5,29.0],[85.5,28.9],[85.7,28.9],[85.7,28.8],[85.9,28.8],[85.9,28.7],[86.3,28.7],[86.3,28.6],[86.6,28.6],[86.6,28.5],[87.0,28.5],[87.0,28.4],[87.3,28.4],[87.3,28.3],[87.6,28.3],[87.6,28.2],[88.0,28.2],[88.0,28.1],[88.3,28.1],[88.3,28.0],[88.6,28.0],[88.6,27.9],[88.8,27.9],[88.8,27.8],[89.0,27.8],[89.0,27.7],[89.3,27.7],[89.3,27.6],[90.0,27.6],[90.0,45.0]]]},"properties":{"tile_id":"51","start_year":1335,"end_year":1336,"source_image":"data/raw/toolbay/t/51/1335.png","source_url":"https://www.toolbay.cc/history-map/t/51/1335.png","source_color":"#993300","polity_id":null,"polity_assignment":"unverified","geometry_origin":"raster_color_trace","pixel_size_degrees":0.1,"source_color_pixels":16458,"simplification_degrees":0}},{"type":"Feature","id":"51:1335:#999900","bbox":[60.0,38.6,62.9,44.2],"geometry":{"type":"Polygon","coordinates":[[[60.1,43.8],[60.0,43.8],[60.0,38.6],[60.1,38.6],[60.1,38.7],[60.3,38.7],[60.3,38.8],[60.7,38.8],[60.7,38.9],[61.1,38.9],[61.1,39.0],[61.2,39.0],[61.2,39.1],[61.5,39.1],[61.5,39.2],[61.8,39.2],[61.8,39.3],[62.0,39.3],[62.0,39.4],[62.1,39.4],[62.1,39.5],[62.2,39.5],[62.2,39.6],[62.3,39.6],[62.3,39.7],[62.4,39.7],[62.4,39.8],[62.5,39.8],[62.5,39.9],[62.6,39.9],[62.6,40.0],[62.7,40.0],[62.7,40.2],[62.9,40.2],[62.9,40.5],[62.8,40.5],[62.8,40.8],[62.7,40.8],[62.7,41.0],[62.6,41.0],[62.6,41.2],[62.5,41.2],[62.5,41.4],[62.4,41.4],[62.4,41.6],[62.3,41.6],[62.3,41.9],[62.2,41.9],[62.2,42.0],[62.1,42.0],[62.1,42.2],[62.0,42.2],[62.0,42.4],[61.9,42.4],[61.9,42.6],[61.8,42.6],[61.8,42.7],[61.7,42.7],[61.7,42.9],[61.6,42.9],[61.6,43.1],[61.5,43.1],[61.5,43.3],[61.4,43.3],[61.4,43.5],[61.3,43.5],[61.3,43.7],[61.2,43.7],[61.2,43.8],[61.1,43.8],[61.1,44.0],[61.0,44.0],[61.0,44.1],[60.9,44.1],[60.9,44.2],[60.6,44.2],[60.6,44.1],[60.3,44.1],[60.3,44.0],[60.2,44.0],[60.2,43.9],[60.1,43.9],[60.1,43.8]]]},"properties":{"tile_id":"51","start_year":1335,"end_year":1336,"source_image":"data/raw/toolbay/t/51/1335.png","source_url":"https://www.toolbay.cc/history-map/t/51/1335.png","source_color":"#999900","polity_id":null,"polity_assignment":"unverified","geometry_origin":"raster_color_trace","pixel_size_degrees":0.1,"source_color_pixels":7960,"simplification_degrees":0}},{"type":"Feature","id":"51:1335:#ff00ff","bbox":[75.2,8.2,80.4,13.4],"geometry":{"type":"Polygon","coordinates":[[[79.7,13.4],[77.8,13.4],[77.8,13.3],[77.7,13.3],[77.7,13.2],[77.5,13.2],[77.5,13.1],[77.4,13.1],[77.4,12.8],[77.3,12.8],[77.3,12.7],[77.2,12.7],[77.2,12.6],[76.9,12.6],[76.9,12.5],[76.6,12.5],[76.6,12.4],[76.4,12.4],[76.4,12.3],[76.3,12.3],[76.3,12.2],[75.7,12.2],[75.7,12.1],[75.2,12.1],[75.2,12.0],[75.3,12.0],[75.3,11.9],[75.4,11.9],[75.4,11.8],[75.5,11.8],[75.5,11.7],[75.6,11.7],[75.6,11.5],[75.7,11.5],[75.7,11.3],[75.8,11.3],[75.8,11.1],[75.9,11.1],[75.9,10.8],[76.0,10.8],[76.0,10.5],[76.1,10.5],[76.1,10.3],[76.2,10.3],[76.2,9.9],[76.3,9.9],[76.3,9.5],[76.4,9.5],[76.4,9.2],[76.5,9.2],[76.5,9.0],[76.6,9.0],[76.6,8.9],[76.7,8.9],[76.7,8.8],[76.8,8.8],[76.8,8.7],[76.9,8.7],[76.9,8.5],[77.0,8.5],[77.0,8.4],[77.1,8.4],[77.1,8.3],[77.2,8.3],[77.2,8.2],[77.8,8.2],[77.8,8.3],[78.0,8.3],[78.0,8.4],[78.1,8.4],[78.1,8.5],[78.2,8.5],[78.2,8.9],[78.3,8.9],[78.3,9.1],[78.4,9.1],[78.4,9.2],[78.8,9.2],[78.8,9.3],[78.9,9.3],[78.9,9.4],[79.0,9.4],[79.0,9.8],[79.1,9.8],[79.1,9.9],[79.2,9.9],[79.2,10.0],[79.3,10.0],[79.3,10.3],[79.4,10.3],[79.4,10.4],[79.6,10.4],[79.6,10.3],[79.8,10.3],[79.8,10.4],[79.9,10.4],[79.9,11.5],[79.8,11.5],[79.8,11.9],[79.9,11.9],[79.9,12.2],[80.0,12.2],[80.0,12.3],[80.1,12.3],[80.1,12.5],[80.2,12.5],[80.2,12.7],[80.3,12.7],[80.3,13.1],[80.4,13.1],[80.4,13.3],[79.7,13.3],[79.7,13.4]]]},"properties":{"tile_id":"51","start_year":1335,"end_year":1336,"source_image":"data/raw/toolbay/t/51/1335.png","source_url":"https://www.toolbay.cc/history-map/t/51/1335.png","source_color":"#ff00ff","polity_id":null,"polity_assignment":"unverified","geometry_origin":"raster_color_trace","pixel_size_degrees":0.1,"source_color_pixels":1588,"simplification_degrees":0}},{"type":"Feature","id":"51:1335:#ff9933","bbox":[61.7,8.4,90.0,37.5],"geometry":{"type":"MultiPolygon","coordinates":[[[[80.3,9.8],[80.3,9.9],[80.0,9.9],[80.0,9.5],[80.1,9.5],[80.1,9.2],[80.0,9.2],[80.0,9.1],[79.9,9.1],[79.9,8.5],[79.8,8.5],[79.8,8.4],[80.5,8.4],[80.5,8.5],[80.6,8.5],[80.6,8.6],[80.8,8.6],[80.8,8.7],[81.2,8.7],[81.2,8.9],[81.1,8.9],[81.1,9.0],[81.0,9.0],[81.0,9.2],[80.9,9.2],[80.9,9.4],[80.8,9.4],[80.8,9.5],[80.7,9.5],[80.7,9.6],[80.6,9.6],[80.6,9.7],[80.4,9.7],[80.4,9.8],[80.3,9.8]]],[[[67.7,37.4],[67.7,37.5],[67.6,37.5],[67.6,37.4],[67.5,37.4],[67.5,37.3],[67.4,37.3],[67.4,37.2],[67.2,37.2],[67.2,37.1],[67.1,37.1],[67.1,37.0],[67.0,37.0],[67.0,36.9],[66.8,36.9],[66.8,36.8],[66.6,36.8],[66.6,36.7],[66.4,36.7],[66.4,36.6],[66.3,36.6],[66.3,36.5],[66.2,36.5],[66.2,36.4],[66.0,36.4],[66.0,36.3],[65.9,36.3],[65.9,36.2],[65.8,36.2],[65.8,36.1],[65.6,36.1],[65.6,36.0],[65.5,36.0],[65.5,35.9],[65.4,35.9],[65.4,35.8],[65.3,35.8],[65.3,35.7],[65.1,35.7],[65.1,35.6],[64.9,35.6],[64.9,35.5],[64.8,35.5],[64.8,35.4],[64.6,35.4],[64.6,35.3],[64.5,35.3],[64.5,35.1],[64.4,35.1],[64.4,35.0],[64.3,35.0],[64.3,34.9],[64.2,34.9],[64.2,34.7],[64.1,34.7],[64.1,34.6],[64.0,34.6],[64.0,34.5],[63.9,34.5],[63.9,34.4],[63.8,34.4],[63.8,34.3],[63.7,34.3],[63.7,34.2],[63.6,34.2],[63.6,34.1],[63.5,34.1],[63.5,34.0],[63.4,34.0],[63.4,33.9],[63.3,33.9],[63.3,33.8],[63.2,33.8],[63.2,33.7],[63.1,33.7],[63.1,33.6],[63.0,33.6],[63.0,33.5],[62.9,33.5],[62.9,33.3],[62.8,33.3],[62.8,33.2],[62.7,33.2],[62.7,33.0],[62.6,33.0],[62.6,32.9],[62.5,32.9],[62.5,32.8],[62.4,32.8],[62.4,32.5],[62.3,32.5],[62.3,32.4],[62.2,32.4],[62.2,32.3],[62.1,32.3],[62.1,32.1],[62.0,32.1],[62.0,31.9],[61.9,31.9],[61.9,31.8],[61.8,31.8],[61.8,31.6],[61.7,31.6],[61.7,30.3],[61.8,30.3],[61.8,30.0],[61.9,30.0],[61.9,29.8],[62.0,29.8],[62.0,29.6],[62.1,29.6],[62.1,29.5],[62.2,29.5],[62.2,29.2],[62.3,29.2],[62.3,29.1],[62.4,29.1],[62.4,29.0],[62.5,29.0],[62.5,28.8],[62.6,28.8],[62.6,28.6],[62.7,28.6],[62.7,28.5],[62.8,28.5],[62.8,28.2],[62.9,28.2],[62.9,28.0],[63.0,28.0],[63.0,27.7],[63.1,27.7],[63.1,27.4],[63.2,27.4],[63.2,27.2],[63.3,27.2],[63.3,26.8],[63.4,26.8],[63.4,26.5],[63.5,26.5],[63.5,26.0],[63.6,26.0],[63.6,25.7],[63.7,25.7],[63.7,25.4],[64.2,25.4],[64.2,25.3],[64.8,25.3],[64.8,25.4],[65.0,25.4],[65.0,25.3],[65.2,25.3],[65.2,25.4],[66.1,25.4],[66.1,25.5],[66.5,25.5],[66.5,25.4],[66.6,25.4],[66.6,25.3],[66.7,25.3],[66.7,25.0],[66.8,25.0],[66.8,24.9],[67.0,24.9],[67.0,24.8],[67.1,24.8],[67.1,24.7],[67.2,24.7],[67.2,24.5],[67.3,24.5],[67.3,24.2],[67.4,24.2],[67.4,24.1],[67.5,24.1],[67.5,23.9],[67.6,23.9],[67.6,23.8],[68.1,23.8],[68.1,23.7],[68.2,23.7],[68.2,23.6],[68.3,23.6],[68.3,23.5],[68.4,23.5],[68.4,23.4],[68.5,23.4],[68.5,23.3],[68.6,23.3],[68.6,23.2],[68.7,23.2],[68.7,23.1],[68.9,23.1],[68.9,23.0],[69.1,23.0],[69.1,22.9],[69.5,22.9],[69.5,22.8],[69.8,22.8],[69.8,22.9],[70.1,22.9],[70.1,22.8],[70.2,22.8],[70.2,22.7],[70.1,22.7],[70.1,22.6],[69.6,22.6],[69.6,22.5],[69.1,22.5],[69.1,22.4],[69.0,22.4],[69.0,22.2],[69.1,22.2],[69.1,22.1],[69.2,22.1],[69.2,22.0],[69.3,22.0],[69.3,21.9],[69.4,21.9],[69.4,21.8],[69.5,21.8],[69.5,21.7],[69.6,21.7],[69.6,21.6],[69.7,21.6],[69.7,21.5],[69.8,21.5],[69.8,21.4],[69.9,21.4],[69.9,21.3],[70.0,21.3],[70.0,21.2],[70.1,21.2],[70.1,21.1],[70.2,21.1],[70.2,21.0],[70.4,21.0],[70.4,20.9],[70.5,20.9],[70.5,20.8],[70.8,20.8],[70.8,20.7],[71.0,20.7],[71.0,20.8],[71.3,20.8],[71.3,20.9],[71.5,20.9],[71.5,21.0],[71.7,21.0],[71.7,21.1],[71.9,21.1],[71.9,21.2],[72.1,21.2],[72.1,21.3],[72.2,21.3],[72.2,21.5],[72.3,21.5],[72.3,22.0],[72.5,22.0],[72.5,21.8],[72.6,21.8],[72.6,21.1],[72.7,21.1],[72.7,21.0],[72.8,21.0],[72.8,20.8],[72.9,20.8],[72.9,20.5],[72.8,20.5],[72.8,20.3],[72.7,20.3],[72.7,19.5],[72.8,19.5],[72.8,18.9],[72.9,18.9],[72.9,18.3],[73.0,18.3],[73.0,18.0],[73.1,18.0],[73.1,17.6],[73.2,17.6],[73.2,17.2],[73.3,17.2],[73.3,16.5],[73.4,16.5],[73.4,16.2],[73.5,16.2],[73.5,16.0],[73.9,16.0],[73.9,16.1],[74.2,16.1],[74.2,16.2],[74.4,16.2],[74.4,16.3],[74.7,16.3],[74.7,16.4],[74.9,16.4],[74.9,16.5],[75.1,16.5],[75.1,16.6],[75.2,16.6],[75.2,16.7],[75.3,16.7],[75.3,16.8],[75.5,16.8],[75.5,16.9],[75.6,16.9],[75.6,17.0],[77.2,17.0],[77.2,16.9],[78.5,16.9],[78.5,16.6],[78.4,16.6],[78.4,16.3],[78.3,16.3],[78.3,16.0],[78.2,16.0],[78.2,15.8],[78.1,15.8],[78.1,15.5],[78.0,15.5],[78.0,13.9],[77.9,13.9],[77.9,13.8],[77.8,13.8],[77.8,13.4],[79.7,13.4],[79.7,13.3],[80.4,13.3],[80.4,13.6],[80.3,13.6],[80.3,14.0],[80.2,14.0],[80.2,14.9],[80.1,14.9],[80.1,15.4],[80.2,15.4],[80.2,15.5],[80.3,15.5],[80.3,15.7],[80.4,15.7],[80.4,15.8],[80.5,15.8],[80.5,15.9],[80.7,15.9],[80.7,15.8],[81.0,15.8],[81.0,15.9],[81.1,15.9],[81.1,16.0],[81.2,16.0],[81.2,16.2],[81.3,16.2],[81.3,16.3],[81.4,16.3],[81.4,16.4],[81.9,16.4],[81.9,16.5],[82.2,16.5],[82.2,16.6],[82.3,16.6],[82.3,16.7],[82.4,16.7],[82.4,17.2],[82.5,17.2],[82.5,17.3],[82.7,17.3],[82.7,17.4],[82.8,17.4],[82.8,17.5],[83.1,17.5],[83.1,17.6],[83.2,17.6],[83.2,17.7],[83.3,17.7],[83.3,17.8],[83.4,17.8],[83.4,17.9],[83.5,17.9],[83.5,18.0],[83.6,18.0],[83.6,18.1],[83.8,18.1],[83.8,18.2],[83.9,18.2],[83.9,18.3],[84.1,18.3],[84.1,18.4],[84.2,18.4],[84.2,18.5],[84.3,18.5],[84.3,18.6],[84.4,18.6],[84.4,18.7],[84.5,18.7],[84.5,18.8],[84.6,18.8],[84.6,18.9],[84.7,18.9],[84.7,19.1],[84.8,19.1],[84.8,19.2],[84.9,19.2],[84.9,19.3],[85.0,19.3],[85.0,19.4],[85.1,19.4],[85.1,19.5],[85.2,19.5],[85.2,19.6],[85.4,19.6],[85.4,19.7],[85.6,19.7],[85.6,19.8],[85.9,19.8],[85.9,19.9],[86.3,19.9],[86.3,20.0],[86.4,20.0],[86.4,20.1],[86.5,20.1],[86.5,20.2],[86.6,20.2],[86.6,20.3],[86.8,20.3],[86.8,20.4],[86.9,20.4],[86.9,20.6],[87.0,20.6],[87.0,21.0],[86.9,21.0],[86.9,21.4],[87.0,21.4],[87.0,21.5],[87.1,21.5],[87.1,21.6],[87.5,21.6],[87.5,21.7],[87.8,21.7],[87.8,21.8],[88.1,21.8],[88.1,21.7],[88.2,21.7],[88.2,21.6],[89.0,21.6],[89.0,21.7],[89.4,21.7],[89.4,21.8],[89.7,21.8],[89.7,21.9],[89.9,21.9],[89.9,22.0],[90.0,22.0],[90.0,25.8],[89.9,25.8],[89.9,26.1],[89.1,26.1],[89.1,26.2],[89.0,26.2],[89.0,26.3],[88.9,26.3],[88.9,26.4],[88.8,26.4],[88.8,26.5],[88.5,26.5],[88.5,26.6],[88.2,26.6],[88.2,26.7],[88.0,26.7],[88.0,26.8],[87.8,26.8],[87.8,26.9],[87.6,26.9],[87.6,27.0],[87.4,27.0],[87.4,27.1],[87.1,27.1],[87.1,27.2],[86.4,27.2],[86.4,27.3],[85.8,27.3],[85.8,27.4],[85.5,27.4],[85.5,27.5],[85.2,27.5],[85.2,27.6],[84.8,27.6],[84.8,27.7],[84.1,27.7],[84.1,27.8],[83.2,27.8],[83.2,27.9],[82.8,27.9],[82.8,28.0],[82.6,28.0],[82.6,28.1],[82.3,28.1],[82.3,28.2],[82.0,28.2],[82.0,28.3],[81.8,28.3],[81.8,28.4],[81.6,28.4],[81.6,28.5],[81.2,28.5],[81.2,28.6],[81.0,28.6],[81.0,28.7],[80.7,28.7],[80.7,28.8],[80.5,28.8],[80.5,28.9],[80.4,28.9],[80.4,29.0],[80.3,29.0],[80.3,29.1],[80.2,29.1],[80.2,29.2],[80.1,29.2],[80.1,29.3],[79.9,29.3],[79.9,29.4],[79.6,29.4],[79.6,29.5],[79.5,29.5],[79.5,29.6],[79.4,29.6],[79.4,29.8],[79.3,29.8],[79.3,29.9],[79.2,29.9],[79.2,30.1],[79.1,30.1],[79.1,30.2],[79.0,30.2],[79.0,30.3],[78.9,30.3],[78.9,30.5],[78.8,30.5],[78.8,30.6],[78.7,30.6],[78.7,30.7],[78.6,30.7],[78.6,30.9],[78.5,30.9],[78.5,31.1],[78.4,31.1],[78.4,31.3],[78.3,31.3],[78.3,31.5],[78.2,31.5],[78.2,31.6],[78.1,31.6],[78.1,31.8],[78.0,31.8],[78.0,32.0],[77.9,32.0],[77.9,32.1],[77.8,32.1],[77.8,32.4],[77.7,32.4],[77.7,32.7],[77.6,32.7],[77.6,33.0],[77.5,33.0],[77.5,33.1],[77.4,33.1],[77.4,33.2],[77.3,33.2],[77.3,33.3],[77.1,33.3],[77.1,33.4],[77.0,33.4],[77.0,33.5],[76.8,33.5],[76.8,33.6],[76.7,33.6],[76.7,33.7],[76.5,33.7],[76.5,33.8],[76.4,33.8],[76.4,33.9],[76.3,33.9],[76.3,34.0],[76.2,34.0],[76.2,34.1],[76.1,34.1],[76.1,34.2],[76.0,34.2],[76.0,34.3],[75.8,34.3],[75.8,34.4],[75.7,34.4],[75.7,34.5],[75.6,34.5],[75.6,34.6],[75.5,34.6],[75.5,34.7],[75.4,34.7],[75.4,34.8],[75.3,34.8],[75.3,35.0],[75.2,35.0],[75.2,35.1],[75.1,35.1],[75.1,35.2],[75.0,35.2],[75.0,35.3],[74.9,35.3],[74.9,35.4],[74.8,35.4],[74.8,35.6],[74.7,35.6],[74.7,35.8],[74.6,35.8],[74.6,36.3],[74.0,36.3],[74.0,36.4],[73.1,36.4],[73.1,36.3],[73.0,36.3],[73.0,36.1],[72.9,36.1],[72.9,36.0],[72.1,36.0],[72.1,36.1],[71.9,36.1],[71.9,36.2],[71.7,36.2],[71.7,36.3],[71.5,36.3],[71.5,36.4],[71.4,36.4],[71.4,36.5],[71.2,36.5],[71.2,36.6],[71.1,36.6],[71.1,36.7],[71.0,36.7],[71.0,36.8],[70.8,36.8],[70.8,36.9],[70.6,36.9],[70.6,37.0],[70.4,37.0],[70.4,37.1],[70.3,37.1],[70.3,37.2],[69.6,37.2],[69.6,37.1],[69.2,37.1],[69.2,37.0],[68.7,37.0],[68.7,36.9],[68.6,36.9],[68.6,37.0],[68.5,37.0],[68.5,37.1],[68.2,37.1],[68.2,37.2],[68.0,37.2],[68.0,37.3],[67.9,37.3],[67.9,37.4],[67.7,37.4]],[[89.9,24.3],[89.7,24.3],[89.7,24.7],[89.9,24.7],[89.9,24.3]],[[67.6,24.2],[67.7,24.2],[67.7,24.3],[67.9,24.3],[67.9,24.0],[67.7,24.0],[67.7,24.1],[67.6,24.1],[67.6,24.2]]]]},"properties":{"tile_id":"51","start_year":1335,"end_year":1336,"source_image":"data/raw/toolbay/t/51/1335.png","source_url":"https://www.toolbay.cc/history-map/t/51/1335.png","source_color":"#ff9933","polity_id":null,"polity_assignment":"unverified","geometry_origin":"raster_color_trace","pixel_size_degrees":0.1,"source_color_pixels":34225,"simplification_degrees":0}}]}
