{"type":"FeatureCollection","features":[{"type":"Feature","id":"51:170:#009900","bbox":[60.0,40.8,74.0,45.0],"geometry":{"type":"Polygon","coordinates":[[[60.1,43.8],[60.0,43.8],[60.0,41.8],[60.1,41.8],[60.1,41.7],[60.4,41.7],[60.4,41.6],[60.6,41.6],[60.6,41.5],[60.8,41.5],[60.8,41.4],[61.1,41.4],[61.1,41.3],[61.3,41.3],[61.3,41.2],[61.5,41.2],[61.5,41.1],[61.9,41.1],[61.9,41.0],[62.0,41.0],[62.0,40.9],[62.2,40.9],[62.2,40.8],[62.7,40.8],[62.7,40.9],[63.2,40.9],[63.2,41.0],[63.5,41.0],[63.5,41.1],[64.1,41.1],[64.1,41.2],[64.3,41.2],[64.3,41.3],[64.6,41.3],[64.6,41.4],[65.0,41.4],[65.0,41.5],[65.1,41.5],[65.1,41.6],[66.0,41.6],[66.0,41.7],[66.8,41.7],[66.8,41.8],[67.1,41.8],[67.1,41.9],[67.3,41.9],[67.3,42.0],[67.7,42.0],[67.7,42.2],[67.9,42.2],[67.9,42.3],[68.0,42.3],[68.0,42.5],[69.0,42.5],[69.0,42.6],[68.9,42.6],[68.9,42.8],[68.8,42.8],[68.8,43.2],[68.7,43.2],[68.7,43.8],[68.6,43.8],[68.6,44.3],[68.7,44.3],[68.7,44.7],[68.8,44.7],[68.8,44.8],[69.4,44.8],[69.4,44.9],[69.6,44.9],[69.6,44.8],[69.9,44.8],[69.9,44.7],[70.5,44.7],[70.5,44.6],[71.1,44.6],[71.1,44.5],[71.6,44.5],[71.6,44.4],[72.9,44.4],[72.9,44.5],[73.0,44.5],[73.0,44.6],[73.2,44.6],[73.2,44.7],[73.4,44.7],[73.4,44.8],[73.6,44.8],[73.6,44.9],[74.0,44.9],[74.0,45.0],[61.4,45.0],[61.4,44.9],[61.3,44.9],[61.3,44.8],[61.1,44.8],[61.1,44.7],[61.0,44.7],[61.0,44.5],[60.9,44.5],[60.9,44.3],[60.8,44.3],[60.8,44.2],[60.6,44.2],[60.6,44.1],[60.3,44.1],[60.3,44.0],[60.2,44.0],[60.2,43.9],[60.1,43.9],[60.1,43.8]]]},"properties":{"tile_id":"51","start_year":170,"end_year":190,"source_image":"data/raw/toolbay/t/51/170.png","source_url":"https://www.toolbay.cc/history-map/t/51/170.png","source_color":"#009900","polity_id":null,"polity_assignment":"unverified","geometry_origin":"raster_color_trace","pixel_size_degrees":0.1,"source_color_pixels":3864,"simplification_degrees":0}},{"type":"Feature","id":"51:170:#00ff00","bbox":[74.5,10.3,80.4,14.4],"geometry":{"type":"Polygon","coordinates":[[[77.3,14.4],[76.6,14.4],[76.6,14.3],[75.9,14.3],[75.9,14.2],[75.1,14.2],[75.1,14.1],[74.5,14.1],[74.5,14.0],[74.6,14.0],[74.6,13.7],[74.7,13.7],[74.7,13.6],[75.0,13.6],[75.0,13.5],[75.4,13.5],[75.4,13.4],[75.8,13.4],[75.8,13.3],[75.9,13.3],[75.9,13.2],[76.0,13.2],[76.0,13.1],[76.1,13.1],[76.1,13.0],[76.2,13.0],[76.2,12.9],[76.3,12.9],[76.3,12.8],[76.5,12.8],[76.5,12.7],[76.6,12.7],[76.6,12.6],[76.7,12.6],[76.7,12.5],[76.8,12.5],[76.8,12.4],[76.9,12.4],[76.9,12.3],[77.0,12.3],[77.0,12.2],[77.2,12.2],[77.2,12.1],[77.3,12.1],[77.3,12.0],[77.4,12.0],[77.4,11.9],[77.5,11.9],[77.5,11.7],[77.7,11.7],[77.7,11.6],[77.8,11.6],[77.8,11.4],[77.9,11.4],[77.9,11.3],[78.0,11.3],[78.0,11.2],[78.1,11.2],[78.1,11.1],[78.2,11.1],[78.2,10.9],[78.4,10.9],[78.4,10.8],[78.5,10.8],[78.5,10.7],[78.6,10.7],[78.6,10.6],[78.8,10.6],[78.8,10.5],[79.4,10.5],[79.4,10.4],[79.6,10.4],[79.6,10.3],[79.8,10.3],[79.8,10.4],[79.9,10.4],[79.9,11.5],[79.8,11.5],[79.8,11.9],[79.9,11.9],[79.9,12.2],[80.0,12.2],[80.0,12.3],[80.1,12.3],[80.1,12.5],[80.2,12.5],[80.2,12.7],[80.3,12.7],[80.3,13.1],[80.4,13.1],[80.4,13.6],[80.3,13.6],[80.3,13.9],[79.6,13.9],[79.6,14.0],[79.4,14.0],[79.4,14.1],[78.5,14.1],[78.5,14.2],[78.0,14.2],[78.0,14.3],[77.3,14.3],[77.3,14.4]]]},"properties":{"tile_id":"51","start_year":170,"end_year":190,"source_image":"data/raw/toolbay/t/51/170.png","source_url":"https://www.toolbay.cc/history-map/t/51/170.png","source_color":"#00ff00","polity_id":null,"polity_assignment":"unverified","geometry_origin":"raster_color_trace","pixel_size_degrees":0.1,"source_color_pixels":1563,"simplification_degrees":0}},{"type":"Feature","id":"51:170:#00ffff","bbox":[68.1,20.7,77.8,44.9],"geometry":{"type":"MultiPolygon","coordinates":[[[[76.6,26.2],[76.6,26.3],[73.6,26.3],[73.6,26.2],[73.1,26.2],[73.1,26.1],[72.6,26.1],[72.6,26.0],[72.1,26.0],[72.1,25.9],[71.5,25.9],[71.5,25.8],[70.9,25.8],[70.9,25.7],[70.7,25.7],[70.7,25.6],[70.3,25.6],[70.3,25.5],[70.0,25.5],[70.0,25.4],[69.6,25.4],[69.6,25.3],[69.3,25.3],[69.3,25.2],[69.2,25.2],[69.2,25.1],[69.1,25.1],[69.1,25.0],[69.0,25.0],[69.0,24.9],[68.8,24.9],[68.8,24.7],[68.7,24.7],[68.7,24.6],[68.6,24.6],[68.6,24.4],[68.5,24.4],[68.5,24.3],[68.4,24.3],[68.4,24.1],[68.3,24.1],[68.3,23.9],[68.2,23.9],[68.2,23.8],[68.1,23.8],[68.1,23.7],[68.2,23.7],[68.2,23.6],[68.3,23.6],[68.3,23.5],[68.4,23.5],[68.4,23.4],[68.5,23.4],[68.5,23.3],[68.6,23.3],[68.6,23.2],[68.7,23.2],[68.7,23.1],[68.9,23.1],[68.9,23.0],[69.1,23.0],[69.1,22.9],[69.5,22.9],[69.5,22.8],[69.8,22.8],[69.8,22.9],[70.1,22.9],[70.1,22.8],[70.2,22.8],[70.2,22.7],[70.1,22.7],[70.1,22.6],[69.6,22.6],[69.6,22.5],[69.1,22.5],[69.1,22.4],[69.0,22.4],[69.0,22.2],[69.1,22.2],[69.1,22.1],[69.2,22.1],[69.2,22.0],[69.3,22.0],[69.3,21.9],[69.4,21.9],[69.4,21.8],[69.5,21.8],[69.5,21.7],[69.6,21.7],[69.6,21.6],[69.7,21.6],[69.7,21.5],[69.8,21.5],[69.8,21.4],[69.9,21.4],[69.9,21.3],[70.0,21.3],[70.0,21.2],[70.1,21.2],[70.1,21.1],[70.2,21.1],[70.2,21.0],[70.4,21.0],[70.4,20.9],[70.5,20.9],[70.5,20.8],[70.8,20.8],[70.8,20.7],[71.0,20.7],[71.0,20.8],[71.3,20.8],[71.3,20.9],[71.5,20.9],[71.5,21.0],[71.7,21.0],[71.7,21.1],[71.9,21.1],[71.9,21.2],[72.1,21.2],[72.1,21.3],[72.2,21.3],[72.2,21.5],[72.3,21.5],[72.3,22.0],[72.5,22.0],[72.5,21.8],[73.0,21.8],[73.0,21.9],[73.4,21.9],[73.4,22.0],[73.9,22.0],[73.9,22.1],[74.1,22.1],[74.1,22.2],[74.4,22.2],[74.4,22.3],[74.7,22.3],[74.7,22.4],[74.8,22.4],[74.8,22.5],[75.1,22.5],[75.1,22.6],[75.3,22.6],[75.3,22.7],[75.5,22.7],[75.5,22.8],[75.6,22.8],[75.6,22.9],[75.7,22.9],[75.7,23.1],[75.8,23.1],[75.8,23.2],[76.0,23.2],[76.0,23.3],[76.1,23.3],[76.1,23.4],[76.2,23.4],[76.2,23.5],[76.4,23.5],[76.4,23.6],[76.5,23.6],[76.5,23.7],[76.7,23.7],[76.7,23.8],[76.8,23.8],[76.8,23.9],[77.0,23.9],[77.0,24.0],[77.1,24.0],[77.1,24.1],[77.2,24.1],[77.2,24.2],[77.4,24.2],[77.4,24.3],[77.8,24.3],[77.8,24.4],[77.7,24.4],[77.7,24.6],[77.6,24.6],[77.6,24.8],[77.5,24.8],[77.5,24.9],[77.4,24.9],[77.4,25.0],[77.3,25.0],[77.3,25.2],[77.2,25.2],[77.2,25.3],[77.1,25.3],[77.1,25.5],[77.0,25.5],[77.0,25.7],[76.9,25.7],[76.9,25.9],[76.8,25.9],[76.8,26.2],[76.6,26.2]]],[[[69.6,44.8],[69.6,44.9],[69.4,44.9],[69.4,44.8],[68.8,44.8],[68.8,44.7],[68.7,44.7],[68.7,44.3],[68.6,44.3],[68.6,43.8],[68.7,43.8],[68.7,43.2],[68.8,43.2],[68.8,42.8],[68.9,42.8],[68.9,42.6],[69.0,42.6],[69.0,42.4],[69.7,42.4],[69.7,42.3],[71.1,42.3],[71.1,42.4],[71.8,42.4],[71.8,42.5],[72.1,42.5],[72.1,42.6],[72.8,42.6],[72.8,43.2],[72.7,43.2],[72.7,43.6],[72.8,43.6],[72.8,44.4],[71.6,44.4],[71.6,44.5],[71.1,44.5],[71.1,44.6],[70.5,44.6],[70.5,44.7],[69.9,44.7],[69.9,44.8],[69.6,44.8]]]]},"properties":{"tile_id":"51","start_year":170,"end_year":190,"source_image":"data/raw/toolbay/t/51/170.png","source_url":"https://www.toolbay.cc/history-map/t/51/170.png","source_color":"#00ffff","polity_id":null,"polity_assignment":"unverified","geometry_origin":"raster_color_trace","pixel_size_degrees":0.1,"source_color_pixels":4180,"simplification_degrees":0}},{"type":"Feature","id":"51:170:#ff0000","bbox":[60.0,8.2,82.4,43.2],"geometry":{"type":"MultiPolygon","coordinates":[[[[75.0,13.5],[75.0,13.6],[74.7,13.6],[74.7,13.3],[74.8,13.3],[74.8,12.8],[74.9,12.8],[74.9,12.6],[75.0,12.6],[75.0,12.4],[75.1,12.4],[75.1,12.2],[75.2,12.2],[75.2,12.0],[75.3,12.0],[75.3,11.9],[75.4,11.9],[75.4,11.8],[75.5,11.8],[75.5,11.7],[75.6,11.7],[75.6,11.5],[75.7,11.5],[75.7,11.3],[75.8,11.3],[75.8,11.1],[75.9,11.1],[75.9,10.8],[76.0,10.8],[76.0,10.5],[76.1,10.5],[76.1,10.3],[76.2,10.3],[76.2,9.9],[76.3,9.9],[76.3,9.5],[76.4,9.5],[76.4,9.2],[76.5,9.2],[76.5,9.0],[76.6,9.0],[76.6,8.9],[76.7,8.9],[76.7,8.8],[76.8,8.8],[76.8,8.7],[76.9,8.7],[76.9,8.5],[77.0,8.5],[77.0,8.4],[77.1,8.4],[77.1,8.3],[77.2,8.3],[77.2,8.2],[77.8,8.2],[77.8,8.3],[78.0,8.3],[78.0,8.4],[78.1,8.4],[78.1,8.5],[78.2,8.5],[78.2,8.9],[78.3,8.9],[78.3,9.1],[78.4,9.1],[78.4,9.2],[78.8,9.2],[78.8,9.3],[78.9,9.3],[78.9,9.4],[79.0,9.4],[79.0,9.8],[79.1,9.8],[79.1,9.9],[79.2,9.9],[79.2,10.0],[79.3,10.0],[79.3,10.3],[79.4,10.3],[79.4,10.5],[78.8,10.5],[78.8,10.6],[78.6,10.6],[78.6,10.7],[78.5,10.7],[78.5,10.8],[78.4,10.8],[78.4,10.9],[78.2,10.9],[78.2,11.1],[78.1,11.1],[78.1,11.2],[78.0,11.2],[78.0,11.3],[77.9,11.3],[77.9,11.4],[77.8,11.4],[77.8,11.6],[77.7,11.6],[77.7,11.7],[77.5,11.7],[77.5,11.9],[77.4,11.9],[77.4,12.0],[77.3,12.0],[77.3,12.1],[77.2,12.1],[77.2,12.2],[77.0,12.2],[77.0,12.3],[76.9,12.3],[76.9,12.4],[76.8,12.4],[76.8,12.5],[76.7,12.5],[76.7,12.6],[76.6,12.6],[76.6,12.7],[76.5,12.7],[76.5,12.8],[76.3,12.8],[76.3,12.9],[76.2,12.9],[76.2,13.0],[76.1,13.0],[76.1,13.1],[76.0,13.1],[76.0,13.2],[75.9,13.2],[75.9,13.3],[75.8,13.3],[75.8,13.4],[75.4,13.4],[75.4,13.5],[75.0,13.5]]],[[[60.1,34.4],[60.1,34.3],[60.0,34.3],[60.0,33.8],[60.0,30.5],[60.0,30.4],[60.1,30.4],[60.1,30.3],[60.2,30.3],[60.2,30.2],[60.3,30.2],[60.3,30.1],[60.4,30.1],[60.4,30.0],[60.5,30.0],[60.5,29.9],[60.6,29.9],[60.6,29.8],[60.7,29.8],[60.7,29.7],[60.9,29.7],[60.9,29.6],[61.0,29.6],[61.0,29.5],[61.2,29.5],[61.2,29.4],[61.4,29.4],[61.4,29.3],[61.5,29.3],[61.5,29.2],[61.7,29.2],[61.7,29.1],[61.9,29.1],[61.9,29.0],[62.0,29.0],[62.0,28.9],[62.1,28.9],[62.1,28.8],[62.3,28.8],[62.3,28.7],[62.4,28.7],[62.4,28.6],[62.5,28.6],[62.5,28.5],[62.6,28.5],[62.6,28.4],[62.7,28.4],[62.7,28.3],[62.9,28.3],[62.9,28.1],[63.1,28.1],[63.1,28.0],[63.2,28.0],[63.2,27.9],[63.3,27.9],[63.3,27.8],[63.4,27.8],[63.4,27.7],[63.6,27.7],[63.6,27.6],[63.8,27.6],[63.8,27.5],[63.9,27.5],[63.9,27.4],[64.0,27.4],[64.0,27.3],[64.1,27.3],[64.1,27.2],[64.2,27.2],[64.2,27.0],[64.3,27.0],[64.3,26.9],[64.4,26.9],[64.4,26.8],[64.5,26.8],[64.5,26.7],[64.6,26.7],[64.6,26.5],[64.7,26.5],[64.7,26.3],[64.8,26.3],[64.8,26.2],[64.9,26.2],[64.9,26.0],[65.0,26.0],[65.0,25.8],[65.1,25.8],[65.1,25.6],[65.2,25.6],[65.2,25.4],[66.0,25.4],[66.0,25.5],[66.5,25.5],[66.5,25.4],[66.6,25.4],[66.6,25.3],[66.7,25.3],[66.7,25.0],[66.8,25.0],[66.8,24.9],[67.0,24.9],[67.0,24.8],[67.1,24.8],[67.1,24.7],[67.2,24.7],[67.2,24.5],[67.3,24.5],[67.3,24.2],[67.4,24.2],[67.4,24.1],[67.5,24.1],[67.5,23.9],[67.6,23.9],[67.6,23.8],[68.2,23.8],[68.2,23.9],[68.3,23.9],[68.3,24.1],[68.4,24.1],[68.4,24.3],[68.5,24.3],[68.5,24.4],[68.6,24.4],[68.6,24.6],[68.7,24.6],[68.7,24.7],[68.8,24.7],[68.8,24.9],[69.0,24.9],[69.0,25.0],[69.1,25.0],[69.1,25.1],[69.2,25.1],[69.2,25.2],[69.3,25.2],[69.3,25.3],[69.6,25.3],[69.6,25.4],[70.0,25.4],[70.0,25.5],[70.3,25.5],[70.3,25.6],[70.7,25.6],[70.7,25.7],[70.9,25.7],[70.9,25.8],[71.5,25.8],[71.5,25.9],[72.1,25.9],[72.1,26.0],[72.6,26.0],[72.6,26.1],[73.1,26.1],[73.1,26.2],[73.6,26.2],[73.6,26.3],[76.6,26.3],[76.6,26.2],[76.8,26.2],[76.8,26.1],[77.1,26.1],[77.1,26.0],[77.8,26.0],[77.8,25.9],[80.2,25.9],[80.2,25.8],[80.7,25.8],[80.7,25.9],[80.9,25.9],[80.9,26.0],[81.2,26.0],[81.2,26.1],[81.4,26.1],[81.4,26.2],[81.6,26.2],[81.6,26.3],[81.9,26.3],[81.9,26.4],[82.1,26.4],[82.1,26.5],[82.2,26.5],[82.2,26.6],[82.4,26.6],[82.4,27.6],[82.3,27.6],[82.3,27.8],[82.2,27.8],[82.2,27.9],[82.0,27.9],[82.0,28.0],[81.8,28.0],[81.8,28.1],[81.6,28.1],[81.6,28.2],[81.5,28.2],[81.5,28.3],[81.3,28.3],[81.3,28.4],[81.2,28.4],[81.2,28.5],[81.1,28.5],[81.1,28.6],[80.9,28.6],[80.9,28.7],[80.8,28.7],[80.8,28.8],[80.6,28.8],[80.6,28.9],[80.4,28.9],[80.4,29.0],[80.3,29.0],[80.3,29.1],[80.2,29.1],[80.2,29.2],[79.9,29.2],[79.9,29.3],[79.7,29.3],[79.7,29.4],[79.6,29.4],[79.6,29.5],[79.5,29.5],[79.5,29.6],[78.8,29.6],[78.8,29.7],[78.5,29.7],[78.5,29.9],[78.3,29.9],[78.3,30.0],[78.2,30.0],[78.2,30.1],[78.1,30.1],[78.1,30.3],[78.0,30.3],[78.0,30.4],[77.9,30.4],[77.9,30.5],[77.8,30.5],[77.8,30.7],[77.7,30.7],[77.7,30.8],[77.6,30.8],[77.6,30.9],[77.5,30.9],[77.5,31.0],[77.4,31.0],[77.4,31.1],[77.3,31.1],[77.3,31.2],[77.2,31.2],[77.2,31.3],[77.1,31.3],[77.1,31.4],[77.0,31.4],[77.0,31.5],[76.8,31.5],[76.8,31.6],[76.7,31.6],[76.7,31.9],[76.6,31.9],[76.6,32.0],[76.5,32.0],[76.5,32.2],[76.4,32.2],[76.4,32.3],[76.3,32.3],[76.3,32.4],[76.2,32.4],[76.2,32.5],[76.1,32.5],[76.1,32.6],[76.0,32.6],[76.0,32.8],[75.8,32.8],[75.8,33.0],[75.6,33.0],[75.6,33.1],[75.5,33.1],[75.5,33.3],[75.4,33.3],[75.4,33.4],[75.3,33.4],[75.3,33.5],[75.2,33.5],[75.2,33.6],[75.0,33.6],[75.0,33.8],[74.9,33.8],[74.9,33.9],[74.8,33.9],[74.8,34.0],[74.7,34.0],[74.7,34.2],[74.5,34.2],[74.5,34.3],[74.4,34.3],[74.4,34.4],[74.3,34.4],[74.3,34.5],[74.1,34.5],[74.1,34.6],[74.0,34.6],[74.0,34.7],[73.9,34.7],[73.9,34.8],[73.8,34.8],[73.8,34.9],[73.7,34.9],[73.7,35.0],[73.5,35.0],[73.5,35.2],[73.4,35.2],[73.4,35.3],[73.2,35.3],[73.2,35.5],[73.0,35.5],[73.0,35.6],[72.9,35.6],[72.9,35.8],[72.8,35.8],[72.8,36.1],[72.7,36.1],[72.7,36.3],[72.6,36.3],[72.6,36.5],[72.5,36.5],[72.5,36.6],[72.4,36.6],[72.4,36.8],[72.3,36.8],[72.3,37.0],[72.2,37.0],[72.2,37.1],[72.1,37.1],[72.1,37.2],[72.0,37.2],[72.0,37.6],[71.9,37.6],[71.9,38.0],[72.0,38.0],[72.0,38.2],[72.1,38.2],[72.1,38.3],[72.3,38.3],[72.3,38.4],[72.4,38.4],[72.4,38.5],[72.5,38.5],[72.5,38.6],[72.8,38.6],[72.8,38.7],[73.0,38.7],[73.0,38.8],[73.2,38.8],[73.2,38.9],[73.3,38.9],[73.3,39.0],[73.5,39.0],[73.5,39.1],[73.8,39.1],[73.8,39.0],[73.9,39.0],[73.9,38.9],[74.2,38.9],[74.2,38.8],[74.3,38.8],[74.3,38.7],[74.4,38.7],[74.4,38.6],[74.7,38.6],[74.7,38.5],[74.9,38.5],[74.9,38.4],[75.1,38.4],[75.1,38.3],[75.3,38.3],[75.3,38.2],[75.6,38.2],[75.6,38.1],[75.8,38.1],[75.8,38.0],[76.0,38.0],[76.0,37.9],[76.3,37.9],[76.3,37.8],[76.4,37.8],[76.4,37.7],[76.5,37.7],[76.5,37.6],[76.6,37.6],[76.6,37.5],[77.0,37.5],[77.0,37.4],[77.5,37.4],[77.5,37.3],[77.7,37.3],[77.7,37.2],[78.3,37.2],[78.3,37.1],[78.7,37.1],[78.7,37.0],[79.7,37.0],[79.7,37.8],[79.6,37.8],[79.6,37.9],[79.5,37.9],[79.5,38.1],[79.4,38.1],[79.4,38.5],[79.3,38.5],[79.3,40.2],[79.2,40.2],[79.2,41.9],[79.1,41.9],[79.1,42.1],[79.0,42.1],[79.0,42.3],[78.9,42.3],[78.9,42.4],[78.8,42.4],[78.8,42.6],[78.6,42.6],[78.6,42.8],[78.5,42.8],[78.5,42.9],[78.4,42.9],[78.4,43.0],[78.3,43.0],[78.3,43.1],[78.1,43.1],[78.1,43.2],[78.0,43.2],[78.0,43.1],[77.7,43.1],[77.7,43.0],[77.4,43.0],[77.4,42.9],[77.0,42.9],[77.0,42.8],[76.7,42.8],[76.7,42.7],[76.3,42.7],[76.3,42.6],[75.8,42.6],[75.8,42.5],[75.3,42.5],[75.3,42.4],[74.1,42.4],[74.1,42.5],[72.8,42.5],[72.8,42.6],[72.1,42.6],[72.1,42.5],[71.8,42.5],[71.8,42.4],[71.1,42.4],[71.1,42.3],[69.7,42.3],[69.7,42.4],[69.0,42.4],[69.0,42.5],[68.0,42.5],[68.0,42.3],[67.9,42.3],[67.9,42.2],[67.7,42.2],[67.7,42.0],[67.3,42.0],[67.3,41.9],[67.1,41.9],[67.1,41.8],[66.8,41.8],[66.8,41.7],[66.0,41.7],[66.0,41.6],[65.1,41.6],[65.1,41.5],[65.0,41.5],[65.0,41.4],[64.6,41.4],[64.6,41.3],[64.3,41.3],[64.3,41.2],[64.1,41.2],[64.1,41.1],[63.5,41.1],[63.5,41.0],[63.2,41.0],[63.2,40.9],[62.7,40.9],[62.7,40.8],[62.2,40.8],[62.2,40.9],[62.0,40.9],[62.0,41.0],[61.9,41.0],[61.9,40.9],[61.8,40.9],[61.8,39.9],[61.9,39.9],[61.9,39.1],[62.0,39.1],[62.0,38.9],[62.1,38.9],[62.1,38.7],[62.2,38.7],[62.2,38.6],[62.3,38.6],[62.3,38.5],[62.4,38.5],[62.4,38.3],[62.5,38.3],[62.5,38.2],[62.4,38.2],[62.4,38.0],[62.3,38.0],[62.3,37.9],[62.2,37.9],[62.2,37.7],[62.1,37.7],[62.1,37.3],[62.0,37.3],[62.0,36.9],[61.9,36.9],[61.9,36.6],[61.8,36.6],[61.8,36.4],[61.7,36.4],[61.7,36.3],[61.6,36.3],[61.6,36.2],[61.5,36.2],[61.5,36.1],[61.4,36.1],[61.4,36.0],[61.3,36.0],[61.3,35.9],[61.2,35.9],[61.2,35.7],[61.1,35.7],[61.1,35.6],[61.0,35.6],[61.0,35.3],[60.9,35.3],[60.9,35.2],[60.8,35.2],[60.8,35.1],[60.7,35.1],[60.7,35.0],[60.6,35.0],[60.6,34.9],[60.5,34.9],[60.5,34.8],[60.4,34.8],[60.4,34.7],[60.3,34.7],[60.3,34.5],[60.2,34.5],[60.2,34.4],[60.1,34.4]],[[67.6,24.2],[67.7,24.2],[67.7,24.3],[67.9,24.3],[67.9,24.0],[67.7,24.0],[67.7,24.1],[67.6,24.1],[67.6,24.2]]]]},"properties":{"tile_id":"51","start_year":170,"end_year":190,"source_image":"data/raw/toolbay/t/51/170.png","source_url":"https://www.toolbay.cc/history-map/t/51/170.png","source_color":"#ff0000","polity_id":null,"polity_assignment":"unverified","geometry_origin":"raster_color_trace","pixel_size_degrees":0.1,"source_color_pixels":28577,"simplification_degrees":0}},{"type":"Feature","id":"51:170:#ff00ff","bbox":[72.7,19.8,90.0,45.0],"geometry":{"type":"MultiPolygon","coordinates":[[[[82.6,27.6],[82.6,27.7],[82.3,27.7],[82.3,27.6],[82.4,27.6],[82.4,26.6],[82.2,26.6],[82.2,26.5],[82.1,26.5],[82.1,26.4],[81.9,26.4],[81.9,26.3],[81.6,26.3],[81.6,26.2],[81.4,26.2],[81.4,26.1],[81.2,26.1],[81.2,26.0],[80.9,26.0],[80.9,25.9],[80.7,25.9],[80.7,25.8],[80.2,25.8],[80.2,25.9],[77.8,25.9],[77.8,26.0],[77.1,26.0],[77.1,26.1],[76.8,26.1],[76.8,25.9],[76.9,25.9],[76.9,25.7],[77.0,25.7],[77.0,25.5],[77.1,25.5],[77.1,25.3],[77.2,25.3],[77.2,25.2],[77.3,25.2],[77.3,25.0],[77.4,25.0],[77.4,24.9],[77.5,24.9],[77.5,24.8],[77.6,24.8],[77.6,24.6],[77.7,24.6],[77.7,24.4],[77.8,24.4],[77.8,24.2],[77.9,24.2],[77.9,24.1],[78.0,24.1],[78.0,24.0],[78.1,24.0],[78.1,23.8],[78.2,23.8],[78.2,23.7],[78.3,23.7],[78.3,23.6],[78.4,23.6],[78.4,23.4],[78.5,23.4],[78.5,23.3],[78.6,23.3],[78.6,23.2],[78.7,23.2],[78.7,23.1],[78.8,23.1],[78.8,23.0],[79.0,23.0],[79.0,22.9],[79.1,22.9],[79.1,22.8],[79.2,22.8],[79.2,22.7],[79.3,22.7],[79.3,22.6],[79.4,22.6],[79.4,22.5],[79.5,22.5],[79.5,22.4],[79.6,22.4],[79.6,22.3],[79.8,22.3],[79.8,22.2],[79.9,22.2],[79.9,22.1],[80.1,22.1],[80.1,22.0],[80.4,22.0],[80.4,21.9],[80.5,21.9],[80.5,21.8],[80.6,21.8],[80.6,21.7],[80.9,21.7],[80.9,21.6],[81.3,21.6],[81.3,21.5],[81.8,21.5],[81.8,21.4],[82.1,21.4],[82.1,21.3],[82.4,21.3],[82.4,21.2],[82.6,21.2],[82.6,21.1],[82.8,21.1],[82.8,21.0],[82.9,21.0],[82.9,20.9],[83.0,20.9],[83.0,20.8],[83.2,20.8],[83.2,20.7],[83.4,20.7],[83.4,20.6],[83.6,20.6],[83.6,20.5],[83.8,20.5],[83.8,20.4],[84.3,20.4],[84.3,20.3],[84.8,20.3],[84.8,20.2],[85.1,20.2],[85.1,20.1],[85.3,20.1],[85.3,20.0],[85.4,20.0],[85.4,19.9],[85.5,19.9],[85.5,19.8],[85.9,19.8],[85.9,19.9],[86.3,19.9],[86.3,20.0],[86.4,20.0],[86.4,20.1],[86.5,20.1],[86.5,20.2],[86.6,20.2],[86.6,20.3],[86.8,20.3],[86.8,20.4],[86.9,20.4],[86.9,20.6],[87.0,20.6],[87.0,21.0],[86.9,21.0],[86.9,21.4],[87.0,21.4],[87.0,21.5],[87.1,21.5],[87.1,21.6],[87.5,21.6],[87.5,21.7],[87.8,21.7],[87.8,21.8],[88.1,21.8],[88.1,21.7],[88.2,21.7],[88.2,21.6],[89.0,21.6],[89.0,21.7],[89.4,21.7],[89.4,21.8],[89.7,21.8],[89.7,21.9],[89.9,21.9],[89.9,22.0],[90.0,22.0],[90.0,25.8],[89.9,25.8],[89.9,26.1],[90.0,26.1],[90.0,26.4],[89.9,26.4],[89.9,26.3],[89.2,26.3],[89.2,26.4],[87.9,26.4],[87.9,26.5],[86.8,26.5],[86.8,26.6],[86.3,26.6],[86.3,26.7],[85.8,26.7],[85.8,26.8],[85.5,26.8],[85.5,26.9],[85.0,26.9],[85.0,27.0],[84.5,27.0],[84.5,27.1],[84.0,27.1],[84.0,27.2],[83.6,27.2],[83.6,27.3],[83.3,27.3],[83.3,27.4],[83.1,27.4],[83.1,27.5],[82.8,27.5],[82.8,27.6],[82.6,27.6]],[[89.9,24.3],[89.7,24.3],[89.7,24.7],[89.9,24.7],[89.9,24.3]]],[[[80.2,44.9],[80.2,45.0],[74.0,45.0],[74.0,44.9],[73.6,44.9],[73.6,44.8],[73.4,44.8],[73.4,44.7],[73.2,44.7],[73.2,44.6],[73.0,44.6],[73.0,44.5],[72.9,44.5],[72.9,44.4],[72.8,44.4],[72.8,43.6],[72.7,43.6],[72.7,43.2],[72.8,43.2],[72.8,42.5],[74.1,42.5],[74.1,42.4],[75.3,42.4],[75.3,42.5],[75.8,42.5],[75.8,42.6],[76.3,42.6],[76.3,42.7],[76.7,42.7],[76.7,42.8],[77.0,42.8],[77.0,42.9],[77.4,42.9],[77.4,43.0],[77.7,43.0],[77.7,43.1],[78.0,43.1],[78.0,43.2],[78.2,43.2],[78.2,43.3],[78.4,43.3],[78.4,43.4],[78.5,43.4],[78.5,43.5],[78.6,43.5],[78.6,43.6],[78.8,43.6],[78.8,43.8],[79.0,43.8],[79.0,43.9],[79.1,43.9],[79.1,44.0],[79.2,44.0],[79.2,44.1],[79.3,44.1],[79.3,44.2],[79.4,44.2],[79.4,44.3],[79.5,44.3],[79.5,44.4],[79.6,44.4],[79.6,44.5],[79.7,44.5],[79.7,44.6],[79.8,44.6],[79.8,44.7],[79.9,44.7],[79.9,44.8],[80.1,44.8],[80.1,44.9],[80.2,44.9]]]]},"properties":{"tile_id":"51","start_year":170,"end_year":190,"source_image":"data/raw/toolbay/t/51/170.png","source_url":"https://www.toolbay.cc/history-map/t/51/170.png","source_color":"#ff00ff","polity_id":null,"polity_assignment":"unverified","geometry_origin":"raster_color_trace","pixel_size_degrees":0.1,"source_color_pixels":10210,"simplification_degrees":0}},{"type":"Feature","id":"51:170:#ff9900","bbox":[79.5,6.0,85.6,22.0],"geometry":{"type":"MultiPolygon","coordinates":[[[[80.3,9.8],[80.3,9.9],[80.0,9.9],[80.0,9.5],[80.1,9.5],[80.1,9.2],[80.0,9.2],[80.0,9.1],[79.9,9.1],[79.9,8.5],[79.8,8.5],[79.8,8.4],[79.7,8.4],[79.7,7.9],[79.8,7.9],[79.8,6.9],[79.9,6.9],[79.9,6.7],[80.0,6.7],[80.0,6.3],[80.1,6.3],[80.1,6.1],[80.2,6.1],[80.2,6.0],[80.8,6.0],[80.8,6.1],[81.1,6.1],[81.1,6.2],[81.4,6.2],[81.4,6.3],[81.5,6.3],[81.5,6.4],[81.6,6.4],[81.6,6.5],[81.7,6.5],[81.7,6.6],[81.8,6.6],[81.8,6.8],[81.9,6.8],[81.9,7.2],[81.8,7.2],[81.8,7.8],[81.7,7.8],[81.7,7.9],[81.6,7.9],[81.6,8.1],[81.5,8.1],[81.5,8.3],[81.4,8.3],[81.4,8.6],[81.3,8.6],[81.3,8.7],[81.2,8.7],[81.2,8.9],[81.1,8.9],[81.1,9.0],[81.0,9.0],[81.0,9.2],[80.9,9.2],[80.9,9.4],[80.8,9.4],[80.8,9.5],[80.7,9.5],[80.7,9.6],[80.6,9.6],[80.6,9.7],[80.4,9.7],[80.4,9.8],[80.3,9.8]]],[[[80.4,21.9],[80.4,22.0],[80.2,22.0],[80.2,21.7],[80.1,21.7],[80.1,21.3],[80.0,21.3],[80.0,20.4],[79.9,20.4],[79.9,20.2],[79.8,20.2],[79.8,20.1],[79.7,20.1],[79.7,19.7],[79.6,19.7],[79.6,19.5],[79.5,19.5],[79.5,18.5],[79.6,18.5],[79.6,18.3],[79.7,18.3],[79.7,17.9],[80.1,17.9],[80.1,17.8],[80.3,17.8],[80.3,17.7],[80.6,17.7],[80.6,17.6],[80.8,17.6],[80.8,17.5],[80.9,17.5],[80.9,17.4],[81.0,17.4],[81.0,17.3],[81.1,17.3],[81.1,17.1],[81.2,17.1],[81.2,17.0],[81.3,17.0],[81.3,16.9],[81.4,16.9],[81.4,16.7],[81.5,16.7],[81.5,16.6],[81.6,16.6],[81.6,16.4],[81.9,16.4],[81.9,16.5],[82.2,16.5],[82.2,16.6],[82.3,16.6],[82.3,16.7],[82.4,16.7],[82.4,17.2],[82.5,17.2],[82.5,17.3],[82.7,17.3],[82.7,17.4],[82.8,17.4],[82.8,17.5],[83.1,17.5],[83.1,17.6],[83.2,17.6],[83.2,17.7],[83.3,17.7],[83.3,17.8],[83.4,17.8],[83.4,17.9],[83.5,17.9],[83.5,18.0],[83.6,18.0],[83.6,18.1],[83.8,18.1],[83.8,18.2],[83.9,18.2],[83.9,18.3],[84.1,18.3],[84.1,18.4],[84.2,18.4],[84.2,18.5],[84.3,18.5],[84.3,18.6],[84.4,18.6],[84.4,18.7],[84.5,18.7],[84.5,18.8],[84.6,18.8],[84.6,18.9],[84.7,18.9],[84.7,19.1],[84.8,19.1],[84.8,19.2],[84.9,19.2],[84.9,19.3],[85.0,19.3],[85.0,19.4],[85.1,19.4],[85.1,19.5],[85.2,19.5],[85.2,19.6],[85.4,19.6],[85.4,19.7],[85.6,19.7],[85.6,19.8],[85.5,19.8],[85.5,19.9],[85.4,19.9],[85.4,20.0],[85.3,20.0],[85.3,20.1],[85.1,20.1],[85.1,20.2],[84.8,20.2],[84.8,20.3],[84.3,20.3],[84.3,20.4],[83.8,20.4],[83.8,20.5],[83.6,20.5],[83.6,20.6],[83.4,20.6],[83.4,20.7],[83.2,20.7],[83.2,20.8],[83.0,20.8],[83.0,20.9],[82.9,20.9],[82.9,21.0],[82.8,21.0],[82.8,21.1],[82.6,21.1],[82.6,21.2],[82.4,21.2],[82.4,21.3],[82.1,21.3],[82.1,21.4],[81.8,21.4],[81.8,21.5],[81.3,21.5],[81.3,21.6],[80.9,21.6],[80.9,21.7],[80.6,21.7],[80.6,21.8],[80.5,21.8],[80.5,21.9],[80.4,21.9]]]]},"properties":{"tile_id":"51","start_year":170,"end_year":190,"source_image":"data/raw/toolbay/t/51/170.png","source_url":"https://www.toolbay.cc/history-map/t/51/170.png","source_color":"#ff9900","polity_id":null,"polity_assignment":"unverified","geometry_origin":"raster_color_trace","pixel_size_degrees":0.1,"source_color_pixels":2413,"simplification_degrees":0}},{"type":"Feature","id":"51:170:#ff9933","bbox":[60.0,25.1,65.2,41.8],"geometry":{"type":"MultiPolygon","coordinates":[[[[60.1,30.3],[60.1,30.4],[60.0,30.4],[60.0,25.4],[60.7,25.4],[60.7,25.3],[61.1,25.3],[61.1,25.2],[61.3,25.2],[61.3,25.1],[62.0,25.1],[62.0,25.2],[62.5,25.2],[62.5,25.3],[63.6,25.3],[63.6,25.4],[64.2,25.4],[64.2,25.3],[64.8,25.3],[64.8,25.4],[65.0,25.4],[65.0,25.3],[65.2,25.3],[65.2,25.6],[65.1,25.6],[65.1,25.8],[65.0,25.8],[65.0,26.0],[64.9,26.0],[64.9,26.2],[64.8,26.2],[64.8,26.3],[64.7,26.3],[64.7,26.5],[64.6,26.5],[64.6,26.7],[64.5,26.7],[64.5,26.8],[64.4,26.8],[64.4,26.9],[64.3,26.9],[64.3,27.0],[64.2,27.0],[64.2,27.2],[64.1,27.2],[64.1,27.3],[64.0,27.3],[64.0,27.4],[63.9,27.4],[63.9,27.5],[63.8,27.5],[63.8,27.6],[63.6,27.6],[63.6,27.7],[63.4,27.7],[63.4,27.8],[63.3,27.8],[63.3,27.9],[63.2,27.9],[63.2,28.0],[63.1,28.0],[63.1,28.1],[62.9,28.1],[62.9,28.3],[62.7,28.3],[62.7,28.4],[62.6,28.4],[62.6,28.5],[62.5,28.5],[62.5,28.6],[62.4,28.6],[62.4,28.7],[62.3,28.7],[62.3,28.8],[62.1,28.8],[62.1,28.9],[62.0,28.9],[62.0,29.0],[61.9,29.0],[61.9,29.1],[61.7,29.1],[61.7,29.2],[61.5,29.2],[61.5,29.3],[61.4,29.3],[61.4,29.4],[61.2,29.4],[61.2,29.5],[61.0,29.5],[61.0,29.6],[60.9,29.6],[60.9,29.7],[60.7,29.7],[60.7,29.8],[60.6,29.8],[60.6,29.9],[60.5,29.9],[60.5,30.0],[60.4,30.0],[60.4,30.1],[60.3,30.1],[60.3,30.2],[60.2,30.2],[60.2,30.3],[60.1,30.3]]],[[[60.1,41.7],[60.1,41.8],[60.0,41.8],[60.0,34.3],[60.1,34.3],[60.1,34.4],[60.2,34.4],[60.2,34.5],[60.3,34.5],[60.3,34.7],[60.4,34.7],[60.4,34.8],[60.5,34.8],[60.5,34.9],[60.6,34.9],[60.6,35.0],[60.7,35.0],[60.7,35.1],[60.8,35.1],[60.8,35.2],[60.9,35.2],[60.9,35.3],[61.0,35.3],[61.0,35.6],[61.1,35.6],[61.1,35.7],[61.2,35.7],[61.2,35.9],[61.3,35.9],[61.3,36.0],[61.4,36.0],[61.4,36.1],[61.5,36.1],[61.5,36.2],[61.6,36.2],[61.6,36.3],[61.7,36.3],[61.7,36.4],[61.8,36.4],[61.8,36.6],[61.9,36.6],[61.9,36.9],[62.0,36.9],[62.0,37.3],[62.1,37.3],[62.1,37.7],[62.2,37.7],[62.2,37.9],[62.3,37.9],[62.3,38.0],[62.4,38.0],[62.4,38.2],[62.5,38.2],[62.5,38.3],[62.4,38.3],[62.4,38.5],[62.3,38.5],[62.3,38.6],[62.2,38.6],[62.2,38.7],[62.1,38.7],[62.1,38.9],[62.0,38.9],[62.0,39.1],[61.9,39.1],[61.9,39.9],[61.8,39.9],[61.8,40.9],[61.9,40.9],[61.9,41.1],[61.5,41.1],[61.5,41.2],[61.3,41.2],[61.3,41.3],[61.1,41.3],[61.1,41.4],[60.8,41.4],[60.8,41.5],[60.6,41.5],[60.6,41.6],[60.4,41.6],[60.4,41.7],[60.1,41.7]]]]},"properties":{"tile_id":"51","start_year":170,"end_year":190,"source_image":"data/raw/toolbay/t/51/170.png","source_url":"https://www.toolbay.cc/history-map/t/51/170.png","source_color":"#ff9933","polity_id":null,"polity_assignment":"unverified","geometry_origin":"raster_color_trace","pixel_size_degrees":0.1,"source_color_pixels":22500,"simplification_degrees":0}},{"type":"Feature","id":"51:170:#ff9999","bbox":[78.1,36.9,90.0,45.0],"geometry":{"type":"Polygon","coordinates":[[[90.0,45.0],[80.2,45.0],[80.2,44.9],[80.1,44.9],[80.1,44.8],[79.9,44.8],[79.9,44.7],[79.8,44.7],[79.8,44.6],[79.7,44.6],[79.7,44.5],[79.6,44.5],[79.6,44.4],[79.5,44.4],[79.5,44.3],[79.4,44.3],[79.4,44.2],[79.3,44.2],[79.3,44.1],[79.2,44.1],[79.2,44.0],[79.1,44.0],[79.1,43.9],[79.0,43.9],[79.0,43.8],[78.8,43.8],[78.8,43.6],[78.6,43.6],[78.6,43.5],[78.5,43.5],[78.5,43.4],[78.4,43.4],[78.4,43.3],[78.2,43.3],[78.2,43.2],[78.1,43.2],[78.1,43.1],[78.3,43.1],[78.3,43.0],[78.4,43.0],[78.4,42.9],[78.5,42.9],[78.5,42.8],[78.6,42.8],[78.6,42.6],[78.8,42.6],[78.8,42.4],[78.9,42.4],[78.9,42.3],[79.0,42.3],[79.0,42.1],[79.1,42.1],[79.1,41.9],[79.2,41.9],[79.2,40.2],[79.3,40.2],[79.3,38.5],[79.4,38.5],[79.4,38.1],[79.5,38.1],[79.5,37.9],[79.6,37.9],[79.6,37.8],[79.7,37.8],[79.7,37.0],[79.9,37.0],[79.9,36.9],[80.8,36.9],[80.8,37.0],[82.4,37.0],[82.4,37.1],[82.7,37.1],[82.7,37.2],[83.9,37.2],[83.9,37.3],[84.7,37.3],[84.7,37.4],[84.9,37.4],[84.9,37.5],[85.2,37.5],[85.2,37.6],[85.4,37.6],[85.4,37.8],[85.9,37.8],[85.9,37.9],[86.3,37.9],[86.3,38.0],[86.9,38.0],[86.9,38.1],[87.1,38.1],[87.1,38.2],[87.3,38.2],[87.3,38.3],[87.5,38.3],[87.5,38.4],[87.6,38.4],[87.6,38.5],[87.8,38.5],[87.8,38.6],[88.0,38.6],[88.0,38.7],[88.2,38.7],[88.2,38.8],[89.7,38.8],[89.7,38.9],[90.0,38.9],[90.0,45.0]]]},"properties":{"tile_id":"51","start_year":170,"end_year":190,"source_image":"data/raw/toolbay/t/51/170.png","source_url":"https://www.toolbay.cc/history-map/t/51/170.png","source_color":"#ff9999","polity_id":null,"polity_assignment":"unverified","geometry_origin":"raster_color_trace","pixel_size_degrees":0.1,"source_color_pixels":7902,"simplification_degrees":0}},{"type":"Feature","id":"51:170:#ffff00","bbox":[72.6,13.9,81.6,24.3],"geometry":{"type":"Polygon","coordinates":[[[77.8,24.3],[77.4,24.3],[77.4,24.2],[77.2,24.2],[77.2,24.1],[77.1,24.1],[77.1,24.0],[77.0,24.0],[77.0,23.9],[76.8,23.9],[76.8,23.8],[76.7,23.8],[76.7,23.7],[76.5,23.7],[76.5,23.6],[76.4,23.6],[76.4,23.5],[76.2,23.5],[76.2,23.4],[76.1,23.4],[76.1,23.3],[76.0,23.3],[76.0,23.2],[75.8,23.2],[75.8,23.1],[75.7,23.1],[75.7,22.9],[75.6,22.9],[75.6,22.8],[75.5,22.8],[75.5,22.7],[75.3,22.7],[75.3,22.6],[75.1,22.6],[75.1,22.5],[74.8,22.5],[74.8,22.4],[74.7,22.4],[74.7,22.3],[74.4,22.3],[74.4,22.2],[74.1,22.2],[74.1,22.1],[73.9,22.1],[73.9,22.0],[73.4,22.0],[73.4,21.9],[73.0,21.9],[73.0,21.8],[72.6,21.8],[72.6,21.1],[72.7,21.1],[72.7,21.0],[72.8,21.0],[72.8,20.8],[72.9,20.8],[72.9,20.5],[72.8,20.5],[72.8,20.3],[72.7,20.3],[72.7,19.5],[72.8,19.5],[72.8,18.9],[72.9,18.9],[72.9,18.3],[73.0,18.3],[73.0,18.0],[73.1,18.0],[73.1,17.6],[73.2,17.6],[73.2,17.2],[73.3,17.2],[73.3,16.5],[73.4,16.5],[73.4,16.2],[73.5,16.2],[73.5,16.0],[73.6,16.0],[73.6,15.9],[73.7,15.9],[73.7,15.6],[73.8,15.6],[73.8,15.4],[73.9,15.4],[73.9,15.1],[74.0,15.1],[74.0,15.0],[74.1,15.0],[74.1,14.9],[74.2,14.9],[74.2,14.7],[74.3,14.7],[74.3,14.5],[74.4,14.5],[74.4,14.3],[74.5,14.3],[74.5,14.1],[75.1,14.1],[75.1,14.2],[75.9,14.2],[75.9,14.3],[76.6,14.3],[76.6,14.4],[77.3,14.4],[77.3,14.3],[78.0,14.3],[78.0,14.2],[78.5,14.2],[78.5,14.1],[79.4,14.1],[79.4,14.0],[79.6,14.0],[79.6,13.9],[80.3,13.9],[80.3,14.0],[80.2,14.0],[80.2,14.9],[80.1,14.9],[80.1,15.4],[80.2,15.4],[80.2,15.5],[80.3,15.5],[80.3,15.7],[80.4,15.7],[80.4,15.8],[80.5,15.8],[80.5,15.9],[80.7,15.9],[80.7,15.8],[81.0,15.8],[81.0,15.9],[81.1,15.9],[81.1,16.0],[81.2,16.0],[81.2,16.2],[81.3,16.2],[81.3,16.3],[81.4,16.3],[81.4,16.4],[81.6,16.4],[81.6,16.6],[81.5,16.6],[81.5,16.7],[81.4,16.7],[81.4,16.9],[81.3,16.9],[81.3,17.0],[81.2,17.0],[81.2,17.1],[81.1,17.1],[81.1,17.3],[81.0,17.3],[81.0,17.4],[80.9,17.4],[80.9,17.5],[80.8,17.5],[80.8,17.6],[80.6,17.6],[80.6,17.7],[80.3,17.7],[80.3,17.8],[80.1,17.8],[80.1,17.9],[79.7,17.9],[79.7,18.3],[79.6,18.3],[79.6,18.5],[79.5,18.5],[79.5,19.5],[79.6,19.5],[79.6,19.7],[79.7,19.7],[79.7,20.1],[79.8,20.1],[79.8,20.2],[79.9,20.2],[79.9,20.4],[80.0,20.4],[80.0,21.3],[80.1,21.3],[80.1,21.7],[80.2,21.7],[80.2,22.0],[80.1,22.0],[80.1,22.1],[79.9,22.1],[79.9,22.2],[79.8,22.2],[79.8,22.3],[79.6,22.3],[79.6,22.4],[79.5,22.4],[79.5,22.5],[79.4,22.5],[79.4,22.6],[79.3,22.6],[79.3,22.7],[79.2,22.7],[79.2,22.8],[79.1,22.8],[79.1,22.9],[79.0,22.9],[79.0,23.0],[78.8,23.0],[78.8,23.1],[78.7,23.1],[78.7,23.2],[78.6,23.2],[78.6,23.3],[78.5,23.3],[78.5,23.4],[78.4,23.4],[78.4,23.6],[78.3,23.6],[78.3,23.7],[78.2,23.7],[78.2,23.8],[78.1,23.8],[78.1,24.0],[78.0,24.0],[78.0,24.1],[77.9,24.1],[77.9,24.2],[77.8,24.2],[77.8,24.3]]]},"properties":{"tile_id":"51","start_year":170,"end_year":190,"source_image":"data/raw/toolbay/t/51/170.png","source_url":"https://www.toolbay.cc/history-map/t/51/170.png","source_color":"#ffff00","polity_id":null,"polity_assignment":"unverified","geometry_origin":"raster_color_trace","pixel_size_degrees":0.1,"source_color_pixels":6174,"simplification_degrees":0}}]}
