{"type":"FeatureCollection","features":[{"type":"Feature","id":"51:1709:#009900","bbox":[68.9,6.0,81.2,43.6],"geometry":{"type":"MultiPolygon","coordinates":[[[[80.3,9.8],[80.3,9.9],[80.0,9.9],[80.0,9.5],[80.1,9.5],[80.1,9.2],[80.0,9.2],[80.0,9.1],[79.9,9.1],[79.9,8.5],[79.8,8.5],[79.8,8.4],[79.7,8.4],[79.7,7.9],[79.8,7.9],[79.8,6.9],[79.9,6.9],[79.9,6.7],[80.0,6.7],[80.0,6.3],[80.1,6.3],[80.1,6.1],[80.2,6.1],[80.2,6.0],[80.8,6.0],[80.8,6.1],[80.9,6.1],[80.9,6.3],[80.8,6.3],[80.8,6.5],[80.7,6.5],[80.7,6.7],[80.6,6.7],[80.6,6.8],[80.5,6.8],[80.5,6.9],[80.4,6.9],[80.4,8.4],[80.5,8.4],[80.5,8.5],[80.6,8.5],[80.6,8.6],[80.8,8.6],[80.8,8.7],[81.2,8.7],[81.2,8.9],[81.1,8.9],[81.1,9.0],[81.0,9.0],[81.0,9.2],[80.9,9.2],[80.9,9.4],[80.8,9.4],[80.8,9.5],[80.7,9.5],[80.7,9.6],[80.6,9.6],[80.6,9.7],[80.4,9.7],[80.4,9.8],[80.3,9.8]]],[[[75.2,43.4],[75.2,43.6],[75.0,43.6],[75.0,43.4],[74.9,43.4],[74.9,43.3],[74.8,43.3],[74.8,43.2],[74.7,43.2],[74.7,43.1],[74.6,43.1],[74.6,43.0],[74.5,43.0],[74.5,42.8],[74.4,42.8],[74.4,42.7],[74.3,42.7],[74.3,42.5],[74.1,42.5],[74.1,42.3],[74.0,42.3],[74.0,42.2],[73.8,42.2],[73.8,42.1],[73.6,42.1],[73.6,42.0],[73.2,42.0],[73.2,41.9],[72.8,41.9],[72.8,41.8],[72.4,41.8],[72.4,41.7],[72.0,41.7],[72.0,41.6],[71.7,41.6],[71.7,41.5],[71.4,41.5],[71.4,41.4],[71.1,41.4],[71.1,41.3],[70.9,41.3],[70.9,41.2],[70.7,41.2],[70.7,41.1],[70.6,41.1],[70.6,41.0],[70.4,41.0],[70.4,40.9],[70.3,40.9],[70.3,40.8],[70.1,40.8],[70.1,40.7],[69.9,40.7],[69.9,40.6],[69.7,40.6],[69.7,40.5],[69.5,40.5],[69.5,40.4],[69.1,40.4],[69.1,40.3],[68.9,40.3],[68.9,40.2],[69.1,40.2],[69.1,40.1],[69.2,40.1],[69.2,40.0],[69.3,40.0],[69.3,39.8],[69.4,39.8],[69.4,39.5],[69.5,39.5],[69.5,39.3],[69.6,39.3],[69.6,39.2],[69.7,39.2],[69.7,39.0],[69.8,39.0],[69.8,38.9],[69.9,38.9],[69.9,38.7],[70.0,38.7],[70.0,38.3],[70.1,38.3],[70.1,37.9],[70.2,37.9],[70.2,37.7],[70.1,37.7],[70.1,37.2],[70.3,37.2],[70.3,37.1],[70.4,37.1],[70.4,37.0],[70.6,37.0],[70.6,36.9],[70.8,36.9],[70.8,36.8],[71.0,36.8],[71.0,36.7],[71.1,36.7],[71.1,36.6],[71.6,36.6],[71.6,36.4],[71.7,36.4],[71.7,36.2],[71.9,36.2],[71.9,36.1],[72.1,36.1],[72.1,36.0],[72.9,36.0],[72.9,36.1],[73.0,36.1],[73.0,36.3],[73.1,36.3],[73.1,36.4],[74.0,36.4],[74.0,36.3],[74.6,36.3],[74.6,36.4],[74.7,36.4],[74.7,36.5],[74.8,36.5],[74.8,36.6],[74.9,36.6],[74.9,36.7],[75.1,36.7],[75.1,36.8],[75.3,36.8],[75.3,36.9],[75.5,36.9],[75.5,37.0],[75.7,37.0],[75.7,37.1],[76.0,37.1],[76.0,37.2],[76.8,37.2],[76.8,39.4],[76.7,39.4],[76.7,39.9],[76.6,39.9],[76.6,40.5],[76.5,40.5],[76.5,41.2],[76.4,41.2],[76.4,41.5],[76.3,41.5],[76.3,41.6],[76.2,41.6],[76.2,41.7],[76.1,41.7],[76.1,41.9],[76.0,41.9],[76.0,42.2],[75.9,42.2],[75.9,42.4],[75.8,42.4],[75.8,42.5],[75.7,42.5],[75.7,42.8],[75.6,42.8],[75.6,43.0],[75.5,43.0],[75.5,43.1],[75.4,43.1],[75.4,43.3],[75.3,43.3],[75.3,43.4],[75.2,43.4]]]]},"properties":{"tile_id":"51","start_year":1709,"end_year":1720,"source_image":"data/raw/toolbay/t/51/1709.png","source_url":"https://www.toolbay.cc/history-map/t/51/1709.png","source_color":"#009900","polity_id":null,"polity_assignment":"unverified","geometry_origin":"raster_color_trace","pixel_size_degrees":0.1,"source_color_pixels":3970,"simplification_degrees":0}},{"type":"Feature","id":"51:1709:#00ff00","bbox":[60.0,6.1,81.9,45.0],"geometry":{"type":"MultiPolygon","coordinates":[[[[81.3,8.6],[81.3,8.7],[80.8,8.7],[80.8,8.6],[80.6,8.6],[80.6,8.5],[80.5,8.5],[80.5,8.4],[80.4,8.4],[80.4,6.9],[80.5,6.9],[80.5,6.8],[80.6,6.8],[80.6,6.7],[80.7,6.7],[80.7,6.5],[80.8,6.5],[80.8,6.3],[80.9,6.3],[80.9,6.1],[81.1,6.1],[81.1,6.2],[81.4,6.2],[81.4,6.3],[81.5,6.3],[81.5,6.4],[81.6,6.4],[81.6,6.5],[81.7,6.5],[81.7,6.6],[81.8,6.6],[81.8,6.8],[81.9,6.8],[81.9,7.2],[81.8,7.2],[81.8,7.8],[81.7,7.8],[81.7,7.9],[81.6,7.9],[81.6,8.1],[81.5,8.1],[81.5,8.3],[81.4,8.3],[81.4,8.6],[81.3,8.6]]],[[[60.1,43.9],[60.1,43.8],[60.0,43.8],[60.0,40.0],[60.0,39.9],[60.4,39.9],[60.4,39.8],[60.7,39.8],[60.7,39.7],[60.9,39.7],[60.9,39.6],[61.1,39.6],[61.1,39.5],[61.3,39.5],[61.3,39.4],[61.4,39.4],[61.4,39.3],[61.5,39.3],[61.5,39.2],[61.7,39.2],[61.7,39.1],[61.8,39.1],[61.8,39.0],[61.9,39.0],[61.9,38.9],[62.1,38.9],[62.1,38.8],[62.2,38.8],[62.2,38.7],[62.3,38.7],[62.3,38.6],[62.5,38.6],[62.5,38.5],[62.6,38.5],[62.6,38.4],[62.7,38.4],[62.7,38.3],[62.8,38.3],[62.8,38.2],[63.0,38.2],[63.0,38.1],[63.2,38.1],[63.2,38.0],[63.3,38.0],[63.3,37.9],[63.5,37.9],[63.5,37.8],[64.1,37.8],[64.1,37.9],[65.2,37.9],[65.2,38.0],[65.7,38.0],[65.7,38.1],[65.8,38.1],[65.8,38.0],[65.9,38.0],[65.9,37.9],[66.2,37.9],[66.2,37.8],[66.5,37.8],[66.5,37.7],[66.7,37.7],[66.7,37.6],[67.0,37.6],[67.0,37.5],[67.2,37.5],[67.2,37.4],[67.5,37.4],[67.5,37.3],[67.6,37.3],[67.6,37.2],[67.8,37.2],[67.8,37.1],[68.7,37.1],[68.7,37.0],[69.2,37.0],[69.2,37.1],[69.6,37.1],[69.6,37.2],[70.1,37.2],[70.1,37.7],[70.2,37.7],[70.2,37.9],[70.1,37.9],[70.1,38.3],[70.0,38.3],[70.0,38.7],[69.9,38.7],[69.9,38.9],[69.8,38.9],[69.8,39.0],[69.7,39.0],[69.7,39.2],[69.6,39.2],[69.6,39.3],[69.5,39.3],[69.5,39.5],[69.4,39.5],[69.4,39.8],[69.3,39.8],[69.3,40.0],[69.2,40.0],[69.2,40.1],[69.1,40.1],[69.1,40.2],[68.9,40.2],[68.9,40.3],[68.8,40.3],[68.8,40.4],[68.7,40.4],[68.7,40.6],[68.6,40.6],[68.6,40.7],[68.5,40.7],[68.5,40.8],[68.4,40.8],[68.4,41.0],[68.3,41.0],[68.3,41.2],[68.2,41.2],[68.2,41.3],[68.1,41.3],[68.1,41.4],[68.0,41.4],[68.0,41.5],[67.8,41.5],[67.8,41.6],[67.7,41.6],[67.7,41.7],[67.5,41.7],[67.5,41.8],[67.4,41.8],[67.4,41.9],[67.3,41.9],[67.3,42.0],[67.2,42.0],[67.2,42.1],[67.0,42.1],[67.0,42.2],[66.9,42.2],[66.9,42.3],[66.8,42.3],[66.8,42.4],[66.7,42.4],[66.7,42.6],[66.6,42.6],[66.6,42.7],[66.4,42.7],[66.4,42.9],[66.3,42.9],[66.3,43.0],[66.2,43.0],[66.2,43.1],[66.1,43.1],[66.1,43.2],[66.0,43.2],[66.0,43.3],[65.6,43.3],[65.6,43.4],[65.3,43.4],[65.3,43.5],[65.2,43.5],[65.2,43.6],[65.0,43.6],[65.0,43.7],[64.8,43.7],[64.8,43.8],[64.7,43.8],[64.7,43.9],[64.5,43.9],[64.5,44.0],[64.4,44.0],[64.4,44.1],[64.3,44.1],[64.3,44.2],[64.2,44.2],[64.2,44.3],[64.1,44.3],[64.1,44.5],[64.0,44.5],[64.0,44.6],[63.9,44.6],[63.9,44.8],[63.8,44.8],[63.8,45.0],[61.4,45.0],[61.4,44.9],[61.3,44.9],[61.3,44.8],[61.1,44.8],[61.1,44.7],[61.0,44.7],[61.0,44.5],[60.9,44.5],[60.9,44.3],[60.8,44.3],[60.8,44.2],[60.6,44.2],[60.6,44.1],[60.3,44.1],[60.3,44.0],[60.2,44.0],[60.2,43.9],[60.1,43.9]]]]},"properties":{"tile_id":"51","start_year":1709,"end_year":1720,"source_image":"data/raw/toolbay/t/51/1709.png","source_url":"https://www.toolbay.cc/history-map/t/51/1709.png","source_color":"#00ff00","polity_id":null,"polity_assignment":"unverified","geometry_origin":"raster_color_trace","pixel_size_degrees":0.1,"source_color_pixels":6935,"simplification_degrees":0}},{"type":"Feature","id":"51:1709:#00ff99","bbox":[73.8,36.6,90.0,45.0],"geometry":{"type":"Polygon","coordinates":[[[90.0,45.0],[73.8,45.0],[73.8,44.9],[73.9,44.9],[73.9,44.8],[74.0,44.8],[74.0,44.6],[74.1,44.6],[74.1,44.5],[74.2,44.5],[74.2,44.4],[74.4,44.4],[74.4,44.3],[74.6,44.3],[74.6,44.2],[75.2,44.2],[75.2,43.8],[75.1,43.8],[75.1,43.6],[75.2,43.6],[75.2,43.4],[75.3,43.4],[75.3,43.3],[75.4,43.3],[75.4,43.1],[75.5,43.1],[75.5,43.0],[75.6,43.0],[75.6,42.8],[75.7,42.8],[75.7,42.5],[75.8,42.5],[75.8,42.4],[75.9,42.4],[75.9,42.2],[76.0,42.2],[76.0,41.9],[76.1,41.9],[76.1,41.7],[76.2,41.7],[76.2,41.6],[76.3,41.6],[76.3,41.5],[76.4,41.5],[76.4,41.2],[76.5,41.2],[76.5,40.5],[76.6,40.5],[76.6,39.9],[76.7,39.9],[76.7,39.4],[76.8,39.4],[76.8,37.2],[77.4,37.2],[77.4,37.1],[77.7,37.1],[77.7,37.2],[77.8,37.2],[77.8,37.1],[77.9,37.1],[77.9,37.0],[78.2,37.0],[78.2,36.9],[78.4,36.9],[78.4,36.8],[78.8,36.8],[78.8,36.7],[79.2,36.7],[79.2,36.6],[80.9,36.6],[80.9,36.7],[81.4,36.7],[81.4,36.8],[82.6,36.8],[82.6,36.9],[83.1,36.9],[83.1,37.0],[83.5,37.0],[83.5,37.1],[83.8,37.1],[83.8,37.2],[84.2,37.2],[84.2,37.3],[84.3,37.3],[84.3,37.4],[84.9,37.4],[84.9,37.5],[85.4,37.5],[85.4,37.6],[85.8,37.6],[85.8,37.7],[86.4,37.7],[86.4,37.8],[87.0,37.8],[87.0,37.9],[87.6,37.9],[87.6,38.0],[88.0,38.0],[88.0,38.1],[88.2,38.1],[88.2,38.2],[88.5,38.2],[88.5,38.3],[88.7,38.3],[88.7,38.4],[89.1,38.4],[89.1,38.5],[89.6,38.5],[89.6,38.4],[90.0,38.4],[90.0,45.0]]]},"properties":{"tile_id":"51","start_year":1709,"end_year":1720,"source_image":"data/raw/toolbay/t/51/1709.png","source_url":"https://www.toolbay.cc/history-map/t/51/1709.png","source_color":"#00ff99","polity_id":null,"polity_assignment":"unverified","geometry_origin":"raster_color_trace","pixel_size_degrees":0.1,"source_color_pixels":10718,"simplification_degrees":0}},{"type":"Feature","id":"51:1709:#00ffff","bbox":[73.2,15.3,74.3,17.5],"geometry":{"type":"Polygon","coordinates":[[[73.7,17.5],[73.2,17.5],[73.2,17.2],[73.3,17.2],[73.3,16.5],[73.4,16.5],[73.4,16.2],[73.5,16.2],[73.5,16.0],[73.6,16.0],[73.6,15.9],[73.7,15.9],[73.7,15.6],[73.8,15.6],[73.8,15.4],[74.2,15.4],[74.2,15.3],[74.3,15.3],[74.3,15.6],[74.2,15.6],[74.2,15.7],[74.1,15.7],[74.1,16.0],[74.0,16.0],[74.0,16.5],[73.9,16.5],[73.9,16.9],[73.8,16.9],[73.8,17.3],[73.7,17.3],[73.7,17.5]]]},"properties":{"tile_id":"51","start_year":1709,"end_year":1720,"source_image":"data/raw/toolbay/t/51/1709.png","source_url":"https://www.toolbay.cc/history-map/t/51/1709.png","source_color":"#00ffff","polity_id":null,"polity_assignment":"unverified","geometry_origin":"raster_color_trace","pixel_size_degrees":0.1,"source_color_pixels":112,"simplification_degrees":0}},{"type":"Feature","id":"51:1709:#660066","bbox":[60.0,30.6,69.1,38.1],"geometry":{"type":"Polygon","coordinates":[[[60.1,34.8],[60.0,34.8],[60.0,34.7],[60.0,32.1],[60.0,32.0],[60.1,32.0],[60.1,31.9],[60.2,31.9],[60.2,31.8],[60.4,31.8],[60.4,31.7],[60.5,31.7],[60.5,31.6],[60.8,31.6],[60.8,31.5],[61.0,31.5],[61.0,31.4],[61.4,31.4],[61.4,31.3],[62.1,31.3],[62.1,31.2],[62.8,31.2],[62.8,31.1],[63.6,31.1],[63.6,31.0],[64.4,31.0],[64.4,30.9],[65.0,30.9],[65.0,30.8],[65.4,30.8],[65.4,30.7],[65.8,30.7],[65.8,30.6],[66.5,30.6],[66.5,30.7],[66.6,30.7],[66.6,30.8],[66.8,30.8],[66.8,31.0],[66.9,31.0],[66.9,31.2],[67.0,31.2],[67.0,31.3],[67.1,31.3],[67.1,31.4],[67.3,31.4],[67.3,31.6],[67.4,31.6],[67.4,31.7],[67.6,31.7],[67.6,31.9],[67.8,31.9],[67.8,32.1],[67.9,32.1],[67.9,32.2],[68.0,32.2],[68.0,32.3],[68.1,32.3],[68.1,32.4],[68.2,32.4],[68.2,32.5],[68.3,32.5],[68.3,32.7],[68.4,32.7],[68.4,32.9],[68.5,32.9],[68.5,33.2],[68.6,33.2],[68.6,33.4],[68.7,33.4],[68.7,33.8],[68.8,33.8],[68.8,34.7],[68.7,34.7],[68.7,35.9],[68.8,35.9],[68.8,36.2],[68.9,36.2],[68.9,36.3],[69.0,36.3],[69.0,36.5],[69.1,36.5],[69.1,37.0],[68.7,37.0],[68.7,37.1],[67.8,37.1],[67.8,37.2],[67.6,37.2],[67.6,37.3],[67.5,37.3],[67.5,37.4],[67.2,37.4],[67.2,37.5],[67.0,37.5],[67.0,37.6],[66.7,37.6],[66.7,37.7],[66.5,37.7],[66.5,37.8],[66.2,37.8],[66.2,37.9],[65.9,37.9],[65.9,38.0],[65.8,38.0],[65.8,38.1],[65.7,38.1],[65.7,38.0],[65.2,38.0],[65.2,37.9],[64.1,37.9],[64.1,37.8],[63.5,37.8],[63.5,37.9],[63.3,37.9],[63.3,38.0],[63.2,38.0],[63.2,38.1],[62.9,38.1],[62.9,38.0],[62.8,38.0],[62.8,37.9],[62.6,37.9],[62.6,37.8],[62.4,37.8],[62.4,37.7],[62.3,37.7],[62.3,37.6],[62.1,37.6],[62.1,37.5],[62.0,37.5],[62.0,37.4],[61.8,37.4],[61.8,37.3],[61.7,37.3],[61.7,37.2],[61.6,37.2],[61.6,37.0],[61.5,37.0],[61.5,36.4],[61.4,36.4],[61.4,36.3],[61.3,36.3],[61.3,36.2],[61.2,36.2],[61.2,36.1],[61.1,36.1],[61.1,36.0],[61.0,36.0],[61.0,35.9],[60.9,35.9],[60.9,35.7],[60.8,35.7],[60.8,35.6],[60.7,35.6],[60.7,35.4],[60.6,35.4],[60.6,35.3],[60.5,35.3],[60.5,35.2],[60.4,35.2],[60.4,35.1],[60.3,35.1],[60.3,35.0],[60.2,35.0],[60.2,34.9],[60.1,34.9],[60.1,34.8]]]},"properties":{"tile_id":"51","start_year":1709,"end_year":1720,"source_image":"data/raw/toolbay/t/51/1709.png","source_url":"https://www.toolbay.cc/history-map/t/51/1709.png","source_color":"#660066","polity_id":null,"polity_assignment":"unverified","geometry_origin":"raster_color_trace","pixel_size_degrees":0.1,"source_color_pixels":5422,"simplification_degrees":0}},{"type":"Feature","id":"51:1709:#999900","bbox":[73.9,10.9,79.3,15.4],"geometry":{"type":"Polygon","coordinates":[[[74.2,15.4],[73.9,15.4],[73.9,15.1],[74.0,15.1],[74.0,15.0],[74.1,15.0],[74.1,14.9],[74.2,14.9],[74.2,14.7],[74.3,14.7],[74.3,14.5],[74.4,14.5],[74.4,14.3],[74.5,14.3],[74.5,14.0],[74.6,14.0],[74.6,13.7],[74.7,13.7],[74.7,13.3],[74.8,13.3],[74.8,12.8],[74.9,12.8],[74.9,12.6],[75.0,12.6],[75.0,12.4],[75.1,12.4],[75.1,12.2],[75.2,12.2],[75.2,12.0],[75.3,12.0],[75.3,11.9],[75.4,11.9],[75.4,11.8],[75.5,11.8],[75.5,11.7],[75.6,11.7],[75.6,11.5],[75.7,11.5],[75.7,11.3],[75.8,11.3],[75.8,11.1],[75.9,11.1],[75.9,10.9],[76.6,10.9],[76.6,11.0],[76.9,11.0],[76.9,11.1],[77.2,11.1],[77.2,11.2],[77.3,11.2],[77.3,11.3],[77.6,11.3],[77.6,11.4],[78.8,11.4],[78.8,11.5],[79.2,11.5],[79.2,11.7],[79.3,11.7],[79.3,12.3],[79.2,12.3],[79.2,12.5],[79.1,12.5],[79.1,12.6],[79.0,12.6],[79.0,12.9],[78.9,12.9],[78.9,13.1],[78.8,13.1],[78.8,13.2],[78.7,13.2],[78.7,13.4],[78.6,13.4],[78.6,13.6],[78.5,13.6],[78.5,13.7],[78.4,13.7],[78.4,13.8],[78.2,13.8],[78.2,13.9],[78.0,13.9],[78.0,14.0],[77.9,14.0],[77.9,14.1],[77.8,14.1],[77.8,14.2],[77.6,14.2],[77.6,14.3],[77.5,14.3],[77.5,14.4],[77.2,14.4],[77.2,14.5],[76.9,14.5],[76.9,14.6],[76.5,14.6],[76.5,14.7],[76.2,14.7],[76.2,14.8],[75.9,14.8],[75.9,14.9],[75.6,14.9],[75.6,15.1],[75.4,15.1],[75.4,15.2],[75.1,15.2],[75.1,15.3],[74.2,15.3],[74.2,15.4]]]},"properties":{"tile_id":"51","start_year":1709,"end_year":1720,"source_image":"data/raw/toolbay/t/51/1709.png","source_url":"https://www.toolbay.cc/history-map/t/51/1709.png","source_color":"#999900","polity_id":null,"polity_assignment":"unverified","geometry_origin":"raster_color_trace","pixel_size_degrees":0.1,"source_color_pixels":1385,"simplification_degrees":0}},{"type":"Feature","id":"51:1709:#ff0000","bbox":[60.0,25.1,75.2,45.0],"geometry":{"type":"MultiPolygon","coordinates":[[[[60.1,31.9],[60.1,32.0],[60.0,32.0],[60.0,25.4],[60.7,25.4],[60.7,25.3],[61.1,25.3],[61.1,25.2],[61.3,25.2],[61.3,25.1],[62.0,25.1],[62.0,25.2],[62.5,25.2],[62.5,25.3],[63.6,25.3],[63.6,25.4],[64.2,25.4],[64.2,25.3],[64.8,25.3],[64.8,25.4],[65.0,25.4],[65.0,25.3],[65.2,25.3],[65.2,25.4],[65.6,25.4],[65.6,25.7],[65.7,25.7],[65.7,26.0],[65.8,26.0],[65.8,26.2],[65.9,26.2],[65.9,26.4],[66.0,26.4],[66.0,26.8],[66.1,26.8],[66.1,27.1],[66.2,27.1],[66.2,27.4],[66.3,27.4],[66.3,27.7],[66.4,27.7],[66.4,28.1],[66.5,28.1],[66.5,28.3],[66.6,28.3],[66.6,28.7],[66.7,28.7],[66.7,28.8],[66.6,28.8],[66.6,28.9],[66.5,28.9],[66.5,30.2],[66.4,30.2],[66.4,30.5],[66.3,30.5],[66.3,30.6],[65.8,30.6],[65.8,30.7],[65.4,30.7],[65.4,30.8],[65.0,30.8],[65.0,30.9],[64.4,30.9],[64.4,31.0],[63.6,31.0],[63.6,31.1],[62.8,31.1],[62.8,31.2],[62.1,31.2],[62.1,31.3],[61.4,31.3],[61.4,31.4],[61.0,31.4],[61.0,31.5],[60.8,31.5],[60.8,31.6],[60.5,31.6],[60.5,31.7],[60.4,31.7],[60.4,31.8],[60.2,31.8],[60.2,31.9],[60.1,31.9]]],[[[60.7,39.8],[60.4,39.8],[60.4,39.9],[60.0,39.9],[60.0,34.8],[60.1,34.8],[60.1,34.9],[60.2,34.9],[60.2,35.0],[60.3,35.0],[60.3,35.1],[60.4,35.1],[60.4,35.2],[60.5,35.2],[60.5,35.3],[60.6,35.3],[60.6,35.4],[60.7,35.4],[60.7,35.6],[60.8,35.6],[60.8,35.7],[60.9,35.7],[60.9,35.9],[61.0,35.9],[61.0,36.0],[61.1,36.0],[61.1,36.1],[61.2,36.1],[61.2,36.2],[61.3,36.2],[61.3,36.3],[61.4,36.3],[61.4,36.4],[61.5,36.4],[61.5,37.0],[61.6,37.0],[61.6,37.2],[61.7,37.2],[61.7,37.3],[61.8,37.3],[61.8,37.4],[62.0,37.4],[62.0,37.5],[62.1,37.5],[62.1,37.6],[62.3,37.6],[62.3,37.7],[62.4,37.7],[62.4,37.8],[62.6,37.8],[62.6,37.9],[62.8,37.9],[62.8,38.0],[62.9,38.0],[62.9,38.1],[63.0,38.1],[63.0,38.2],[62.8,38.2],[62.8,38.3],[62.7,38.3],[62.7,38.4],[62.6,38.4],[62.6,38.5],[62.5,38.5],[62.5,38.6],[62.3,38.6],[62.3,38.7],[62.2,38.7],[62.2,38.8],[62.1,38.8],[62.1,38.9],[61.9,38.9],[61.9,39.0],[61.8,39.0],[61.8,39.1],[61.7,39.1],[61.7,39.2],[61.5,39.2],[61.5,39.3],[61.4,39.3],[61.4,39.4],[61.3,39.4],[61.3,39.5],[61.1,39.5],[61.1,39.6],[60.9,39.6],[60.9,39.7],[60.7,39.7],[60.7,39.8]]],[[[73.9,44.9],[73.8,44.9],[73.8,45.0],[63.8,45.0],[63.8,44.8],[63.9,44.8],[63.9,44.6],[64.0,44.6],[64.0,44.5],[64.1,44.5],[64.1,44.3],[64.2,44.3],[64.2,44.2],[64.3,44.2],[64.3,44.1],[64.4,44.1],[64.4,44.0],[64.5,44.0],[64.5,43.9],[64.7,43.9],[64.7,43.8],[64.8,43.8],[64.8,43.7],[65.0,43.7],[65.0,43.6],[65.2,43.6],[65.2,43.5],[65.3,43.5],[65.3,43.4],[65.6,43.4],[65.6,43.3],[66.0,43.3],[66.0,43.2],[66.1,43.2],[66.1,43.1],[66.2,43.1],[66.2,43.0],[66.3,43.0],[66.3,42.9],[66.4,42.9],[66.4,42.7],[66.6,42.7],[66.6,42.6],[66.7,42.6],[66.7,42.4],[66.8,42.4],[66.8,42.3],[66.9,42.3],[66.9,42.2],[67.0,42.2],[67.0,42.1],[67.2,42.1],[67.2,42.0],[67.3,42.0],[67.3,41.9],[67.4,41.9],[67.4,41.8],[67.5,41.8],[67.5,41.7],[67.7,41.7],[67.7,41.6],[67.8,41.6],[67.8,41.5],[68.0,41.5],[68.0,41.4],[68.1,41.4],[68.1,41.3],[68.2,41.3],[68.2,41.2],[68.3,41.2],[68.3,41.0],[68.4,41.0],[68.4,40.8],[68.5,40.8],[68.5,40.7],[68.6,40.7],[68.6,40.6],[68.7,40.6],[68.7,40.4],[68.8,40.4],[68.8,40.3],[69.1,40.3],[69.1,40.4],[69.5,40.4],[69.5,40.5],[69.7,40.5],[69.7,40.6],[69.9,40.6],[69.9,40.7],[70.1,40.7],[70.1,40.8],[70.3,40.8],[70.3,40.9],[70.4,40.9],[70.4,41.0],[70.6,41.0],[70.6,41.1],[70.7,41.1],[70.7,41.2],[70.9,41.2],[70.9,41.3],[71.1,41.3],[71.1,41.4],[71.4,41.4],[71.4,41.5],[71.7,41.5],[71.7,41.6],[72.0,41.6],[72.0,41.7],[72.4,41.7],[72.4,41.8],[72.8,41.8],[72.8,41.9],[73.2,41.9],[73.2,42.0],[73.6,42.0],[73.6,42.1],[73.8,42.1],[73.8,42.2],[74.0,42.2],[74.0,42.3],[74.1,42.3],[74.1,42.5],[74.3,42.5],[74.3,42.7],[74.4,42.7],[74.4,42.8],[74.5,42.8],[74.5,43.0],[74.6,43.0],[74.6,43.1],[74.7,43.1],[74.7,43.2],[74.8,43.2],[74.8,43.3],[74.9,43.3],[74.9,43.4],[75.0,43.4],[75.0,43.6],[75.1,43.6],[75.1,43.8],[75.2,43.8],[75.2,44.2],[74.6,44.2],[74.6,44.3],[74.4,44.3],[74.4,44.4],[74.2,44.4],[74.2,44.5],[74.1,44.5],[74.1,44.6],[74.0,44.6],[74.0,44.8],[73.9,44.8],[73.9,44.9]]]]},"properties":{"tile_id":"51","start_year":1709,"end_year":1720,"source_image":"data/raw/toolbay/t/51/1709.png","source_url":"https://www.toolbay.cc/history-map/t/51/1709.png","source_color":"#ff0000","polity_id":null,"polity_assignment":"unverified","geometry_origin":"raster_color_trace","pixel_size_degrees":0.1,"source_color_pixels":22110,"simplification_degrees":0}},{"type":"Feature","id":"51:1709:#ff00ff","bbox":[74.6,27.6,90.0,38.5],"geometry":{"type":"Polygon","coordinates":[[[89.6,38.5],[89.1,38.5],[89.1,38.4],[88.7,38.4],[88.7,38.3],[88.5,38.3],[88.5,38.2],[88.2,38.2],[88.2,38.1],[88.0,38.1],[88.0,38.0],[87.6,38.0],[87.6,37.9],[87.0,37.9],[87.0,37.8],[86.4,37.8],[86.4,37.7],[85.8,37.7],[85.8,37.6],[85.4,37.6],[85.4,37.5],[84.9,37.5],[84.9,37.4],[84.3,37.4],[84.3,37.3],[84.2,37.3],[84.2,37.2],[83.8,37.2],[83.8,37.1],[83.5,37.1],[83.5,37.0],[83.1,37.0],[83.1,36.9],[82.6,36.9],[82.6,36.8],[81.4,36.8],[81.4,36.7],[80.9,36.7],[80.9,36.6],[79.2,36.6],[79.2,36.7],[78.8,36.7],[78.8,36.8],[78.4,36.8],[78.4,36.9],[78.2,36.9],[78.2,37.0],[77.9,37.0],[77.9,37.1],[77.8,37.1],[77.8,37.2],[77.7,37.2],[77.7,37.1],[77.4,37.1],[77.4,37.2],[76.0,37.2],[76.0,37.1],[75.7,37.1],[75.7,37.0],[75.5,37.0],[75.5,36.9],[75.3,36.9],[75.3,36.8],[75.1,36.8],[75.1,36.7],[74.9,36.7],[74.9,36.6],[74.8,36.6],[74.8,36.5],[74.7,36.5],[74.7,36.4],[74.6,36.4],[74.6,35.8],[74.7,35.8],[74.7,35.6],[74.8,35.6],[74.8,35.4],[74.9,35.4],[74.9,35.3],[75.0,35.3],[75.0,35.2],[75.1,35.2],[75.1,35.1],[75.2,35.1],[75.2,35.0],[75.3,35.0],[75.3,34.8],[75.4,34.8],[75.4,34.7],[75.5,34.7],[75.5,34.6],[75.6,34.6],[75.6,34.5],[75.7,34.5],[75.7,34.4],[75.8,34.4],[75.8,34.3],[76.0,34.3],[76.0,34.2],[76.1,34.2],[76.1,34.1],[76.2,34.1],[76.2,34.0],[76.3,34.0],[76.3,33.9],[76.4,33.9],[76.4,33.8],[76.5,33.8],[76.5,33.7],[76.7,33.7],[76.7,33.6],[76.8,33.6],[76.8,33.5],[77.0,33.5],[77.0,33.4],[77.1,33.4],[77.1,33.3],[77.3,33.3],[77.3,33.2],[77.4,33.2],[77.4,33.1],[77.5,33.1],[77.5,33.0],[77.6,33.0],[77.6,32.7],[77.7,32.7],[77.7,32.4],[77.8,32.4],[77.8,32.1],[77.9,32.1],[77.9,32.0],[78.0,32.0],[78.0,31.8],[78.1,31.8],[78.1,31.6],[78.2,31.6],[78.2,31.5],[78.3,31.5],[78.3,31.4],[79.7,31.4],[79.7,31.3],[80.1,31.3],[80.1,31.2],[80.3,31.2],[80.3,31.1],[80.4,31.1],[80.4,31.0],[80.6,31.0],[80.6,30.9],[80.7,30.9],[80.7,30.8],[80.8,30.8],[80.8,30.7],[81.0,30.7],[81.0,30.6],[81.1,30.6],[81.1,30.5],[81.4,30.5],[81.4,30.4],[81.5,30.4],[81.5,30.3],[81.7,30.3],[81.7,30.2],[81.8,30.2],[81.8,30.1],[82.0,30.1],[82.0,30.0],[82.2,30.0],[82.2,29.9],[82.5,29.9],[82.5,29.8],[82.8,29.8],[82.8,29.7],[83.2,29.7],[83.2,29.6],[83.8,29.6],[83.8,29.5],[84.1,29.5],[84.1,29.4],[84.4,29.4],[84.4,29.3],[84.9,29.3],[84.9,29.2],[85.1,29.2],[85.1,29.1],[85.3,29.1],[85.3,29.0],[85.5,29.0],[85.5,28.9],[85.7,28.9],[85.7,28.8],[85.9,28.8],[85.9,28.7],[86.3,28.7],[86.3,28.6],[86.6,28.6],[86.6,28.5],[87.0,28.5],[87.0,28.4],[87.3,28.4],[87.3,28.3],[87.6,28.3],[87.6,28.2],[88.0,28.2],[88.0,28.1],[88.3,28.1],[88.3,28.0],[88.6,28.0],[88.6,27.9],[88.8,27.9],[88.8,27.8],[89.0,27.8],[89.0,27.7],[89.3,27.7],[89.3,27.6],[90.0,27.6],[90.0,38.4],[89.6,38.4],[89.6,38.5]]]},"properties":{"tile_id":"51","start_year":1709,"end_year":1720,"source_image":"data/raw/toolbay/t/51/1709.png","source_url":"https://www.toolbay.cc/history-map/t/51/1709.png","source_color":"#ff00ff","polity_id":null,"polity_assignment":"unverified","geometry_origin":"raster_color_trace","pixel_size_degrees":0.1,"source_color_pixels":10403,"simplification_degrees":0}},{"type":"Feature","id":"51:1709:#ff9933","bbox":[65.6,12.2,90.0,37.2],"geometry":{"type":"Polygon","coordinates":[[[70.3,37.2],[69.6,37.2],[69.6,37.1],[69.2,37.1],[69.2,37.0],[69.1,37.0],[69.1,36.5],[69.0,36.5],[69.0,36.3],[68.9,36.3],[68.9,36.2],[68.8,36.2],[68.8,35.9],[68.7,35.9],[68.7,34.7],[68.8,34.7],[68.8,33.8],[68.7,33.8],[68.7,33.4],[68.6,33.4],[68.6,33.2],[68.5,33.2],[68.5,32.9],[68.4,32.9],[68.4,32.7],[68.3,32.7],[68.3,32.5],[68.2,32.5],[68.2,32.4],[68.1,32.4],[68.1,32.3],[68.0,32.3],[68.0,32.2],[67.9,32.2],[67.9,32.1],[67.8,32.1],[67.8,31.9],[67.6,31.9],[67.6,31.7],[67.4,31.7],[67.4,31.6],[67.3,31.6],[67.3,31.4],[67.1,31.4],[67.1,31.3],[67.0,31.3],[67.0,31.2],[66.9,31.2],[66.9,31.0],[66.8,31.0],[66.8,30.8],[66.6,30.8],[66.6,30.7],[66.5,30.7],[66.5,30.6],[66.3,30.6],[66.3,30.5],[66.4,30.5],[66.4,30.2],[66.5,30.2],[66.5,28.9],[66.6,28.9],[66.6,28.8],[66.7,28.8],[66.7,28.7],[66.6,28.7],[66.6,28.3],[66.5,28.3],[66.5,28.1],[66.4,28.1],[66.4,27.7],[66.3,27.7],[66.3,27.4],[66.2,27.4],[66.2,27.1],[66.1,27.1],[66.1,26.8],[66.0,26.8],[66.0,26.4],[65.9,26.4],[65.9,26.2],[65.8,26.2],[65.8,26.0],[65.7,26.0],[65.7,25.7],[65.6,25.7],[65.6,25.4],[66.1,25.4],[66.1,25.5],[66.5,25.5],[66.5,25.4],[66.6,25.4],[66.6,25.3],[66.7,25.3],[66.7,25.0],[66.8,25.0],[66.8,24.9],[67.0,24.9],[67.0,24.8],[67.1,24.8],[67.1,24.7],[67.2,24.7],[67.2,24.5],[67.3,24.5],[67.3,24.2],[67.4,24.2],[67.4,24.1],[67.5,24.1],[67.5,23.9],[67.6,23.9],[67.6,23.8],[68.1,23.8],[68.1,23.7],[68.2,23.7],[68.2,23.6],[68.3,23.6],[68.3,23.5],[68.4,23.5],[68.4,23.4],[68.5,23.4],[68.5,23.3],[68.6,23.3],[68.6,23.2],[68.7,23.2],[68.7,23.1],[68.9,23.1],[68.9,23.0],[69.1,23.0],[69.1,22.9],[69.5,22.9],[69.5,22.8],[69.8,22.8],[69.8,22.9],[70.1,22.9],[70.1,22.8],[70.2,22.8],[70.2,22.7],[70.1,22.7],[70.1,22.6],[69.6,22.6],[69.6,22.5],[69.1,22.5],[69.1,22.4],[69.0,22.4],[69.0,22.2],[69.1,22.2],[69.1,22.1],[69.2,22.1],[69.2,22.0],[69.3,22.0],[69.3,21.9],[69.4,21.9],[69.4,21.8],[69.5,21.8],[69.5,21.7],[69.6,21.7],[69.6,21.6],[69.7,21.6],[69.7,21.5],[69.8,21.5],[69.8,21.4],[69.9,21.4],[69.9,21.3],[70.0,21.3],[70.0,21.2],[70.1,21.2],[70.1,21.1],[70.2,21.1],[70.2,21.0],[70.4,21.0],[70.4,20.9],[70.5,20.9],[70.5,20.8],[70.8,20.8],[70.8,20.7],[71.0,20.7],[71.0,20.8],[71.3,20.8],[71.3,20.9],[71.5,20.9],[71.5,21.0],[71.7,21.0],[71.7,21.1],[71.9,21.1],[71.9,21.2],[72.1,21.2],[72.1,21.3],[72.2,21.3],[72.2,21.5],[72.3,21.5],[72.3,22.0],[72.5,22.0],[72.5,21.8],[72.6,21.8],[72.6,21.1],[72.7,21.1],[72.7,21.0],[72.8,21.0],[72.8,20.8],[72.9,20.8],[72.9,20.5],[72.8,20.5],[72.8,20.3],[72.7,20.3],[72.7,19.5],[72.8,19.5],[72.8,18.9],[72.9,18.9],[72.9,18.3],[73.0,18.3],[73.0,18.0],[73.1,18.0],[73.1,17.6],[73.2,17.6],[73.2,17.5],[73.7,17.5],[73.7,17.3],[73.8,17.3],[73.8,16.9],[73.9,16.9],[73.9,16.5],[74.0,16.5],[74.0,16.0],[74.1,16.0],[74.1,15.7],[74.2,15.7],[74.2,15.6],[74.3,15.6],[74.3,15.3],[75.1,15.3],[75.1,15.2],[75.4,15.2],[75.4,15.1],[75.6,15.1],[75.6,14.9],[75.9,14.9],[75.9,14.8],[76.2,14.8],[76.2,14.7],[76.5,14.7],[76.5,14.6],[76.9,14.6],[76.9,14.5],[77.2,14.5],[77.2,14.4],[77.5,14.4],[77.5,14.3],[77.6,14.3],[77.6,14.2],[77.8,14.2],[77.8,14.1],[77.9,14.1],[77.9,14.0],[78.0,14.0],[78.0,13.9],[78.2,13.9],[78.2,13.8],[78.4,13.8],[78.4,13.7],[78.5,13.7],[78.5,13.6],[78.6,13.6],[78.6,13.4],[78.7,13.4],[78.7,13.2],[78.8,13.2],[78.8,13.1],[78.9,13.1],[78.9,12.9],[79.0,12.9],[79.0,12.6],[79.1,12.6],[79.1,12.5],[79.2,12.5],[79.2,12.3],[79.3,12.3],[79.3,12.2],[80.0,12.2],[80.0,12.3],[80.1,12.3],[80.1,12.5],[80.2,12.5],[80.2,12.7],[80.3,12.7],[80.3,13.1],[80.4,13.1],[80.4,13.6],[80.3,13.6],[80.3,14.0],[80.2,14.0],[80.2,14.9],[80.1,14.9],[80.1,15.4],[80.2,15.4],[80.2,15.5],[80.3,15.5],[80.3,15.7],[80.4,15.7],[80.4,15.8],[80.5,15.8],[80.5,15.9],[80.7,15.9],[80.7,15.8],[81.0,15.8],[81.0,15.9],[81.1,15.9],[81.1,16.0],[81.2,16.0],[81.2,16.2],[81.3,16.2],[81.3,16.3],[81.4,16.3],[81.4,16.4],[81.9,16.4],[81.9,16.5],[82.2,16.5],[82.2,16.6],[82.3,16.6],[82.3,16.7],[82.4,16.7],[82.4,17.2],[82.5,17.2],[82.5,17.3],[82.7,17.3],[82.7,17.4],[82.8,17.4],[82.8,17.5],[83.1,17.5],[83.1,17.6],[83.2,17.6],[83.2,17.7],[83.3,17.7],[83.3,17.8],[83.4,17.8],[83.4,17.9],[83.5,17.9],[83.5,18.0],[83.6,18.0],[83.6,18.1],[83.8,18.1],[83.8,18.2],[83.9,18.2],[83.9,18.3],[84.1,18.3],[84.1,18.4],[84.2,18.4],[84.2,18.5],[84.3,18.5],[84.3,18.6],[84.4,18.6],[84.4,18.7],[84.5,18.7],[84.5,18.8],[84.6,18.8],[84.6,18.9],[84.7,18.9],[84.7,19.1],[84.8,19.1],[84.8,19.2],[84.9,19.2],[84.9,19.3],[85.0,19.3],[85.0,19.4],[85.1,19.4],[85.1,19.5],[85.2,19.5],[85.2,19.6],[85.4,19.6],[85.4,19.7],[85.6,19.7],[85.6,19.8],[85.9,19.8],[85.9,19.9],[86.3,19.9],[86.3,20.0],[86.4,20.0],[86.4,20.1],[86.5,20.1],[86.5,20.2],[86.6,20.2],[86.6,20.3],[86.8,20.3],[86.8,20.4],[86.9,20.4],[86.9,20.6],[87.0,20.6],[87.0,21.0],[86.9,21.0],[86.9,21.4],[87.0,21.4],[87.0,21.5],[87.1,21.5],[87.1,21.6],[87.5,21.6],[87.5,21.7],[87.8,21.7],[87.8,21.8],[88.1,21.8],[88.1,21.7],[88.2,21.7],[88.2,21.6],[89.0,21.6],[89.0,21.7],[89.4,21.7],[89.4,21.8],[89.7,21.8],[89.7,21.9],[89.9,21.9],[89.9,22.0],[90.0,22.0],[90.0,25.8],[89.9,25.8],[89.9,26.1],[89.1,26.1],[89.1,26.2],[89.0,26.2],[89.0,26.3],[88.9,26.3],[88.9,26.4],[88.8,26.4],[88.8,26.5],[88.5,26.5],[88.5,26.6],[88.2,26.6],[88.2,26.7],[88.0,26.7],[88.0,26.8],[87.8,26.8],[87.8,26.9],[87.6,26.9],[87.6,27.0],[87.4,27.0],[87.4,27.1],[87.1,27.1],[87.1,27.2],[86.4,27.2],[86.4,27.3],[85.8,27.3],[85.8,27.4],[85.5,27.4],[85.5,27.5],[85.2,27.5],[85.2,27.6],[84.8,27.6],[84.8,27.7],[84.1,27.7],[84.1,27.8],[83.2,27.8],[83.2,27.9],[82.8,27.9],[82.8,28.0],[82.6,28.0],[82.6,28.1],[82.3,28.1],[82.3,28.2],[82.0,28.2],[82.0,28.3],[81.8,28.3],[81.8,28.4],[81.6,28.4],[81.6,28.5],[81.2,28.5],[81.2,28.6],[81.0,28.6],[81.0,28.7],[80.7,28.7],[80.7,28.8],[80.5,28.8],[80.5,28.9],[80.4,28.9],[80.4,29.0],[80.3,29.0],[80.3,29.1],[80.2,29.1],[80.2,29.2],[80.1,29.2],[80.1,29.3],[79.9,29.3],[79.9,29.4],[79.6,29.4],[79.6,29.5],[79.5,29.5],[79.5,29.6],[79.4,29.6],[79.4,29.8],[79.3,29.8],[79.3,29.9],[79.2,29.9],[79.2,30.1],[79.1,30.1],[79.1,30.2],[79.0,30.2],[79.0,30.3],[78.9,30.3],[78.9,30.5],[78.8,30.5],[78.8,30.6],[78.7,30.6],[78.7,30.7],[78.5,30.7],[78.5,31.1],[78.4,31.1],[78.4,31.4],[78.3,31.4],[78.3,31.5],[78.2,31.5],[78.2,31.6],[78.1,31.6],[78.1,31.8],[78.0,31.8],[78.0,32.0],[77.9,32.0],[77.9,32.1],[77.8,32.1],[77.8,32.4],[77.7,32.4],[77.7,32.7],[77.6,32.7],[77.6,33.0],[77.5,33.0],[77.5,33.1],[77.4,33.1],[77.4,33.2],[77.3,33.2],[77.3,33.3],[77.1,33.3],[77.1,33.4],[77.0,33.4],[77.0,33.5],[76.8,33.5],[76.8,33.6],[76.7,33.6],[76.7,33.7],[76.5,33.7],[76.5,33.8],[76.4,33.8],[76.4,33.9],[76.3,33.9],[76.3,34.0],[76.2,34.0],[76.2,34.1],[76.1,34.1],[76.1,34.2],[76.0,34.2],[76.0,34.3],[75.8,34.3],[75.8,34.4],[75.7,34.4],[75.7,34.5],[75.6,34.5],[75.6,34.6],[75.5,34.6],[75.5,34.7],[75.4,34.7],[75.4,34.8],[75.3,34.8],[75.3,35.0],[75.2,35.0],[75.2,35.1],[75.1,35.1],[75.1,35.2],[75.0,35.2],[75.0,35.3],[74.9,35.3],[74.9,35.4],[74.8,35.4],[74.8,35.6],[74.7,35.6],[74.7,35.8],[74.6,35.8],[74.6,36.3],[74.0,36.3],[74.0,36.4],[73.1,36.4],[73.1,36.3],[73.0,36.3],[73.0,36.1],[72.9,36.1],[72.9,36.0],[72.1,36.0],[72.1,36.1],[71.9,36.1],[71.9,36.2],[71.7,36.2],[71.7,36.4],[71.6,36.4],[71.6,36.6],[71.1,36.6],[71.1,36.7],[71.0,36.7],[71.0,36.8],[70.8,36.8],[70.8,36.9],[70.6,36.9],[70.6,37.0],[70.4,37.0],[70.4,37.1],[70.3,37.1],[70.3,37.2]],[[89.7,24.3],[89.7,24.7],[89.9,24.7],[89.9,24.3],[89.7,24.3]],[[67.7,24.2],[67.7,24.3],[67.9,24.3],[67.9,24.0],[67.7,24.0],[67.7,24.1],[67.6,24.1],[67.6,24.2],[67.7,24.2]]]},"properties":{"tile_id":"51","start_year":1709,"end_year":1720,"source_image":"data/raw/toolbay/t/51/1709.png","source_url":"https://www.toolbay.cc/history-map/t/51/1709.png","source_color":"#ff9933","polity_id":null,"polity_assignment":"unverified","geometry_origin":"raster_color_trace","pixel_size_degrees":0.1,"source_color_pixels":30060,"simplification_degrees":0}}]}
