{"type":"FeatureCollection","features":[{"type":"Feature","id":"51:1823:#0000ff","bbox":[69.0,6.0,90.0,31.2],"geometry":{"type":"MultiPolygon","coordinates":[[[[80.3,9.8],[80.3,9.9],[80.0,9.9],[80.0,9.5],[80.1,9.5],[80.1,9.2],[80.0,9.2],[80.0,9.1],[79.9,9.1],[79.9,8.5],[79.8,8.5],[79.8,8.4],[79.7,8.4],[79.7,7.9],[79.8,7.9],[79.8,6.9],[79.9,6.9],[79.9,6.7],[80.0,6.7],[80.0,6.3],[80.1,6.3],[80.1,6.1],[80.2,6.1],[80.2,6.0],[80.8,6.0],[80.8,6.1],[81.1,6.1],[81.1,6.2],[81.4,6.2],[81.4,6.3],[81.5,6.3],[81.5,6.4],[81.6,6.4],[81.6,6.5],[81.7,6.5],[81.7,6.6],[81.8,6.6],[81.8,6.8],[81.9,6.8],[81.9,7.2],[81.8,7.2],[81.8,7.8],[81.7,7.8],[81.7,7.9],[81.6,7.9],[81.6,8.1],[81.5,8.1],[81.5,8.3],[81.4,8.3],[81.4,8.6],[81.3,8.6],[81.3,8.7],[81.2,8.7],[81.2,8.9],[81.1,8.9],[81.1,9.0],[81.0,9.0],[81.0,9.2],[80.9,9.2],[80.9,9.4],[80.8,9.4],[80.8,9.5],[80.7,9.5],[80.7,9.6],[80.6,9.6],[80.6,9.7],[80.4,9.7],[80.4,9.8],[80.3,9.8]]],[[[72.0,31.1],[72.0,31.2],[71.8,31.2],[71.8,30.9],[71.7,30.9],[71.7,30.7],[71.6,30.7],[71.6,30.6],[71.5,30.6],[71.5,30.5],[71.4,30.5],[71.4,30.3],[71.3,30.3],[71.3,30.2],[71.2,30.2],[71.2,30.1],[71.1,30.1],[71.1,29.9],[71.0,29.9],[71.0,29.8],[70.9,29.8],[70.9,29.7],[70.8,29.7],[70.8,29.6],[70.6,29.6],[70.6,29.5],[70.5,29.5],[70.5,29.4],[70.3,29.4],[70.3,29.3],[70.1,29.3],[70.1,29.0],[70.2,29.0],[70.2,28.8],[70.3,28.8],[70.3,28.4],[70.4,28.4],[70.4,28.0],[70.5,28.0],[70.5,27.6],[70.6,27.6],[70.6,27.0],[70.7,27.0],[70.7,26.6],[70.8,26.6],[70.8,26.2],[70.9,26.2],[70.9,25.5],[70.8,25.5],[70.8,25.2],[70.7,25.2],[70.7,24.7],[70.6,24.7],[70.6,24.5],[70.5,24.5],[70.5,23.9],[70.4,23.9],[70.4,23.4],[70.3,23.4],[70.3,23.2],[70.2,23.2],[70.2,23.0],[70.1,23.0],[70.1,22.8],[70.2,22.8],[70.2,22.7],[70.1,22.7],[70.1,22.6],[69.6,22.6],[69.6,22.5],[69.1,22.5],[69.1,22.4],[69.0,22.4],[69.0,22.2],[69.1,22.2],[69.1,22.1],[69.2,22.1],[69.2,22.0],[69.3,22.0],[69.3,21.9],[69.4,21.9],[69.4,21.8],[69.5,21.8],[69.5,21.7],[69.6,21.7],[69.6,21.6],[69.7,21.6],[69.7,21.5],[69.8,21.5],[69.8,21.4],[69.9,21.4],[69.9,21.3],[70.0,21.3],[70.0,21.2],[70.1,21.2],[70.1,21.1],[70.2,21.1],[70.2,21.0],[70.4,21.0],[70.4,20.9],[70.5,20.9],[70.5,20.8],[70.8,20.8],[70.8,20.7],[71.0,20.7],[71.0,20.8],[71.3,20.8],[71.3,20.9],[71.5,20.9],[71.5,21.0],[71.7,21.0],[71.7,21.1],[71.9,21.1],[71.9,21.2],[72.1,21.2],[72.1,21.3],[72.2,21.3],[72.2,21.5],[72.3,21.5],[72.3,22.0],[72.5,22.0],[72.5,21.8],[72.6,21.8],[72.6,21.1],[72.7,21.1],[72.7,21.0],[72.8,21.0],[72.8,20.8],[72.9,20.8],[72.9,20.5],[72.8,20.5],[72.8,20.3],[72.7,20.3],[72.7,19.5],[72.8,19.5],[72.8,18.9],[72.9,18.9],[72.9,18.3],[73.0,18.3],[73.0,18.0],[73.1,18.0],[73.1,17.6],[73.2,17.6],[73.2,17.2],[73.3,17.2],[73.3,16.5],[73.4,16.5],[73.4,16.2],[73.5,16.2],[73.5,16.0],[73.6,16.0],[73.6,15.9],[73.7,15.9],[73.7,15.6],[73.8,15.6],[73.8,15.4],[73.9,15.4],[73.9,15.1],[74.0,15.1],[74.0,15.0],[74.1,15.0],[74.1,14.9],[74.2,14.9],[74.2,14.7],[74.3,14.7],[74.3,14.5],[74.4,14.5],[74.4,14.3],[74.5,14.3],[74.5,14.0],[74.6,14.0],[74.6,13.7],[74.7,13.7],[74.7,13.3],[74.8,13.3],[74.8,12.8],[74.9,12.8],[74.9,12.6],[75.0,12.6],[75.0,12.4],[75.1,12.4],[75.1,12.2],[75.2,12.2],[75.2,12.0],[75.3,12.0],[75.3,11.9],[75.4,11.9],[75.4,11.8],[75.5,11.8],[75.5,11.7],[75.6,11.7],[75.6,11.5],[75.7,11.5],[75.7,11.3],[75.8,11.3],[75.8,11.1],[75.9,11.1],[75.9,10.8],[76.0,10.8],[76.0,10.5],[76.1,10.5],[76.1,10.3],[76.2,10.3],[76.2,9.9],[76.3,9.9],[76.3,9.5],[76.4,9.5],[76.4,9.2],[76.5,9.2],[76.5,9.0],[76.6,9.0],[76.6,8.9],[76.7,8.9],[76.7,8.8],[76.8,8.8],[76.8,8.7],[76.9,8.7],[76.9,8.5],[77.0,8.5],[77.0,8.4],[77.1,8.4],[77.1,8.3],[77.2,8.3],[77.2,8.2],[77.8,8.2],[77.8,8.3],[78.0,8.3],[78.0,8.4],[78.1,8.4],[78.1,8.5],[78.2,8.5],[78.2,8.9],[78.3,8.9],[78.3,9.1],[78.4,9.1],[78.4,9.2],[78.8,9.2],[78.8,9.3],[78.9,9.3],[78.9,9.4],[79.0,9.4],[79.0,9.8],[79.1,9.8],[79.1,9.9],[79.2,9.9],[79.2,10.0],[79.3,10.0],[79.3,10.3],[79.4,10.3],[79.4,10.4],[79.6,10.4],[79.6,10.3],[79.8,10.3],[79.8,10.4],[79.9,10.4],[79.9,11.5],[79.8,11.5],[79.8,11.9],[79.9,11.9],[79.9,12.2],[80.0,12.2],[80.0,12.3],[80.1,12.3],[80.1,12.5],[80.2,12.5],[80.2,12.7],[80.3,12.7],[80.3,13.1],[80.4,13.1],[80.4,13.6],[80.3,13.6],[80.3,14.0],[80.2,14.0],[80.2,14.9],[80.1,14.9],[80.1,15.4],[80.2,15.4],[80.2,15.5],[80.3,15.5],[80.3,15.7],[80.4,15.7],[80.4,15.8],[80.5,15.8],[80.5,15.9],[80.7,15.9],[80.7,15.8],[81.0,15.8],[81.0,15.9],[81.1,15.9],[81.1,16.0],[81.2,16.0],[81.2,16.2],[81.3,16.2],[81.3,16.3],[81.4,16.3],[81.4,16.4],[81.9,16.4],[81.9,16.5],[82.2,16.5],[82.2,16.6],[82.3,16.6],[82.3,16.7],[82.4,16.7],[82.4,17.2],[82.5,17.2],[82.5,17.3],[82.7,17.3],[82.7,17.4],[82.8,17.4],[82.8,17.5],[83.1,17.5],[83.1,17.6],[83.2,17.6],[83.2,17.7],[83.3,17.7],[83.3,17.8],[83.4,17.8],[83.4,17.9],[83.5,17.9],[83.5,18.0],[83.6,18.0],[83.6,18.1],[83.8,18.1],[83.8,18.2],[83.9,18.2],[83.9,18.3],[84.1,18.3],[84.1,18.4],[84.2,18.4],[84.2,18.5],[84.3,18.5],[84.3,18.6],[84.4,18.6],[84.4,18.7],[84.5,18.7],[84.5,18.8],[84.6,18.8],[84.6,18.9],[84.7,18.9],[84.7,19.1],[84.8,19.1],[84.8,19.2],[84.9,19.2],[84.9,19.3],[85.0,19.3],[85.0,19.4],[85.1,19.4],[85.1,19.5],[85.2,19.5],[85.2,19.6],[85.4,19.6],[85.4,19.7],[85.6,19.7],[85.6,19.8],[85.9,19.8],[85.9,19.9],[86.3,19.9],[86.3,20.0],[86.4,20.0],[86.4,20.1],[86.5,20.1],[86.5,20.2],[86.6,20.2],[86.6,20.3],[86.8,20.3],[86.8,20.4],[86.9,20.4],[86.9,20.6],[87.0,20.6],[87.0,21.0],[86.9,21.0],[86.9,21.4],[87.0,21.4],[87.0,21.5],[87.1,21.5],[87.1,21.6],[87.5,21.6],[87.5,21.7],[87.8,21.7],[87.8,21.8],[88.1,21.8],[88.1,21.7],[88.2,21.7],[88.2,21.6],[89.0,21.6],[89.0,21.7],[89.4,21.7],[89.4,21.8],[89.7,21.8],[89.7,21.9],[89.9,21.9],[89.9,22.0],[90.0,22.0],[90.0,25.8],[89.9,25.8],[89.9,26.1],[89.1,26.1],[89.1,26.2],[89.0,26.2],[89.0,26.3],[88.9,26.3],[88.9,26.4],[88.8,26.4],[88.8,26.5],[88.5,26.5],[88.5,26.6],[88.2,26.6],[88.2,26.7],[88.0,26.7],[88.0,26.8],[87.8,26.8],[87.8,26.9],[87.6,26.9],[87.6,27.0],[87.4,27.0],[87.4,27.1],[87.1,27.1],[87.1,27.2],[86.4,27.2],[86.4,27.3],[86.1,27.3],[86.1,27.4],[85.5,27.4],[85.5,27.5],[85.2,27.5],[85.2,27.6],[84.8,27.6],[84.8,27.7],[84.1,27.7],[84.1,27.8],[83.2,27.8],[83.2,27.9],[82.8,27.9],[82.8,28.0],[82.6,28.0],[82.6,28.1],[82.3,28.1],[82.3,28.2],[82.0,28.2],[82.0,28.3],[81.8,28.3],[81.8,28.4],[81.6,28.4],[81.6,28.5],[81.2,28.5],[81.2,28.6],[81.0,28.6],[81.0,28.7],[80.7,28.7],[80.7,28.8],[80.5,28.8],[80.5,28.6],[80.4,28.6],[80.4,28.4],[80.3,28.4],[80.3,28.2],[80.2,28.2],[80.2,28.1],[80.1,28.1],[80.1,27.9],[80.0,27.9],[80.0,27.8],[79.9,27.8],[79.9,27.6],[79.8,27.6],[79.8,27.4],[79.7,27.4],[79.7,27.3],[79.6,27.3],[79.6,27.2],[79.5,27.2],[79.5,27.1],[79.4,27.1],[79.4,27.0],[79.3,27.0],[79.3,26.9],[79.2,26.9],[79.2,26.8],[79.1,26.8],[79.1,26.7],[79.0,26.7],[79.0,26.6],[78.9,26.6],[78.9,26.5],[78.8,26.5],[78.8,26.4],[78.7,26.4],[78.7,26.3],[78.5,26.3],[78.5,26.2],[78.4,26.2],[78.4,26.3],[78.2,26.3],[78.2,26.4],[78.0,26.4],[78.0,26.5],[77.8,26.5],[77.8,26.6],[77.6,26.6],[77.6,26.7],[77.3,26.7],[77.3,26.8],[77.1,26.8],[77.1,26.9],[76.9,26.9],[76.9,27.0],[76.8,27.0],[76.8,27.1],[76.6,27.1],[76.6,27.2],[76.4,27.2],[76.4,27.3],[76.2,27.3],[76.2,27.4],[76.0,27.4],[76.0,27.5],[75.9,27.5],[75.9,27.6],[75.7,27.6],[75.7,27.7],[75.6,27.7],[75.6,27.8],[75.4,27.8],[75.4,27.9],[75.2,27.9],[75.2,28.0],[75.1,28.0],[75.1,28.1],[74.9,28.1],[74.9,28.2],[74.7,28.2],[74.7,28.3],[74.6,28.3],[74.6,28.4],[74.4,28.4],[74.4,28.5],[74.2,28.5],[74.2,28.6],[74.0,28.6],[74.0,28.7],[73.9,28.7],[73.9,28.8],[73.8,28.8],[73.8,29.0],[73.7,29.0],[73.7,29.1],[73.6,29.1],[73.6,29.2],[73.4,29.2],[73.4,29.4],[73.3,29.4],[73.3,29.5],[73.2,29.5],[73.2,29.6],[73.1,29.6],[73.1,29.7],[73.0,29.7],[73.0,29.8],[72.9,29.8],[72.9,29.9],[72.8,29.9],[72.8,30.0],[72.6,30.0],[72.6,30.2],[72.5,30.2],[72.5,30.4],[72.4,30.4],[72.4,30.6],[72.3,30.6],[72.3,30.7],[72.2,30.7],[72.2,30.9],[72.1,30.9],[72.1,31.1],[72.0,31.1]],[[89.9,24.3],[89.7,24.3],[89.7,24.7],[89.9,24.7],[89.9,24.3]]]]},"properties":{"tile_id":"51","start_year":1823,"end_year":1824,"source_image":"data/raw/toolbay/t/51/1823.png","source_url":"https://www.toolbay.cc/history-map/t/51/1823.png","source_color":"#0000ff","polity_id":null,"polity_assignment":"unverified","geometry_origin":"raster_color_trace","pixel_size_degrees":0.1,"source_color_pixels":22926,"simplification_degrees":0}},{"type":"Feature","id":"51:1823:#009900","bbox":[70.5,26.1,90.0,44.8],"geometry":{"type":"MultiPolygon","coordinates":[[[[88.6,27.9],[88.6,28.0],[88.5,28.0],[88.5,27.6],[88.4,27.6],[88.4,27.4],[88.3,27.4],[88.3,27.3],[88.2,27.3],[88.2,27.2],[88.1,27.2],[88.1,27.0],[88.0,27.0],[88.0,26.9],[87.9,26.9],[87.9,26.8],[88.0,26.8],[88.0,26.7],[88.2,26.7],[88.2,26.6],[88.5,26.6],[88.5,26.5],[88.8,26.5],[88.8,26.4],[88.9,26.4],[88.9,26.3],[89.0,26.3],[89.0,26.2],[89.1,26.2],[89.1,26.1],[90.0,26.1],[90.0,27.6],[89.3,27.6],[89.3,27.7],[89.0,27.7],[89.0,27.8],[88.8,27.8],[88.8,27.9],[88.6,27.9]]],[[[72.4,44.7],[72.4,44.8],[72.0,44.8],[72.0,44.7],[71.2,44.7],[71.2,44.6],[71.0,44.6],[71.0,44.5],[70.9,44.5],[70.9,44.4],[70.8,44.4],[70.8,43.6],[70.9,43.6],[70.9,43.2],[71.0,43.2],[71.0,41.9],[70.9,41.9],[70.9,41.6],[70.8,41.6],[70.8,41.2],[70.7,41.2],[70.7,38.5],[70.6,38.5],[70.6,38.1],[70.5,38.1],[70.5,37.9],[70.7,37.9],[70.7,37.8],[71.1,37.8],[71.1,37.7],[71.5,37.7],[71.5,37.6],[71.8,37.6],[71.8,37.5],[72.0,37.5],[72.0,37.4],[72.1,37.4],[72.1,37.3],[72.3,37.3],[72.3,37.2],[72.6,37.2],[72.6,37.1],[72.8,37.1],[72.8,37.0],[73.0,37.0],[73.0,36.9],[73.2,36.9],[73.2,36.8],[73.4,36.8],[73.4,36.7],[73.5,36.7],[73.5,36.6],[73.8,36.6],[73.8,36.5],[73.9,36.5],[73.9,36.4],[74.0,36.4],[74.0,36.3],[74.6,36.3],[74.6,36.4],[74.7,36.4],[74.7,36.5],[74.8,36.5],[74.8,36.6],[74.9,36.6],[74.9,36.7],[75.1,36.7],[75.1,36.8],[75.3,36.8],[75.3,36.9],[75.5,36.9],[75.5,37.0],[75.7,37.0],[75.7,37.1],[76.0,37.1],[76.0,37.2],[76.8,37.2],[76.8,39.4],[76.7,39.4],[76.7,39.9],[76.6,39.9],[76.6,40.5],[76.5,40.5],[76.5,41.2],[76.4,41.2],[76.4,41.5],[76.3,41.5],[76.3,41.6],[76.2,41.6],[76.2,41.7],[76.1,41.7],[76.1,41.9],[76.0,41.9],[76.0,42.2],[75.9,42.2],[75.9,42.4],[75.8,42.4],[75.8,42.5],[75.7,42.5],[75.7,42.8],[75.6,42.8],[75.6,43.0],[75.5,43.0],[75.5,43.1],[75.4,43.1],[75.4,43.3],[75.3,43.3],[75.3,43.4],[75.2,43.4],[75.2,43.6],[75.1,43.6],[75.1,43.8],[75.2,43.8],[75.2,44.2],[74.6,44.2],[74.6,44.3],[74.4,44.3],[74.4,44.4],[74.2,44.4],[74.2,44.5],[74.1,44.5],[74.1,44.6],[73.1,44.6],[73.1,44.7],[72.4,44.7]]]]},"properties":{"tile_id":"51","start_year":1823,"end_year":1824,"source_image":"data/raw/toolbay/t/51/1823.png","source_url":"https://www.toolbay.cc/history-map/t/51/1823.png","source_color":"#009900","polity_id":null,"polity_assignment":"unverified","geometry_origin":"raster_color_trace","pixel_size_degrees":0.1,"source_color_pixels":4362,"simplification_degrees":0}},{"type":"Feature","id":"51:1823:#00ff00","bbox":[60.0,39.2,63.2,44.7],"geometry":{"type":"Polygon","coordinates":[[[60.1,43.8],[60.0,43.8],[60.0,40.0],[60.0,39.9],[60.4,39.9],[60.4,39.8],[60.7,39.8],[60.7,39.7],[60.9,39.7],[60.9,39.6],[61.1,39.6],[61.1,39.5],[61.3,39.5],[61.3,39.4],[61.4,39.4],[61.4,39.3],[61.5,39.3],[61.5,39.2],[61.6,39.2],[61.6,39.6],[61.5,39.6],[61.5,40.4],[61.6,40.4],[61.6,40.8],[61.7,40.8],[61.7,41.2],[61.8,41.2],[61.8,41.4],[61.9,41.4],[61.9,41.5],[62.0,41.5],[62.0,41.7],[62.1,41.7],[62.1,41.8],[62.2,41.8],[62.2,41.9],[62.3,41.9],[62.3,42.1],[62.4,42.1],[62.4,42.5],[62.5,42.5],[62.5,42.8],[62.6,42.8],[62.6,43.0],[62.7,43.0],[62.7,43.1],[62.8,43.1],[62.8,43.3],[62.9,43.3],[62.9,43.4],[63.0,43.4],[63.0,43.6],[63.1,43.6],[63.1,43.7],[63.2,43.7],[63.2,43.9],[63.1,43.9],[63.1,44.0],[62.8,44.0],[62.8,44.1],[62.5,44.1],[62.5,44.2],[62.1,44.2],[62.1,44.3],[61.7,44.3],[61.7,44.4],[61.5,44.4],[61.5,44.5],[61.3,44.5],[61.3,44.6],[61.1,44.6],[61.1,44.7],[61.0,44.7],[61.0,44.5],[60.9,44.5],[60.9,44.3],[60.8,44.3],[60.8,44.2],[60.6,44.2],[60.6,44.1],[60.3,44.1],[60.3,44.0],[60.2,44.0],[60.2,43.9],[60.1,43.9],[60.1,43.8]]]},"properties":{"tile_id":"51","start_year":1823,"end_year":1824,"source_image":"data/raw/toolbay/t/51/1823.png","source_url":"https://www.toolbay.cc/history-map/t/51/1823.png","source_color":"#00ff00","polity_id":null,"polity_assignment":"unverified","geometry_origin":"raster_color_trace","pixel_size_degrees":0.1,"source_color_pixels":1793,"simplification_degrees":0}},{"type":"Feature","id":"51:1823:#00ffff","bbox":[60.0,28.8,79.6,39.9],"geometry":{"type":"MultiPolygon","coordinates":[[[[75.2,35.0],[75.2,35.1],[75.0,35.1],[75.0,35.0],[74.9,35.0],[74.9,34.9],[74.7,34.9],[74.7,34.8],[74.6,34.8],[74.6,34.7],[74.4,34.7],[74.4,34.6],[74.3,34.6],[74.3,34.4],[74.2,34.4],[74.2,34.3],[74.1,34.3],[74.1,34.2],[74.0,34.2],[74.0,34.1],[73.9,34.1],[73.9,34.0],[73.8,34.0],[73.8,33.9],[73.7,33.9],[73.7,33.8],[73.6,33.8],[73.6,33.7],[73.5,33.7],[73.5,33.6],[73.4,33.6],[73.4,33.5],[73.3,33.5],[73.3,33.3],[73.2,33.3],[73.2,33.2],[73.1,33.2],[73.1,33.1],[73.0,33.1],[73.0,33.0],[72.8,33.0],[72.8,32.9],[72.6,32.9],[72.6,32.7],[72.5,32.7],[72.5,32.4],[72.4,32.4],[72.4,32.3],[72.3,32.3],[72.3,32.1],[72.2,32.1],[72.2,31.8],[72.1,31.8],[72.1,31.7],[72.0,31.7],[72.0,31.4],[71.9,31.4],[71.9,31.2],[72.0,31.2],[72.0,31.1],[72.1,31.1],[72.1,30.9],[72.2,30.9],[72.2,30.7],[72.3,30.7],[72.3,30.6],[72.4,30.6],[72.4,30.4],[72.5,30.4],[72.5,30.2],[72.6,30.2],[72.6,30.0],[72.8,30.0],[72.8,29.9],[72.9,29.9],[72.9,29.8],[73.0,29.8],[73.0,29.7],[73.1,29.7],[73.1,29.6],[73.2,29.6],[73.2,29.5],[73.3,29.5],[73.3,29.4],[73.4,29.4],[73.4,29.2],[73.6,29.2],[73.6,29.1],[73.7,29.1],[73.7,29.0],[73.9,29.0],[73.9,29.1],[74.0,29.1],[74.0,29.2],[74.1,29.2],[74.1,29.4],[74.2,29.4],[74.2,29.6],[74.4,29.6],[74.4,29.8],[74.5,29.8],[74.5,29.9],[74.6,29.9],[74.6,30.0],[74.7,30.0],[74.7,30.2],[74.8,30.2],[74.8,30.3],[74.9,30.3],[74.9,30.4],[75.0,30.4],[75.0,30.5],[75.2,30.5],[75.2,30.6],[75.4,30.6],[75.4,30.7],[75.7,30.7],[75.7,30.8],[76.2,30.8],[76.2,30.9],[76.5,30.9],[76.5,31.0],[76.8,31.0],[76.8,31.1],[77.1,31.1],[77.1,31.2],[77.3,31.2],[77.3,31.3],[77.6,31.3],[77.6,31.4],[77.7,31.4],[77.7,31.5],[77.9,31.5],[77.9,31.6],[78.3,31.6],[78.3,31.7],[78.4,31.7],[78.4,31.8],[78.5,31.8],[78.5,31.9],[78.7,31.9],[78.7,32.0],[78.8,32.0],[78.8,32.1],[79.1,32.1],[79.1,32.2],[79.2,32.2],[79.2,32.3],[79.6,32.3],[79.6,33.0],[79.3,33.0],[79.3,33.1],[79.1,33.1],[79.1,33.2],[78.9,33.2],[78.9,33.4],[78.6,33.4],[78.6,33.5],[78.0,33.5],[78.0,33.6],[77.7,33.6],[77.7,33.7],[77.4,33.7],[77.4,33.8],[77.2,33.8],[77.2,33.9],[77.1,33.9],[77.1,34.0],[77.0,34.0],[77.0,34.1],[76.8,34.1],[76.8,34.2],[76.3,34.2],[76.3,34.3],[76.0,34.3],[76.0,34.4],[75.8,34.4],[75.8,34.5],[75.7,34.5],[75.7,34.6],[75.5,34.6],[75.5,34.8],[75.4,34.8],[75.4,34.9],[75.3,34.9],[75.3,35.0],[75.2,35.0]]],[[[60.4,39.8],[60.4,39.9],[60.0,39.9],[60.0,28.8],[60.2,28.8],[60.2,28.9],[60.3,28.9],[60.3,29.0],[60.4,29.0],[60.4,29.1],[60.6,29.1],[60.6,31.3],[60.7,31.3],[60.7,31.8],[60.8,31.8],[60.8,32.0],[60.9,32.0],[60.9,32.6],[61.0,32.6],[61.0,33.0],[61.1,33.0],[61.1,33.4],[61.2,33.4],[61.2,33.8],[61.3,33.8],[61.3,34.0],[61.4,34.0],[61.4,34.8],[61.5,34.8],[61.5,35.2],[61.6,35.2],[61.6,35.5],[61.7,35.5],[61.7,35.7],[61.8,35.7],[61.8,36.1],[61.9,36.1],[61.9,36.4],[62.0,36.4],[62.0,36.7],[62.1,36.7],[62.1,36.8],[62.2,36.8],[62.2,37.1],[62.3,37.1],[62.3,37.6],[62.4,37.6],[62.4,37.7],[62.2,37.7],[62.2,37.8],[62.1,37.8],[62.1,38.0],[62.0,38.0],[62.0,38.3],[61.9,38.3],[61.9,38.7],[61.8,38.7],[61.8,39.1],[61.7,39.1],[61.7,39.2],[61.5,39.2],[61.5,39.3],[61.4,39.3],[61.4,39.4],[61.3,39.4],[61.3,39.5],[61.1,39.5],[61.1,39.6],[60.9,39.6],[60.9,39.7],[60.7,39.7],[60.7,39.8],[60.4,39.8]]]]},"properties":{"tile_id":"51","start_year":1823,"end_year":1824,"source_image":"data/raw/toolbay/t/51/1823.png","source_url":"https://www.toolbay.cc/history-map/t/51/1823.png","source_color":"#00ffff","polity_id":null,"polity_assignment":"unverified","geometry_origin":"raster_color_trace","pixel_size_degrees":0.1,"source_color_pixels":17758,"simplification_degrees":0}},{"type":"Feature","id":"51:1823:#9999ff","bbox":[79.6,27.2,87.0,30.7],"geometry":{"type":"Polygon","coordinates":[[[81.0,30.7],[80.1,30.7],[80.1,30.4],[80.0,30.4],[80.0,30.3],[79.9,30.3],[79.9,30.2],[79.8,30.2],[79.8,30.0],[79.7,30.0],[79.7,29.8],[79.6,29.8],[79.6,29.4],[79.9,29.4],[79.9,29.3],[80.1,29.3],[80.1,29.2],[80.2,29.2],[80.2,29.1],[80.3,29.1],[80.3,29.0],[80.4,29.0],[80.4,28.9],[80.5,28.9],[80.5,28.8],[80.7,28.8],[80.7,28.7],[81.0,28.7],[81.0,28.6],[81.2,28.6],[81.2,28.5],[81.6,28.5],[81.6,28.4],[81.8,28.4],[81.8,28.3],[82.0,28.3],[82.0,28.2],[82.3,28.2],[82.3,28.1],[82.6,28.1],[82.6,28.0],[82.8,28.0],[82.8,27.9],[83.2,27.9],[83.2,27.8],[84.1,27.8],[84.1,27.7],[84.8,27.7],[84.8,27.6],[85.2,27.6],[85.2,27.5],[85.5,27.5],[85.5,27.4],[86.1,27.4],[86.1,27.3],[86.4,27.3],[86.4,27.2],[86.6,27.2],[86.6,27.4],[86.7,27.4],[86.7,27.8],[86.8,27.8],[86.8,28.0],[86.9,28.0],[86.9,28.4],[87.0,28.4],[87.0,28.5],[86.6,28.5],[86.6,28.6],[86.3,28.6],[86.3,28.7],[85.9,28.7],[85.9,28.8],[85.7,28.8],[85.7,28.9],[85.5,28.9],[85.5,29.0],[85.3,29.0],[85.3,29.1],[85.1,29.1],[85.1,29.2],[84.9,29.2],[84.9,29.3],[84.4,29.3],[84.4,29.4],[84.1,29.4],[84.1,29.5],[83.8,29.5],[83.8,29.6],[83.2,29.6],[83.2,29.7],[82.8,29.7],[82.8,29.8],[82.5,29.8],[82.5,29.9],[82.2,29.9],[82.2,30.0],[82.0,30.0],[82.0,30.1],[81.8,30.1],[81.8,30.2],[81.7,30.2],[81.7,30.3],[81.5,30.3],[81.5,30.4],[81.4,30.4],[81.4,30.5],[81.1,30.5],[81.1,30.6],[81.0,30.6],[81.0,30.7]]]},"properties":{"tile_id":"51","start_year":1823,"end_year":1824,"source_image":"data/raw/toolbay/t/51/1823.png","source_url":"https://www.toolbay.cc/history-map/t/51/1823.png","source_color":"#9999ff","polity_id":null,"polity_assignment":"unverified","geometry_origin":"raster_color_trace","pixel_size_degrees":0.1,"source_color_pixels":3326,"simplification_degrees":0}},{"type":"Feature","id":"51:1823:#ff0000","bbox":[61.5,37.6,71.0,44.7],"geometry":{"type":"Polygon","coordinates":[[[69.0,44.7],[68.0,44.7],[68.0,44.6],[67.3,44.6],[67.3,44.5],[66.8,44.5],[66.8,44.4],[66.1,44.4],[66.1,44.3],[64.6,44.3],[64.6,44.2],[63.9,44.2],[63.9,44.1],[63.4,44.1],[63.4,44.0],[63.3,44.0],[63.3,43.8],[63.2,43.8],[63.2,43.7],[63.1,43.7],[63.1,43.6],[63.0,43.6],[63.0,43.4],[62.9,43.4],[62.9,43.3],[62.8,43.3],[62.8,43.1],[62.7,43.1],[62.7,43.0],[62.6,43.0],[62.6,42.8],[62.5,42.8],[62.5,42.5],[62.4,42.5],[62.4,42.1],[62.3,42.1],[62.3,41.9],[62.2,41.9],[62.2,41.8],[62.1,41.8],[62.1,41.7],[62.0,41.7],[62.0,41.5],[61.9,41.5],[61.9,41.4],[61.8,41.4],[61.8,41.2],[61.7,41.2],[61.7,40.8],[61.6,40.8],[61.6,40.4],[61.5,40.4],[61.5,39.6],[61.6,39.6],[61.6,39.2],[61.7,39.2],[61.7,39.1],[61.8,39.1],[61.8,38.7],[61.9,38.7],[61.9,38.3],[62.0,38.3],[62.0,38.0],[62.1,38.0],[62.1,37.8],[62.2,37.8],[62.2,37.7],[62.4,37.7],[62.4,37.6],[63.1,37.6],[63.1,37.7],[63.3,37.7],[63.3,37.8],[64.1,37.8],[64.1,37.9],[65.2,37.9],[65.2,38.0],[65.7,38.0],[65.7,38.1],[68.7,38.1],[68.7,38.2],[69.0,38.2],[69.0,38.1],[69.4,38.1],[69.4,38.0],[70.0,38.0],[70.0,38.1],[70.1,38.1],[70.1,38.0],[70.3,38.0],[70.3,37.9],[70.5,37.9],[70.5,38.1],[70.6,38.1],[70.6,38.5],[70.7,38.5],[70.7,41.2],[70.8,41.2],[70.8,41.6],[70.9,41.6],[70.9,41.9],[71.0,41.9],[71.0,43.2],[70.9,43.2],[70.9,43.6],[70.8,43.6],[70.8,44.3],[70.5,44.3],[70.5,44.4],[70.1,44.4],[70.1,44.5],[69.8,44.5],[69.8,44.6],[69.0,44.6],[69.0,44.7]]]},"properties":{"tile_id":"51","start_year":1823,"end_year":1824,"source_image":"data/raw/toolbay/t/51/1823.png","source_url":"https://www.toolbay.cc/history-map/t/51/1823.png","source_color":"#ff0000","polity_id":null,"polity_assignment":"unverified","geometry_origin":"raster_color_trace","pixel_size_degrees":0.1,"source_color_pixels":7183,"simplification_degrees":0}},{"type":"Feature","id":"51:1823:#ff00ff","bbox":[60.6,26.8,88.5,38.2],"geometry":{"type":"MultiPolygon","coordinates":[[[[87.1,28.4],[87.1,28.5],[87.0,28.5],[87.0,28.4],[86.9,28.4],[86.9,28.0],[86.8,28.0],[86.8,27.8],[86.7,27.8],[86.7,27.4],[86.6,27.4],[86.6,27.2],[87.1,27.2],[87.1,27.1],[87.4,27.1],[87.4,27.0],[87.6,27.0],[87.6,26.9],[87.8,26.9],[87.8,26.8],[87.9,26.8],[87.9,26.9],[88.0,26.9],[88.0,27.0],[88.1,27.0],[88.1,27.2],[88.2,27.2],[88.2,27.3],[88.3,27.3],[88.3,27.4],[88.4,27.4],[88.4,27.6],[88.5,27.6],[88.5,28.0],[88.3,28.0],[88.3,28.1],[88.0,28.1],[88.0,28.2],[87.6,28.2],[87.6,28.3],[87.3,28.3],[87.3,28.4],[87.1,28.4]]],[[[69.0,38.1],[69.0,38.2],[68.7,38.2],[68.7,38.1],[65.7,38.1],[65.7,38.0],[65.2,38.0],[65.2,37.9],[64.1,37.9],[64.1,37.8],[63.3,37.8],[63.3,37.7],[63.1,37.7],[63.1,37.6],[62.3,37.6],[62.3,37.1],[62.2,37.1],[62.2,36.8],[62.1,36.8],[62.1,36.7],[62.0,36.7],[62.0,36.4],[61.9,36.4],[61.9,36.1],[61.8,36.1],[61.8,35.7],[61.7,35.7],[61.7,35.5],[61.6,35.5],[61.6,35.2],[61.5,35.2],[61.5,34.8],[61.4,34.8],[61.4,34.0],[61.3,34.0],[61.3,33.8],[61.2,33.8],[61.2,33.4],[61.1,33.4],[61.1,33.0],[61.0,33.0],[61.0,32.6],[60.9,32.6],[60.9,32.0],[60.8,32.0],[60.8,31.8],[60.7,31.8],[60.7,31.3],[60.6,31.3],[60.6,29.6],[60.8,29.6],[60.8,29.5],[61.0,29.5],[61.0,29.4],[61.6,29.4],[61.6,29.3],[63.1,29.3],[63.1,29.2],[63.4,29.2],[63.4,29.1],[63.8,29.1],[63.8,29.0],[64.2,29.0],[64.2,28.9],[64.5,28.9],[64.5,28.8],[64.8,28.8],[64.8,28.7],[65.9,28.7],[65.9,28.8],[66.6,28.8],[66.6,28.9],[67.1,28.9],[67.1,29.0],[67.5,29.0],[67.5,29.1],[68.0,29.1],[68.0,29.2],[70.1,29.2],[70.1,29.3],[70.3,29.3],[70.3,29.4],[70.5,29.4],[70.5,29.5],[70.6,29.5],[70.6,29.6],[70.8,29.6],[70.8,29.7],[70.9,29.7],[70.9,29.8],[71.0,29.8],[71.0,29.9],[71.1,29.9],[71.1,30.1],[71.2,30.1],[71.2,30.2],[71.3,30.2],[71.3,30.3],[71.4,30.3],[71.4,30.5],[71.5,30.5],[71.5,30.6],[71.6,30.6],[71.6,30.7],[71.7,30.7],[71.7,30.9],[71.8,30.9],[71.8,31.2],[71.9,31.2],[71.9,31.4],[72.0,31.4],[72.0,31.7],[72.1,31.7],[72.1,31.8],[72.2,31.8],[72.2,32.1],[72.3,32.1],[72.3,32.3],[72.4,32.3],[72.4,32.4],[72.5,32.4],[72.5,32.7],[72.6,32.7],[72.6,32.9],[72.8,32.9],[72.8,33.0],[73.0,33.0],[73.0,33.1],[73.1,33.1],[73.1,33.2],[73.2,33.2],[73.2,33.3],[73.3,33.3],[73.3,33.5],[73.4,33.5],[73.4,33.6],[73.5,33.6],[73.5,33.7],[73.6,33.7],[73.6,33.8],[73.7,33.8],[73.7,33.9],[73.8,33.9],[73.8,34.0],[73.9,34.0],[73.9,34.1],[74.0,34.1],[74.0,34.2],[74.1,34.2],[74.1,34.3],[74.2,34.3],[74.2,34.4],[74.3,34.4],[74.3,34.6],[74.4,34.6],[74.4,34.7],[74.6,34.7],[74.6,34.8],[74.7,34.8],[74.7,34.9],[74.9,34.9],[74.9,35.0],[75.0,35.0],[75.0,35.1],[75.1,35.1],[75.1,35.2],[75.0,35.2],[75.0,35.3],[74.9,35.3],[74.9,35.4],[74.8,35.4],[74.8,35.6],[74.7,35.6],[74.7,35.8],[74.6,35.8],[74.6,36.3],[74.0,36.3],[74.0,36.4],[73.9,36.4],[73.9,36.5],[73.8,36.5],[73.8,36.6],[73.5,36.6],[73.5,36.7],[73.4,36.7],[73.4,36.8],[73.2,36.8],[73.2,36.9],[73.0,36.9],[73.0,37.0],[72.8,37.0],[72.8,37.1],[72.6,37.1],[72.6,37.2],[72.3,37.2],[72.3,37.3],[72.1,37.3],[72.1,37.4],[72.0,37.4],[72.0,37.5],[71.8,37.5],[71.8,37.6],[71.5,37.6],[71.5,37.7],[71.1,37.7],[71.1,37.8],[70.7,37.8],[70.7,37.9],[70.3,37.9],[70.3,38.0],[70.1,38.0],[70.1,38.1],[70.0,38.1],[70.0,38.0],[69.4,38.0],[69.4,38.1],[69.0,38.1]]]]},"properties":{"tile_id":"51","start_year":1823,"end_year":1824,"source_image":"data/raw/toolbay/t/51/1823.png","source_url":"https://www.toolbay.cc/history-map/t/51/1823.png","source_color":"#ff00ff","polity_id":null,"polity_assignment":"unverified","geometry_origin":"raster_color_trace","pixel_size_degrees":0.1,"source_color_pixels":10408,"simplification_degrees":0}},{"type":"Feature","id":"51:1823:#ff66ff","bbox":[61.1,43.8,74.0,45.0],"geometry":{"type":"Polygon","coordinates":[[[73.8,45.0],[61.4,45.0],[61.4,44.9],[61.3,44.9],[61.3,44.8],[61.1,44.8],[61.1,44.6],[61.3,44.6],[61.3,44.5],[61.5,44.5],[61.5,44.4],[61.7,44.4],[61.7,44.3],[62.1,44.3],[62.1,44.2],[62.5,44.2],[62.5,44.1],[62.8,44.1],[62.8,44.0],[63.1,44.0],[63.1,43.9],[63.2,43.9],[63.2,43.8],[63.3,43.8],[63.3,44.0],[63.4,44.0],[63.4,44.1],[63.9,44.1],[63.9,44.2],[64.6,44.2],[64.6,44.3],[66.1,44.3],[66.1,44.4],[66.8,44.4],[66.8,44.5],[67.3,44.5],[67.3,44.6],[68.0,44.6],[68.0,44.7],[69.0,44.7],[69.0,44.6],[69.8,44.6],[69.8,44.5],[70.1,44.5],[70.1,44.4],[70.5,44.4],[70.5,44.3],[70.8,44.3],[70.8,44.4],[70.9,44.4],[70.9,44.5],[71.0,44.5],[71.0,44.6],[71.2,44.6],[71.2,44.7],[72.0,44.7],[72.0,44.8],[72.4,44.8],[72.4,44.7],[73.1,44.7],[73.1,44.6],[74.0,44.6],[74.0,44.8],[73.9,44.8],[73.9,44.9],[73.8,44.9],[73.8,45.0]]]},"properties":{"tile_id":"51","start_year":1823,"end_year":1824,"source_image":"data/raw/toolbay/t/51/1823.png","source_url":"https://www.toolbay.cc/history-map/t/51/1823.png","source_color":"#ff66ff","polity_id":null,"polity_assignment":"unverified","geometry_origin":"raster_color_trace","pixel_size_degrees":0.1,"source_color_pixels":5907,"simplification_degrees":0}},{"type":"Feature","id":"51:1823:#ff9933","bbox":[73.8,26.2,80.5,32.3],"geometry":{"type":"Polygon","coordinates":[[[79.7,32.3],[79.2,32.3],[79.2,32.2],[79.1,32.2],[79.1,32.1],[78.8,32.1],[78.8,32.0],[78.7,32.0],[78.7,31.9],[78.5,31.9],[78.5,31.8],[78.4,31.8],[78.4,31.7],[78.3,31.7],[78.3,31.6],[77.9,31.6],[77.9,31.5],[77.7,31.5],[77.7,31.4],[77.6,31.4],[77.6,31.3],[77.3,31.3],[77.3,31.2],[77.1,31.2],[77.1,31.1],[76.8,31.1],[76.8,31.0],[76.5,31.0],[76.5,30.9],[76.2,30.9],[76.2,30.8],[75.7,30.8],[75.7,30.7],[75.4,30.7],[75.4,30.6],[75.2,30.6],[75.2,30.5],[75.0,30.5],[75.0,30.4],[74.9,30.4],[74.9,30.3],[74.8,30.3],[74.8,30.2],[74.7,30.2],[74.7,30.0],[74.6,30.0],[74.6,29.9],[74.5,29.9],[74.5,29.8],[74.4,29.8],[74.4,29.6],[74.2,29.6],[74.2,29.4],[74.1,29.4],[74.1,29.2],[74.0,29.2],[74.0,29.1],[73.9,29.1],[73.9,29.0],[73.8,29.0],[73.8,28.8],[73.9,28.8],[73.9,28.7],[74.0,28.7],[74.0,28.6],[74.2,28.6],[74.2,28.5],[74.4,28.5],[74.4,28.4],[74.6,28.4],[74.6,28.3],[74.7,28.3],[74.7,28.2],[74.9,28.2],[74.9,28.1],[75.1,28.1],[75.1,28.0],[75.2,28.0],[75.2,27.9],[75.4,27.9],[75.4,27.8],[75.6,27.8],[75.6,27.7],[75.7,27.7],[75.7,27.6],[75.9,27.6],[75.9,27.5],[76.0,27.5],[76.0,27.4],[76.2,27.4],[76.2,27.3],[76.4,27.3],[76.4,27.2],[76.6,27.2],[76.6,27.1],[76.8,27.1],[76.8,27.0],[76.9,27.0],[76.9,26.9],[77.1,26.9],[77.1,26.8],[77.3,26.8],[77.3,26.7],[77.6,26.7],[77.6,26.6],[77.8,26.6],[77.8,26.5],[78.0,26.5],[78.0,26.4],[78.2,26.4],[78.2,26.3],[78.4,26.3],[78.4,26.2],[78.5,26.2],[78.5,26.3],[78.7,26.3],[78.7,26.4],[78.8,26.4],[78.8,26.5],[78.9,26.5],[78.9,26.6],[79.0,26.6],[79.0,26.7],[79.1,26.7],[79.1,26.8],[79.2,26.8],[79.2,26.9],[79.3,26.9],[79.3,27.0],[79.4,27.0],[79.4,27.1],[79.5,27.1],[79.5,27.2],[79.6,27.2],[79.6,27.3],[79.7,27.3],[79.7,27.4],[79.8,27.4],[79.8,27.6],[79.9,27.6],[79.9,27.8],[80.0,27.8],[80.0,27.9],[80.1,27.9],[80.1,28.1],[80.2,28.1],[80.2,28.2],[80.3,28.2],[80.3,28.4],[80.4,28.4],[80.4,28.6],[80.5,28.6],[80.5,28.9],[80.4,28.9],[80.4,29.0],[80.3,29.0],[80.3,29.1],[80.2,29.1],[80.2,29.2],[80.1,29.2],[80.1,29.3],[79.9,29.3],[79.9,29.4],[79.6,29.4],[79.6,29.8],[79.7,29.8],[79.7,30.0],[79.8,30.0],[79.8,30.2],[79.9,30.2],[79.9,30.3],[80.0,30.3],[80.0,30.4],[80.1,30.4],[80.1,30.8],[80.2,30.8],[80.2,31.3],[80.1,31.3],[80.1,31.4],[80.0,31.4],[80.0,31.7],[79.9,31.7],[79.9,31.8],[79.8,31.8],[79.8,32.0],[79.7,32.0],[79.7,32.3]]]},"properties":{"tile_id":"51","start_year":1823,"end_year":1824,"source_image":"data/raw/toolbay/t/51/1823.png","source_url":"https://www.toolbay.cc/history-map/t/51/1823.png","source_color":"#ff9933","polity_id":null,"polity_assignment":"unverified","geometry_origin":"raster_color_trace","pixel_size_degrees":0.1,"source_color_pixels":2353,"simplification_degrees":0}},{"type":"Feature","id":"51:1823:#ffff00","bbox":[73.8,27.6,90.0,45.0],"geometry":{"type":"Polygon","coordinates":[[[90.0,45.0],[73.8,45.0],[73.8,44.9],[73.9,44.9],[73.9,44.8],[74.0,44.8],[74.0,44.6],[74.1,44.6],[74.1,44.5],[74.2,44.5],[74.2,44.4],[74.4,44.4],[74.4,44.3],[74.6,44.3],[74.6,44.2],[75.2,44.2],[75.2,43.8],[75.1,43.8],[75.1,43.6],[75.2,43.6],[75.2,43.4],[75.3,43.4],[75.3,43.3],[75.4,43.3],[75.4,43.1],[75.5,43.1],[75.5,43.0],[75.6,43.0],[75.6,42.8],[75.7,42.8],[75.7,42.5],[75.8,42.5],[75.8,42.4],[75.9,42.4],[75.9,42.2],[76.0,42.2],[76.0,41.9],[76.1,41.9],[76.1,41.7],[76.2,41.7],[76.2,41.6],[76.3,41.6],[76.3,41.5],[76.4,41.5],[76.4,41.2],[76.5,41.2],[76.5,40.5],[76.6,40.5],[76.6,39.9],[76.7,39.9],[76.7,39.4],[76.8,39.4],[76.8,37.2],[77.4,37.2],[77.4,37.1],[77.7,37.1],[77.7,37.2],[77.8,37.2],[77.8,37.1],[77.9,37.1],[77.9,37.0],[78.2,37.0],[78.2,36.9],[78.4,36.9],[78.4,36.8],[78.8,36.8],[78.8,36.7],[79.2,36.7],[79.2,36.6],[79.7,36.6],[79.7,36.5],[79.8,36.5],[79.8,36.0],[79.9,36.0],[79.9,35.8],[80.0,35.8],[80.0,35.1],[79.9,35.1],[79.9,34.5],[79.8,34.5],[79.8,33.9],[79.7,33.9],[79.7,33.5],[79.6,33.5],[79.6,32.3],[79.7,32.3],[79.7,32.0],[79.8,32.0],[79.8,31.8],[79.9,31.8],[79.9,31.7],[80.0,31.7],[80.0,31.4],[80.1,31.4],[80.1,31.3],[80.2,31.3],[80.2,30.8],[80.1,30.8],[80.1,30.7],[81.0,30.7],[81.0,30.6],[81.1,30.6],[81.1,30.5],[81.4,30.5],[81.4,30.4],[81.5,30.4],[81.5,30.3],[81.7,30.3],[81.7,30.2],[81.8,30.2],[81.8,30.1],[82.0,30.1],[82.0,30.0],[82.2,30.0],[82.2,29.9],[82.5,29.9],[82.5,29.8],[82.8,29.8],[82.8,29.7],[83.2,29.7],[83.2,29.6],[83.8,29.6],[83.8,29.5],[84.1,29.5],[84.1,29.4],[84.4,29.4],[84.4,29.3],[84.9,29.3],[84.9,29.2],[85.1,29.2],[85.1,29.1],[85.3,29.1],[85.3,29.0],[85.5,29.0],[85.5,28.9],[85.7,28.9],[85.7,28.8],[85.9,28.8],[85.9,28.7],[86.3,28.7],[86.3,28.6],[86.6,28.6],[86.6,28.5],[87.1,28.5],[87.1,28.4],[87.3,28.4],[87.3,28.3],[87.6,28.3],[87.6,28.2],[88.0,28.2],[88.0,28.1],[88.3,28.1],[88.3,28.0],[88.6,28.0],[88.6,27.9],[88.8,27.9],[88.8,27.8],[89.0,27.8],[89.0,27.7],[89.3,27.7],[89.3,27.6],[90.0,27.6],[90.0,45.0]]]},"properties":{"tile_id":"51","start_year":1823,"end_year":1824,"source_image":"data/raw/toolbay/t/51/1823.png","source_url":"https://www.toolbay.cc/history-map/t/51/1823.png","source_color":"#ffff00","polity_id":null,"polity_assignment":"unverified","geometry_origin":"raster_color_trace","pixel_size_degrees":0.1,"source_color_pixels":19147,"simplification_degrees":0}}]}
