{"type":"FeatureCollection","features":[{"type":"Feature","id":"51:1891:#0000ff","bbox":[60.9,6.0,90.0,37.5],"geometry":{"type":"MultiPolygon","coordinates":[[[[80.3,9.8],[80.3,9.9],[80.0,9.9],[80.0,9.5],[80.1,9.5],[80.1,9.2],[80.0,9.2],[80.0,9.1],[79.9,9.1],[79.9,8.5],[79.8,8.5],[79.8,8.4],[79.7,8.4],[79.7,7.9],[79.8,7.9],[79.8,6.9],[79.9,6.9],[79.9,6.7],[80.0,6.7],[80.0,6.3],[80.1,6.3],[80.1,6.1],[80.2,6.1],[80.2,6.0],[80.8,6.0],[80.8,6.1],[81.1,6.1],[81.1,6.2],[81.4,6.2],[81.4,6.3],[81.5,6.3],[81.5,6.4],[81.6,6.4],[81.6,6.5],[81.7,6.5],[81.7,6.6],[81.8,6.6],[81.8,6.8],[81.9,6.8],[81.9,7.2],[81.8,7.2],[81.8,7.8],[81.7,7.8],[81.7,7.9],[81.6,7.9],[81.6,8.1],[81.5,8.1],[81.5,8.3],[81.4,8.3],[81.4,8.6],[81.3,8.6],[81.3,8.7],[81.2,8.7],[81.2,8.9],[81.1,8.9],[81.1,9.0],[81.0,9.0],[81.0,9.2],[80.9,9.2],[80.9,9.4],[80.8,9.4],[80.8,9.5],[80.7,9.5],[80.7,9.6],[80.6,9.6],[80.6,9.7],[80.4,9.7],[80.4,9.8],[80.3,9.8]]],[[[68.1,37.4],[68.1,37.5],[67.8,37.5],[67.8,37.4],[67.1,37.4],[67.1,37.3],[66.7,37.3],[66.7,37.2],[66.1,37.2],[66.1,37.1],[65.7,37.1],[65.7,37.0],[65.3,37.0],[65.3,36.9],[64.9,36.9],[64.9,36.8],[64.7,36.8],[64.7,36.7],[64.5,36.7],[64.5,36.6],[64.1,36.6],[64.1,36.5],[63.9,36.5],[63.9,36.4],[63.6,36.4],[63.6,36.3],[63.4,36.3],[63.4,36.2],[63.1,36.2],[63.1,36.1],[62.9,36.1],[62.9,36.0],[62.7,36.0],[62.7,35.9],[62.4,35.9],[62.4,35.8],[62.1,35.8],[62.1,35.7],[61.9,35.7],[61.9,35.6],[61.7,35.6],[61.7,35.5],[61.4,35.5],[61.4,35.4],[61.3,35.4],[61.3,35.3],[61.2,35.3],[61.2,35.2],[61.0,35.2],[61.0,32.6],[60.9,32.6],[60.9,31.5],[61.0,31.5],[61.0,31.1],[61.1,31.1],[61.1,30.7],[61.2,30.7],[61.2,30.4],[61.3,30.4],[61.3,30.3],[61.4,30.3],[61.4,30.0],[61.5,30.0],[61.5,29.7],[61.6,29.7],[61.6,29.2],[61.7,29.2],[61.7,29.1],[61.8,29.1],[61.8,28.8],[61.9,28.8],[61.9,28.6],[62.0,28.6],[62.0,28.5],[62.1,28.5],[62.1,28.3],[62.2,28.3],[62.2,28.2],[62.3,28.2],[62.3,28.0],[62.4,28.0],[62.4,27.8],[62.5,27.8],[62.5,27.7],[62.6,27.7],[62.6,27.6],[62.7,27.6],[62.7,27.4],[62.8,27.4],[62.8,27.3],[62.9,27.3],[62.9,27.2],[63.0,27.2],[63.0,27.0],[63.1,27.0],[63.1,26.9],[63.2,26.9],[63.2,26.8],[63.3,26.8],[63.3,26.7],[63.2,26.7],[63.2,26.5],[63.1,26.5],[63.1,26.4],[62.9,26.4],[62.9,26.3],[62.8,26.3],[62.8,26.2],[62.7,26.2],[62.7,26.1],[62.5,26.1],[62.5,26.0],[62.2,26.0],[62.2,25.9],[61.9,25.9],[61.9,25.8],[61.6,25.8],[61.6,25.7],[61.4,25.7],[61.4,25.6],[61.3,25.6],[61.3,25.5],[61.1,25.5],[61.1,25.4],[61.0,25.4],[61.0,25.3],[61.1,25.3],[61.1,25.2],[61.3,25.2],[61.3,25.1],[62.0,25.1],[62.0,25.2],[62.5,25.2],[62.5,25.3],[63.6,25.3],[63.6,25.4],[64.2,25.4],[64.2,25.3],[64.8,25.3],[64.8,25.4],[65.0,25.4],[65.0,25.3],[65.2,25.3],[65.2,25.4],[66.1,25.4],[66.1,25.5],[66.5,25.5],[66.5,25.4],[66.6,25.4],[66.6,25.3],[66.7,25.3],[66.7,25.0],[66.8,25.0],[66.8,24.9],[67.0,24.9],[67.0,24.8],[67.1,24.8],[67.1,24.7],[67.2,24.7],[67.2,24.5],[67.3,24.5],[67.3,24.2],[67.4,24.2],[67.4,24.1],[67.5,24.1],[67.5,23.9],[67.6,23.9],[67.6,23.8],[68.1,23.8],[68.1,23.7],[68.2,23.7],[68.2,23.6],[68.3,23.6],[68.3,23.5],[68.4,23.5],[68.4,23.4],[68.5,23.4],[68.5,23.3],[68.6,23.3],[68.6,23.2],[68.7,23.2],[68.7,23.1],[68.9,23.1],[68.9,23.0],[69.1,23.0],[69.1,22.9],[69.5,22.9],[69.5,22.8],[69.8,22.8],[69.8,22.9],[70.1,22.9],[70.1,22.8],[70.2,22.8],[70.2,22.7],[70.1,22.7],[70.1,22.6],[69.6,22.6],[69.6,22.5],[69.1,22.5],[69.1,22.4],[69.0,22.4],[69.0,22.2],[69.1,22.2],[69.1,22.1],[69.2,22.1],[69.2,22.0],[69.3,22.0],[69.3,21.9],[69.4,21.9],[69.4,21.8],[69.5,21.8],[69.5,21.7],[69.6,21.7],[69.6,21.6],[69.7,21.6],[69.7,21.5],[69.8,21.5],[69.8,21.4],[69.9,21.4],[69.9,21.3],[70.0,21.3],[70.0,21.2],[70.1,21.2],[70.1,21.1],[70.2,21.1],[70.2,21.0],[70.4,21.0],[70.4,20.9],[70.5,20.9],[70.5,20.8],[70.8,20.8],[70.8,20.7],[71.0,20.7],[71.0,20.8],[71.3,20.8],[71.3,20.9],[71.5,20.9],[71.5,21.0],[71.7,21.0],[71.7,21.1],[71.9,21.1],[71.9,21.2],[72.1,21.2],[72.1,21.3],[72.2,21.3],[72.2,21.5],[72.3,21.5],[72.3,22.0],[72.5,22.0],[72.5,21.8],[72.6,21.8],[72.6,21.1],[72.7,21.1],[72.7,21.0],[72.8,21.0],[72.8,20.8],[72.9,20.8],[72.9,20.5],[72.8,20.5],[72.8,20.3],[72.7,20.3],[72.7,19.5],[72.8,19.5],[72.8,18.9],[72.9,18.9],[72.9,18.3],[73.0,18.3],[73.0,18.0],[73.1,18.0],[73.1,17.6],[73.2,17.6],[73.2,17.2],[73.3,17.2],[73.3,16.5],[73.4,16.5],[73.4,16.2],[73.5,16.2],[73.5,16.0],[73.6,16.0],[73.6,15.9],[73.7,15.9],[73.7,15.6],[73.8,15.6],[73.8,15.4],[73.9,15.4],[73.9,15.1],[74.0,15.1],[74.0,15.0],[74.1,15.0],[74.1,14.9],[74.2,14.9],[74.2,14.7],[74.3,14.7],[74.3,14.5],[74.4,14.5],[74.4,14.3],[74.5,14.3],[74.5,14.0],[74.6,14.0],[74.6,13.7],[74.7,13.7],[74.7,13.3],[74.8,13.3],[74.8,12.8],[74.9,12.8],[74.9,12.6],[75.0,12.6],[75.0,12.4],[75.1,12.4],[75.1,12.2],[75.2,12.2],[75.2,12.0],[75.3,12.0],[75.3,11.9],[75.4,11.9],[75.4,11.8],[75.5,11.8],[75.5,11.7],[75.6,11.7],[75.6,11.5],[75.7,11.5],[75.7,11.3],[75.8,11.3],[75.8,11.1],[75.9,11.1],[75.9,10.8],[76.0,10.8],[76.0,10.5],[76.1,10.5],[76.1,10.3],[76.2,10.3],[76.2,9.9],[76.3,9.9],[76.3,9.5],[76.4,9.5],[76.4,9.2],[76.5,9.2],[76.5,9.0],[76.6,9.0],[76.6,8.9],[76.7,8.9],[76.7,8.8],[76.8,8.8],[76.8,8.7],[76.9,8.7],[76.9,8.5],[77.0,8.5],[77.0,8.4],[77.1,8.4],[77.1,8.3],[77.2,8.3],[77.2,8.2],[77.8,8.2],[77.8,8.3],[78.0,8.3],[78.0,8.4],[78.1,8.4],[78.1,8.5],[78.2,8.5],[78.2,8.9],[78.3,8.9],[78.3,9.1],[78.4,9.1],[78.4,9.2],[78.8,9.2],[78.8,9.3],[78.9,9.3],[78.9,9.4],[79.0,9.4],[79.0,9.8],[79.1,9.8],[79.1,9.9],[79.2,9.9],[79.2,10.0],[79.3,10.0],[79.3,10.3],[79.4,10.3],[79.4,10.4],[79.6,10.4],[79.6,10.3],[79.8,10.3],[79.8,10.4],[79.9,10.4],[79.9,11.5],[79.8,11.5],[79.8,11.9],[79.9,11.9],[79.9,12.2],[80.0,12.2],[80.0,12.3],[80.1,12.3],[80.1,12.5],[80.2,12.5],[80.2,12.7],[80.3,12.7],[80.3,13.1],[80.4,13.1],[80.4,13.6],[80.3,13.6],[80.3,14.0],[80.2,14.0],[80.2,14.9],[80.1,14.9],[80.1,15.4],[80.2,15.4],[80.2,15.5],[80.3,15.5],[80.3,15.7],[80.4,15.7],[80.4,15.8],[80.5,15.8],[80.5,15.9],[80.7,15.9],[80.7,15.8],[81.0,15.8],[81.0,15.9],[81.1,15.9],[81.1,16.0],[81.2,16.0],[81.2,16.2],[81.3,16.2],[81.3,16.3],[81.4,16.3],[81.4,16.4],[81.9,16.4],[81.9,16.5],[82.2,16.5],[82.2,16.6],[82.3,16.6],[82.3,16.7],[82.4,16.7],[82.4,17.2],[82.5,17.2],[82.5,17.3],[82.7,17.3],[82.7,17.4],[82.8,17.4],[82.8,17.5],[83.1,17.5],[83.1,17.6],[83.2,17.6],[83.2,17.7],[83.3,17.7],[83.3,17.8],[83.4,17.8],[83.4,17.9],[83.5,17.9],[83.5,18.0],[83.6,18.0],[83.6,18.1],[83.8,18.1],[83.8,18.2],[83.9,18.2],[83.9,18.3],[84.1,18.3],[84.1,18.4],[84.2,18.4],[84.2,18.5],[84.3,18.5],[84.3,18.6],[84.4,18.6],[84.4,18.7],[84.5,18.7],[84.5,18.8],[84.6,18.8],[84.6,18.9],[84.7,18.9],[84.7,19.1],[84.8,19.1],[84.8,19.2],[84.9,19.2],[84.9,19.3],[85.0,19.3],[85.0,19.4],[85.1,19.4],[85.1,19.5],[85.2,19.5],[85.2,19.6],[85.4,19.6],[85.4,19.7],[85.6,19.7],[85.6,19.8],[85.9,19.8],[85.9,19.9],[86.3,19.9],[86.3,20.0],[86.4,20.0],[86.4,20.1],[86.5,20.1],[86.5,20.2],[86.6,20.2],[86.6,20.3],[86.8,20.3],[86.8,20.4],[86.9,20.4],[86.9,20.6],[87.0,20.6],[87.0,21.0],[86.9,21.0],[86.9,21.4],[87.0,21.4],[87.0,21.5],[87.1,21.5],[87.1,21.6],[87.5,21.6],[87.5,21.7],[87.8,21.7],[87.8,21.8],[88.1,21.8],[88.1,21.7],[88.2,21.7],[88.2,21.6],[89.0,21.6],[89.0,21.7],[89.4,21.7],[89.4,21.8],[89.7,21.8],[89.7,21.9],[89.9,21.9],[89.9,22.0],[90.0,22.0],[90.0,25.8],[89.9,25.8],[89.9,26.1],[89.1,26.1],[89.1,26.2],[89.0,26.2],[89.0,26.3],[88.9,26.3],[88.9,26.4],[88.8,26.4],[88.8,26.5],[88.5,26.5],[88.5,26.6],[88.2,26.6],[88.2,26.7],[88.0,26.7],[88.0,26.8],[87.9,26.8],[87.9,26.9],[88.0,26.9],[88.0,27.0],[88.1,27.0],[88.1,27.2],[88.2,27.2],[88.2,27.3],[88.3,27.3],[88.3,27.4],[88.4,27.4],[88.4,27.6],[88.5,27.6],[88.5,28.0],[88.3,28.0],[88.3,28.1],[88.0,28.1],[88.0,28.2],[87.6,28.2],[87.6,28.3],[87.3,28.3],[87.3,28.4],[87.1,28.4],[87.1,28.5],[87.0,28.5],[87.0,28.4],[86.9,28.4],[86.9,28.0],[86.8,28.0],[86.8,27.8],[86.7,27.8],[86.7,27.4],[86.6,27.4],[86.6,27.2],[86.4,27.2],[86.4,27.3],[86.1,27.3],[86.1,27.4],[85.5,27.4],[85.5,27.5],[85.2,27.5],[85.2,27.6],[84.8,27.6],[84.8,27.7],[84.1,27.7],[84.1,27.8],[83.2,27.8],[83.2,27.9],[82.8,27.9],[82.8,28.0],[82.6,28.0],[82.6,28.1],[82.3,28.1],[82.3,28.2],[82.0,28.2],[82.0,28.3],[81.8,28.3],[81.8,28.4],[81.6,28.4],[81.6,28.5],[81.2,28.5],[81.2,28.6],[81.0,28.6],[81.0,28.7],[80.7,28.7],[80.7,28.8],[80.5,28.8],[80.5,28.9],[80.4,28.9],[80.4,29.0],[80.3,29.0],[80.3,29.1],[80.2,29.1],[80.2,29.2],[80.1,29.2],[80.1,29.3],[79.9,29.3],[79.9,29.4],[79.6,29.4],[79.6,29.8],[79.7,29.8],[79.7,30.0],[79.8,30.0],[79.8,30.2],[79.9,30.2],[79.9,30.3],[80.0,30.3],[80.0,30.4],[80.1,30.4],[80.1,31.0],[80.0,31.0],[80.0,31.3],[79.9,31.3],[79.9,31.4],[79.8,31.4],[79.8,31.5],[79.7,31.5],[79.7,31.6],[79.6,31.6],[79.6,31.7],[79.5,31.7],[79.5,31.9],[79.4,31.9],[79.4,32.1],[79.3,32.1],[79.3,33.1],[79.1,33.1],[79.1,33.2],[78.9,33.2],[78.9,33.4],[78.6,33.4],[78.6,33.5],[78.0,33.5],[78.0,33.6],[77.7,33.6],[77.7,33.7],[77.4,33.7],[77.4,33.8],[77.2,33.8],[77.2,33.9],[77.1,33.9],[77.1,34.0],[77.0,34.0],[77.0,34.1],[76.8,34.1],[76.8,34.2],[76.3,34.2],[76.3,34.3],[76.0,34.3],[76.0,34.4],[75.8,34.4],[75.8,34.5],[75.7,34.5],[75.7,34.6],[75.5,34.6],[75.5,34.8],[75.4,34.8],[75.4,34.9],[75.3,34.9],[75.3,35.0],[75.2,35.0],[75.2,35.1],[75.1,35.1],[75.1,35.2],[75.0,35.2],[75.0,35.3],[74.9,35.3],[74.9,35.4],[74.8,35.4],[74.8,35.6],[74.7,35.6],[74.7,35.8],[74.6,35.8],[74.6,36.3],[73.7,36.3],[73.7,36.4],[73.6,36.4],[73.6,37.2],[73.5,37.2],[73.5,37.3],[73.4,37.3],[73.4,37.2],[72.9,37.2],[72.9,37.1],[72.6,37.1],[72.6,37.2],[72.0,37.2],[72.0,37.3],[71.1,37.3],[71.1,37.4],[68.1,37.4]],[[89.9,24.3],[89.7,24.3],[89.7,24.7],[89.9,24.7],[89.9,24.3]],[[67.6,24.2],[67.7,24.2],[67.7,24.3],[67.9,24.3],[67.9,24.0],[67.7,24.0],[67.7,24.1],[67.6,24.1],[67.6,24.2]]]]},"properties":{"tile_id":"51","start_year":1891,"end_year":1910,"source_image":"data/raw/toolbay/t/51/1891.png","source_url":"https://www.toolbay.cc/history-map/t/51/1891.png","source_color":"#0000ff","polity_id":null,"polity_assignment":"unverified","geometry_origin":"raster_color_trace","pixel_size_degrees":0.1,"source_color_pixels":44054,"simplification_degrees":0}},{"type":"Feature","id":"51:1891:#009900","bbox":[87.9,26.1,90.0,28.0],"geometry":{"type":"Polygon","coordinates":[[[88.6,28.0],[88.5,28.0],[88.5,27.6],[88.4,27.6],[88.4,27.4],[88.3,27.4],[88.3,27.3],[88.2,27.3],[88.2,27.2],[88.1,27.2],[88.1,27.0],[88.0,27.0],[88.0,26.9],[87.9,26.9],[87.9,26.8],[88.0,26.8],[88.0,26.7],[88.2,26.7],[88.2,26.6],[88.5,26.6],[88.5,26.5],[88.8,26.5],[88.8,26.4],[88.9,26.4],[88.9,26.3],[89.0,26.3],[89.0,26.2],[89.1,26.2],[89.1,26.1],[90.0,26.1],[90.0,27.6],[89.3,27.6],[89.3,27.7],[89.0,27.7],[89.0,27.8],[88.8,27.8],[88.8,27.9],[88.6,27.9],[88.6,28.0]]]},"properties":{"tile_id":"51","start_year":1891,"end_year":1910,"source_image":"data/raw/toolbay/t/51/1891.png","source_url":"https://www.toolbay.cc/history-map/t/51/1891.png","source_color":"#009900","polity_id":null,"polity_assignment":"unverified","geometry_origin":"raster_color_trace","pixel_size_degrees":0.1,"source_color_pixels":258,"simplification_degrees":0}},{"type":"Feature","id":"51:1891:#00ff00","bbox":[60.0,40.3,61.8,42.7],"geometry":{"type":"Polygon","coordinates":[[[60.1,42.7],[60.0,42.7],[60.0,40.8],[60.2,40.8],[60.2,40.7],[60.4,40.7],[60.4,40.6],[60.7,40.6],[60.7,40.5],[60.8,40.5],[60.8,40.4],[61.3,40.4],[61.3,40.3],[61.5,40.3],[61.5,40.4],[61.6,40.4],[61.6,40.8],[61.7,40.8],[61.7,41.2],[61.8,41.2],[61.8,41.4],[61.7,41.4],[61.7,41.6],[61.6,41.6],[61.6,41.7],[61.5,41.7],[61.5,41.9],[61.4,41.9],[61.4,42.0],[61.3,42.0],[61.3,42.1],[61.2,42.1],[61.2,42.2],[61.0,42.2],[61.0,42.3],[60.9,42.3],[60.9,42.4],[60.6,42.4],[60.6,42.5],[60.3,42.5],[60.3,42.6],[60.1,42.6],[60.1,42.7]]]},"properties":{"tile_id":"51","start_year":1891,"end_year":1910,"source_image":"data/raw/toolbay/t/51/1891.png","source_url":"https://www.toolbay.cc/history-map/t/51/1891.png","source_color":"#00ff00","polity_id":null,"polity_assignment":"unverified","geometry_origin":"raster_color_trace","pixel_size_degrees":0.1,"source_color_pixels":2842,"simplification_degrees":0}},{"type":"Feature","id":"51:1891:#00ffff","bbox":[60.0,25.3,63.3,36.1],"geometry":{"type":"Polygon","coordinates":[[[60.2,36.1],[60.0,36.1],[60.0,25.4],[60.7,25.4],[60.7,25.3],[61.0,25.3],[61.0,25.4],[61.1,25.4],[61.1,25.5],[61.3,25.5],[61.3,25.6],[61.4,25.6],[61.4,25.7],[61.6,25.7],[61.6,25.8],[61.9,25.8],[61.9,25.9],[62.2,25.9],[62.2,26.0],[62.5,26.0],[62.5,26.1],[62.7,26.1],[62.7,26.2],[62.8,26.2],[62.8,26.3],[62.9,26.3],[62.9,26.4],[63.1,26.4],[63.1,26.5],[63.2,26.5],[63.2,26.7],[63.3,26.7],[63.3,26.8],[63.2,26.8],[63.2,26.9],[63.1,26.9],[63.1,27.0],[63.0,27.0],[63.0,27.2],[62.9,27.2],[62.9,27.3],[62.8,27.3],[62.8,27.4],[62.7,27.4],[62.7,27.6],[62.6,27.6],[62.6,27.7],[62.5,27.7],[62.5,27.8],[62.4,27.8],[62.4,28.0],[62.3,28.0],[62.3,28.2],[62.2,28.2],[62.2,28.3],[62.1,28.3],[62.1,28.5],[62.0,28.5],[62.0,28.6],[61.9,28.6],[61.9,28.8],[61.8,28.8],[61.8,29.1],[61.7,29.1],[61.7,29.2],[61.6,29.2],[61.6,29.7],[61.5,29.7],[61.5,30.0],[61.4,30.0],[61.4,30.3],[61.3,30.3],[61.3,30.4],[61.2,30.4],[61.2,30.7],[61.1,30.7],[61.1,31.1],[61.0,31.1],[61.0,31.5],[60.9,31.5],[60.9,32.6],[61.0,32.6],[61.0,35.3],[60.9,35.3],[60.9,35.4],[60.8,35.4],[60.8,35.5],[60.7,35.5],[60.7,35.7],[60.6,35.7],[60.6,35.8],[60.4,35.8],[60.4,35.9],[60.3,35.9],[60.3,36.0],[60.2,36.0],[60.2,36.1]]]},"properties":{"tile_id":"51","start_year":1891,"end_year":1910,"source_image":"data/raw/toolbay/t/51/1891.png","source_url":"https://www.toolbay.cc/history-map/t/51/1891.png","source_color":"#00ffff","polity_id":null,"polity_assignment":"unverified","geometry_origin":"raster_color_trace","pixel_size_degrees":0.1,"source_color_pixels":14645,"simplification_degrees":0}},{"type":"Feature","id":"51:1891:#990099","bbox":[60.0,35.2,79.2,45.0],"geometry":{"type":"MultiPolygon","coordinates":[[[[60.0,40.8],[60.0,36.2],[60.0,36.1],[60.2,36.1],[60.2,36.0],[60.3,36.0],[60.3,35.9],[60.4,35.9],[60.4,35.8],[60.6,35.8],[60.6,35.7],[60.7,35.7],[60.7,35.5],[60.8,35.5],[60.8,35.4],[60.9,35.4],[60.9,35.3],[61.0,35.3],[61.0,35.2],[61.2,35.2],[61.2,35.3],[61.3,35.3],[61.3,35.4],[61.4,35.4],[61.4,35.5],[61.7,35.5],[61.7,35.6],[61.9,35.6],[61.9,35.7],[62.1,35.7],[62.1,35.8],[62.4,35.8],[62.4,35.9],[62.7,35.9],[62.7,36.0],[62.9,36.0],[62.9,36.1],[63.1,36.1],[63.1,36.2],[63.4,36.2],[63.4,36.3],[63.6,36.3],[63.6,36.4],[63.9,36.4],[63.9,36.5],[64.1,36.5],[64.1,36.6],[64.5,36.6],[64.5,36.7],[64.7,36.7],[64.7,36.8],[64.9,36.8],[64.9,36.9],[65.3,36.9],[65.3,37.0],[65.7,37.0],[65.7,37.1],[66.1,37.1],[66.1,37.2],[66.7,37.2],[66.7,37.3],[67.1,37.3],[67.1,37.5],[67.0,37.5],[67.0,37.6],[66.9,37.6],[66.9,37.7],[66.7,37.7],[66.7,37.8],[66.5,37.8],[66.5,37.9],[65.6,37.9],[65.6,38.0],[65.2,38.0],[65.2,38.1],[65.1,38.1],[65.1,38.2],[65.0,38.2],[65.0,38.4],[64.8,38.4],[64.8,38.5],[64.6,38.5],[64.6,38.6],[64.4,38.6],[64.4,38.7],[64.2,38.7],[64.2,38.8],[64.0,38.8],[64.0,38.9],[63.9,38.9],[63.9,39.0],[63.7,39.0],[63.7,39.1],[63.5,39.1],[63.5,39.2],[63.2,39.2],[63.2,39.3],[62.8,39.3],[62.8,39.4],[62.5,39.4],[62.5,39.5],[62.3,39.5],[62.3,39.6],[62.2,39.6],[62.2,39.7],[62.1,39.7],[62.1,39.8],[61.9,39.8],[61.9,39.9],[61.8,39.9],[61.8,40.0],[61.7,40.0],[61.7,40.1],[61.6,40.1],[61.6,40.2],[61.5,40.2],[61.5,40.3],[61.3,40.3],[61.3,40.4],[60.8,40.4],[60.8,40.5],[60.7,40.5],[60.7,40.6],[60.4,40.6],[60.4,40.7],[60.2,40.7],[60.2,40.8],[60.0,40.8]]],[[[60.1,43.9],[60.1,43.8],[60.0,43.8],[60.0,42.7],[60.1,42.7],[60.1,42.6],[60.3,42.6],[60.3,42.5],[60.6,42.5],[60.6,42.4],[60.9,42.4],[60.9,42.3],[61.0,42.3],[61.0,42.2],[61.2,42.2],[61.2,42.1],[61.3,42.1],[61.3,42.0],[61.4,42.0],[61.4,41.9],[61.5,41.9],[61.5,41.7],[61.6,41.7],[61.6,41.6],[61.7,41.6],[61.7,41.4],[61.8,41.4],[61.8,41.3],[62.0,41.3],[62.0,41.1],[62.4,41.1],[62.4,41.2],[63.8,41.2],[63.8,41.3],[64.7,41.3],[64.7,41.2],[65.1,41.2],[65.1,41.1],[65.3,41.1],[65.3,41.0],[65.4,41.0],[65.4,40.9],[65.6,40.9],[65.6,40.8],[65.8,40.8],[65.8,40.7],[65.9,40.7],[65.9,40.6],[66.0,40.6],[66.0,40.5],[66.1,40.5],[66.1,40.4],[66.2,40.4],[66.2,40.3],[66.4,40.3],[66.4,40.2],[66.5,40.2],[66.5,40.1],[66.8,40.1],[66.8,40.0],[67.0,40.0],[67.0,39.9],[67.2,39.9],[67.2,39.8],[67.5,39.8],[67.5,39.7],[67.7,39.7],[67.7,39.6],[68.0,39.6],[68.0,39.5],[68.2,39.5],[68.2,39.4],[68.6,39.4],[68.6,39.3],[69.0,39.3],[69.0,39.2],[69.6,39.2],[69.6,39.1],[70.3,39.1],[70.3,39.0],[71.3,39.0],[71.3,38.9],[72.6,38.9],[72.6,38.8],[73.1,38.8],[73.1,38.7],[73.3,38.7],[73.3,38.6],[73.4,38.6],[73.4,38.4],[73.5,38.4],[73.5,38.1],[73.6,38.1],[73.6,37.3],[73.5,37.3],[73.5,37.2],[73.6,37.2],[73.6,36.4],[73.7,36.4],[73.7,36.3],[74.6,36.3],[74.6,36.4],[74.7,36.4],[74.7,36.5],[74.8,36.5],[74.8,36.6],[74.9,36.6],[74.9,36.7],[75.1,36.7],[75.1,36.8],[75.3,36.8],[75.3,36.9],[75.5,36.9],[75.5,37.0],[75.7,37.0],[75.7,37.1],[76.0,37.1],[76.0,37.2],[76.4,37.2],[76.4,37.3],[76.2,37.3],[76.2,37.5],[76.1,37.5],[76.1,37.9],[76.0,37.9],[76.0,38.1],[75.9,38.1],[75.9,38.3],[75.8,38.3],[75.8,38.4],[75.6,38.4],[75.6,38.5],[75.5,38.5],[75.5,38.6],[75.4,38.6],[75.4,38.7],[75.3,38.7],[75.3,38.8],[75.2,38.8],[75.2,38.9],[75.1,38.9],[75.1,39.0],[74.9,39.0],[74.9,39.1],[74.7,39.1],[74.7,39.2],[74.5,39.2],[74.5,39.4],[74.4,39.4],[74.4,39.5],[74.3,39.5],[74.3,39.7],[74.2,39.7],[74.2,39.8],[74.1,39.8],[74.1,41.1],[74.2,41.1],[74.2,41.2],[74.3,41.2],[74.3,41.5],[74.4,41.5],[74.4,41.6],[74.5,41.6],[74.5,41.7],[74.9,41.7],[74.9,41.8],[75.1,41.8],[75.1,41.9],[75.9,41.9],[75.9,42.0],[76.4,42.0],[76.4,42.1],[76.7,42.1],[76.7,42.2],[76.8,42.2],[76.8,42.3],[77.0,42.3],[77.0,42.4],[77.2,42.4],[77.2,42.5],[77.3,42.5],[77.3,42.6],[77.5,42.6],[77.5,42.7],[77.6,42.7],[77.6,42.8],[77.7,42.8],[77.7,42.9],[77.8,42.9],[77.8,43.0],[77.9,43.0],[77.9,43.1],[78.0,43.1],[78.0,43.2],[78.1,43.2],[78.1,43.3],[78.2,43.3],[78.2,43.4],[78.3,43.4],[78.3,43.5],[78.4,43.5],[78.4,43.6],[78.5,43.6],[78.5,43.7],[78.7,43.7],[78.7,43.8],[78.8,43.8],[78.8,43.9],[78.9,43.9],[78.9,44.0],[79.0,44.0],[79.0,44.1],[79.1,44.1],[79.1,44.3],[79.2,44.3],[79.2,44.7],[79.1,44.7],[79.1,45.0],[73.1,45.0],[73.1,44.9],[73.0,44.9],[73.0,44.6],[72.9,44.6],[72.9,44.5],[72.8,44.5],[72.8,44.4],[72.6,44.4],[72.6,44.3],[71.1,44.3],[71.1,44.2],[70.9,44.2],[70.9,44.1],[70.6,44.1],[70.6,44.0],[70.1,44.0],[70.1,43.9],[69.7,43.9],[69.7,43.8],[68.7,43.8],[68.7,43.9],[67.6,43.9],[67.6,44.0],[67.0,44.0],[67.0,44.1],[66.3,44.1],[66.3,44.2],[65.7,44.2],[65.7,44.3],[65.2,44.3],[65.2,44.4],[64.8,44.4],[64.8,44.5],[64.4,44.5],[64.4,44.6],[64.1,44.6],[64.1,44.7],[63.7,44.7],[63.7,44.8],[63.4,44.8],[63.4,44.9],[62.9,44.9],[62.9,45.0],[61.4,45.0],[61.4,44.9],[61.3,44.9],[61.3,44.8],[61.1,44.8],[61.1,44.7],[61.0,44.7],[61.0,44.5],[60.9,44.5],[60.9,44.3],[60.8,44.3],[60.8,44.2],[60.6,44.2],[60.6,44.1],[60.3,44.1],[60.3,44.0],[60.2,44.0],[60.2,43.9],[60.1,43.9]]]]},"properties":{"tile_id":"51","start_year":1891,"end_year":1910,"source_image":"data/raw/toolbay/t/51/1891.png","source_url":"https://www.toolbay.cc/history-map/t/51/1891.png","source_color":"#990099","polity_id":null,"polity_assignment":"unverified","geometry_origin":"raster_color_trace","pixel_size_degrees":0.1,"source_color_pixels":14703,"simplification_degrees":0}},{"type":"Feature","id":"51:1891:#9999ff","bbox":[79.6,27.2,87.0,30.7],"geometry":{"type":"Polygon","coordinates":[[[81.0,30.7],[80.1,30.7],[80.1,30.4],[80.0,30.4],[80.0,30.3],[79.9,30.3],[79.9,30.2],[79.8,30.2],[79.8,30.0],[79.7,30.0],[79.7,29.8],[79.6,29.8],[79.6,29.4],[79.9,29.4],[79.9,29.3],[80.1,29.3],[80.1,29.2],[80.2,29.2],[80.2,29.1],[80.3,29.1],[80.3,29.0],[80.4,29.0],[80.4,28.9],[80.5,28.9],[80.5,28.8],[80.7,28.8],[80.7,28.7],[81.0,28.7],[81.0,28.6],[81.2,28.6],[81.2,28.5],[81.6,28.5],[81.6,28.4],[81.8,28.4],[81.8,28.3],[82.0,28.3],[82.0,28.2],[82.3,28.2],[82.3,28.1],[82.6,28.1],[82.6,28.0],[82.8,28.0],[82.8,27.9],[83.2,27.9],[83.2,27.8],[84.1,27.8],[84.1,27.7],[84.8,27.7],[84.8,27.6],[85.2,27.6],[85.2,27.5],[85.5,27.5],[85.5,27.4],[86.1,27.4],[86.1,27.3],[86.4,27.3],[86.4,27.2],[86.6,27.2],[86.6,27.4],[86.7,27.4],[86.7,27.8],[86.8,27.8],[86.8,28.0],[86.9,28.0],[86.9,28.4],[87.0,28.4],[87.0,28.5],[86.6,28.5],[86.6,28.6],[86.3,28.6],[86.3,28.7],[85.9,28.7],[85.9,28.8],[85.7,28.8],[85.7,28.9],[85.5,28.9],[85.5,29.0],[85.3,29.0],[85.3,29.1],[85.1,29.1],[85.1,29.2],[84.9,29.2],[84.9,29.3],[84.4,29.3],[84.4,29.4],[84.1,29.4],[84.1,29.5],[83.8,29.5],[83.8,29.6],[83.2,29.6],[83.2,29.7],[82.8,29.7],[82.8,29.8],[82.5,29.8],[82.5,29.9],[82.2,29.9],[82.2,30.0],[82.0,30.0],[82.0,30.1],[81.8,30.1],[81.8,30.2],[81.7,30.2],[81.7,30.3],[81.5,30.3],[81.5,30.4],[81.4,30.4],[81.4,30.5],[81.1,30.5],[81.1,30.6],[81.0,30.6],[81.0,30.7]]]},"properties":{"tile_id":"51","start_year":1891,"end_year":1910,"source_image":"data/raw/toolbay/t/51/1891.png","source_url":"https://www.toolbay.cc/history-map/t/51/1891.png","source_color":"#9999ff","polity_id":null,"polity_assignment":"unverified","geometry_origin":"raster_color_trace","pixel_size_degrees":0.1,"source_color_pixels":2861,"simplification_degrees":0}},{"type":"Feature","id":"51:1891:#ff0000","bbox":[61.5,37.1,73.6,41.3],"geometry":{"type":"Polygon","coordinates":[[[62.0,41.3],[61.8,41.3],[61.8,41.2],[61.7,41.2],[61.7,40.8],[61.6,40.8],[61.6,40.4],[61.5,40.4],[61.5,40.2],[61.6,40.2],[61.6,40.1],[61.7,40.1],[61.7,40.0],[61.8,40.0],[61.8,39.9],[61.9,39.9],[61.9,39.8],[62.1,39.8],[62.1,39.7],[62.2,39.7],[62.2,39.6],[62.3,39.6],[62.3,39.5],[62.5,39.5],[62.5,39.4],[62.8,39.4],[62.8,39.3],[63.2,39.3],[63.2,39.2],[63.5,39.2],[63.5,39.1],[63.7,39.1],[63.7,39.0],[63.9,39.0],[63.9,38.9],[64.0,38.9],[64.0,38.8],[64.2,38.8],[64.2,38.7],[64.4,38.7],[64.4,38.6],[64.6,38.6],[64.6,38.5],[64.8,38.5],[64.8,38.4],[65.0,38.4],[65.0,38.2],[65.1,38.2],[65.1,38.1],[65.2,38.1],[65.2,38.0],[65.6,38.0],[65.6,37.9],[66.5,37.9],[66.5,37.8],[66.7,37.8],[66.7,37.7],[66.9,37.7],[66.9,37.6],[67.0,37.6],[67.0,37.5],[67.1,37.5],[67.1,37.4],[67.8,37.4],[67.8,37.5],[68.1,37.5],[68.1,37.4],[71.1,37.4],[71.1,37.3],[72.0,37.3],[72.0,37.2],[72.6,37.2],[72.6,37.1],[72.9,37.1],[72.9,37.2],[73.4,37.2],[73.4,37.3],[73.6,37.3],[73.6,38.1],[73.5,38.1],[73.5,38.4],[73.4,38.4],[73.4,38.6],[73.3,38.6],[73.3,38.7],[73.1,38.7],[73.1,38.8],[72.6,38.8],[72.6,38.9],[71.3,38.9],[71.3,39.0],[70.3,39.0],[70.3,39.1],[69.6,39.1],[69.6,39.2],[69.0,39.2],[69.0,39.3],[68.6,39.3],[68.6,39.4],[68.2,39.4],[68.2,39.5],[68.0,39.5],[68.0,39.6],[67.7,39.6],[67.7,39.7],[67.5,39.7],[67.5,39.8],[67.2,39.8],[67.2,39.9],[67.0,39.9],[67.0,40.0],[66.8,40.0],[66.8,40.1],[66.5,40.1],[66.5,40.2],[66.4,40.2],[66.4,40.3],[66.2,40.3],[66.2,40.4],[66.1,40.4],[66.1,40.5],[66.0,40.5],[66.0,40.6],[65.9,40.6],[65.9,40.7],[65.8,40.7],[65.8,40.8],[65.6,40.8],[65.6,40.9],[65.4,40.9],[65.4,41.0],[65.3,41.0],[65.3,41.1],[65.1,41.1],[65.1,41.2],[64.7,41.2],[64.7,41.3],[63.8,41.3],[63.8,41.2],[62.4,41.2],[62.4,41.1],[62.0,41.1],[62.0,41.3]]]},"properties":{"tile_id":"51","start_year":1891,"end_year":1910,"source_image":"data/raw/toolbay/t/51/1891.png","source_url":"https://www.toolbay.cc/history-map/t/51/1891.png","source_color":"#ff0000","polity_id":null,"polity_assignment":"unverified","geometry_origin":"raster_color_trace","pixel_size_degrees":0.1,"source_color_pixels":5815,"simplification_degrees":0}},{"type":"Feature","id":"51:1891:#ff66ff","bbox":[62.9,43.8,73.1,45.0],"geometry":{"type":"Polygon","coordinates":[[[73.1,45.0],[62.9,45.0],[62.9,44.9],[63.4,44.9],[63.4,44.8],[63.7,44.8],[63.7,44.7],[64.1,44.7],[64.1,44.6],[64.4,44.6],[64.4,44.5],[64.8,44.5],[64.8,44.4],[65.2,44.4],[65.2,44.3],[65.7,44.3],[65.7,44.2],[66.3,44.2],[66.3,44.1],[67.0,44.1],[67.0,44.0],[67.6,44.0],[67.6,43.9],[68.7,43.9],[68.7,43.8],[69.7,43.8],[69.7,43.9],[70.1,43.9],[70.1,44.0],[70.6,44.0],[70.6,44.1],[70.9,44.1],[70.9,44.2],[71.1,44.2],[71.1,44.3],[72.6,44.3],[72.6,44.4],[72.8,44.4],[72.8,44.5],[72.9,44.5],[72.9,44.6],[73.0,44.6],[73.0,44.9],[73.1,44.9],[73.1,45.0]]]},"properties":{"tile_id":"51","start_year":1891,"end_year":1910,"source_image":"data/raw/toolbay/t/51/1891.png","source_url":"https://www.toolbay.cc/history-map/t/51/1891.png","source_color":"#ff66ff","polity_id":null,"polity_assignment":"unverified","geometry_origin":"raster_color_trace","pixel_size_degrees":0.1,"source_color_pixels":2844,"simplification_degrees":0}},{"type":"Feature","id":"51:1891:#ff9933","bbox":[74.1,36.5,90.0,45.0],"geometry":{"type":"Polygon","coordinates":[[[90.0,45.0],[79.1,45.0],[79.1,44.7],[79.2,44.7],[79.2,44.3],[79.1,44.3],[79.1,44.1],[79.0,44.1],[79.0,44.0],[78.9,44.0],[78.9,43.9],[78.8,43.9],[78.8,43.8],[78.7,43.8],[78.7,43.7],[78.5,43.7],[78.5,43.6],[78.4,43.6],[78.4,43.5],[78.3,43.5],[78.3,43.4],[78.2,43.4],[78.2,43.3],[78.1,43.3],[78.1,43.2],[78.0,43.2],[78.0,43.1],[77.9,43.1],[77.9,43.0],[77.8,43.0],[77.8,42.9],[77.7,42.9],[77.7,42.8],[77.6,42.8],[77.6,42.7],[77.5,42.7],[77.5,42.6],[77.3,42.6],[77.3,42.5],[77.2,42.5],[77.2,42.4],[77.0,42.4],[77.0,42.3],[76.8,42.3],[76.8,42.2],[76.7,42.2],[76.7,42.1],[76.4,42.1],[76.4,42.0],[75.9,42.0],[75.9,41.9],[75.1,41.9],[75.1,41.8],[74.9,41.8],[74.9,41.7],[74.5,41.7],[74.5,41.6],[74.4,41.6],[74.4,41.5],[74.3,41.5],[74.3,41.2],[74.2,41.2],[74.2,41.1],[74.1,41.1],[74.1,39.8],[74.2,39.8],[74.2,39.7],[74.3,39.7],[74.3,39.5],[74.4,39.5],[74.4,39.4],[74.5,39.4],[74.5,39.2],[74.7,39.2],[74.7,39.1],[74.9,39.1],[74.9,39.0],[75.1,39.0],[75.1,38.9],[75.2,38.9],[75.2,38.8],[75.3,38.8],[75.3,38.7],[75.4,38.7],[75.4,38.6],[75.5,38.6],[75.5,38.5],[75.6,38.5],[75.6,38.4],[75.8,38.4],[75.8,38.3],[75.9,38.3],[75.9,38.1],[76.0,38.1],[76.0,37.9],[76.1,37.9],[76.1,37.5],[76.2,37.5],[76.2,37.3],[76.8,37.3],[76.8,37.2],[77.4,37.2],[77.4,37.1],[77.7,37.1],[77.7,37.2],[77.8,37.2],[77.8,37.1],[77.9,37.1],[77.9,37.0],[78.2,37.0],[78.2,36.9],[78.4,36.9],[78.4,36.8],[78.8,36.8],[78.8,36.7],[79.2,36.7],[79.2,36.6],[79.7,36.6],[79.7,36.5],[80.0,36.5],[80.0,36.6],[80.3,36.6],[80.3,36.7],[80.5,36.7],[80.5,36.8],[81.3,36.8],[81.3,36.9],[81.6,36.9],[81.6,37.0],[81.7,37.0],[81.7,37.1],[81.9,37.1],[81.9,37.2],[82.1,37.2],[82.1,37.3],[82.2,37.3],[82.2,37.4],[82.4,37.4],[82.4,37.5],[82.7,37.5],[82.7,37.6],[82.9,37.6],[82.9,37.7],[83.3,37.7],[83.3,37.8],[83.4,37.8],[83.4,37.9],[83.6,37.9],[83.6,38.0],[83.8,38.0],[83.8,38.1],[84.1,38.1],[84.1,38.2],[84.6,38.2],[84.6,38.3],[84.8,38.3],[84.8,38.2],[85.3,38.2],[85.3,38.3],[85.8,38.3],[85.8,38.4],[86.1,38.4],[86.1,38.5],[86.7,38.5],[86.7,38.6],[88.2,38.6],[88.2,38.7],[88.7,38.7],[88.7,38.8],[89.1,38.8],[89.1,38.9],[89.6,38.9],[89.6,39.0],[89.9,39.0],[89.9,39.1],[90.0,39.1],[90.0,45.0]]]},"properties":{"tile_id":"51","start_year":1891,"end_year":1910,"source_image":"data/raw/toolbay/t/51/1891.png","source_url":"https://www.toolbay.cc/history-map/t/51/1891.png","source_color":"#ff9933","polity_id":null,"polity_assignment":"unverified","geometry_origin":"raster_color_trace","pixel_size_degrees":0.1,"source_color_pixels":10039,"simplification_degrees":0}},{"type":"Feature","id":"51:1891:#ffff00","bbox":[79.3,27.6,90.0,39.1],"geometry":{"type":"Polygon","coordinates":[[[90.0,39.1],[89.9,39.1],[89.9,39.0],[89.6,39.0],[89.6,38.9],[89.1,38.9],[89.1,38.8],[88.7,38.8],[88.7,38.7],[88.2,38.7],[88.2,38.6],[86.7,38.6],[86.7,38.5],[86.1,38.5],[86.1,38.4],[85.8,38.4],[85.8,38.3],[85.3,38.3],[85.3,38.2],[84.8,38.2],[84.8,38.3],[84.6,38.3],[84.6,38.2],[84.1,38.2],[84.1,38.1],[83.8,38.1],[83.8,38.0],[83.6,38.0],[83.6,37.9],[83.4,37.9],[83.4,37.8],[83.3,37.8],[83.3,37.7],[82.9,37.7],[82.9,37.6],[82.7,37.6],[82.7,37.5],[82.4,37.5],[82.4,37.4],[82.2,37.4],[82.2,37.3],[82.1,37.3],[82.1,37.2],[81.9,37.2],[81.9,37.1],[81.7,37.1],[81.7,37.0],[81.6,37.0],[81.6,36.9],[81.3,36.9],[81.3,36.8],[80.5,36.8],[80.5,36.7],[80.3,36.7],[80.3,36.6],[80.0,36.6],[80.0,36.5],[79.8,36.5],[79.8,36.0],[79.9,36.0],[79.9,35.8],[80.0,35.8],[80.0,35.1],[79.9,35.1],[79.9,34.5],[79.8,34.5],[79.8,33.9],[79.7,33.9],[79.7,33.5],[79.6,33.5],[79.6,33.0],[79.3,33.0],[79.3,32.1],[79.4,32.1],[79.4,31.9],[79.5,31.9],[79.5,31.7],[79.6,31.7],[79.6,31.6],[79.7,31.6],[79.7,31.5],[79.8,31.5],[79.8,31.4],[79.9,31.4],[79.9,31.3],[80.0,31.3],[80.0,31.0],[80.1,31.0],[80.1,30.7],[81.0,30.7],[81.0,30.6],[81.1,30.6],[81.1,30.5],[81.4,30.5],[81.4,30.4],[81.5,30.4],[81.5,30.3],[81.7,30.3],[81.7,30.2],[81.8,30.2],[81.8,30.1],[82.0,30.1],[82.0,30.0],[82.2,30.0],[82.2,29.9],[82.5,29.9],[82.5,29.8],[82.8,29.8],[82.8,29.7],[83.2,29.7],[83.2,29.6],[83.8,29.6],[83.8,29.5],[84.1,29.5],[84.1,29.4],[84.4,29.4],[84.4,29.3],[84.9,29.3],[84.9,29.2],[85.1,29.2],[85.1,29.1],[85.3,29.1],[85.3,29.0],[85.5,29.0],[85.5,28.9],[85.7,28.9],[85.7,28.8],[85.9,28.8],[85.9,28.7],[86.3,28.7],[86.3,28.6],[86.6,28.6],[86.6,28.5],[87.1,28.5],[87.1,28.4],[87.3,28.4],[87.3,28.3],[87.6,28.3],[87.6,28.2],[88.0,28.2],[88.0,28.1],[88.3,28.1],[88.3,28.0],[88.6,28.0],[88.6,27.9],[88.8,27.9],[88.8,27.8],[89.0,27.8],[89.0,27.7],[89.3,27.7],[89.3,27.6],[90.0,27.6],[90.0,39.1]]]},"properties":{"tile_id":"51","start_year":1891,"end_year":1910,"source_image":"data/raw/toolbay/t/51/1891.png","source_url":"https://www.toolbay.cc/history-map/t/51/1891.png","source_color":"#ffff00","polity_id":null,"polity_assignment":"unverified","geometry_origin":"raster_color_trace","pixel_size_degrees":0.1,"source_color_pixels":9056,"simplification_degrees":0}}]}
