{"type":"FeatureCollection","features":[{"type":"Feature","id":"51:350:#009900","bbox":[60.0,15.1,81.8,45.0],"geometry":{"type":"MultiPolygon","coordinates":[[[[75.1,22.0],[75.1,22.1],[74.2,22.1],[74.2,22.0],[73.4,22.0],[73.4,21.9],[73.0,21.9],[73.0,21.8],[72.6,21.8],[72.6,21.1],[72.7,21.1],[72.7,21.0],[72.8,21.0],[72.8,20.8],[72.9,20.8],[72.9,20.5],[72.8,20.5],[72.8,20.3],[72.7,20.3],[72.7,19.5],[72.8,19.5],[72.8,18.9],[72.9,18.9],[72.9,18.3],[73.0,18.3],[73.0,18.0],[73.1,18.0],[73.1,17.6],[73.2,17.6],[73.2,17.2],[73.3,17.2],[73.3,16.5],[73.4,16.5],[73.4,16.2],[73.5,16.2],[73.5,16.0],[73.6,16.0],[73.6,15.9],[73.7,15.9],[73.7,15.8],[74.0,15.8],[74.0,15.7],[74.2,15.7],[74.2,15.6],[74.7,15.6],[74.7,15.5],[75.0,15.5],[75.0,15.4],[75.2,15.4],[75.2,15.3],[75.6,15.3],[75.6,15.2],[75.9,15.2],[75.9,15.1],[77.7,15.1],[77.7,15.2],[78.0,15.2],[78.0,15.3],[78.5,15.3],[78.5,15.4],[78.9,15.4],[78.9,15.5],[79.5,15.5],[79.5,15.6],[79.4,15.6],[79.4,16.0],[79.3,16.0],[79.3,16.8],[79.4,16.8],[79.4,17.3],[79.5,17.3],[79.5,17.5],[79.6,17.5],[79.6,17.7],[79.7,17.7],[79.7,17.8],[79.8,17.8],[79.8,17.9],[79.9,17.9],[79.9,18.0],[80.0,18.0],[80.0,18.2],[80.1,18.2],[80.1,18.3],[80.2,18.3],[80.2,18.4],[80.4,18.4],[80.4,18.5],[80.5,18.5],[80.5,18.6],[80.6,18.6],[80.6,18.7],[80.8,18.7],[80.8,18.8],[80.9,18.8],[80.9,18.9],[81.1,18.9],[81.1,19.0],[81.3,19.0],[81.3,19.1],[81.4,19.1],[81.4,19.2],[81.8,19.2],[81.8,19.3],[81.7,19.3],[81.7,19.4],[81.5,19.4],[81.5,19.5],[81.3,19.5],[81.3,19.6],[81.1,19.6],[81.1,19.7],[81.0,19.7],[81.0,19.8],[80.9,19.8],[80.9,19.9],[80.7,19.9],[80.7,20.0],[80.5,20.0],[80.5,20.1],[80.2,20.1],[80.2,20.2],[80.0,20.2],[80.0,20.3],[79.8,20.3],[79.8,20.4],[79.5,20.4],[79.5,20.5],[79.3,20.5],[79.3,20.6],[79.1,20.6],[79.1,20.7],[78.9,20.7],[78.9,20.8],[78.7,20.8],[78.7,20.9],[78.6,20.9],[78.6,21.0],[78.5,21.0],[78.5,21.1],[78.4,21.1],[78.4,21.2],[78.2,21.2],[78.2,21.3],[78.1,21.3],[78.1,21.4],[77.9,21.4],[77.9,21.5],[77.8,21.5],[77.8,21.6],[77.6,21.6],[77.6,21.7],[76.8,21.7],[76.8,21.8],[76.4,21.8],[76.4,21.9],[76.0,21.9],[76.0,22.0],[75.1,22.0]]],[[[60.1,43.9],[60.1,43.8],[60.0,43.8],[60.0,41.8],[60.1,41.8],[60.1,41.7],[60.4,41.7],[60.4,41.6],[60.6,41.6],[60.6,41.5],[60.8,41.5],[60.8,41.4],[61.1,41.4],[61.1,41.3],[61.3,41.3],[61.3,41.2],[61.5,41.2],[61.5,41.1],[61.9,41.1],[61.9,41.0],[62.0,41.0],[62.0,40.9],[62.2,40.9],[62.2,40.8],[62.7,40.8],[62.7,40.9],[63.2,40.9],[63.2,41.0],[63.5,41.0],[63.5,41.1],[64.1,41.1],[64.1,41.2],[64.3,41.2],[64.3,41.3],[64.6,41.3],[64.6,41.4],[65.0,41.4],[65.0,41.5],[65.1,41.5],[65.1,41.6],[66.0,41.6],[66.0,41.7],[66.8,41.7],[66.8,41.8],[67.1,41.8],[67.1,41.9],[67.3,41.9],[67.3,42.0],[67.7,42.0],[67.7,42.2],[67.9,42.2],[67.9,42.3],[68.0,42.3],[68.0,42.5],[69.0,42.5],[69.0,42.6],[68.9,42.6],[68.9,42.8],[68.8,42.8],[68.8,43.2],[68.7,43.2],[68.7,43.8],[68.6,43.8],[68.6,44.3],[68.7,44.3],[68.7,44.7],[68.8,44.7],[68.8,44.8],[69.4,44.8],[69.4,44.9],[69.6,44.9],[69.6,44.8],[69.9,44.8],[69.9,44.7],[70.5,44.7],[70.5,44.6],[71.1,44.6],[71.1,44.5],[71.6,44.5],[71.6,44.4],[72.9,44.4],[72.9,44.5],[73.0,44.5],[73.0,44.6],[73.2,44.6],[73.2,44.7],[73.4,44.7],[73.4,44.8],[73.6,44.8],[73.6,44.9],[74.0,44.9],[74.0,45.0],[61.4,45.0],[61.4,44.9],[61.3,44.9],[61.3,44.8],[61.1,44.8],[61.1,44.7],[61.0,44.7],[61.0,44.5],[60.9,44.5],[60.9,44.3],[60.8,44.3],[60.8,44.2],[60.6,44.2],[60.6,44.1],[60.3,44.1],[60.3,44.0],[60.2,44.0],[60.2,43.9],[60.1,43.9]]]]},"properties":{"tile_id":"51","start_year":350,"end_year":360,"source_image":"data/raw/toolbay/t/51/350.png","source_url":"https://www.toolbay.cc/history-map/t/51/350.png","source_color":"#009900","polity_id":null,"polity_assignment":"unverified","geometry_origin":"raster_color_trace","pixel_size_degrees":0.1,"source_color_pixels":8247,"simplification_degrees":0}},{"type":"Feature","id":"51:350:#00ff00","bbox":[60.0,10.3,81.7,41.8],"geometry":{"type":"MultiPolygon","coordinates":[[[[74.0,15.7],[74.0,15.8],[73.7,15.8],[73.7,15.6],[73.8,15.6],[73.8,15.4],[73.9,15.4],[73.9,15.1],[74.0,15.1],[74.0,15.0],[74.1,15.0],[74.1,14.9],[74.2,14.9],[74.2,14.7],[74.3,14.7],[74.3,14.5],[74.4,14.5],[74.4,14.3],[74.5,14.3],[74.5,14.0],[74.6,14.0],[74.6,13.7],[74.7,13.7],[74.7,13.6],[75.0,13.6],[75.0,13.5],[75.4,13.5],[75.4,13.4],[75.8,13.4],[75.8,13.3],[75.9,13.3],[75.9,13.2],[76.0,13.2],[76.0,13.1],[76.1,13.1],[76.1,13.0],[76.2,13.0],[76.2,12.9],[76.3,12.9],[76.3,12.8],[76.5,12.8],[76.5,12.7],[76.6,12.7],[76.6,12.6],[76.7,12.6],[76.7,12.5],[76.8,12.5],[76.8,12.4],[76.9,12.4],[76.9,12.3],[77.0,12.3],[77.0,12.2],[77.2,12.2],[77.2,12.1],[77.3,12.1],[77.3,12.0],[77.4,12.0],[77.4,11.9],[77.5,11.9],[77.5,11.7],[77.7,11.7],[77.7,11.6],[77.8,11.6],[77.8,11.4],[77.9,11.4],[77.9,11.3],[78.0,11.3],[78.0,11.2],[78.1,11.2],[78.1,11.1],[78.2,11.1],[78.2,10.9],[78.4,10.9],[78.4,10.8],[78.5,10.8],[78.5,10.7],[78.6,10.7],[78.6,10.6],[78.8,10.6],[78.8,10.5],[79.4,10.5],[79.4,10.4],[79.6,10.4],[79.6,10.3],[79.8,10.3],[79.8,10.4],[79.9,10.4],[79.9,11.5],[79.8,11.5],[79.8,11.9],[79.9,11.9],[79.9,12.2],[80.0,12.2],[80.0,12.3],[80.1,12.3],[80.1,12.5],[80.2,12.5],[80.2,12.7],[80.3,12.7],[80.3,13.1],[80.4,13.1],[80.4,13.6],[80.3,13.6],[80.3,14.0],[80.2,14.0],[80.2,14.9],[80.1,14.9],[80.1,15.4],[79.9,15.4],[79.9,15.5],[78.9,15.5],[78.9,15.4],[78.5,15.4],[78.5,15.3],[78.0,15.3],[78.0,15.2],[77.7,15.2],[77.7,15.1],[75.9,15.1],[75.9,15.2],[75.6,15.2],[75.6,15.3],[75.2,15.3],[75.2,15.4],[75.0,15.4],[75.0,15.5],[74.7,15.5],[74.7,15.6],[74.2,15.6],[74.2,15.7],[74.0,15.7]]],[[[75.7,31.1],[75.5,31.1],[75.5,31.2],[75.1,31.2],[75.1,31.1],[75.0,31.1],[75.0,30.6],[74.9,30.6],[74.9,30.5],[74.8,30.5],[74.8,30.4],[74.7,30.4],[74.7,30.3],[74.6,30.3],[74.6,30.2],[74.5,30.2],[74.5,30.1],[74.4,30.1],[74.4,30.0],[74.2,30.0],[74.2,29.9],[74.0,29.9],[74.0,29.8],[73.8,29.8],[73.8,29.7],[73.6,29.7],[73.6,29.5],[73.7,29.5],[73.7,29.4],[73.9,29.4],[73.9,29.3],[74.2,29.3],[74.2,29.2],[74.4,29.2],[74.4,29.1],[74.6,29.1],[74.6,29.0],[74.7,29.0],[74.7,28.9],[74.8,28.9],[74.8,28.8],[75.0,28.8],[75.0,28.7],[75.2,28.7],[75.2,28.6],[75.3,28.6],[75.3,28.5],[75.5,28.5],[75.5,28.4],[75.6,28.4],[75.6,28.2],[75.7,28.2],[75.7,28.1],[75.8,28.1],[75.8,28.0],[76.0,28.0],[76.0,27.9],[76.1,27.9],[76.1,27.7],[76.2,27.7],[76.2,27.6],[76.3,27.6],[76.3,27.5],[76.4,27.5],[76.4,27.4],[76.5,27.4],[76.5,27.3],[76.6,27.3],[76.6,27.1],[76.7,27.1],[76.7,26.8],[76.8,26.8],[76.8,25.9],[76.9,25.9],[76.9,25.7],[77.0,25.7],[77.0,25.5],[77.1,25.5],[77.1,25.3],[77.2,25.3],[77.2,25.2],[77.3,25.2],[77.3,25.0],[77.4,25.0],[77.4,24.9],[77.5,24.9],[77.5,24.8],[77.8,24.8],[77.8,24.7],[79.4,24.7],[79.4,24.8],[79.7,24.8],[79.7,24.9],[79.9,24.9],[79.9,25.1],[80.0,25.1],[80.0,25.2],[80.1,25.2],[80.1,25.3],[80.2,25.3],[80.2,25.5],[80.3,25.5],[80.3,25.7],[80.4,25.7],[80.4,26.1],[80.5,26.1],[80.5,26.3],[80.6,26.3],[80.6,26.5],[80.7,26.5],[80.7,26.8],[80.8,26.8],[80.8,27.1],[80.9,27.1],[80.9,27.3],[81.0,27.3],[81.0,27.4],[81.1,27.4],[81.1,27.7],[81.2,27.7],[81.2,28.1],[81.3,28.1],[81.3,28.3],[81.4,28.3],[81.4,28.6],[81.5,28.6],[81.5,28.7],[81.6,28.7],[81.6,28.8],[81.7,28.8],[81.7,29.0],[81.4,29.0],[81.4,29.1],[81.2,29.1],[81.2,29.2],[80.6,29.2],[80.6,29.3],[80.0,29.3],[80.0,29.4],[79.6,29.4],[79.6,29.5],[79.3,29.5],[79.3,29.6],[79.0,29.6],[79.0,29.7],[78.8,29.7],[78.8,29.8],[78.5,29.8],[78.5,29.9],[78.2,29.9],[78.2,30.0],[77.9,30.0],[77.9,30.1],[77.5,30.1],[77.5,30.2],[77.3,30.2],[77.3,30.3],[76.9,30.3],[76.9,30.4],[76.8,30.4],[76.8,30.5],[76.5,30.5],[76.5,30.6],[76.3,30.6],[76.3,30.7],[76.2,30.7],[76.2,30.8],[76.0,30.8],[76.0,30.9],[75.8,30.9],[75.8,31.0],[75.7,31.0],[75.7,31.1]]],[[[60.4,41.7],[60.1,41.7],[60.1,41.8],[60.0,41.8],[60.0,25.4],[60.7,25.4],[60.7,25.3],[61.1,25.3],[61.1,25.2],[61.3,25.2],[61.3,25.1],[62.0,25.1],[62.0,25.2],[62.5,25.2],[62.5,25.3],[63.6,25.3],[63.6,25.4],[64.2,25.4],[64.2,25.3],[64.8,25.3],[64.8,25.4],[65.0,25.4],[65.0,25.3],[65.2,25.3],[65.2,25.4],[66.0,25.4],[66.0,25.5],[66.1,25.5],[66.1,25.7],[66.2,25.7],[66.2,25.8],[66.3,25.8],[66.3,25.9],[66.4,25.9],[66.4,26.1],[66.5,26.1],[66.5,26.2],[66.6,26.2],[66.6,26.3],[66.7,26.3],[66.7,26.5],[66.8,26.5],[66.8,26.6],[66.9,26.6],[66.9,26.8],[67.0,26.8],[67.0,26.9],[67.1,26.9],[67.1,27.1],[67.2,27.1],[67.2,27.3],[67.3,27.3],[67.3,27.5],[67.4,27.5],[67.4,27.6],[67.5,27.6],[67.5,27.8],[67.6,27.8],[67.6,27.9],[67.7,27.9],[67.7,28.1],[67.8,28.1],[67.8,28.2],[67.9,28.2],[67.9,28.4],[68.0,28.4],[68.0,28.6],[68.1,28.6],[68.1,28.7],[68.2,28.7],[68.2,28.8],[68.3,28.8],[68.3,29.0],[68.4,29.0],[68.4,29.1],[68.6,29.1],[68.6,29.2],[68.7,29.2],[68.7,29.3],[68.8,29.3],[68.8,29.4],[69.0,29.4],[69.0,29.5],[69.1,29.5],[69.1,30.6],[69.0,30.6],[69.0,31.1],[68.9,31.1],[68.9,31.4],[68.8,31.4],[68.8,31.8],[68.7,31.8],[68.7,32.1],[68.6,32.1],[68.6,32.4],[68.5,32.4],[68.5,32.6],[68.4,32.6],[68.4,32.8],[68.3,32.8],[68.3,32.9],[68.2,32.9],[68.2,33.1],[68.1,33.1],[68.1,33.3],[68.0,33.3],[68.0,33.5],[67.9,33.5],[67.9,33.6],[67.8,33.6],[67.8,33.8],[67.7,33.8],[67.7,33.9],[67.6,33.9],[67.6,34.1],[67.5,34.1],[67.5,34.3],[67.4,34.3],[67.4,34.4],[67.3,34.4],[67.3,34.5],[67.2,34.5],[67.2,34.6],[67.1,34.6],[67.1,34.8],[67.0,34.8],[67.0,34.9],[66.9,34.9],[66.9,35.0],[66.8,35.0],[66.8,35.1],[66.7,35.1],[66.7,35.2],[66.6,35.2],[66.6,35.4],[66.5,35.4],[66.5,35.5],[66.4,35.5],[66.4,35.8],[66.3,35.8],[66.3,36.4],[66.2,36.4],[66.2,37.4],[66.3,37.4],[66.3,37.9],[66.4,37.9],[66.4,38.2],[66.5,38.2],[66.5,38.5],[66.6,38.5],[66.6,38.7],[66.7,38.7],[66.7,38.9],[66.8,38.9],[66.8,39.1],[66.9,39.1],[66.9,39.3],[67.0,39.3],[67.0,40.3],[66.9,40.3],[66.9,40.6],[66.8,40.6],[66.8,40.9],[66.7,40.9],[66.7,41.6],[66.6,41.6],[66.6,41.7],[66.0,41.7],[66.0,41.6],[65.1,41.6],[65.1,41.5],[65.0,41.5],[65.0,41.4],[64.6,41.4],[64.6,41.3],[64.3,41.3],[64.3,41.2],[64.1,41.2],[64.1,41.1],[63.5,41.1],[63.5,41.0],[63.2,41.0],[63.2,40.9],[62.7,40.9],[62.7,40.8],[62.2,40.8],[62.2,40.9],[62.0,40.9],[62.0,41.0],[61.9,41.0],[61.9,41.1],[61.5,41.1],[61.5,41.2],[61.3,41.2],[61.3,41.3],[61.1,41.3],[61.1,41.4],[60.8,41.4],[60.8,41.5],[60.6,41.5],[60.6,41.6],[60.4,41.6],[60.4,41.7]]]]},"properties":{"tile_id":"51","start_year":350,"end_year":360,"source_image":"data/raw/toolbay/t/51/350.png","source_url":"https://www.toolbay.cc/history-map/t/51/350.png","source_color":"#00ff00","polity_id":null,"polity_assignment":"unverified","geometry_origin":"raster_color_trace","pixel_size_degrees":0.1,"source_color_pixels":36589,"simplification_degrees":0}},{"type":"Feature","id":"51:350:#00ffff","bbox":[66.1,20.7,78.0,44.9],"geometry":{"type":"MultiPolygon","coordinates":[[[[70.4,29.7],[70.4,29.8],[69.4,29.8],[69.4,29.7],[69.2,29.7],[69.2,29.6],[69.1,29.6],[69.1,29.5],[69.0,29.5],[69.0,29.4],[68.8,29.4],[68.8,29.3],[68.7,29.3],[68.7,29.2],[68.6,29.2],[68.6,29.1],[68.4,29.1],[68.4,29.0],[68.3,29.0],[68.3,28.8],[68.2,28.8],[68.2,28.7],[68.1,28.7],[68.1,28.6],[68.0,28.6],[68.0,28.4],[67.9,28.4],[67.9,28.2],[67.8,28.2],[67.8,28.1],[67.7,28.1],[67.7,27.9],[67.6,27.9],[67.6,27.8],[67.5,27.8],[67.5,27.6],[67.4,27.6],[67.4,27.5],[67.3,27.5],[67.3,27.3],[67.2,27.3],[67.2,27.1],[67.1,27.1],[67.1,26.9],[67.0,26.9],[67.0,26.8],[66.9,26.8],[66.9,26.6],[66.8,26.6],[66.8,26.5],[66.7,26.5],[66.7,26.3],[66.6,26.3],[66.6,26.2],[66.5,26.2],[66.5,26.1],[66.4,26.1],[66.4,25.9],[66.3,25.9],[66.3,25.8],[66.2,25.8],[66.2,25.7],[66.1,25.7],[66.1,25.5],[66.5,25.5],[66.5,25.4],[66.6,25.4],[66.6,25.3],[66.7,25.3],[66.7,25.0],[66.8,25.0],[66.8,24.9],[67.0,24.9],[67.0,24.8],[67.1,24.8],[67.1,24.7],[67.2,24.7],[67.2,24.5],[67.3,24.5],[67.3,24.2],[67.4,24.2],[67.4,24.1],[67.5,24.1],[67.5,23.9],[67.6,23.9],[67.6,23.8],[68.1,23.8],[68.1,23.7],[68.2,23.7],[68.2,23.6],[68.3,23.6],[68.3,23.5],[68.4,23.5],[68.4,23.4],[68.5,23.4],[68.5,23.3],[68.6,23.3],[68.6,23.2],[68.7,23.2],[68.7,23.1],[68.9,23.1],[68.9,23.0],[69.1,23.0],[69.1,22.9],[69.5,22.9],[69.5,22.8],[69.8,22.8],[69.8,22.9],[70.1,22.9],[70.1,22.8],[70.2,22.8],[70.2,22.7],[70.1,22.7],[70.1,22.6],[69.6,22.6],[69.6,22.5],[69.1,22.5],[69.1,22.4],[69.0,22.4],[69.0,22.2],[69.1,22.2],[69.1,22.1],[69.2,22.1],[69.2,22.0],[69.3,22.0],[69.3,21.9],[69.4,21.9],[69.4,21.8],[69.5,21.8],[69.5,21.7],[69.6,21.7],[69.6,21.6],[69.7,21.6],[69.7,21.5],[69.8,21.5],[69.8,21.4],[69.9,21.4],[69.9,21.3],[70.0,21.3],[70.0,21.2],[70.1,21.2],[70.1,21.1],[70.2,21.1],[70.2,21.0],[70.4,21.0],[70.4,20.9],[70.5,20.9],[70.5,20.8],[70.8,20.8],[70.8,20.7],[71.0,20.7],[71.0,20.8],[71.3,20.8],[71.3,20.9],[71.5,20.9],[71.5,21.0],[71.7,21.0],[71.7,21.1],[71.9,21.1],[71.9,21.2],[72.1,21.2],[72.1,21.3],[72.2,21.3],[72.2,21.5],[72.3,21.5],[72.3,22.0],[72.5,22.0],[72.5,21.8],[73.0,21.8],[73.0,21.9],[73.4,21.9],[73.4,22.0],[74.2,22.0],[74.2,22.1],[75.1,22.1],[75.1,22.0],[76.0,22.0],[76.0,21.9],[76.4,21.9],[76.4,21.8],[76.8,21.8],[76.8,21.7],[77.4,21.7],[77.4,22.3],[77.5,22.3],[77.5,22.5],[77.6,22.5],[77.6,22.6],[77.7,22.6],[77.7,22.9],[77.8,22.9],[77.8,23.0],[77.9,23.0],[77.9,23.3],[78.0,23.3],[78.0,23.6],[77.9,23.6],[77.9,23.9],[77.8,23.9],[77.8,24.1],[77.7,24.1],[77.7,24.4],[77.6,24.4],[77.6,24.5],[77.5,24.5],[77.5,24.9],[77.4,24.9],[77.4,25.0],[77.3,25.0],[77.3,25.2],[77.2,25.2],[77.2,25.3],[77.1,25.3],[77.1,25.5],[77.0,25.5],[77.0,25.7],[76.9,25.7],[76.9,25.9],[76.8,25.9],[76.8,26.8],[76.7,26.8],[76.7,27.1],[76.6,27.1],[76.6,27.3],[76.5,27.3],[76.5,27.4],[76.4,27.4],[76.4,27.5],[76.3,27.5],[76.3,27.6],[76.2,27.6],[76.2,27.7],[76.1,27.7],[76.1,27.9],[76.0,27.9],[76.0,28.0],[75.8,28.0],[75.8,28.1],[75.7,28.1],[75.7,28.2],[75.6,28.2],[75.6,28.4],[75.5,28.4],[75.5,28.5],[75.3,28.5],[75.3,28.6],[75.2,28.6],[75.2,28.7],[75.0,28.7],[75.0,28.8],[74.8,28.8],[74.8,28.9],[74.7,28.9],[74.7,29.0],[74.6,29.0],[74.6,29.1],[74.4,29.1],[74.4,29.2],[74.2,29.2],[74.2,29.3],[73.9,29.3],[73.9,29.4],[73.7,29.4],[73.7,29.5],[72.0,29.5],[72.0,29.6],[71.5,29.6],[71.5,29.7],[70.4,29.7]],[[67.6,24.2],[67.7,24.2],[67.7,24.3],[67.9,24.3],[67.9,24.0],[67.7,24.0],[67.7,24.1],[67.6,24.1],[67.6,24.2]]],[[[69.6,44.8],[69.6,44.9],[69.4,44.9],[69.4,44.8],[68.8,44.8],[68.8,44.7],[68.7,44.7],[68.7,44.3],[68.6,44.3],[68.6,43.8],[68.7,43.8],[68.7,43.2],[68.8,43.2],[68.8,42.8],[68.9,42.8],[68.9,42.6],[69.0,42.6],[69.0,42.4],[69.1,42.4],[69.1,42.3],[69.2,42.3],[69.2,42.2],[69.3,42.2],[69.3,42.0],[69.4,42.0],[69.4,41.9],[69.5,41.9],[69.5,41.8],[69.7,41.8],[69.7,41.7],[69.8,41.7],[69.8,41.6],[69.9,41.6],[69.9,41.5],[70.0,41.5],[70.0,41.4],[70.1,41.4],[70.1,41.3],[70.2,41.3],[70.2,41.1],[70.3,41.1],[70.3,41.0],[70.4,41.0],[70.4,40.8],[70.5,40.8],[70.5,40.5],[70.6,40.5],[70.6,40.3],[70.7,40.3],[70.7,40.2],[70.8,40.2],[70.8,40.0],[70.9,40.0],[70.9,39.8],[71.0,39.8],[71.0,39.7],[71.1,39.7],[71.1,39.5],[71.2,39.5],[71.2,39.4],[71.3,39.4],[71.3,39.2],[71.4,39.2],[71.4,39.0],[71.5,39.0],[71.5,38.9],[71.7,38.9],[71.7,38.8],[72.7,38.8],[72.7,38.9],[72.9,38.9],[72.9,39.0],[73.0,39.0],[73.0,39.1],[73.1,39.1],[73.1,39.2],[73.5,39.2],[73.5,39.3],[73.9,39.3],[73.9,39.4],[74.1,39.4],[74.1,39.5],[74.2,39.5],[74.2,39.7],[74.3,39.7],[74.3,40.0],[74.4,40.0],[74.4,40.4],[74.3,40.4],[74.3,40.8],[74.2,40.8],[74.2,41.1],[74.1,41.1],[74.1,41.3],[74.0,41.3],[74.0,41.5],[73.9,41.5],[73.9,41.6],[73.8,41.6],[73.8,41.7],[73.7,41.7],[73.7,41.8],[73.6,41.8],[73.6,41.9],[73.5,41.9],[73.5,42.0],[73.4,42.0],[73.4,42.2],[73.3,42.2],[73.3,42.5],[72.8,42.5],[72.8,43.2],[72.7,43.2],[72.7,43.6],[72.8,43.6],[72.8,44.4],[71.6,44.4],[71.6,44.5],[71.1,44.5],[71.1,44.6],[70.5,44.6],[70.5,44.7],[69.9,44.7],[69.9,44.8],[69.6,44.8]]]]},"properties":{"tile_id":"51","start_year":350,"end_year":360,"source_image":"data/raw/toolbay/t/51/350.png","source_url":"https://www.toolbay.cc/history-map/t/51/350.png","source_color":"#00ffff","polity_id":null,"polity_assignment":"unverified","geometry_origin":"raster_color_trace","pixel_size_degrees":0.1,"source_color_pixels":9264,"simplification_degrees":0}},{"type":"Feature","id":"51:350:#ff0000","bbox":[66.2,8.2,79.4,39.1],"geometry":{"type":"MultiPolygon","coordinates":[[[[75.0,13.5],[75.0,13.6],[74.7,13.6],[74.7,13.3],[74.8,13.3],[74.8,12.8],[74.9,12.8],[74.9,12.6],[75.0,12.6],[75.0,12.4],[75.1,12.4],[75.1,12.2],[75.2,12.2],[75.2,12.0],[75.3,12.0],[75.3,11.9],[75.4,11.9],[75.4,11.8],[75.5,11.8],[75.5,11.7],[75.6,11.7],[75.6,11.5],[75.7,11.5],[75.7,11.3],[75.8,11.3],[75.8,11.1],[75.9,11.1],[75.9,10.8],[76.0,10.8],[76.0,10.5],[76.1,10.5],[76.1,10.3],[76.2,10.3],[76.2,9.9],[76.3,9.9],[76.3,9.5],[76.4,9.5],[76.4,9.2],[76.5,9.2],[76.5,9.0],[76.6,9.0],[76.6,8.9],[76.7,8.9],[76.7,8.8],[76.8,8.8],[76.8,8.7],[76.9,8.7],[76.9,8.5],[77.0,8.5],[77.0,8.4],[77.1,8.4],[77.1,8.3],[77.2,8.3],[77.2,8.2],[77.8,8.2],[77.8,8.3],[78.0,8.3],[78.0,8.4],[78.1,8.4],[78.1,8.5],[78.2,8.5],[78.2,8.9],[78.3,8.9],[78.3,9.1],[78.4,9.1],[78.4,9.2],[78.8,9.2],[78.8,9.3],[78.9,9.3],[78.9,9.4],[79.0,9.4],[79.0,9.8],[79.1,9.8],[79.1,9.9],[79.2,9.9],[79.2,10.0],[79.3,10.0],[79.3,10.3],[79.4,10.3],[79.4,10.5],[78.8,10.5],[78.8,10.6],[78.6,10.6],[78.6,10.7],[78.5,10.7],[78.5,10.8],[78.4,10.8],[78.4,10.9],[78.2,10.9],[78.2,11.1],[78.1,11.1],[78.1,11.2],[78.0,11.2],[78.0,11.3],[77.9,11.3],[77.9,11.4],[77.8,11.4],[77.8,11.6],[77.7,11.6],[77.7,11.7],[77.5,11.7],[77.5,11.9],[77.4,11.9],[77.4,12.0],[77.3,12.0],[77.3,12.1],[77.2,12.1],[77.2,12.2],[77.0,12.2],[77.0,12.3],[76.9,12.3],[76.9,12.4],[76.8,12.4],[76.8,12.5],[76.7,12.5],[76.7,12.6],[76.6,12.6],[76.6,12.7],[76.5,12.7],[76.5,12.8],[76.3,12.8],[76.3,12.9],[76.2,12.9],[76.2,13.0],[76.1,13.0],[76.1,13.1],[76.0,13.1],[76.0,13.2],[75.9,13.2],[75.9,13.3],[75.8,13.3],[75.8,13.4],[75.4,13.4],[75.4,13.5],[75.0,13.5]]],[[[66.9,39.0],[66.9,39.1],[66.8,39.1],[66.8,38.9],[66.7,38.9],[66.7,38.7],[66.6,38.7],[66.6,38.5],[66.5,38.5],[66.5,38.2],[66.4,38.2],[66.4,37.9],[66.3,37.9],[66.3,37.4],[66.2,37.4],[66.2,36.4],[66.3,36.4],[66.3,35.8],[66.4,35.8],[66.4,35.5],[66.5,35.5],[66.5,35.4],[66.6,35.4],[66.6,35.2],[66.7,35.2],[66.7,35.1],[66.8,35.1],[66.8,35.0],[66.9,35.0],[66.9,34.9],[67.0,34.9],[67.0,34.8],[67.1,34.8],[67.1,34.6],[67.2,34.6],[67.2,34.5],[67.3,34.5],[67.3,34.4],[67.4,34.4],[67.4,34.3],[67.5,34.3],[67.5,34.1],[67.6,34.1],[67.6,33.9],[67.7,33.9],[67.7,33.8],[67.8,33.8],[67.8,33.6],[67.9,33.6],[67.9,33.5],[68.0,33.5],[68.0,33.3],[68.1,33.3],[68.1,33.1],[68.2,33.1],[68.2,32.9],[68.3,32.9],[68.3,32.8],[68.4,32.8],[68.4,32.6],[68.5,32.6],[68.5,32.4],[68.6,32.4],[68.6,32.1],[68.7,32.1],[68.7,31.8],[68.8,31.8],[68.8,31.4],[68.9,31.4],[68.9,31.1],[69.0,31.1],[69.0,30.6],[69.1,30.6],[69.1,29.6],[69.2,29.6],[69.2,29.7],[69.4,29.7],[69.4,29.8],[70.4,29.8],[70.4,29.7],[71.5,29.7],[71.5,29.6],[72.0,29.6],[72.0,29.5],[73.6,29.5],[73.6,29.7],[73.8,29.7],[73.8,29.8],[74.0,29.8],[74.0,29.9],[74.2,29.9],[74.2,30.0],[74.4,30.0],[74.4,30.1],[74.5,30.1],[74.5,30.2],[74.6,30.2],[74.6,30.3],[74.7,30.3],[74.7,30.4],[74.8,30.4],[74.8,30.5],[74.9,30.5],[74.9,30.6],[75.0,30.6],[75.0,31.1],[75.1,31.1],[75.1,31.4],[75.2,31.4],[75.2,31.7],[75.3,31.7],[75.3,32.0],[75.4,32.0],[75.4,32.4],[75.5,32.4],[75.5,33.0],[75.4,33.0],[75.4,33.4],[75.3,33.4],[75.3,33.5],[75.2,33.5],[75.2,33.6],[75.0,33.6],[75.0,33.8],[74.9,33.8],[74.9,33.9],[74.8,33.9],[74.8,34.0],[74.7,34.0],[74.7,34.2],[74.5,34.2],[74.5,34.3],[74.4,34.3],[74.4,34.4],[74.3,34.4],[74.3,34.5],[74.1,34.5],[74.1,34.6],[74.0,34.6],[74.0,34.7],[73.9,34.7],[73.9,34.8],[73.8,34.8],[73.8,34.9],[73.7,34.9],[73.7,35.0],[73.5,35.0],[73.5,35.2],[73.4,35.2],[73.4,35.3],[73.2,35.3],[73.2,35.5],[73.0,35.5],[73.0,35.6],[72.9,35.6],[72.9,35.8],[72.8,35.8],[72.8,36.1],[72.7,36.1],[72.7,36.3],[72.6,36.3],[72.6,36.5],[72.5,36.5],[72.5,36.6],[72.4,36.6],[72.4,36.8],[72.3,36.8],[72.3,37.0],[72.2,37.0],[72.2,37.1],[72.1,37.1],[72.1,37.2],[72.0,37.2],[72.0,37.7],[71.9,37.7],[71.9,37.9],[71.8,37.9],[71.8,38.8],[71.4,38.8],[71.4,38.7],[71.1,38.7],[71.1,38.6],[70.2,38.6],[70.2,38.7],[68.1,38.7],[68.1,38.8],[67.5,38.8],[67.5,38.9],[67.1,38.9],[67.1,39.0],[66.9,39.0]]]]},"properties":{"tile_id":"51","start_year":350,"end_year":360,"source_image":"data/raw/toolbay/t/51/350.png","source_url":"https://www.toolbay.cc/history-map/t/51/350.png","source_color":"#ff0000","polity_id":null,"polity_assignment":"unverified","geometry_origin":"raster_color_trace","pixel_size_degrees":0.1,"source_color_pixels":6840,"simplification_degrees":0}},{"type":"Feature","id":"51:350:#ff00ff","bbox":[72.7,20.2,87.2,45.0],"geometry":{"type":"MultiPolygon","coordinates":[[[[82.0,28.9],[82.0,29.0],[81.7,29.0],[81.7,28.8],[81.6,28.8],[81.6,28.7],[81.5,28.7],[81.5,28.6],[81.4,28.6],[81.4,28.3],[81.3,28.3],[81.3,28.1],[81.2,28.1],[81.2,27.7],[81.1,27.7],[81.1,27.4],[81.0,27.4],[81.0,27.3],[80.9,27.3],[80.9,27.1],[80.8,27.1],[80.8,26.8],[80.7,26.8],[80.7,26.5],[80.6,26.5],[80.6,26.3],[80.5,26.3],[80.5,26.1],[80.4,26.1],[80.4,25.7],[80.3,25.7],[80.3,25.5],[80.2,25.5],[80.2,25.3],[80.1,25.3],[80.1,25.2],[80.0,25.2],[80.0,25.1],[79.9,25.1],[79.9,24.9],[80.0,24.9],[80.0,24.8],[80.2,24.8],[80.2,24.7],[80.3,24.7],[80.3,24.6],[80.7,24.6],[80.7,24.5],[81.0,24.5],[81.0,24.4],[81.3,24.4],[81.3,24.3],[81.4,24.3],[81.4,24.2],[81.6,24.2],[81.6,24.1],[81.7,24.1],[81.7,24.0],[81.8,24.0],[81.8,23.9],[82.0,23.9],[82.0,23.7],[82.1,23.7],[82.1,23.6],[82.3,23.6],[82.3,23.5],[82.4,23.5],[82.4,23.4],[82.6,23.4],[82.6,23.3],[82.8,23.3],[82.8,23.2],[82.9,23.2],[82.9,23.1],[83.1,23.1],[83.1,23.0],[83.3,23.0],[83.3,22.9],[83.4,22.9],[83.4,22.8],[83.7,22.8],[83.7,22.7],[83.8,22.7],[83.8,22.6],[83.9,22.6],[83.9,22.5],[84.1,22.5],[84.1,22.4],[84.2,22.4],[84.2,22.3],[84.4,22.3],[84.4,22.2],[84.6,22.2],[84.6,22.1],[84.7,22.1],[84.7,22.0],[84.9,22.0],[84.9,21.9],[85.0,21.9],[85.0,21.8],[85.1,21.8],[85.1,21.7],[85.3,21.7],[85.3,21.5],[85.4,21.5],[85.4,21.4],[85.5,21.4],[85.5,21.3],[85.6,21.3],[85.6,21.1],[85.8,21.1],[85.8,20.9],[85.9,20.9],[85.9,20.8],[86.0,20.8],[86.0,20.7],[86.1,20.7],[86.1,20.5],[86.3,20.5],[86.3,20.4],[86.4,20.4],[86.4,20.3],[86.5,20.3],[86.5,20.2],[86.6,20.2],[86.6,20.3],[86.8,20.3],[86.8,20.4],[86.9,20.4],[86.9,20.6],[87.0,20.6],[87.0,21.0],[86.9,21.0],[86.9,21.4],[87.0,21.4],[87.0,21.5],[87.1,21.5],[87.1,21.6],[87.2,21.6],[87.2,21.7],[87.1,21.7],[87.1,21.8],[86.9,21.8],[86.9,21.9],[86.8,21.9],[86.8,22.0],[86.7,22.0],[86.7,22.1],[86.6,22.1],[86.6,22.2],[86.5,22.2],[86.5,22.3],[86.4,22.3],[86.4,22.4],[86.3,22.4],[86.3,22.6],[86.2,22.6],[86.2,22.7],[86.1,22.7],[86.1,23.0],[86.0,23.0],[86.0,23.4],[85.9,23.4],[85.9,23.9],[85.8,23.9],[85.8,24.4],[85.9,24.4],[85.9,24.9],[86.0,24.9],[86.0,25.4],[86.1,25.4],[86.1,25.6],[86.2,25.6],[86.2,26.1],[86.3,26.1],[86.3,26.5],[86.4,26.5],[86.4,26.8],[86.5,26.8],[86.5,27.1],[86.6,27.1],[86.6,27.6],[86.3,27.6],[86.3,27.7],[85.9,27.7],[85.9,27.8],[85.3,27.8],[85.3,27.9],[84.9,27.9],[84.9,28.0],[84.6,28.0],[84.6,28.1],[84.3,28.1],[84.3,28.2],[83.8,28.2],[83.8,28.3],[83.4,28.3],[83.4,28.4],[83.0,28.4],[83.0,28.5],[82.8,28.5],[82.8,28.6],[82.6,28.6],[82.6,28.7],[82.5,28.7],[82.5,28.8],[82.3,28.8],[82.3,28.9],[82.0,28.9]]],[[[80.2,44.9],[80.2,45.0],[74.0,45.0],[74.0,44.9],[73.6,44.9],[73.6,44.8],[73.4,44.8],[73.4,44.7],[73.2,44.7],[73.2,44.6],[73.0,44.6],[73.0,44.5],[72.9,44.5],[72.9,44.4],[72.8,44.4],[72.8,43.6],[72.7,43.6],[72.7,43.2],[72.8,43.2],[72.8,42.5],[74.1,42.5],[74.1,42.4],[75.3,42.4],[75.3,42.5],[75.8,42.5],[75.8,42.6],[76.3,42.6],[76.3,42.7],[76.7,42.7],[76.7,42.8],[77.0,42.8],[77.0,42.9],[77.4,42.9],[77.4,43.0],[77.7,43.0],[77.7,43.1],[78.0,43.1],[78.0,43.2],[78.2,43.2],[78.2,43.3],[78.4,43.3],[78.4,43.4],[78.5,43.4],[78.5,43.5],[78.6,43.5],[78.6,43.6],[78.8,43.6],[78.8,43.8],[79.0,43.8],[79.0,43.9],[79.1,43.9],[79.1,44.0],[79.2,44.0],[79.2,44.1],[79.3,44.1],[79.3,44.2],[79.4,44.2],[79.4,44.3],[79.5,44.3],[79.5,44.4],[79.6,44.4],[79.6,44.5],[79.7,44.5],[79.7,44.6],[79.8,44.6],[79.8,44.7],[79.9,44.7],[79.9,44.8],[80.1,44.8],[80.1,44.9],[80.2,44.9]]]]},"properties":{"tile_id":"51","start_year":350,"end_year":360,"source_image":"data/raw/toolbay/t/51/350.png","source_url":"https://www.toolbay.cc/history-map/t/51/350.png","source_color":"#ff00ff","polity_id":null,"polity_assignment":"unverified","geometry_origin":"raster_color_trace","pixel_size_degrees":0.1,"source_color_pixels":4590,"simplification_degrees":0}},{"type":"Feature","id":"51:350:#ff9900","bbox":[79.7,6.0,81.9,9.9],"geometry":{"type":"Polygon","coordinates":[[[80.3,9.9],[80.0,9.9],[80.0,9.5],[80.1,9.5],[80.1,9.2],[80.0,9.2],[80.0,9.1],[79.9,9.1],[79.9,8.5],[79.8,8.5],[79.8,8.4],[79.7,8.4],[79.7,7.9],[79.8,7.9],[79.8,6.9],[79.9,6.9],[79.9,6.7],[80.0,6.7],[80.0,6.3],[80.1,6.3],[80.1,6.1],[80.2,6.1],[80.2,6.0],[80.8,6.0],[80.8,6.1],[81.1,6.1],[81.1,6.2],[81.4,6.2],[81.4,6.3],[81.5,6.3],[81.5,6.4],[81.6,6.4],[81.6,6.5],[81.7,6.5],[81.7,6.6],[81.8,6.6],[81.8,6.8],[81.9,6.8],[81.9,7.2],[81.8,7.2],[81.8,7.8],[81.7,7.8],[81.7,7.9],[81.6,7.9],[81.6,8.1],[81.5,8.1],[81.5,8.3],[81.4,8.3],[81.4,8.6],[81.3,8.6],[81.3,8.7],[81.2,8.7],[81.2,8.9],[81.1,8.9],[81.1,9.0],[81.0,9.0],[81.0,9.2],[80.9,9.2],[80.9,9.4],[80.8,9.4],[80.8,9.5],[80.7,9.5],[80.7,9.6],[80.6,9.6],[80.6,9.7],[80.4,9.7],[80.4,9.8],[80.3,9.8],[80.3,9.9]]]},"properties":{"tile_id":"51","start_year":350,"end_year":360,"source_image":"data/raw/toolbay/t/51/350.png","source_url":"https://www.toolbay.cc/history-map/t/51/350.png","source_color":"#ff9900","polity_id":null,"polity_assignment":"unverified","geometry_origin":"raster_color_trace","pixel_size_degrees":0.1,"source_color_pixels":574,"simplification_degrees":0}},{"type":"Feature","id":"51:350:#ffff00","bbox":[79.3,15.4,83.1,19.2],"geometry":{"type":"Polygon","coordinates":[[[82.0,19.2],[81.4,19.2],[81.4,19.1],[81.3,19.1],[81.3,19.0],[81.1,19.0],[81.1,18.9],[80.9,18.9],[80.9,18.8],[80.8,18.8],[80.8,18.7],[80.6,18.7],[80.6,18.6],[80.5,18.6],[80.5,18.5],[80.4,18.5],[80.4,18.4],[80.2,18.4],[80.2,18.3],[80.1,18.3],[80.1,18.2],[80.0,18.2],[80.0,18.0],[79.9,18.0],[79.9,17.9],[79.8,17.9],[79.8,17.8],[79.7,17.8],[79.7,17.7],[79.6,17.7],[79.6,17.5],[79.5,17.5],[79.5,17.3],[79.4,17.3],[79.4,16.8],[79.3,16.8],[79.3,16.0],[79.4,16.0],[79.4,15.6],[79.5,15.6],[79.5,15.5],[79.9,15.5],[79.9,15.4],[80.2,15.4],[80.2,15.5],[80.3,15.5],[80.3,15.7],[80.4,15.7],[80.4,15.8],[80.5,15.8],[80.5,15.9],[80.7,15.9],[80.7,15.8],[81.0,15.8],[81.0,15.9],[81.1,15.9],[81.1,16.0],[81.2,16.0],[81.2,16.2],[81.3,16.2],[81.3,16.3],[81.4,16.3],[81.4,16.4],[81.9,16.4],[81.9,16.5],[82.2,16.5],[82.2,16.6],[82.3,16.6],[82.3,16.7],[82.4,16.7],[82.4,17.2],[82.5,17.2],[82.5,17.3],[82.7,17.3],[82.7,17.4],[82.8,17.4],[82.8,17.5],[83.1,17.5],[83.1,17.6],[83.0,17.6],[83.0,17.8],[82.9,17.8],[82.9,18.0],[82.8,18.0],[82.8,18.2],[82.7,18.2],[82.7,18.3],[82.6,18.3],[82.6,18.5],[82.5,18.5],[82.5,18.6],[82.4,18.6],[82.4,18.8],[82.3,18.8],[82.3,18.9],[82.2,18.9],[82.2,19.0],[82.1,19.0],[82.1,19.1],[82.0,19.1],[82.0,19.2]]]},"properties":{"tile_id":"51","start_year":350,"end_year":360,"source_image":"data/raw/toolbay/t/51/350.png","source_url":"https://www.toolbay.cc/history-map/t/51/350.png","source_color":"#ffff00","polity_id":null,"polity_assignment":"unverified","geometry_origin":"raster_color_trace","pixel_size_degrees":0.1,"source_color_pixels":856,"simplification_degrees":0}}]}
