{"type":"FeatureCollection","features":[{"type":"Feature","id":"51:452:#009900","bbox":[72.6,15.1,90.0,45.0],"geometry":{"type":"MultiPolygon","coordinates":[[[[78.4,23.3],[78.4,23.4],[78.0,23.4],[78.0,23.3],[77.9,23.3],[77.9,23.0],[77.8,23.0],[77.8,22.9],[77.7,22.9],[77.7,22.6],[77.6,22.6],[77.6,22.5],[77.5,22.5],[77.5,22.3],[77.4,22.3],[77.4,21.7],[76.8,21.7],[76.8,21.8],[76.4,21.8],[76.4,21.9],[76.0,21.9],[76.0,22.0],[75.1,22.0],[75.1,22.1],[74.2,22.1],[74.2,22.0],[73.4,22.0],[73.4,21.9],[73.0,21.9],[73.0,21.8],[72.6,21.8],[72.6,21.1],[72.7,21.1],[72.7,21.0],[72.8,21.0],[72.8,20.8],[72.9,20.8],[72.9,20.5],[72.8,20.5],[72.8,20.3],[72.7,20.3],[72.7,19.5],[72.8,19.5],[72.8,18.9],[72.9,18.9],[72.9,18.3],[73.0,18.3],[73.0,18.0],[73.1,18.0],[73.1,17.6],[73.2,17.6],[73.2,17.2],[73.3,17.2],[73.3,16.5],[73.4,16.5],[73.4,16.2],[73.5,16.2],[73.5,16.0],[73.6,16.0],[73.6,15.9],[73.7,15.9],[73.7,15.8],[74.0,15.8],[74.0,15.7],[74.2,15.7],[74.2,15.6],[74.7,15.6],[74.7,15.5],[75.0,15.5],[75.0,15.4],[75.2,15.4],[75.2,15.3],[75.6,15.3],[75.6,15.2],[75.9,15.2],[75.9,15.1],[77.7,15.1],[77.7,15.2],[78.0,15.2],[78.0,15.3],[78.5,15.3],[78.5,15.4],[78.9,15.4],[78.9,15.5],[79.5,15.5],[79.5,15.6],[79.4,15.6],[79.4,16.0],[79.3,16.0],[79.3,16.8],[79.4,16.8],[79.4,17.3],[79.5,17.3],[79.5,17.5],[79.6,17.5],[79.6,17.7],[79.7,17.7],[79.7,17.8],[79.8,17.8],[79.8,17.9],[79.9,17.9],[79.9,18.0],[80.0,18.0],[80.0,18.2],[80.1,18.2],[80.1,18.3],[80.2,18.3],[80.2,18.4],[80.4,18.4],[80.4,18.5],[80.5,18.5],[80.5,18.6],[80.6,18.6],[80.6,18.7],[80.8,18.7],[80.8,18.8],[80.9,18.8],[80.9,18.9],[81.1,18.9],[81.1,19.0],[81.3,19.0],[81.3,19.1],[81.4,19.1],[81.4,19.2],[82.0,19.2],[82.0,19.1],[82.1,19.1],[82.1,19.0],[82.2,19.0],[82.2,18.9],[82.3,18.9],[82.3,18.8],[82.4,18.8],[82.4,18.6],[82.5,18.6],[82.5,18.5],[82.6,18.5],[82.6,18.3],[82.7,18.3],[82.7,18.2],[82.8,18.2],[82.8,18.0],[82.9,18.0],[82.9,17.8],[83.0,17.8],[83.0,17.6],[83.2,17.6],[83.2,17.7],[83.3,17.7],[83.3,17.8],[83.4,17.8],[83.4,17.9],[83.5,17.9],[83.5,18.0],[83.6,18.0],[83.6,18.1],[83.8,18.1],[83.8,18.2],[83.9,18.2],[83.9,18.3],[84.1,18.3],[84.1,18.4],[84.2,18.4],[84.2,18.5],[84.3,18.5],[84.3,18.6],[84.4,18.6],[84.4,18.7],[84.5,18.7],[84.5,18.8],[84.6,18.8],[84.6,18.9],[84.7,18.9],[84.7,19.1],[84.8,19.1],[84.8,19.2],[84.9,19.2],[84.9,19.3],[85.0,19.3],[85.0,19.4],[85.1,19.4],[85.1,19.5],[85.2,19.5],[85.2,19.6],[85.4,19.6],[85.4,19.7],[85.3,19.7],[85.3,19.8],[85.2,19.8],[85.2,19.9],[85.0,19.9],[85.0,20.0],[84.9,20.0],[84.9,20.2],[84.8,20.2],[84.8,20.3],[84.7,20.3],[84.7,20.5],[84.6,20.5],[84.6,20.6],[84.5,20.6],[84.5,20.8],[84.4,20.8],[84.4,20.9],[84.3,20.9],[84.3,21.0],[84.2,21.0],[84.2,21.1],[84.1,21.1],[84.1,21.2],[84.0,21.2],[84.0,21.3],[83.9,21.3],[83.9,21.4],[83.6,21.4],[83.6,21.5],[83.2,21.5],[83.2,21.6],[82.9,21.6],[82.9,21.7],[82.6,21.7],[82.6,21.8],[82.5,21.8],[82.5,21.9],[82.2,21.9],[82.2,22.0],[82.0,22.0],[82.0,22.1],[81.9,22.1],[81.9,22.2],[81.6,22.2],[81.6,22.3],[81.4,22.3],[81.4,22.4],[81.0,22.4],[81.0,22.5],[80.9,22.5],[80.9,22.6],[80.6,22.6],[80.6,22.7],[80.4,22.7],[80.4,22.8],[80.0,22.8],[80.0,22.9],[79.8,22.9],[79.8,23.0],[79.5,23.0],[79.5,23.1],[79.3,23.1],[79.3,23.2],[79.0,23.2],[79.0,23.3],[78.4,23.3]]],[[[90.0,39.3],[90.0,45.0],[80.2,45.0],[80.2,44.9],[80.1,44.9],[80.1,44.8],[79.9,44.8],[79.9,44.7],[79.8,44.7],[79.8,44.6],[79.7,44.6],[79.7,44.5],[79.6,44.5],[79.6,44.4],[79.5,44.4],[79.5,44.3],[79.4,44.3],[79.4,44.2],[79.3,44.2],[79.3,44.1],[79.2,44.1],[79.2,44.0],[79.1,44.0],[79.1,43.9],[79.0,43.9],[79.0,43.8],[78.8,43.8],[78.8,43.6],[78.6,43.6],[78.6,43.5],[78.5,43.5],[78.5,43.4],[78.4,43.4],[78.4,43.3],[78.2,43.3],[78.2,43.2],[78.0,43.2],[78.0,43.1],[77.7,43.1],[77.7,43.0],[77.4,43.0],[77.4,42.9],[77.0,42.9],[77.0,42.8],[76.7,42.8],[76.7,42.7],[76.3,42.7],[76.3,42.6],[75.8,42.6],[75.8,42.5],[75.3,42.5],[75.3,42.4],[74.1,42.4],[74.1,42.5],[73.3,42.5],[73.3,42.2],[73.4,42.2],[73.4,42.0],[73.5,42.0],[73.5,41.9],[73.6,41.9],[73.6,41.8],[73.7,41.8],[73.7,41.7],[73.8,41.7],[73.8,41.6],[73.9,41.6],[73.9,41.5],[74.0,41.5],[74.0,41.3],[74.1,41.3],[74.1,41.1],[74.2,41.1],[74.2,40.8],[74.3,40.8],[74.3,40.4],[74.5,40.4],[74.5,40.1],[74.6,40.1],[74.6,39.8],[74.7,39.8],[74.7,39.7],[74.8,39.7],[74.8,39.4],[74.9,39.4],[74.9,39.2],[75.0,39.2],[75.0,39.1],[75.1,39.1],[75.1,39.0],[75.2,39.0],[75.2,38.8],[75.3,38.8],[75.3,38.7],[75.4,38.7],[75.4,38.6],[75.5,38.6],[75.5,38.4],[75.7,38.4],[75.7,38.3],[75.8,38.3],[75.8,38.2],[75.9,38.2],[75.9,38.1],[76.0,38.1],[76.0,38.0],[76.2,38.0],[76.2,37.9],[76.4,37.9],[76.4,37.8],[76.5,37.8],[76.5,37.7],[76.7,37.7],[76.7,37.6],[77.0,37.6],[77.0,37.5],[77.1,37.5],[77.1,37.4],[77.3,37.4],[77.3,37.3],[77.6,37.3],[77.6,37.2],[77.8,37.2],[77.8,37.1],[77.9,37.1],[77.9,37.0],[78.2,37.0],[78.2,36.9],[78.4,36.9],[78.4,36.8],[78.8,36.8],[78.8,36.7],[79.2,36.7],[79.2,36.6],[80.9,36.6],[80.9,36.7],[81.4,36.7],[81.4,36.8],[81.9,36.8],[81.9,36.9],[82.2,36.9],[82.2,37.0],[82.4,37.0],[82.4,37.1],[82.8,37.1],[82.8,37.2],[83.1,37.2],[83.1,37.3],[83.3,37.3],[83.3,37.4],[83.8,37.4],[83.8,37.5],[84.1,37.5],[84.1,37.6],[84.4,37.6],[84.4,37.7],[84.8,37.7],[84.8,37.8],[85.1,37.8],[85.1,37.9],[85.4,37.9],[85.4,38.0],[85.6,38.0],[85.6,38.1],[85.8,38.1],[85.8,38.2],[86.2,38.2],[86.2,38.3],[86.6,38.3],[86.6,38.4],[86.9,38.4],[86.9,38.5],[87.1,38.5],[87.1,38.6],[87.3,38.6],[87.3,38.7],[87.6,38.7],[87.6,38.8],[87.9,38.8],[87.9,38.9],[88.2,38.9],[88.2,39.0],[88.5,39.0],[88.5,39.1],[89.0,39.1],[89.0,39.2],[89.5,39.2],[89.5,39.3],[90.0,39.3]]]]},"properties":{"tile_id":"51","start_year":452,"end_year":453,"source_image":"data/raw/toolbay/t/51/452.png","source_url":"https://www.toolbay.cc/history-map/t/51/452.png","source_color":"#009900","polity_id":null,"polity_assignment":"unverified","geometry_origin":"raster_color_trace","pixel_size_degrees":0.1,"source_color_pixels":16653,"simplification_degrees":0}},{"type":"Feature","id":"51:452:#00ff00","bbox":[60.0,10.3,80.4,45.0],"geometry":{"type":"MultiPolygon","coordinates":[[[[74.0,15.7],[74.0,15.8],[73.7,15.8],[73.7,15.6],[73.8,15.6],[73.8,15.4],[73.9,15.4],[73.9,15.1],[74.0,15.1],[74.0,15.0],[74.1,15.0],[74.1,14.9],[74.2,14.9],[74.2,14.7],[74.3,14.7],[74.3,14.5],[74.4,14.5],[74.4,14.3],[74.5,14.3],[74.5,14.0],[74.6,14.0],[74.6,13.7],[74.7,13.7],[74.7,13.6],[75.0,13.6],[75.0,13.5],[75.4,13.5],[75.4,13.4],[75.8,13.4],[75.8,13.3],[75.9,13.3],[75.9,13.2],[76.0,13.2],[76.0,13.1],[76.1,13.1],[76.1,13.0],[76.2,13.0],[76.2,12.9],[76.3,12.9],[76.3,12.8],[76.5,12.8],[76.5,12.7],[76.6,12.7],[76.6,12.6],[76.7,12.6],[76.7,12.5],[76.8,12.5],[76.8,12.4],[76.9,12.4],[76.9,12.3],[77.0,12.3],[77.0,12.2],[77.2,12.2],[77.2,12.1],[77.3,12.1],[77.3,12.0],[77.4,12.0],[77.4,11.9],[77.5,11.9],[77.5,11.7],[77.7,11.7],[77.7,11.6],[77.8,11.6],[77.8,11.4],[77.9,11.4],[77.9,11.3],[78.0,11.3],[78.0,11.2],[78.1,11.2],[78.1,11.1],[78.2,11.1],[78.2,10.9],[78.4,10.9],[78.4,10.8],[78.5,10.8],[78.5,10.7],[78.6,10.7],[78.6,10.6],[78.8,10.6],[78.8,10.5],[79.4,10.5],[79.4,10.4],[79.6,10.4],[79.6,10.3],[79.8,10.3],[79.8,10.4],[79.9,10.4],[79.9,11.5],[79.8,11.5],[79.8,11.9],[79.9,11.9],[79.9,12.2],[80.0,12.2],[80.0,12.3],[80.1,12.3],[80.1,12.5],[80.2,12.5],[80.2,12.7],[80.3,12.7],[80.3,13.1],[80.4,13.1],[80.4,13.6],[80.3,13.6],[80.3,14.0],[80.2,14.0],[80.2,14.9],[80.1,14.9],[80.1,15.4],[79.9,15.4],[79.9,15.5],[78.9,15.5],[78.9,15.4],[78.5,15.4],[78.5,15.3],[78.0,15.3],[78.0,15.2],[77.7,15.2],[77.7,15.1],[75.9,15.1],[75.9,15.2],[75.6,15.2],[75.6,15.3],[75.2,15.3],[75.2,15.4],[75.0,15.4],[75.0,15.5],[74.7,15.5],[74.7,15.6],[74.2,15.6],[74.2,15.7],[74.0,15.7]]],[[[60.3,42.4],[60.2,42.4],[60.2,42.5],[60.0,42.5],[60.0,25.4],[60.5,25.4],[60.5,25.8],[60.6,25.8],[60.6,26.1],[60.7,26.1],[60.7,26.4],[60.8,26.4],[60.8,26.6],[60.9,26.6],[60.9,26.8],[61.0,26.8],[61.0,27.0],[61.1,27.0],[61.1,27.3],[61.2,27.3],[61.2,27.5],[61.3,27.5],[61.3,27.6],[61.4,27.6],[61.4,27.8],[61.5,27.8],[61.5,28.0],[61.6,28.0],[61.6,28.2],[61.7,28.2],[61.7,28.4],[61.8,28.4],[61.8,28.6],[61.9,28.6],[61.9,28.9],[62.0,28.9],[62.0,29.0],[62.1,29.0],[62.1,29.1],[62.2,29.1],[62.2,29.4],[62.3,29.4],[62.3,29.5],[62.4,29.5],[62.4,29.6],[62.5,29.6],[62.5,29.8],[62.6,29.8],[62.6,30.0],[62.7,30.0],[62.7,30.1],[62.8,30.1],[62.8,30.3],[62.9,30.3],[62.9,30.6],[63.0,30.6],[63.0,30.7],[63.1,30.7],[63.1,30.9],[63.2,30.9],[63.2,31.1],[63.3,31.1],[63.3,31.3],[63.4,31.3],[63.4,31.4],[63.5,31.4],[63.5,31.5],[63.6,31.5],[63.6,31.6],[63.7,31.6],[63.7,31.8],[63.8,31.8],[63.8,31.9],[63.9,31.9],[63.9,32.0],[64.0,32.0],[64.0,32.1],[64.1,32.1],[64.1,32.2],[64.2,32.2],[64.2,32.3],[64.3,32.3],[64.3,32.4],[64.4,32.4],[64.4,32.5],[64.5,32.5],[64.5,32.6],[64.6,32.6],[64.6,32.8],[64.7,32.8],[64.7,32.9],[64.8,32.9],[64.8,33.0],[64.9,33.0],[64.9,33.1],[65.0,33.1],[65.0,33.2],[65.1,33.2],[65.1,33.4],[65.2,33.4],[65.2,33.5],[65.3,33.5],[65.3,33.6],[65.4,33.6],[65.4,33.9],[65.6,33.9],[65.6,34.1],[65.7,34.1],[65.7,34.2],[65.8,34.2],[65.8,34.3],[65.9,34.3],[65.9,34.5],[66.0,34.5],[66.0,34.6],[66.1,34.6],[66.1,34.8],[66.2,34.8],[66.2,34.9],[66.3,34.9],[66.3,35.0],[66.4,35.0],[66.4,35.1],[66.5,35.1],[66.5,35.5],[66.4,35.5],[66.4,35.7],[66.3,35.7],[66.3,35.8],[66.2,35.8],[66.2,36.0],[66.1,36.0],[66.1,36.2],[66.0,36.2],[66.0,36.3],[65.9,36.3],[65.9,36.4],[65.8,36.4],[65.8,36.5],[65.7,36.5],[65.7,36.7],[65.6,36.7],[65.6,36.8],[65.4,36.8],[65.4,37.0],[65.3,37.0],[65.3,37.1],[65.1,37.1],[65.1,37.2],[65.0,37.2],[65.0,37.3],[64.9,37.3],[64.9,37.7],[64.8,37.7],[64.8,37.8],[64.7,37.8],[64.7,37.9],[64.6,37.9],[64.6,38.1],[64.5,38.1],[64.5,38.2],[64.4,38.2],[64.4,38.3],[64.2,38.3],[64.2,38.4],[64.1,38.4],[64.1,38.5],[64.0,38.5],[64.0,38.6],[63.9,38.6],[63.9,38.7],[63.6,38.7],[63.6,38.8],[63.5,38.8],[63.5,38.9],[63.4,38.9],[63.4,39.0],[63.2,39.0],[63.2,39.1],[63.1,39.1],[63.1,39.2],[63.0,39.2],[63.0,39.3],[62.8,39.3],[62.8,39.4],[62.7,39.4],[62.7,39.5],[62.6,39.5],[62.6,39.6],[62.5,39.6],[62.5,39.7],[62.3,39.7],[62.3,39.8],[62.2,39.8],[62.2,39.9],[62.1,39.9],[62.1,40.0],[62.0,40.0],[62.0,40.1],[61.9,40.1],[61.9,40.2],[61.8,40.2],[61.8,40.3],[61.7,40.3],[61.7,40.4],[61.6,40.4],[61.6,40.5],[61.5,40.5],[61.5,40.7],[61.4,40.7],[61.4,40.9],[61.3,40.9],[61.3,41.1],[61.2,41.1],[61.2,41.3],[61.0,41.3],[61.0,41.4],[60.9,41.4],[60.9,41.5],[60.8,41.5],[60.8,41.7],[60.7,41.7],[60.7,41.9],[60.6,41.9],[60.6,42.0],[60.5,42.0],[60.5,42.2],[60.4,42.2],[60.4,42.3],[60.3,42.3],[60.3,42.4]]],[[[80.1,44.9],[80.2,44.9],[80.2,45.0],[74.0,45.0],[74.0,44.9],[73.6,44.9],[73.6,44.8],[73.4,44.8],[73.4,44.7],[73.2,44.7],[73.2,44.6],[73.0,44.6],[73.0,44.5],[72.9,44.5],[72.9,44.4],[72.8,44.4],[72.8,43.6],[72.7,43.6],[72.7,43.2],[72.8,43.2],[72.8,42.5],[74.1,42.5],[74.1,42.4],[75.3,42.4],[75.3,42.5],[75.8,42.5],[75.8,42.6],[76.3,42.6],[76.3,42.7],[76.7,42.7],[76.7,42.8],[77.0,42.8],[77.0,42.9],[77.4,42.9],[77.4,43.0],[77.7,43.0],[77.7,43.1],[78.0,43.1],[78.0,43.2],[78.2,43.2],[78.2,43.3],[78.4,43.3],[78.4,43.4],[78.5,43.4],[78.5,43.5],[78.6,43.5],[78.6,43.6],[78.8,43.6],[78.8,43.8],[79.0,43.8],[79.0,43.9],[79.1,43.9],[79.1,44.0],[79.2,44.0],[79.2,44.1],[79.3,44.1],[79.3,44.2],[79.4,44.2],[79.4,44.3],[79.5,44.3],[79.5,44.4],[79.6,44.4],[79.6,44.5],[79.7,44.5],[79.7,44.6],[79.8,44.6],[79.8,44.7],[79.9,44.7],[79.9,44.8],[80.1,44.8],[80.1,44.9]]]]},"properties":{"tile_id":"51","start_year":452,"end_year":453,"source_image":"data/raw/toolbay/t/51/452.png","source_url":"https://www.toolbay.cc/history-map/t/51/452.png","source_color":"#00ff00","polity_id":null,"polity_assignment":"unverified","geometry_origin":"raster_color_trace","pixel_size_degrees":0.1,"source_color_pixels":29689,"simplification_degrees":0}},{"type":"Feature","id":"51:452:#00ffff","bbox":[60.0,25.1,75.4,45.0],"geometry":{"type":"Polygon","coordinates":[[[60.1,43.8],[60.0,43.8],[60.0,42.6],[60.0,42.5],[60.2,42.5],[60.2,42.4],[60.3,42.4],[60.3,42.3],[60.4,42.3],[60.4,42.2],[60.5,42.2],[60.5,42.0],[60.6,42.0],[60.6,41.9],[60.7,41.9],[60.7,41.7],[60.8,41.7],[60.8,41.5],[60.9,41.5],[60.9,41.4],[61.0,41.4],[61.0,41.3],[61.2,41.3],[61.2,41.1],[61.3,41.1],[61.3,40.9],[61.4,40.9],[61.4,40.7],[61.5,40.7],[61.5,40.5],[61.6,40.5],[61.6,40.4],[61.7,40.4],[61.7,40.3],[61.8,40.3],[61.8,40.2],[61.9,40.2],[61.9,40.1],[62.0,40.1],[62.0,40.0],[62.1,40.0],[62.1,39.9],[62.2,39.9],[62.2,39.8],[62.3,39.8],[62.3,39.7],[62.5,39.7],[62.5,39.6],[62.6,39.6],[62.6,39.5],[62.7,39.5],[62.7,39.4],[62.8,39.4],[62.8,39.3],[63.0,39.3],[63.0,39.2],[63.1,39.2],[63.1,39.1],[63.2,39.1],[63.2,39.0],[63.4,39.0],[63.4,38.9],[63.5,38.9],[63.5,38.8],[63.6,38.8],[63.6,38.7],[63.9,38.7],[63.9,38.6],[64.0,38.6],[64.0,38.5],[64.1,38.5],[64.1,38.4],[64.2,38.4],[64.2,38.3],[64.4,38.3],[64.4,38.2],[64.5,38.2],[64.5,38.1],[64.6,38.1],[64.6,37.9],[64.7,37.9],[64.7,37.8],[64.8,37.8],[64.8,37.7],[64.9,37.7],[64.9,37.3],[65.0,37.3],[65.0,37.2],[65.1,37.2],[65.1,37.1],[65.3,37.1],[65.3,37.0],[65.4,37.0],[65.4,36.8],[65.6,36.8],[65.6,36.7],[65.7,36.7],[65.7,36.5],[65.8,36.5],[65.8,36.4],[65.9,36.4],[65.9,36.3],[66.0,36.3],[66.0,36.2],[66.1,36.2],[66.1,36.0],[66.2,36.0],[66.2,35.8],[66.3,35.8],[66.3,35.7],[66.4,35.7],[66.4,35.5],[66.5,35.5],[66.5,35.1],[66.4,35.1],[66.4,35.0],[66.3,35.0],[66.3,34.9],[66.2,34.9],[66.2,34.8],[66.1,34.8],[66.1,34.6],[66.0,34.6],[66.0,34.5],[65.9,34.5],[65.9,34.3],[65.8,34.3],[65.8,34.2],[65.7,34.2],[65.7,34.1],[65.6,34.1],[65.6,33.9],[65.4,33.9],[65.4,33.6],[65.3,33.6],[65.3,33.5],[65.2,33.5],[65.2,33.4],[65.1,33.4],[65.1,33.2],[65.0,33.2],[65.0,33.1],[64.9,33.1],[64.9,33.0],[64.8,33.0],[64.8,32.9],[64.7,32.9],[64.7,32.8],[64.6,32.8],[64.6,32.6],[64.5,32.6],[64.5,32.5],[64.4,32.5],[64.4,32.4],[64.3,32.4],[64.3,32.3],[64.2,32.3],[64.2,32.2],[64.1,32.2],[64.1,32.1],[64.0,32.1],[64.0,32.0],[63.9,32.0],[63.9,31.9],[63.8,31.9],[63.8,31.8],[63.7,31.8],[63.7,31.6],[63.6,31.6],[63.6,31.5],[63.5,31.5],[63.5,31.4],[63.4,31.4],[63.4,31.3],[63.3,31.3],[63.3,31.1],[63.2,31.1],[63.2,30.9],[63.1,30.9],[63.1,30.7],[63.0,30.7],[63.0,30.6],[62.9,30.6],[62.9,30.3],[62.8,30.3],[62.8,30.1],[62.7,30.1],[62.7,30.0],[62.6,30.0],[62.6,29.8],[62.5,29.8],[62.5,29.6],[62.4,29.6],[62.4,29.5],[62.3,29.5],[62.3,29.4],[62.2,29.4],[62.2,29.1],[62.1,29.1],[62.1,29.0],[62.0,29.0],[62.0,28.9],[61.9,28.9],[61.9,28.6],[61.8,28.6],[61.8,28.4],[61.7,28.4],[61.7,28.2],[61.6,28.2],[61.6,28.0],[61.5,28.0],[61.5,27.8],[61.4,27.8],[61.4,27.6],[61.3,27.6],[61.3,27.5],[61.2,27.5],[61.2,27.3],[61.1,27.3],[61.1,27.0],[61.0,27.0],[61.0,26.8],[60.9,26.8],[60.9,26.6],[60.8,26.6],[60.8,26.4],[60.7,26.4],[60.7,26.1],[60.6,26.1],[60.6,25.8],[60.5,25.8],[60.5,25.4],[60.7,25.4],[60.7,25.3],[61.1,25.3],[61.1,25.2],[61.3,25.2],[61.3,25.1],[62.0,25.1],[62.0,25.2],[62.5,25.2],[62.5,25.3],[63.6,25.3],[63.6,25.4],[64.2,25.4],[64.2,25.3],[64.8,25.3],[64.8,25.4],[65.0,25.4],[65.0,25.3],[65.2,25.3],[65.2,25.4],[66.0,25.4],[66.0,25.5],[66.1,25.5],[66.1,25.7],[66.2,25.7],[66.2,25.8],[66.3,25.8],[66.3,25.9],[66.4,25.9],[66.4,26.1],[66.5,26.1],[66.5,26.2],[66.6,26.2],[66.6,26.3],[66.7,26.3],[66.7,26.5],[66.8,26.5],[66.8,26.6],[66.9,26.6],[66.9,26.8],[67.0,26.8],[67.0,26.9],[67.1,26.9],[67.1,27.1],[67.2,27.1],[67.2,27.3],[67.3,27.3],[67.3,27.5],[67.4,27.5],[67.4,27.6],[67.5,27.6],[67.5,27.8],[67.6,27.8],[67.6,27.9],[67.7,27.9],[67.7,28.1],[67.8,28.1],[67.8,28.2],[67.9,28.2],[67.9,28.4],[68.0,28.4],[68.0,28.6],[68.1,28.6],[68.1,28.7],[68.2,28.7],[68.2,28.8],[68.3,28.8],[68.3,29.0],[68.4,29.0],[68.4,29.1],[68.6,29.1],[68.6,29.2],[68.7,29.2],[68.7,29.3],[68.8,29.3],[68.8,29.4],[69.0,29.4],[69.0,29.5],[69.1,29.5],[69.1,29.6],[69.2,29.6],[69.2,29.7],[69.4,29.7],[69.4,29.8],[70.4,29.8],[70.4,29.7],[71.5,29.7],[71.5,29.9],[71.7,29.9],[71.7,30.0],[71.8,30.0],[71.8,30.1],[71.9,30.1],[71.9,30.2],[72.0,30.2],[72.0,30.3],[72.1,30.3],[72.1,30.4],[72.2,30.4],[72.2,30.6],[72.3,30.6],[72.3,30.7],[72.4,30.7],[72.4,30.9],[72.6,30.9],[72.6,31.0],[72.7,31.0],[72.7,31.1],[72.8,31.1],[72.8,31.2],[72.9,31.2],[72.9,31.3],[73.0,31.3],[73.0,31.4],[73.2,31.4],[73.2,31.5],[73.3,31.5],[73.3,31.6],[73.4,31.6],[73.4,31.7],[73.7,31.7],[73.7,31.8],[74.2,31.8],[74.2,32.5],[74.1,32.5],[74.1,32.6],[74.0,32.6],[74.0,32.7],[73.9,32.7],[73.9,32.9],[73.8,32.9],[73.8,33.0],[73.7,33.0],[73.7,33.2],[73.6,33.2],[73.6,33.3],[73.5,33.3],[73.5,33.4],[73.4,33.4],[73.4,33.7],[73.3,33.7],[73.3,33.9],[73.2,33.9],[73.2,34.7],[73.3,34.7],[73.3,35.2],[73.4,35.2],[73.4,35.3],[73.5,35.3],[73.5,35.4],[73.6,35.4],[73.6,35.5],[73.7,35.5],[73.7,35.6],[73.8,35.6],[73.8,35.7],[73.9,35.7],[73.9,35.8],[74.1,35.8],[74.1,35.9],[74.2,35.9],[74.2,36.1],[74.4,36.1],[74.4,36.2],[74.5,36.2],[74.5,36.3],[74.6,36.3],[74.6,36.4],[74.7,36.4],[74.7,36.5],[74.8,36.5],[74.8,36.6],[74.9,36.6],[74.9,36.7],[75.0,36.7],[75.0,36.8],[75.1,36.8],[75.1,37.0],[75.2,37.0],[75.2,37.2],[75.3,37.2],[75.3,37.5],[75.4,37.5],[75.4,38.3],[75.3,38.3],[75.3,38.8],[75.2,38.8],[75.2,39.0],[75.1,39.0],[75.1,39.1],[75.0,39.1],[75.0,39.2],[74.9,39.2],[74.9,39.4],[74.8,39.4],[74.8,39.7],[74.7,39.7],[74.7,39.8],[74.6,39.8],[74.6,40.1],[74.5,40.1],[74.5,40.4],[74.3,40.4],[74.3,40.8],[74.2,40.8],[74.2,41.1],[74.1,41.1],[74.1,41.3],[74.0,41.3],[74.0,41.5],[73.9,41.5],[73.9,41.6],[73.8,41.6],[73.8,41.7],[73.7,41.7],[73.7,41.8],[73.6,41.8],[73.6,41.9],[73.5,41.9],[73.5,42.0],[73.4,42.0],[73.4,42.2],[73.3,42.2],[73.3,42.5],[72.8,42.5],[72.8,43.2],[72.7,43.2],[72.7,43.6],[72.8,43.6],[72.8,44.6],[72.7,44.6],[72.7,44.9],[72.6,44.9],[72.6,45.0],[61.4,45.0],[61.4,44.9],[61.3,44.9],[61.3,44.8],[61.1,44.8],[61.1,44.7],[61.0,44.7],[61.0,44.5],[60.9,44.5],[60.9,44.3],[60.8,44.3],[60.8,44.2],[60.6,44.2],[60.6,44.1],[60.3,44.1],[60.3,44.0],[60.2,44.0],[60.2,43.9],[60.1,43.9],[60.1,43.8]]]},"properties":{"tile_id":"51","start_year":452,"end_year":453,"source_image":"data/raw/toolbay/t/51/452.png","source_url":"https://www.toolbay.cc/history-map/t/51/452.png","source_color":"#00ffff","polity_id":null,"polity_assignment":"unverified","geometry_origin":"raster_color_trace","pixel_size_degrees":0.1,"source_color_pixels":18798,"simplification_degrees":0}},{"type":"Feature","id":"51:452:#ff0000","bbox":[74.7,8.2,79.4,13.6],"geometry":{"type":"Polygon","coordinates":[[[75.0,13.6],[74.7,13.6],[74.7,13.3],[74.8,13.3],[74.8,12.8],[74.9,12.8],[74.9,12.6],[75.0,12.6],[75.0,12.4],[75.1,12.4],[75.1,12.2],[75.2,12.2],[75.2,12.0],[75.3,12.0],[75.3,11.9],[75.4,11.9],[75.4,11.8],[75.5,11.8],[75.5,11.7],[75.6,11.7],[75.6,11.5],[75.7,11.5],[75.7,11.3],[75.8,11.3],[75.8,11.1],[75.9,11.1],[75.9,10.8],[76.0,10.8],[76.0,10.5],[76.1,10.5],[76.1,10.3],[76.2,10.3],[76.2,9.9],[76.3,9.9],[76.3,9.5],[76.4,9.5],[76.4,9.2],[76.5,9.2],[76.5,9.0],[76.6,9.0],[76.6,8.9],[76.7,8.9],[76.7,8.8],[76.8,8.8],[76.8,8.7],[76.9,8.7],[76.9,8.5],[77.0,8.5],[77.0,8.4],[77.1,8.4],[77.1,8.3],[77.2,8.3],[77.2,8.2],[77.8,8.2],[77.8,8.3],[78.0,8.3],[78.0,8.4],[78.1,8.4],[78.1,8.5],[78.2,8.5],[78.2,8.9],[78.3,8.9],[78.3,9.1],[78.4,9.1],[78.4,9.2],[78.8,9.2],[78.8,9.3],[78.9,9.3],[78.9,9.4],[79.0,9.4],[79.0,9.8],[79.1,9.8],[79.1,9.9],[79.2,9.9],[79.2,10.0],[79.3,10.0],[79.3,10.3],[79.4,10.3],[79.4,10.5],[78.8,10.5],[78.8,10.6],[78.6,10.6],[78.6,10.7],[78.5,10.7],[78.5,10.8],[78.4,10.8],[78.4,10.9],[78.2,10.9],[78.2,11.1],[78.1,11.1],[78.1,11.2],[78.0,11.2],[78.0,11.3],[77.9,11.3],[77.9,11.4],[77.8,11.4],[77.8,11.6],[77.7,11.6],[77.7,11.7],[77.5,11.7],[77.5,11.9],[77.4,11.9],[77.4,12.0],[77.3,12.0],[77.3,12.1],[77.2,12.1],[77.2,12.2],[77.0,12.2],[77.0,12.3],[76.9,12.3],[76.9,12.4],[76.8,12.4],[76.8,12.5],[76.7,12.5],[76.7,12.6],[76.6,12.6],[76.6,12.7],[76.5,12.7],[76.5,12.8],[76.3,12.8],[76.3,12.9],[76.2,12.9],[76.2,13.0],[76.1,13.0],[76.1,13.1],[76.0,13.1],[76.0,13.2],[75.9,13.2],[75.9,13.3],[75.8,13.3],[75.8,13.4],[75.4,13.4],[75.4,13.5],[75.0,13.5],[75.0,13.6]]]},"properties":{"tile_id":"51","start_year":452,"end_year":453,"source_image":"data/raw/toolbay/t/51/452.png","source_url":"https://www.toolbay.cc/history-map/t/51/452.png","source_color":"#ff0000","polity_id":null,"polity_assignment":"unverified","geometry_origin":"raster_color_trace","pixel_size_degrees":0.1,"source_color_pixels":1083,"simplification_degrees":0}},{"type":"Feature","id":"51:452:#ff00ff","bbox":[66.1,19.7,87.2,31.8],"geometry":{"type":"Polygon","coordinates":[[[74.3,31.8],[73.7,31.8],[73.7,31.7],[73.4,31.7],[73.4,31.6],[73.3,31.6],[73.3,31.5],[73.2,31.5],[73.2,31.4],[73.0,31.4],[73.0,31.3],[72.9,31.3],[72.9,31.2],[72.8,31.2],[72.8,31.1],[72.7,31.1],[72.7,31.0],[72.6,31.0],[72.6,30.9],[72.4,30.9],[72.4,30.7],[72.3,30.7],[72.3,30.6],[72.2,30.6],[72.2,30.4],[72.1,30.4],[72.1,30.3],[72.0,30.3],[72.0,30.2],[71.9,30.2],[71.9,30.1],[71.8,30.1],[71.8,30.0],[71.7,30.0],[71.7,29.9],[71.5,29.9],[71.5,29.7],[70.4,29.7],[70.4,29.8],[69.4,29.8],[69.4,29.7],[69.2,29.7],[69.2,29.6],[69.1,29.6],[69.1,29.5],[69.0,29.5],[69.0,29.4],[68.8,29.4],[68.8,29.3],[68.7,29.3],[68.7,29.2],[68.6,29.2],[68.6,29.1],[68.4,29.1],[68.4,29.0],[68.3,29.0],[68.3,28.8],[68.2,28.8],[68.2,28.7],[68.1,28.7],[68.1,28.6],[68.0,28.6],[68.0,28.4],[67.9,28.4],[67.9,28.2],[67.8,28.2],[67.8,28.1],[67.7,28.1],[67.7,27.9],[67.6,27.9],[67.6,27.8],[67.5,27.8],[67.5,27.6],[67.4,27.6],[67.4,27.5],[67.3,27.5],[67.3,27.3],[67.2,27.3],[67.2,27.1],[67.1,27.1],[67.1,26.9],[67.0,26.9],[67.0,26.8],[66.9,26.8],[66.9,26.6],[66.8,26.6],[66.8,26.5],[66.7,26.5],[66.7,26.3],[66.6,26.3],[66.6,26.2],[66.5,26.2],[66.5,26.1],[66.4,26.1],[66.4,25.9],[66.3,25.9],[66.3,25.8],[66.2,25.8],[66.2,25.7],[66.1,25.7],[66.1,25.5],[66.5,25.5],[66.5,25.4],[66.6,25.4],[66.6,25.3],[66.7,25.3],[66.7,25.0],[66.8,25.0],[66.8,24.9],[67.0,24.9],[67.0,24.8],[67.1,24.8],[67.1,24.7],[67.2,24.7],[67.2,24.5],[67.3,24.5],[67.3,24.2],[67.4,24.2],[67.4,24.1],[67.5,24.1],[67.5,23.9],[67.6,23.9],[67.6,23.8],[68.1,23.8],[68.1,23.7],[68.2,23.7],[68.2,23.6],[68.3,23.6],[68.3,23.5],[68.4,23.5],[68.4,23.4],[68.5,23.4],[68.5,23.3],[68.6,23.3],[68.6,23.2],[68.7,23.2],[68.7,23.1],[68.9,23.1],[68.9,23.0],[69.1,23.0],[69.1,22.9],[69.5,22.9],[69.5,22.8],[69.8,22.8],[69.8,22.9],[70.1,22.9],[70.1,22.8],[70.2,22.8],[70.2,22.7],[70.1,22.7],[70.1,22.6],[69.6,22.6],[69.6,22.5],[69.1,22.5],[69.1,22.4],[69.0,22.4],[69.0,22.2],[69.1,22.2],[69.1,22.1],[69.2,22.1],[69.2,22.0],[69.3,22.0],[69.3,21.9],[69.4,21.9],[69.4,21.8],[69.5,21.8],[69.5,21.7],[69.6,21.7],[69.6,21.6],[69.7,21.6],[69.7,21.5],[69.8,21.5],[69.8,21.4],[69.9,21.4],[69.9,21.3],[70.0,21.3],[70.0,21.2],[70.1,21.2],[70.1,21.1],[70.2,21.1],[70.2,21.0],[70.4,21.0],[70.4,20.9],[70.5,20.9],[70.5,20.8],[70.8,20.8],[70.8,20.7],[71.0,20.7],[71.0,20.8],[71.3,20.8],[71.3,20.9],[71.5,20.9],[71.5,21.0],[71.7,21.0],[71.7,21.1],[71.9,21.1],[71.9,21.2],[72.1,21.2],[72.1,21.3],[72.2,21.3],[72.2,21.5],[72.3,21.5],[72.3,22.0],[72.5,22.0],[72.5,21.8],[73.0,21.8],[73.0,21.9],[73.4,21.9],[73.4,22.0],[74.2,22.0],[74.2,22.1],[75.1,22.1],[75.1,22.0],[76.0,22.0],[76.0,21.9],[76.4,21.9],[76.4,21.8],[76.8,21.8],[76.8,21.7],[77.4,21.7],[77.4,22.3],[77.5,22.3],[77.5,22.5],[77.6,22.5],[77.6,22.6],[77.7,22.6],[77.7,22.9],[77.8,22.9],[77.8,23.0],[77.9,23.0],[77.9,23.3],[78.0,23.3],[78.0,23.4],[78.4,23.4],[78.4,23.3],[79.0,23.3],[79.0,23.2],[79.3,23.2],[79.3,23.1],[79.5,23.1],[79.5,23.0],[79.8,23.0],[79.8,22.9],[80.0,22.9],[80.0,22.8],[80.4,22.8],[80.4,22.7],[80.6,22.7],[80.6,22.6],[80.9,22.6],[80.9,22.5],[81.0,22.5],[81.0,22.4],[81.4,22.4],[81.4,22.3],[81.6,22.3],[81.6,22.2],[81.9,22.2],[81.9,22.1],[82.0,22.1],[82.0,22.0],[82.2,22.0],[82.2,21.9],[82.5,21.9],[82.5,21.8],[82.6,21.8],[82.6,21.7],[82.9,21.7],[82.9,21.6],[83.2,21.6],[83.2,21.5],[83.6,21.5],[83.6,21.4],[83.9,21.4],[83.9,21.3],[84.0,21.3],[84.0,21.2],[84.1,21.2],[84.1,21.1],[84.2,21.1],[84.2,21.0],[84.3,21.0],[84.3,20.9],[84.4,20.9],[84.4,20.8],[84.5,20.8],[84.5,20.6],[84.6,20.6],[84.6,20.5],[84.7,20.5],[84.7,20.3],[84.8,20.3],[84.8,20.2],[84.9,20.2],[84.9,20.0],[85.0,20.0],[85.0,19.9],[85.2,19.9],[85.2,19.8],[85.3,19.8],[85.3,19.7],[85.6,19.7],[85.6,19.8],[85.9,19.8],[85.9,19.9],[86.3,19.9],[86.3,20.0],[86.4,20.0],[86.4,20.1],[86.5,20.1],[86.5,20.2],[86.6,20.2],[86.6,20.3],[86.8,20.3],[86.8,20.4],[86.9,20.4],[86.9,20.6],[87.0,20.6],[87.0,21.0],[86.9,21.0],[86.9,21.4],[87.0,21.4],[87.0,21.5],[87.1,21.5],[87.1,21.6],[87.2,21.6],[87.2,21.7],[87.1,21.7],[87.1,21.8],[86.9,21.8],[86.9,21.9],[86.8,21.9],[86.8,22.0],[86.7,22.0],[86.7,22.1],[86.6,22.1],[86.6,22.2],[86.5,22.2],[86.5,22.3],[86.4,22.3],[86.4,22.4],[86.3,22.4],[86.3,22.6],[86.2,22.6],[86.2,22.7],[86.1,22.7],[86.1,23.0],[86.0,23.0],[86.0,23.4],[85.9,23.4],[85.9,23.9],[85.8,23.9],[85.8,24.4],[85.9,24.4],[85.9,24.9],[86.0,24.9],[86.0,25.4],[86.1,25.4],[86.1,25.6],[86.2,25.6],[86.2,26.1],[86.3,26.1],[86.3,26.5],[86.4,26.5],[86.4,26.8],[86.5,26.8],[86.5,27.1],[86.6,27.1],[86.6,27.6],[86.3,27.6],[86.3,27.7],[85.9,27.7],[85.9,27.8],[85.3,27.8],[85.3,27.9],[84.9,27.9],[84.9,28.0],[84.6,28.0],[84.6,28.1],[84.3,28.1],[84.3,28.2],[83.8,28.2],[83.8,28.3],[83.4,28.3],[83.4,28.4],[83.0,28.4],[83.0,28.5],[82.8,28.5],[82.8,28.6],[82.6,28.6],[82.6,28.7],[82.5,28.7],[82.5,28.8],[82.3,28.8],[82.3,28.9],[82.0,28.9],[82.0,29.0],[81.4,29.0],[81.4,29.1],[81.2,29.1],[81.2,29.2],[80.6,29.2],[80.6,29.3],[80.0,29.3],[80.0,29.4],[79.6,29.4],[79.6,29.5],[79.3,29.5],[79.3,29.6],[79.0,29.6],[79.0,29.7],[78.8,29.7],[78.8,29.8],[78.5,29.8],[78.5,29.9],[78.2,29.9],[78.2,30.0],[77.9,30.0],[77.9,30.1],[77.5,30.1],[77.5,30.2],[77.3,30.2],[77.3,30.3],[76.9,30.3],[76.9,30.4],[76.8,30.4],[76.8,30.5],[76.5,30.5],[76.5,30.6],[76.3,30.6],[76.3,30.7],[76.2,30.7],[76.2,30.8],[76.0,30.8],[76.0,30.9],[75.8,30.9],[75.8,31.0],[75.7,31.0],[75.7,31.1],[75.6,31.1],[75.6,31.2],[75.4,31.2],[75.4,31.3],[75.0,31.3],[75.0,31.4],[74.8,31.4],[74.8,31.5],[74.6,31.5],[74.6,31.6],[74.5,31.6],[74.5,31.7],[74.3,31.7],[74.3,31.8]],[[67.7,24.2],[67.7,24.3],[67.9,24.3],[67.9,24.0],[67.7,24.0],[67.7,24.1],[67.6,24.1],[67.6,24.2],[67.7,24.2]]]},"properties":{"tile_id":"51","start_year":452,"end_year":453,"source_image":"data/raw/toolbay/t/51/452.png","source_url":"https://www.toolbay.cc/history-map/t/51/452.png","source_color":"#ff00ff","polity_id":null,"polity_assignment":"unverified","geometry_origin":"raster_color_trace","pixel_size_degrees":0.1,"source_color_pixels":16843,"simplification_degrees":0}},{"type":"Feature","id":"51:452:#ff9900","bbox":[79.7,6.0,81.9,9.9],"geometry":{"type":"Polygon","coordinates":[[[80.3,9.9],[80.0,9.9],[80.0,9.5],[80.1,9.5],[80.1,9.2],[80.0,9.2],[80.0,9.1],[79.9,9.1],[79.9,8.5],[79.8,8.5],[79.8,8.4],[79.7,8.4],[79.7,7.9],[79.8,7.9],[79.8,6.9],[79.9,6.9],[79.9,6.7],[80.0,6.7],[80.0,6.3],[80.1,6.3],[80.1,6.1],[80.2,6.1],[80.2,6.0],[80.8,6.0],[80.8,6.1],[81.1,6.1],[81.1,6.2],[81.4,6.2],[81.4,6.3],[81.5,6.3],[81.5,6.4],[81.6,6.4],[81.6,6.5],[81.7,6.5],[81.7,6.6],[81.8,6.6],[81.8,6.8],[81.9,6.8],[81.9,7.2],[81.8,7.2],[81.8,7.8],[81.7,7.8],[81.7,7.9],[81.6,7.9],[81.6,8.1],[81.5,8.1],[81.5,8.3],[81.4,8.3],[81.4,8.6],[81.3,8.6],[81.3,8.7],[81.2,8.7],[81.2,8.9],[81.1,8.9],[81.1,9.0],[81.0,9.0],[81.0,9.2],[80.9,9.2],[80.9,9.4],[80.8,9.4],[80.8,9.5],[80.7,9.5],[80.7,9.6],[80.6,9.6],[80.6,9.7],[80.4,9.7],[80.4,9.8],[80.3,9.8],[80.3,9.9]]]},"properties":{"tile_id":"51","start_year":452,"end_year":453,"source_image":"data/raw/toolbay/t/51/452.png","source_url":"https://www.toolbay.cc/history-map/t/51/452.png","source_color":"#ff9900","polity_id":null,"polity_assignment":"unverified","geometry_origin":"raster_color_trace","pixel_size_degrees":0.1,"source_color_pixels":574,"simplification_degrees":0}},{"type":"Feature","id":"51:452:#ffff00","bbox":[79.3,15.4,83.1,19.2],"geometry":{"type":"Polygon","coordinates":[[[82.0,19.2],[81.4,19.2],[81.4,19.1],[81.3,19.1],[81.3,19.0],[81.1,19.0],[81.1,18.9],[80.9,18.9],[80.9,18.8],[80.8,18.8],[80.8,18.7],[80.6,18.7],[80.6,18.6],[80.5,18.6],[80.5,18.5],[80.4,18.5],[80.4,18.4],[80.2,18.4],[80.2,18.3],[80.1,18.3],[80.1,18.2],[80.0,18.2],[80.0,18.0],[79.9,18.0],[79.9,17.9],[79.8,17.9],[79.8,17.8],[79.7,17.8],[79.7,17.7],[79.6,17.7],[79.6,17.5],[79.5,17.5],[79.5,17.3],[79.4,17.3],[79.4,16.8],[79.3,16.8],[79.3,16.0],[79.4,16.0],[79.4,15.6],[79.5,15.6],[79.5,15.5],[79.9,15.5],[79.9,15.4],[80.2,15.4],[80.2,15.5],[80.3,15.5],[80.3,15.7],[80.4,15.7],[80.4,15.8],[80.5,15.8],[80.5,15.9],[80.7,15.9],[80.7,15.8],[81.0,15.8],[81.0,15.9],[81.1,15.9],[81.1,16.0],[81.2,16.0],[81.2,16.2],[81.3,16.2],[81.3,16.3],[81.4,16.3],[81.4,16.4],[81.9,16.4],[81.9,16.5],[82.2,16.5],[82.2,16.6],[82.3,16.6],[82.3,16.7],[82.4,16.7],[82.4,17.2],[82.5,17.2],[82.5,17.3],[82.7,17.3],[82.7,17.4],[82.8,17.4],[82.8,17.5],[83.1,17.5],[83.1,17.6],[83.0,17.6],[83.0,17.8],[82.9,17.8],[82.9,18.0],[82.8,18.0],[82.8,18.2],[82.7,18.2],[82.7,18.3],[82.6,18.3],[82.6,18.5],[82.5,18.5],[82.5,18.6],[82.4,18.6],[82.4,18.8],[82.3,18.8],[82.3,18.9],[82.2,18.9],[82.2,19.0],[82.1,19.0],[82.1,19.1],[82.0,19.1],[82.0,19.2]]]},"properties":{"tile_id":"51","start_year":452,"end_year":453,"source_image":"data/raw/toolbay/t/51/452.png","source_url":"https://www.toolbay.cc/history-map/t/51/452.png","source_color":"#ffff00","polity_id":null,"polity_assignment":"unverified","geometry_origin":"raster_color_trace","pixel_size_degrees":0.1,"source_color_pixels":856,"simplification_degrees":0}}]}
