{"type":"FeatureCollection","features":[{"type":"Feature","id":"51:555:#009999","bbox":[73.7,22.7,80.5,31.8],"geometry":{"type":"Polygon","coordinates":[[[74.3,31.8],[74.2,31.8],[74.2,31.5],[74.1,31.5],[74.1,31.3],[74.0,31.3],[74.0,30.7],[73.9,30.7],[73.9,30.3],[73.8,30.3],[73.8,29.8],[73.7,29.8],[73.7,28.4],[73.8,28.4],[73.8,28.1],[73.9,28.1],[73.9,28.0],[74.1,28.0],[74.1,27.9],[74.2,27.9],[74.2,27.8],[74.4,27.8],[74.4,27.7],[74.5,27.7],[74.5,27.6],[74.8,27.6],[74.8,27.4],[74.9,27.4],[74.9,26.7],[75.0,26.7],[75.0,26.3],[75.1,26.3],[75.1,26.2],[75.2,26.2],[75.2,25.9],[75.3,25.9],[75.3,25.8],[75.4,25.8],[75.4,25.7],[75.5,25.7],[75.5,25.6],[75.6,25.6],[75.6,25.5],[75.7,25.5],[75.7,24.1],[75.6,24.1],[75.6,22.9],[75.7,22.9],[75.7,22.8],[75.8,22.8],[75.8,22.7],[76.3,22.7],[76.3,22.8],[76.4,22.8],[76.4,22.9],[76.8,22.9],[76.8,23.0],[77.3,23.0],[77.3,23.1],[77.8,23.1],[77.8,23.2],[77.9,23.2],[77.9,23.3],[78.0,23.3],[78.0,23.4],[78.4,23.4],[78.4,23.3],[79.0,23.3],[79.0,23.2],[79.3,23.2],[79.3,23.1],[79.6,23.1],[79.6,23.6],[79.7,23.6],[79.7,23.8],[79.8,23.8],[79.8,24.0],[79.9,24.0],[79.9,24.2],[80.0,24.2],[80.0,25.1],[80.1,25.1],[80.1,25.4],[80.2,25.4],[80.2,25.8],[80.3,25.8],[80.3,26.4],[80.4,26.4],[80.4,26.8],[80.5,26.8],[80.5,27.8],[80.4,27.8],[80.4,28.3],[80.3,28.3],[80.3,28.5],[80.2,28.5],[80.2,28.9],[80.1,28.9],[80.1,29.0],[79.9,29.0],[79.9,29.1],[79.8,29.1],[79.8,29.2],[79.6,29.2],[79.6,29.3],[79.4,29.3],[79.4,29.4],[79.2,29.4],[79.2,29.5],[79.1,29.5],[79.1,29.6],[78.8,29.6],[78.8,29.8],[78.5,29.8],[78.5,29.9],[78.2,29.9],[78.2,30.0],[77.9,30.0],[77.9,30.1],[77.5,30.1],[77.5,30.2],[77.3,30.2],[77.3,30.3],[76.9,30.3],[76.9,30.4],[76.8,30.4],[76.8,30.5],[76.5,30.5],[76.5,30.6],[76.3,30.6],[76.3,30.7],[76.2,30.7],[76.2,30.8],[76.0,30.8],[76.0,30.9],[75.8,30.9],[75.8,31.0],[75.7,31.0],[75.7,31.1],[75.6,31.1],[75.6,31.2],[75.4,31.2],[75.4,31.3],[75.0,31.3],[75.0,31.4],[74.8,31.4],[74.8,31.5],[74.6,31.5],[74.6,31.6],[74.5,31.6],[74.5,31.7],[74.3,31.7],[74.3,31.8]]]},"properties":{"tile_id":"51","start_year":555,"end_year":560,"source_image":"data/raw/toolbay/t/51/555.png","source_url":"https://www.toolbay.cc/history-map/t/51/555.png","source_color":"#009999","polity_id":null,"polity_assignment":"unverified","geometry_origin":"raster_color_trace","pixel_size_degrees":0.1,"source_color_pixels":3934,"simplification_degrees":0}},{"type":"Feature","id":"51:555:#00ff00","bbox":[60.0,25.4,61.7,34.3],"geometry":{"type":"MultiPolygon","coordinates":[[[[61.5,27.8],[61.5,27.9],[61.4,27.9],[61.4,27.8],[61.5,27.8]]],[[[60.1,34.2],[60.1,34.3],[60.0,34.3],[60.0,25.4],[60.5,25.4],[60.5,25.8],[60.6,25.8],[60.6,26.1],[60.7,26.1],[60.7,26.4],[60.8,26.4],[60.8,26.9],[60.9,26.9],[60.9,27.1],[61.0,27.1],[61.0,27.2],[61.1,27.2],[61.1,27.4],[61.2,27.4],[61.2,27.7],[61.3,27.7],[61.3,27.9],[61.4,27.9],[61.4,28.6],[61.5,28.6],[61.5,28.9],[61.6,28.9],[61.6,29.2],[61.7,29.2],[61.7,30.5],[61.6,30.5],[61.6,31.0],[61.5,31.0],[61.5,31.4],[61.4,31.4],[61.4,31.8],[61.3,31.8],[61.3,32.3],[61.2,32.3],[61.2,32.6],[61.1,32.6],[61.1,32.8],[61.0,32.8],[61.0,33.1],[60.9,33.1],[60.9,33.2],[60.8,33.2],[60.8,33.4],[60.7,33.4],[60.7,33.5],[60.6,33.5],[60.6,33.7],[60.5,33.7],[60.5,33.8],[60.4,33.8],[60.4,33.9],[60.3,33.9],[60.3,34.0],[60.2,34.0],[60.2,34.2],[60.1,34.2]]]]},"properties":{"tile_id":"51","start_year":555,"end_year":560,"source_image":"data/raw/toolbay/t/51/555.png","source_url":"https://www.toolbay.cc/history-map/t/51/555.png","source_color":"#00ff00","polity_id":null,"polity_assignment":"unverified","geometry_origin":"raster_color_trace","pixel_size_degrees":0.1,"source_color_pixels":17232,"simplification_degrees":0}},{"type":"Feature","id":"51:555:#00ffff","bbox":[60.0,23.8,75.4,45.0],"geometry":{"type":"Polygon","coordinates":[[[60.0,34.4],[60.0,34.3],[60.1,34.3],[60.1,34.2],[60.2,34.2],[60.2,34.0],[60.3,34.0],[60.3,33.9],[60.4,33.9],[60.4,33.8],[60.5,33.8],[60.5,33.7],[60.6,33.7],[60.6,33.5],[60.7,33.5],[60.7,33.4],[60.8,33.4],[60.8,33.2],[60.9,33.2],[60.9,33.1],[61.0,33.1],[61.0,32.8],[61.1,32.8],[61.1,32.6],[61.2,32.6],[61.2,32.3],[61.3,32.3],[61.3,31.8],[61.4,31.8],[61.4,31.4],[61.5,31.4],[61.5,31.0],[61.6,31.0],[61.6,30.5],[61.7,30.5],[61.7,29.2],[61.6,29.2],[61.6,28.9],[61.5,28.9],[61.5,28.6],[61.4,28.6],[61.4,27.9],[61.3,27.9],[61.3,27.7],[61.2,27.7],[61.2,27.4],[61.1,27.4],[61.1,27.2],[61.0,27.2],[61.0,27.1],[60.9,27.1],[60.9,26.9],[60.8,26.9],[60.8,26.4],[60.7,26.4],[60.7,26.1],[60.6,26.1],[60.6,25.8],[60.5,25.8],[60.5,25.4],[60.7,25.4],[60.7,25.3],[61.1,25.3],[61.1,25.2],[61.3,25.2],[61.3,25.1],[62.0,25.1],[62.0,25.2],[62.5,25.2],[62.5,25.3],[63.6,25.3],[63.6,25.4],[64.2,25.4],[64.2,25.3],[64.8,25.3],[64.8,25.4],[65.0,25.4],[65.0,25.3],[65.2,25.3],[65.2,25.4],[66.0,25.4],[66.0,25.5],[66.5,25.5],[66.5,25.4],[66.6,25.4],[66.6,25.3],[66.7,25.3],[66.7,25.0],[66.8,25.0],[66.8,24.9],[67.0,24.9],[67.0,24.8],[67.1,24.8],[67.1,24.7],[67.2,24.7],[67.2,24.5],[67.3,24.5],[67.3,24.2],[67.4,24.2],[67.4,24.1],[67.5,24.1],[67.5,23.9],[67.6,23.9],[67.6,23.8],[68.1,23.8],[68.1,23.9],[68.2,23.9],[68.2,24.1],[68.3,24.1],[68.3,24.2],[68.4,24.2],[68.4,24.4],[68.5,24.4],[68.5,24.5],[68.6,24.5],[68.6,24.7],[68.7,24.7],[68.7,24.9],[68.8,24.9],[68.8,25.1],[68.9,25.1],[68.9,25.2],[69.0,25.2],[69.0,25.5],[69.1,25.5],[69.1,25.7],[69.2,25.7],[69.2,25.9],[69.3,25.9],[69.3,26.3],[69.4,26.3],[69.4,26.6],[69.5,26.6],[69.5,27.0],[69.6,27.0],[69.6,27.3],[69.7,27.3],[69.7,27.6],[69.8,27.6],[69.8,28.0],[69.9,28.0],[69.9,28.1],[69.8,28.1],[69.8,28.4],[69.9,28.4],[69.9,28.7],[70.0,28.7],[70.0,29.1],[70.1,29.1],[70.1,29.5],[70.2,29.5],[70.2,29.7],[70.3,29.7],[70.3,29.9],[70.4,29.9],[70.4,30.2],[70.5,30.2],[70.5,30.3],[70.6,30.3],[70.6,30.5],[70.7,30.5],[70.7,30.7],[70.8,30.7],[70.8,31.0],[70.9,31.0],[70.9,31.2],[71.0,31.2],[71.0,31.4],[71.1,31.4],[71.1,31.6],[71.0,31.6],[71.0,31.8],[71.1,31.8],[71.1,31.9],[71.3,31.9],[71.3,32.0],[71.4,32.0],[71.4,32.1],[71.5,32.1],[71.5,32.2],[71.6,32.2],[71.6,32.3],[71.7,32.3],[71.7,32.4],[71.8,32.4],[71.8,32.6],[71.9,32.6],[71.9,32.9],[72.0,32.9],[72.0,33.1],[72.1,33.1],[72.1,33.2],[72.6,33.2],[72.6,33.1],[73.1,33.1],[73.1,33.0],[73.3,33.0],[73.3,32.9],[73.4,32.9],[73.4,32.8],[73.6,32.8],[73.6,32.7],[73.7,32.7],[73.7,32.6],[73.8,32.6],[73.8,32.5],[73.9,32.5],[73.9,32.4],[74.1,32.4],[74.1,32.3],[74.2,32.3],[74.2,32.5],[74.1,32.5],[74.1,32.6],[74.0,32.6],[74.0,32.7],[73.9,32.7],[73.9,32.9],[73.8,32.9],[73.8,33.0],[73.7,33.0],[73.7,33.2],[73.6,33.2],[73.6,33.3],[73.5,33.3],[73.5,33.4],[73.4,33.4],[73.4,33.7],[73.3,33.7],[73.3,33.9],[73.2,33.9],[73.2,34.7],[73.3,34.7],[73.3,35.2],[73.4,35.2],[73.4,35.3],[73.5,35.3],[73.5,35.4],[73.6,35.4],[73.6,35.5],[73.7,35.5],[73.7,35.6],[73.8,35.6],[73.8,35.7],[73.9,35.7],[73.9,35.8],[74.1,35.8],[74.1,35.9],[74.2,35.9],[74.2,36.1],[74.4,36.1],[74.4,36.2],[74.5,36.2],[74.5,36.3],[74.6,36.3],[74.6,36.4],[74.7,36.4],[74.7,36.5],[74.8,36.5],[74.8,36.6],[74.9,36.6],[74.9,36.7],[75.0,36.7],[75.0,36.8],[75.1,36.8],[75.1,37.0],[75.2,37.0],[75.2,37.2],[75.3,37.2],[75.3,37.5],[75.4,37.5],[75.4,38.3],[75.3,38.3],[75.3,38.8],[75.2,38.8],[75.2,39.0],[75.1,39.0],[75.1,39.1],[75.0,39.1],[75.0,39.2],[74.9,39.2],[74.9,39.4],[74.8,39.4],[74.8,39.7],[74.7,39.7],[74.7,39.8],[74.6,39.8],[74.6,40.1],[74.5,40.1],[74.5,40.4],[74.3,40.4],[74.3,40.8],[74.2,40.8],[74.2,41.1],[74.1,41.1],[74.1,41.3],[74.0,41.3],[74.0,41.5],[73.9,41.5],[73.9,41.6],[73.8,41.6],[73.8,41.7],[73.7,41.7],[73.7,41.8],[73.6,41.8],[73.6,41.9],[73.5,41.9],[73.5,42.0],[73.4,42.0],[73.4,42.2],[73.3,42.2],[73.3,42.5],[72.8,42.5],[72.8,43.2],[72.7,43.2],[72.7,43.6],[72.8,43.6],[72.8,44.6],[72.7,44.6],[72.7,44.9],[72.6,44.9],[72.6,45.0],[61.4,45.0],[61.4,44.9],[61.3,44.9],[61.3,44.8],[61.1,44.8],[61.1,44.7],[61.0,44.7],[61.0,44.5],[60.9,44.5],[60.9,44.3],[60.8,44.3],[60.8,44.2],[60.6,44.2],[60.6,44.1],[60.3,44.1],[60.3,44.0],[60.2,44.0],[60.2,43.9],[60.1,43.9],[60.1,43.8],[60.0,43.8],[60.0,34.4]],[[61.4,27.8],[61.4,27.9],[61.5,27.9],[61.5,27.8],[61.4,27.8]],[[67.7,24.2],[67.7,24.3],[67.9,24.3],[67.9,24.0],[67.7,24.0],[67.7,24.1],[67.6,24.1],[67.6,24.2],[67.7,24.2]]]},"properties":{"tile_id":"51","start_year":555,"end_year":560,"source_image":"data/raw/toolbay/t/51/555.png","source_url":"https://www.toolbay.cc/history-map/t/51/555.png","source_color":"#00ffff","polity_id":null,"polity_assignment":"unverified","geometry_origin":"raster_color_trace","pixel_size_degrees":0.1,"source_color_pixels":28986,"simplification_degrees":0}},{"type":"Feature","id":"51:555:#999900","bbox":[72.6,12.2,90.0,45.0],"geometry":{"type":"MultiPolygon","coordinates":[[[[78.4,23.3],[78.4,23.4],[78.0,23.4],[78.0,23.3],[77.9,23.3],[77.9,23.2],[77.8,23.2],[77.8,23.1],[77.3,23.1],[77.3,23.0],[76.8,23.0],[76.8,22.9],[76.4,22.9],[76.4,22.8],[76.3,22.8],[76.3,22.7],[75.9,22.7],[75.9,22.6],[76.0,22.6],[76.0,22.5],[76.1,22.5],[76.1,22.4],[76.2,22.4],[76.2,22.2],[76.3,22.2],[76.3,21.1],[76.2,21.1],[76.2,20.9],[76.1,20.9],[76.1,20.7],[76.0,20.7],[76.0,20.6],[75.9,20.6],[75.9,20.4],[75.8,20.4],[75.8,20.3],[75.7,20.3],[75.7,20.2],[75.6,20.2],[75.6,20.0],[75.5,20.0],[75.5,19.9],[75.4,19.9],[75.4,19.7],[75.3,19.7],[75.3,19.5],[75.2,19.5],[75.2,19.3],[75.1,19.3],[75.1,19.2],[75.0,19.2],[75.0,19.0],[74.9,19.0],[74.9,18.8],[74.8,18.8],[74.8,18.6],[74.7,18.6],[74.7,18.4],[74.6,18.4],[74.6,18.2],[74.5,18.2],[74.5,18.0],[74.4,18.0],[74.4,17.8],[74.3,17.8],[74.3,17.6],[74.2,17.6],[74.2,17.5],[74.1,17.5],[74.1,17.3],[74.0,17.3],[74.0,17.0],[73.9,17.0],[73.9,16.9],[73.8,16.9],[73.8,16.6],[73.7,16.6],[73.7,16.0],[73.6,16.0],[73.6,15.9],[73.7,15.9],[73.7,15.6],[73.8,15.6],[73.8,15.4],[73.9,15.4],[73.9,15.1],[74.0,15.1],[74.0,15.0],[74.1,15.0],[74.1,14.9],[74.2,14.9],[74.2,14.7],[74.3,14.7],[74.3,14.5],[74.4,14.5],[74.4,14.3],[74.5,14.3],[74.5,14.0],[74.6,14.0],[74.6,13.7],[74.7,13.7],[74.7,13.3],[74.8,13.3],[74.8,12.8],[74.9,12.8],[74.9,12.6],[75.0,12.6],[75.0,12.4],[75.1,12.4],[75.1,12.2],[75.2,12.2],[75.2,12.3],[75.4,12.3],[75.4,12.4],[75.6,12.4],[75.6,12.5],[75.9,12.5],[75.9,12.6],[76.0,12.6],[76.0,12.7],[76.2,12.7],[76.2,12.8],[76.3,12.8],[76.3,12.9],[76.5,12.9],[76.5,13.1],[76.6,13.1],[76.6,13.2],[76.7,13.2],[76.7,13.3],[76.8,13.3],[76.8,13.4],[76.9,13.4],[76.9,13.5],[77.0,13.5],[77.0,13.7],[77.1,13.7],[77.1,13.8],[77.2,13.8],[77.2,14.0],[77.3,14.0],[77.3,14.1],[77.4,14.1],[77.4,14.3],[77.5,14.3],[77.5,14.4],[77.6,14.4],[77.6,14.5],[77.7,14.5],[77.7,14.7],[77.8,14.7],[77.8,15.3],[77.9,15.3],[77.9,15.6],[78.0,15.6],[78.0,16.1],[78.1,16.1],[78.1,16.5],[78.2,16.5],[78.2,16.7],[78.3,16.7],[78.3,17.2],[78.4,17.2],[78.4,17.4],[78.5,17.4],[78.5,17.6],[78.6,17.6],[78.6,17.8],[78.7,17.8],[78.7,18.0],[78.8,18.0],[78.8,18.2],[78.9,18.2],[78.9,18.3],[79.0,18.3],[79.0,18.5],[79.1,18.5],[79.1,18.6],[79.2,18.6],[79.2,18.7],[79.3,18.7],[79.3,18.8],[79.4,18.8],[79.4,18.9],[79.5,18.9],[79.5,19.0],[79.6,19.0],[79.6,19.1],[79.7,19.1],[79.7,19.2],[79.8,19.2],[79.8,19.3],[80.0,19.3],[80.0,19.4],[80.2,19.4],[80.2,19.5],[81.3,19.5],[81.3,19.4],[81.6,19.4],[81.6,19.3],[81.7,19.3],[81.7,19.2],[82.0,19.2],[82.0,19.1],[82.1,19.1],[82.1,19.0],[82.2,19.0],[82.2,18.9],[82.3,18.9],[82.3,18.8],[82.4,18.8],[82.4,18.6],[82.5,18.6],[82.5,18.5],[82.6,18.5],[82.6,18.3],[82.7,18.3],[82.7,18.2],[82.8,18.2],[82.8,18.0],[82.9,18.0],[82.9,17.8],[83.0,17.8],[83.0,17.6],[83.2,17.6],[83.2,17.7],[83.3,17.7],[83.3,17.8],[83.4,17.8],[83.4,17.9],[83.5,17.9],[83.5,18.0],[83.6,18.0],[83.6,18.1],[83.8,18.1],[83.8,18.2],[83.9,18.2],[83.9,18.3],[84.1,18.3],[84.1,18.4],[84.2,18.4],[84.2,18.5],[84.3,18.5],[84.3,18.6],[84.4,18.6],[84.4,18.7],[84.5,18.7],[84.5,18.8],[84.6,18.8],[84.6,18.9],[84.7,18.9],[84.7,19.1],[84.8,19.1],[84.8,19.2],[84.9,19.2],[84.9,19.3],[85.0,19.3],[85.0,19.4],[85.1,19.4],[85.1,19.5],[85.2,19.5],[85.2,19.6],[85.4,19.6],[85.4,19.7],[85.3,19.7],[85.3,19.8],[85.2,19.8],[85.2,19.9],[85.0,19.9],[85.0,20.0],[84.9,20.0],[84.9,20.2],[84.8,20.2],[84.8,20.3],[84.7,20.3],[84.7,20.5],[84.6,20.5],[84.6,20.6],[84.5,20.6],[84.5,20.8],[84.4,20.8],[84.4,20.9],[84.3,20.9],[84.3,21.0],[84.2,21.0],[84.2,21.1],[84.1,21.1],[84.1,21.2],[84.0,21.2],[84.0,21.3],[83.9,21.3],[83.9,21.4],[83.6,21.4],[83.6,21.5],[83.2,21.5],[83.2,21.6],[82.9,21.6],[82.9,21.7],[82.6,21.7],[82.6,21.8],[82.5,21.8],[82.5,21.9],[82.2,21.9],[82.2,22.0],[82.0,22.0],[82.0,22.1],[81.9,22.1],[81.9,22.2],[81.6,22.2],[81.6,22.3],[81.4,22.3],[81.4,22.4],[81.0,22.4],[81.0,22.5],[80.9,22.5],[80.9,22.6],[80.6,22.6],[80.6,22.7],[80.4,22.7],[80.4,22.8],[80.0,22.8],[80.0,22.9],[79.8,22.9],[79.8,23.0],[79.5,23.0],[79.5,23.1],[79.3,23.1],[79.3,23.2],[79.0,23.2],[79.0,23.3],[78.4,23.3]]],[[[90.0,39.3],[90.0,45.0],[72.6,45.0],[72.6,44.9],[72.7,44.9],[72.7,44.6],[72.8,44.6],[72.8,43.6],[72.7,43.6],[72.7,43.2],[72.8,43.2],[72.8,42.5],[73.3,42.5],[73.3,42.2],[73.4,42.2],[73.4,42.0],[73.5,42.0],[73.5,41.9],[73.6,41.9],[73.6,41.8],[73.7,41.8],[73.7,41.7],[73.8,41.7],[73.8,41.6],[73.9,41.6],[73.9,41.5],[74.0,41.5],[74.0,41.3],[74.1,41.3],[74.1,41.1],[74.2,41.1],[74.2,40.8],[74.3,40.8],[74.3,40.4],[74.5,40.4],[74.5,40.1],[74.6,40.1],[74.6,39.8],[74.7,39.8],[74.7,39.7],[74.8,39.7],[74.8,39.4],[74.9,39.4],[74.9,39.2],[75.0,39.2],[75.0,39.1],[75.1,39.1],[75.1,39.0],[75.2,39.0],[75.2,38.8],[75.3,38.8],[75.3,38.7],[75.4,38.7],[75.4,38.6],[75.5,38.6],[75.5,38.4],[75.7,38.4],[75.7,38.3],[75.8,38.3],[75.8,38.2],[75.9,38.2],[75.9,38.1],[76.0,38.1],[76.0,38.0],[76.2,38.0],[76.2,37.9],[76.4,37.9],[76.4,37.8],[76.5,37.8],[76.5,37.7],[76.7,37.7],[76.7,37.6],[77.0,37.6],[77.0,37.5],[77.1,37.5],[77.1,37.4],[77.3,37.4],[77.3,37.3],[77.6,37.3],[77.6,37.2],[77.8,37.2],[77.8,37.1],[77.9,37.1],[77.9,37.0],[78.2,37.0],[78.2,36.9],[78.4,36.9],[78.4,36.8],[78.8,36.8],[78.8,36.7],[79.2,36.7],[79.2,36.6],[80.9,36.6],[80.9,36.7],[81.4,36.7],[81.4,36.8],[81.9,36.8],[81.9,36.9],[82.2,36.9],[82.2,37.0],[82.4,37.0],[82.4,37.1],[82.8,37.1],[82.8,37.2],[83.1,37.2],[83.1,37.3],[83.3,37.3],[83.3,37.4],[83.8,37.4],[83.8,37.5],[84.1,37.5],[84.1,37.6],[84.4,37.6],[84.4,37.7],[84.8,37.7],[84.8,37.8],[85.1,37.8],[85.1,37.9],[85.4,37.9],[85.4,38.0],[85.6,38.0],[85.6,38.1],[85.8,38.1],[85.8,38.2],[86.2,38.2],[86.2,38.3],[86.6,38.3],[86.6,38.4],[86.9,38.4],[86.9,38.5],[87.1,38.5],[87.1,38.6],[87.3,38.6],[87.3,38.7],[87.6,38.7],[87.6,38.8],[87.9,38.8],[87.9,38.9],[88.2,38.9],[88.2,39.0],[88.5,39.0],[88.5,39.1],[89.0,39.1],[89.0,39.2],[89.5,39.2],[89.5,39.3],[90.0,39.3]]]]},"properties":{"tile_id":"51","start_year":555,"end_year":560,"source_image":"data/raw/toolbay/t/51/555.png","source_url":"https://www.toolbay.cc/history-map/t/51/555.png","source_color":"#999900","polity_id":null,"polity_assignment":"unverified","geometry_origin":"raster_color_trace","pixel_size_degrees":0.1,"source_color_pixels":17264,"simplification_degrees":0}},{"type":"Feature","id":"51:555:#ff0000","bbox":[68.1,16.0,76.3,33.2],"geometry":{"type":"Polygon","coordinates":[[[72.6,33.2],[72.1,33.2],[72.1,33.1],[72.0,33.1],[72.0,32.9],[71.9,32.9],[71.9,32.6],[71.8,32.6],[71.8,32.4],[71.7,32.4],[71.7,32.3],[71.6,32.3],[71.6,32.2],[71.5,32.2],[71.5,32.1],[71.4,32.1],[71.4,32.0],[71.3,32.0],[71.3,31.9],[71.1,31.9],[71.1,31.8],[71.0,31.8],[71.0,31.6],[71.1,31.6],[71.1,31.4],[71.0,31.4],[71.0,31.2],[70.9,31.2],[70.9,31.0],[70.8,31.0],[70.8,30.7],[70.7,30.7],[70.7,30.5],[70.6,30.5],[70.6,30.3],[70.5,30.3],[70.5,30.2],[70.4,30.2],[70.4,29.9],[70.3,29.9],[70.3,29.7],[70.2,29.7],[70.2,29.5],[70.1,29.5],[70.1,29.1],[70.0,29.1],[70.0,28.7],[69.9,28.7],[69.9,28.4],[69.8,28.4],[69.8,28.1],[69.9,28.1],[69.9,28.0],[69.8,28.0],[69.8,27.6],[69.7,27.6],[69.7,27.3],[69.6,27.3],[69.6,27.0],[69.5,27.0],[69.5,26.6],[69.4,26.6],[69.4,26.3],[69.3,26.3],[69.3,25.9],[69.2,25.9],[69.2,25.7],[69.1,25.7],[69.1,25.5],[69.0,25.5],[69.0,25.2],[68.9,25.2],[68.9,25.1],[68.8,25.1],[68.8,24.9],[68.7,24.9],[68.7,24.7],[68.6,24.7],[68.6,24.5],[68.5,24.5],[68.5,24.4],[68.4,24.4],[68.4,24.2],[68.3,24.2],[68.3,24.1],[68.2,24.1],[68.2,23.9],[68.1,23.9],[68.1,23.7],[68.2,23.7],[68.2,23.6],[68.3,23.6],[68.3,23.5],[68.4,23.5],[68.4,23.4],[68.5,23.4],[68.5,23.3],[68.6,23.3],[68.6,23.2],[68.7,23.2],[68.7,23.1],[68.9,23.1],[68.9,23.0],[69.1,23.0],[69.1,22.9],[69.5,22.9],[69.5,22.8],[69.8,22.8],[69.8,22.9],[70.1,22.9],[70.1,22.8],[70.2,22.8],[70.2,22.7],[70.1,22.7],[70.1,22.6],[69.6,22.6],[69.6,22.5],[69.1,22.5],[69.1,22.4],[69.0,22.4],[69.0,22.2],[69.1,22.2],[69.1,22.1],[69.2,22.1],[69.2,22.0],[69.3,22.0],[69.3,21.9],[69.4,21.9],[69.4,21.8],[69.5,21.8],[69.5,21.7],[69.6,21.7],[69.6,21.6],[69.7,21.6],[69.7,21.5],[69.8,21.5],[69.8,21.4],[69.9,21.4],[69.9,21.3],[70.0,21.3],[70.0,21.2],[70.1,21.2],[70.1,21.1],[70.2,21.1],[70.2,21.0],[70.4,21.0],[70.4,20.9],[70.5,20.9],[70.5,20.8],[70.8,20.8],[70.8,20.7],[71.0,20.7],[71.0,20.8],[71.3,20.8],[71.3,20.9],[71.5,20.9],[71.5,21.0],[71.7,21.0],[71.7,21.1],[71.9,21.1],[71.9,21.2],[72.1,21.2],[72.1,21.3],[72.2,21.3],[72.2,21.5],[72.3,21.5],[72.3,22.0],[72.5,22.0],[72.5,21.8],[72.6,21.8],[72.6,21.1],[72.7,21.1],[72.7,21.0],[72.8,21.0],[72.8,20.8],[72.9,20.8],[72.9,20.5],[72.8,20.5],[72.8,20.3],[72.7,20.3],[72.7,19.5],[72.8,19.5],[72.8,18.9],[72.9,18.9],[72.9,18.3],[73.0,18.3],[73.0,18.0],[73.1,18.0],[73.1,17.6],[73.2,17.6],[73.2,17.2],[73.3,17.2],[73.3,16.5],[73.4,16.5],[73.4,16.2],[73.5,16.2],[73.5,16.0],[73.7,16.0],[73.7,16.6],[73.8,16.6],[73.8,16.9],[73.9,16.9],[73.9,17.0],[74.0,17.0],[74.0,17.3],[74.1,17.3],[74.1,17.5],[74.2,17.5],[74.2,17.6],[74.3,17.6],[74.3,17.8],[74.4,17.8],[74.4,18.0],[74.5,18.0],[74.5,18.2],[74.6,18.2],[74.6,18.4],[74.7,18.4],[74.7,18.6],[74.8,18.6],[74.8,18.8],[74.9,18.8],[74.9,19.0],[75.0,19.0],[75.0,19.2],[75.1,19.2],[75.1,19.3],[75.2,19.3],[75.2,19.5],[75.3,19.5],[75.3,19.7],[75.4,19.7],[75.4,19.9],[75.5,19.9],[75.5,20.0],[75.6,20.0],[75.6,20.2],[75.7,20.2],[75.7,20.3],[75.8,20.3],[75.8,20.4],[75.9,20.4],[75.9,20.6],[76.0,20.6],[76.0,20.7],[76.1,20.7],[76.1,20.9],[76.2,20.9],[76.2,21.1],[76.3,21.1],[76.3,22.2],[76.2,22.2],[76.2,22.4],[76.1,22.4],[76.1,22.5],[76.0,22.5],[76.0,22.6],[75.9,22.6],[75.9,22.7],[75.8,22.7],[75.8,22.8],[75.7,22.8],[75.7,22.9],[75.6,22.9],[75.6,24.1],[75.7,24.1],[75.7,25.5],[75.6,25.5],[75.6,25.6],[75.5,25.6],[75.5,25.7],[75.4,25.7],[75.4,25.8],[75.3,25.8],[75.3,25.9],[75.2,25.9],[75.2,26.2],[75.1,26.2],[75.1,26.3],[75.0,26.3],[75.0,26.7],[74.9,26.7],[74.9,27.4],[74.8,27.4],[74.8,27.6],[74.5,27.6],[74.5,27.7],[74.4,27.7],[74.4,27.8],[74.2,27.8],[74.2,27.9],[74.1,27.9],[74.1,28.0],[73.9,28.0],[73.9,28.1],[73.8,28.1],[73.8,28.4],[73.7,28.4],[73.7,29.8],[73.8,29.8],[73.8,30.3],[73.9,30.3],[73.9,30.7],[74.0,30.7],[74.0,31.3],[74.1,31.3],[74.1,31.5],[74.2,31.5],[74.2,32.3],[74.1,32.3],[74.1,32.4],[73.9,32.4],[73.9,32.5],[73.8,32.5],[73.8,32.6],[73.7,32.6],[73.7,32.7],[73.6,32.7],[73.6,32.8],[73.4,32.8],[73.4,32.9],[73.3,32.9],[73.3,33.0],[73.1,33.0],[73.1,33.1],[72.6,33.1],[72.6,33.2]]]},"properties":{"tile_id":"51","start_year":555,"end_year":560,"source_image":"data/raw/toolbay/t/51/555.png","source_url":"https://www.toolbay.cc/history-map/t/51/555.png","source_color":"#ff0000","polity_id":null,"polity_assignment":"unverified","geometry_origin":"raster_color_trace","pixel_size_degrees":0.1,"source_color_pixels":6904,"simplification_degrees":0}},{"type":"Feature","id":"51:555:#ff9900","bbox":[79.7,6.0,81.9,9.9],"geometry":{"type":"Polygon","coordinates":[[[80.3,9.9],[80.0,9.9],[80.0,9.5],[80.1,9.5],[80.1,9.2],[80.0,9.2],[80.0,9.1],[79.9,9.1],[79.9,8.5],[79.8,8.5],[79.8,8.4],[79.7,8.4],[79.7,7.9],[79.8,7.9],[79.8,6.9],[79.9,6.9],[79.9,6.7],[80.0,6.7],[80.0,6.3],[80.1,6.3],[80.1,6.1],[80.2,6.1],[80.2,6.0],[80.8,6.0],[80.8,6.1],[81.1,6.1],[81.1,6.2],[81.4,6.2],[81.4,6.3],[81.5,6.3],[81.5,6.4],[81.6,6.4],[81.6,6.5],[81.7,6.5],[81.7,6.6],[81.8,6.6],[81.8,6.8],[81.9,6.8],[81.9,7.2],[81.8,7.2],[81.8,7.8],[81.7,7.8],[81.7,7.9],[81.6,7.9],[81.6,8.1],[81.5,8.1],[81.5,8.3],[81.4,8.3],[81.4,8.6],[81.3,8.6],[81.3,8.7],[81.2,8.7],[81.2,8.9],[81.1,8.9],[81.1,9.0],[81.0,9.0],[81.0,9.2],[80.9,9.2],[80.9,9.4],[80.8,9.4],[80.8,9.5],[80.7,9.5],[80.7,9.6],[80.6,9.6],[80.6,9.7],[80.4,9.7],[80.4,9.8],[80.3,9.8],[80.3,9.9]]]},"properties":{"tile_id":"51","start_year":555,"end_year":560,"source_image":"data/raw/toolbay/t/51/555.png","source_url":"https://www.toolbay.cc/history-map/t/51/555.png","source_color":"#ff9900","polity_id":null,"polity_assignment":"unverified","geometry_origin":"raster_color_trace","pixel_size_degrees":0.1,"source_color_pixels":574,"simplification_degrees":0}},{"type":"Feature","id":"51:555:#ffff00","bbox":[75.2,8.2,83.1,19.5],"geometry":{"type":"Polygon","coordinates":[[[81.3,19.5],[80.2,19.5],[80.2,19.4],[80.0,19.4],[80.0,19.3],[79.8,19.3],[79.8,19.2],[79.7,19.2],[79.7,19.1],[79.6,19.1],[79.6,19.0],[79.5,19.0],[79.5,18.9],[79.4,18.9],[79.4,18.8],[79.3,18.8],[79.3,18.7],[79.2,18.7],[79.2,18.6],[79.1,18.6],[79.1,18.5],[79.0,18.5],[79.0,18.3],[78.9,18.3],[78.9,18.2],[78.8,18.2],[78.8,18.0],[78.7,18.0],[78.7,17.8],[78.6,17.8],[78.6,17.6],[78.5,17.6],[78.5,17.4],[78.4,17.4],[78.4,17.2],[78.3,17.2],[78.3,16.7],[78.2,16.7],[78.2,16.5],[78.1,16.5],[78.1,16.1],[78.0,16.1],[78.0,15.6],[77.9,15.6],[77.9,15.3],[77.8,15.3],[77.8,14.7],[77.7,14.7],[77.7,14.5],[77.6,14.5],[77.6,14.4],[77.5,14.4],[77.5,14.3],[77.4,14.3],[77.4,14.1],[77.3,14.1],[77.3,14.0],[77.2,14.0],[77.2,13.8],[77.1,13.8],[77.1,13.7],[77.0,13.7],[77.0,13.5],[76.9,13.5],[76.9,13.4],[76.8,13.4],[76.8,13.3],[76.7,13.3],[76.7,13.2],[76.6,13.2],[76.6,13.1],[76.5,13.1],[76.5,12.9],[76.3,12.9],[76.3,12.8],[76.2,12.8],[76.2,12.7],[76.0,12.7],[76.0,12.6],[75.9,12.6],[75.9,12.5],[75.6,12.5],[75.6,12.4],[75.4,12.4],[75.4,12.3],[75.2,12.3],[75.2,12.0],[75.3,12.0],[75.3,11.9],[75.4,11.9],[75.4,11.8],[75.5,11.8],[75.5,11.7],[75.6,11.7],[75.6,11.5],[75.7,11.5],[75.7,11.3],[75.8,11.3],[75.8,11.1],[75.9,11.1],[75.9,10.8],[76.0,10.8],[76.0,10.5],[76.1,10.5],[76.1,10.3],[76.2,10.3],[76.2,9.9],[76.3,9.9],[76.3,9.5],[76.4,9.5],[76.4,9.2],[76.5,9.2],[76.5,9.0],[76.6,9.0],[76.6,8.9],[76.7,8.9],[76.7,8.8],[76.8,8.8],[76.8,8.7],[76.9,8.7],[76.9,8.5],[77.0,8.5],[77.0,8.4],[77.1,8.4],[77.1,8.3],[77.2,8.3],[77.2,8.2],[77.8,8.2],[77.8,8.3],[78.0,8.3],[78.0,8.4],[78.1,8.4],[78.1,8.5],[78.2,8.5],[78.2,8.9],[78.3,8.9],[78.3,9.1],[78.4,9.1],[78.4,9.2],[78.8,9.2],[78.8,9.3],[78.9,9.3],[78.9,9.4],[79.0,9.4],[79.0,9.8],[79.1,9.8],[79.1,9.9],[79.2,9.9],[79.2,10.0],[79.3,10.0],[79.3,10.3],[79.4,10.3],[79.4,10.4],[79.6,10.4],[79.6,10.3],[79.8,10.3],[79.8,10.4],[79.9,10.4],[79.9,11.5],[79.8,11.5],[79.8,11.9],[79.9,11.9],[79.9,12.2],[80.0,12.2],[80.0,12.3],[80.1,12.3],[80.1,12.5],[80.2,12.5],[80.2,12.7],[80.3,12.7],[80.3,13.1],[80.4,13.1],[80.4,13.6],[80.3,13.6],[80.3,14.0],[80.2,14.0],[80.2,14.9],[80.1,14.9],[80.1,15.4],[80.2,15.4],[80.2,15.5],[80.3,15.5],[80.3,15.7],[80.4,15.7],[80.4,15.8],[80.5,15.8],[80.5,15.9],[80.7,15.9],[80.7,15.8],[81.0,15.8],[81.0,15.9],[81.1,15.9],[81.1,16.0],[81.2,16.0],[81.2,16.2],[81.3,16.2],[81.3,16.3],[81.4,16.3],[81.4,16.4],[81.9,16.4],[81.9,16.5],[82.2,16.5],[82.2,16.6],[82.3,16.6],[82.3,16.7],[82.4,16.7],[82.4,17.2],[82.5,17.2],[82.5,17.3],[82.7,17.3],[82.7,17.4],[82.8,17.4],[82.8,17.5],[83.1,17.5],[83.1,17.6],[83.0,17.6],[83.0,17.8],[82.9,17.8],[82.9,18.0],[82.8,18.0],[82.8,18.2],[82.7,18.2],[82.7,18.3],[82.6,18.3],[82.6,18.5],[82.5,18.5],[82.5,18.6],[82.4,18.6],[82.4,18.8],[82.3,18.8],[82.3,18.9],[82.2,18.9],[82.2,19.0],[82.1,19.0],[82.1,19.1],[82.0,19.1],[82.0,19.2],[81.7,19.2],[81.7,19.3],[81.6,19.3],[81.6,19.4],[81.3,19.4],[81.3,19.5]]]},"properties":{"tile_id":"51","start_year":555,"end_year":560,"source_image":"data/raw/toolbay/t/51/555.png","source_url":"https://www.toolbay.cc/history-map/t/51/555.png","source_color":"#ffff00","polity_id":null,"polity_assignment":"unverified","geometry_origin":"raster_color_trace","pixel_size_degrees":0.1,"source_color_pixels":3655,"simplification_degrees":0}}]}
