{"type":"FeatureCollection","features":[{"type":"Feature","id":"51:760:#0000ff","bbox":[74.0,26.0,81.2,32.0],"geometry":{"type":"Polygon","coordinates":[[[76.4,32.0],[75.7,32.0],[75.7,31.9],[75.6,31.9],[75.6,31.2],[75.5,31.2],[75.5,31.0],[75.4,31.0],[75.4,30.9],[75.3,30.9],[75.3,30.8],[75.2,30.8],[75.2,30.6],[75.1,30.6],[75.1,30.4],[75.0,30.4],[75.0,30.3],[74.9,30.3],[74.9,30.2],[74.8,30.2],[74.8,30.0],[74.7,30.0],[74.7,29.9],[74.6,29.9],[74.6,29.8],[74.5,29.8],[74.5,29.7],[74.4,29.7],[74.4,29.6],[74.2,29.6],[74.2,29.4],[74.1,29.4],[74.1,29.3],[74.0,29.3],[74.0,28.5],[74.1,28.5],[74.1,28.3],[74.2,28.3],[74.2,28.1],[74.3,28.1],[74.3,27.9],[74.4,27.9],[74.4,27.7],[74.5,27.7],[74.5,27.6],[74.7,27.6],[74.7,27.5],[74.8,27.5],[74.8,27.4],[75.0,27.4],[75.0,27.3],[75.1,27.3],[75.1,27.2],[75.2,27.2],[75.2,27.1],[75.3,27.1],[75.3,27.0],[75.6,27.0],[75.6,26.9],[75.8,26.9],[75.8,26.8],[76.1,26.8],[76.1,26.7],[76.2,26.7],[76.2,26.6],[76.6,26.6],[76.6,26.5],[76.8,26.5],[76.8,26.4],[77.2,26.4],[77.2,26.3],[77.7,26.3],[77.7,26.2],[78.3,26.2],[78.3,26.1],[78.7,26.1],[78.7,26.0],[79.5,26.0],[79.5,26.1],[80.0,26.1],[80.0,26.0],[80.5,26.0],[80.5,26.1],[80.6,26.1],[80.6,26.2],[80.7,26.2],[80.7,26.3],[80.8,26.3],[80.8,26.7],[80.7,26.7],[80.7,27.4],[80.8,27.4],[80.8,27.7],[80.9,27.7],[80.9,28.0],[81.0,28.0],[81.0,28.2],[81.1,28.2],[81.1,28.5],[81.2,28.5],[81.2,28.6],[80.9,28.6],[80.9,28.7],[80.7,28.7],[80.7,28.8],[80.5,28.8],[80.5,28.9],[80.1,28.9],[80.1,29.0],[79.9,29.0],[79.9,29.1],[79.8,29.1],[79.8,29.2],[79.6,29.2],[79.6,29.3],[79.4,29.3],[79.4,29.4],[79.2,29.4],[79.2,29.5],[79.1,29.5],[79.1,29.6],[78.8,29.6],[78.8,29.8],[78.7,29.8],[78.7,29.9],[78.8,29.9],[78.8,30.0],[78.9,30.0],[78.9,30.1],[79.0,30.1],[79.0,30.2],[79.2,30.2],[79.2,30.4],[79.5,30.4],[79.5,30.5],[79.6,30.5],[79.6,30.6],[79.7,30.6],[79.7,30.9],[79.5,30.9],[79.5,31.0],[79.3,31.0],[79.3,31.1],[79.1,31.1],[79.1,31.2],[78.9,31.2],[78.9,31.3],[78.6,31.3],[78.6,31.4],[78.0,31.4],[78.0,31.5],[77.7,31.5],[77.7,31.6],[77.4,31.6],[77.4,31.7],[77.2,31.7],[77.2,31.8],[76.8,31.8],[76.8,31.9],[76.4,31.9],[76.4,32.0]]]},"properties":{"tile_id":"51","start_year":760,"end_year":790,"source_image":"data/raw/toolbay/t/51/760.png","source_url":"https://www.toolbay.cc/history-map/t/51/760.png","source_color":"#0000ff","polity_id":null,"polity_assignment":"unverified","geometry_origin":"raster_color_trace","pixel_size_degrees":0.1,"source_color_pixels":2817,"simplification_degrees":0}},{"type":"Feature","id":"51:760:#009999","bbox":[60.0,23.8,73.5,41.2],"geometry":{"type":"Polygon","coordinates":[[[60.2,41.2],[60.0,41.2],[60.0,25.4],[60.7,25.4],[60.7,25.3],[61.1,25.3],[61.1,25.2],[61.3,25.2],[61.3,25.1],[62.0,25.1],[62.0,25.2],[62.5,25.2],[62.5,25.3],[63.6,25.3],[63.6,25.4],[64.2,25.4],[64.2,25.3],[64.8,25.3],[64.8,25.4],[65.0,25.4],[65.0,25.3],[65.2,25.3],[65.2,25.4],[66.0,25.4],[66.0,25.5],[66.5,25.5],[66.5,25.4],[66.6,25.4],[66.6,25.3],[66.7,25.3],[66.7,25.0],[66.8,25.0],[66.8,24.9],[67.0,24.9],[67.0,24.8],[67.1,24.8],[67.1,24.7],[67.2,24.7],[67.2,24.5],[67.3,24.5],[67.3,24.2],[67.4,24.2],[67.4,24.1],[67.5,24.1],[67.5,23.9],[67.6,23.9],[67.6,23.8],[68.1,23.8],[68.1,23.9],[68.2,23.9],[68.2,24.1],[68.3,24.1],[68.3,24.2],[68.4,24.2],[68.4,24.4],[68.5,24.4],[68.5,24.5],[68.6,24.5],[68.6,24.7],[68.7,24.7],[68.7,24.9],[68.8,24.9],[68.8,25.1],[68.9,25.1],[68.9,25.2],[69.0,25.2],[69.0,25.5],[69.1,25.5],[69.1,25.7],[69.2,25.7],[69.2,25.9],[69.3,25.9],[69.3,26.3],[69.4,26.3],[69.4,26.6],[69.5,26.6],[69.5,27.0],[69.6,27.0],[69.6,27.3],[69.7,27.3],[69.7,27.6],[69.8,27.6],[69.8,28.0],[69.9,28.0],[69.9,28.1],[69.8,28.1],[69.8,28.4],[69.9,28.4],[69.9,28.7],[70.0,28.7],[70.0,29.1],[70.1,29.1],[70.1,29.5],[70.2,29.5],[70.2,29.7],[70.3,29.7],[70.3,29.9],[70.4,29.9],[70.4,30.2],[70.5,30.2],[70.5,30.3],[70.6,30.3],[70.6,30.5],[70.7,30.5],[70.7,30.7],[70.8,30.7],[70.8,31.0],[70.9,31.0],[70.9,31.2],[71.0,31.2],[71.0,31.4],[71.1,31.4],[71.1,31.6],[71.0,31.6],[71.0,31.8],[71.1,31.8],[71.1,31.9],[71.3,31.9],[71.3,32.0],[71.4,32.0],[71.4,32.1],[71.5,32.1],[71.5,32.2],[71.6,32.2],[71.6,32.3],[71.7,32.3],[71.7,32.4],[71.8,32.4],[71.8,32.6],[71.9,32.6],[71.9,32.9],[72.0,32.9],[72.0,33.1],[72.1,33.1],[72.1,33.2],[72.6,33.2],[72.6,33.1],[72.9,33.1],[72.9,33.3],[73.0,33.3],[73.0,33.6],[73.1,33.6],[73.1,34.0],[73.2,34.0],[73.2,34.7],[73.3,34.7],[73.3,35.2],[73.4,35.2],[73.4,35.3],[73.5,35.3],[73.5,35.6],[73.4,35.6],[73.4,35.9],[73.5,35.9],[73.5,36.2],[73.0,36.2],[73.0,36.3],[72.8,36.3],[72.8,36.4],[72.1,36.4],[72.1,36.3],[71.4,36.3],[71.4,36.4],[71.0,36.4],[71.0,36.5],[70.7,36.5],[70.7,36.6],[70.3,36.6],[70.3,36.7],[70.0,36.7],[70.0,36.8],[69.8,36.8],[69.8,36.9],[69.5,36.9],[69.5,37.0],[69.3,37.0],[69.3,37.1],[69.0,37.1],[69.0,37.2],[68.9,37.2],[68.9,37.3],[68.8,37.3],[68.8,37.4],[68.6,37.4],[68.6,37.5],[68.5,37.5],[68.5,37.6],[68.4,37.6],[68.4,37.7],[67.7,37.7],[67.7,37.8],[67.3,37.8],[67.3,37.9],[66.9,37.9],[66.9,38.0],[66.4,38.0],[66.4,38.1],[66.2,38.1],[66.2,38.2],[65.6,38.2],[65.6,38.3],[65.2,38.3],[65.2,38.4],[64.9,38.4],[64.9,38.5],[64.7,38.5],[64.7,38.6],[64.5,38.6],[64.5,38.7],[64.3,38.7],[64.3,38.8],[63.9,38.8],[63.9,38.9],[63.6,38.9],[63.6,39.0],[63.4,39.0],[63.4,39.1],[63.2,39.1],[63.2,39.2],[63.1,39.2],[63.1,39.3],[63.0,39.3],[63.0,39.4],[62.9,39.4],[62.9,39.5],[62.7,39.5],[62.7,39.7],[62.6,39.7],[62.6,39.8],[62.4,39.8],[62.4,39.9],[62.3,39.9],[62.3,40.0],[62.2,40.0],[62.2,40.2],[62.1,40.2],[62.1,40.3],[62.0,40.3],[62.0,40.4],[61.9,40.4],[61.9,40.6],[61.8,40.6],[61.8,40.7],[61.6,40.7],[61.6,40.8],[61.5,40.8],[61.5,40.9],[61.3,40.9],[61.3,41.0],[60.8,41.0],[60.8,41.1],[60.2,41.1],[60.2,41.2]],[[67.7,24.2],[67.7,24.3],[67.9,24.3],[67.9,24.0],[67.7,24.0],[67.7,24.1],[67.6,24.1],[67.6,24.2],[67.7,24.2]]]},"properties":{"tile_id":"51","start_year":760,"end_year":790,"source_image":"data/raw/toolbay/t/51/760.png","source_url":"https://www.toolbay.cc/history-map/t/51/760.png","source_color":"#009999","polity_id":null,"polity_assignment":"unverified","geometry_origin":"raster_color_trace","pixel_size_degrees":0.1,"source_color_pixels":46063,"simplification_degrees":0}},{"type":"Feature","id":"51:760:#00ff00","bbox":[80.7,21.6,90.0,28.5],"geometry":{"type":"Polygon","coordinates":[[[81.5,28.5],[81.1,28.5],[81.1,28.2],[81.0,28.2],[81.0,28.0],[80.9,28.0],[80.9,27.7],[80.8,27.7],[80.8,27.4],[80.7,27.4],[80.7,26.7],[80.8,26.7],[80.8,26.5],[80.9,26.5],[80.9,26.3],[81.0,26.3],[81.0,26.2],[81.1,26.2],[81.1,26.0],[81.3,26.0],[81.3,25.9],[81.4,25.9],[81.4,25.8],[81.5,25.8],[81.5,25.7],[81.6,25.7],[81.6,25.6],[81.8,25.6],[81.8,25.5],[82.0,25.5],[82.0,25.4],[82.1,25.4],[82.1,25.3],[82.3,25.3],[82.3,25.2],[82.5,25.2],[82.5,25.1],[83.4,25.1],[83.4,25.0],[83.6,25.0],[83.6,25.1],[84.1,25.1],[84.1,25.0],[84.9,25.0],[84.9,24.9],[85.4,24.9],[85.4,24.8],[85.7,24.8],[85.7,24.7],[85.8,24.7],[85.8,24.6],[85.9,24.6],[85.9,24.5],[86.0,24.5],[86.0,24.3],[86.1,24.3],[86.1,24.2],[86.2,24.2],[86.2,24.1],[86.1,24.1],[86.1,23.9],[86.2,23.9],[86.2,23.8],[86.3,23.8],[86.3,23.3],[86.2,23.3],[86.2,23.0],[86.3,23.0],[86.3,22.6],[86.4,22.6],[86.4,22.4],[86.5,22.4],[86.5,22.2],[86.6,22.2],[86.6,22.1],[86.7,22.1],[86.7,21.9],[86.8,21.9],[86.8,21.8],[86.9,21.8],[86.9,21.7],[87.0,21.7],[87.0,21.6],[87.5,21.6],[87.5,21.7],[87.8,21.7],[87.8,21.8],[88.1,21.8],[88.1,21.7],[88.2,21.7],[88.2,21.6],[89.0,21.6],[89.0,21.7],[89.4,21.7],[89.4,21.8],[89.7,21.8],[89.7,21.9],[89.9,21.9],[89.9,22.0],[90.0,22.0],[90.0,25.8],[89.9,25.8],[89.9,26.1],[90.0,26.1],[90.0,27.5],[89.1,27.5],[89.1,27.6],[88.7,27.6],[88.7,27.7],[88.2,27.7],[88.2,27.8],[87.8,27.8],[87.8,27.9],[87.5,27.9],[87.5,28.0],[86.9,28.0],[86.9,28.1],[86.2,28.1],[86.2,27.8],[86.1,27.8],[86.1,27.0],[85.8,27.0],[85.8,27.1],[85.5,27.1],[85.5,27.2],[85.4,27.2],[85.4,27.3],[85.2,27.3],[85.2,27.4],[84.9,27.4],[84.9,27.5],[84.4,27.5],[84.4,27.6],[84.0,27.6],[84.0,27.7],[83.7,27.7],[83.7,27.8],[83.4,27.8],[83.4,27.9],[83.3,27.9],[83.3,28.0],[82.7,28.0],[82.7,28.1],[82.5,28.1],[82.5,28.2],[82.1,28.2],[82.1,28.3],[81.7,28.3],[81.7,28.4],[81.5,28.4],[81.5,28.5]],[[89.7,24.3],[89.7,24.7],[89.9,24.7],[89.9,24.3],[89.7,24.3]]]},"properties":{"tile_id":"51","start_year":760,"end_year":790,"source_image":"data/raw/toolbay/t/51/760.png","source_url":"https://www.toolbay.cc/history-map/t/51/760.png","source_color":"#00ff00","polity_id":null,"polity_assignment":"unverified","geometry_origin":"raster_color_trace","pixel_size_degrees":0.1,"source_color_pixels":3683,"simplification_degrees":0}},{"type":"Feature","id":"51:760:#00ffff","bbox":[60.0,15.8,85.4,45.0],"geometry":{"type":"MultiPolygon","coordinates":[[[[82.5,21.8],[82.5,21.9],[82.3,21.9],[82.3,21.7],[82.2,21.7],[82.2,21.5],[82.1,21.5],[82.1,21.4],[82.0,21.4],[82.0,21.3],[81.9,21.3],[81.9,21.2],[81.8,21.2],[81.8,21.1],[81.7,21.1],[81.7,21.0],[81.6,21.0],[81.6,20.9],[81.5,20.9],[81.5,20.8],[81.4,20.8],[81.4,20.5],[81.3,20.5],[81.3,20.4],[81.2,20.4],[81.2,20.3],[81.1,20.3],[81.1,20.1],[81.0,20.1],[81.0,19.9],[80.9,19.9],[80.9,19.8],[80.8,19.8],[80.8,19.6],[80.7,19.6],[80.7,19.4],[80.6,19.4],[80.6,19.3],[80.5,19.3],[80.5,19.2],[80.4,19.2],[80.4,19.0],[80.2,19.0],[80.2,18.9],[80.1,18.9],[80.1,18.8],[80.0,18.8],[80.0,18.6],[79.9,18.6],[79.9,18.5],[79.8,18.5],[79.8,18.4],[79.7,18.4],[79.7,18.3],[79.6,18.3],[79.6,18.2],[79.5,18.2],[79.5,18.1],[79.4,18.1],[79.4,17.9],[79.3,17.9],[79.3,17.3],[79.4,17.3],[79.4,17.1],[79.5,17.1],[79.5,16.9],[79.6,16.9],[79.6,16.7],[79.7,16.7],[79.7,16.6],[79.8,16.6],[79.8,16.5],[79.9,16.5],[79.9,16.4],[80.1,16.4],[80.1,16.3],[80.2,16.3],[80.2,16.2],[80.3,16.2],[80.3,16.1],[80.4,16.1],[80.4,15.9],[80.7,15.9],[80.7,15.8],[81.0,15.8],[81.0,15.9],[81.1,15.9],[81.1,16.0],[81.2,16.0],[81.2,16.2],[81.3,16.2],[81.3,16.3],[81.4,16.3],[81.4,16.4],[81.9,16.4],[81.9,16.5],[82.2,16.5],[82.2,16.6],[82.3,16.6],[82.3,16.7],[82.4,16.7],[82.4,17.2],[82.5,17.2],[82.5,17.3],[82.7,17.3],[82.7,17.4],[82.8,17.4],[82.8,17.5],[83.1,17.5],[83.1,17.6],[83.2,17.6],[83.2,17.7],[83.3,17.7],[83.3,17.8],[83.4,17.8],[83.4,17.9],[83.5,17.9],[83.5,18.0],[83.6,18.0],[83.6,18.1],[83.8,18.1],[83.8,18.2],[83.9,18.2],[83.9,18.3],[84.1,18.3],[84.1,18.4],[84.2,18.4],[84.2,18.5],[84.3,18.5],[84.3,18.6],[84.4,18.6],[84.4,18.7],[84.5,18.7],[84.5,18.8],[84.6,18.8],[84.6,18.9],[84.7,18.9],[84.7,19.1],[84.8,19.1],[84.8,19.2],[84.9,19.2],[84.9,19.3],[85.0,19.3],[85.0,19.4],[85.1,19.4],[85.1,19.5],[85.2,19.5],[85.2,19.6],[85.4,19.6],[85.4,19.7],[85.3,19.7],[85.3,19.8],[85.2,19.8],[85.2,19.9],[85.0,19.9],[85.0,20.0],[84.9,20.0],[84.9,20.2],[84.8,20.2],[84.8,20.3],[84.7,20.3],[84.7,20.5],[84.6,20.5],[84.6,20.6],[84.5,20.6],[84.5,20.8],[84.4,20.8],[84.4,20.9],[84.3,20.9],[84.3,21.0],[84.2,21.0],[84.2,21.1],[84.1,21.1],[84.1,21.2],[84.0,21.2],[84.0,21.3],[83.9,21.3],[83.9,21.4],[83.6,21.4],[83.6,21.5],[83.2,21.5],[83.2,21.6],[82.9,21.6],[82.9,21.7],[82.6,21.7],[82.6,21.8],[82.5,21.8]]],[[[60.1,43.9],[60.1,43.8],[60.0,43.8],[60.0,41.2],[60.2,41.2],[60.2,41.1],[60.8,41.1],[60.8,41.0],[61.3,41.0],[61.3,40.9],[61.5,40.9],[61.5,40.8],[61.6,40.8],[61.6,40.7],[61.8,40.7],[61.8,40.6],[61.9,40.6],[61.9,40.4],[62.0,40.4],[62.0,40.3],[62.1,40.3],[62.1,40.2],[62.2,40.2],[62.2,40.0],[62.3,40.0],[62.3,39.9],[62.4,39.9],[62.4,39.8],[62.6,39.8],[62.6,39.7],[62.7,39.7],[62.7,39.5],[62.9,39.5],[62.9,39.4],[63.0,39.4],[63.0,39.3],[63.1,39.3],[63.1,39.2],[63.2,39.2],[63.2,39.1],[63.4,39.1],[63.4,39.0],[63.6,39.0],[63.6,38.9],[63.9,38.9],[63.9,38.8],[64.3,38.8],[64.3,38.7],[64.5,38.7],[64.5,38.6],[64.7,38.6],[64.7,38.5],[64.9,38.5],[64.9,38.4],[65.2,38.4],[65.2,38.3],[65.6,38.3],[65.6,38.2],[66.2,38.2],[66.2,38.1],[66.4,38.1],[66.4,38.0],[66.9,38.0],[66.9,37.9],[67.3,37.9],[67.3,37.8],[67.7,37.8],[67.7,37.7],[68.4,37.7],[68.4,37.6],[68.5,37.6],[68.5,37.5],[68.6,37.5],[68.6,37.4],[68.8,37.4],[68.8,37.3],[68.9,37.3],[68.9,37.2],[69.0,37.2],[69.0,37.1],[69.3,37.1],[69.3,37.0],[69.5,37.0],[69.5,36.9],[69.8,36.9],[69.8,36.8],[70.0,36.8],[70.0,36.7],[70.3,36.7],[70.3,36.6],[70.7,36.6],[70.7,36.5],[71.0,36.5],[71.0,36.4],[71.4,36.4],[71.4,36.3],[72.1,36.3],[72.1,36.4],[72.8,36.4],[72.8,36.3],[73.0,36.3],[73.0,36.2],[73.7,36.2],[73.7,36.1],[73.8,36.1],[73.8,36.0],[74.1,36.0],[74.1,36.1],[74.4,36.1],[74.4,36.2],[74.5,36.2],[74.5,36.3],[74.6,36.3],[74.6,36.4],[74.7,36.4],[74.7,36.5],[74.8,36.5],[74.8,36.6],[74.9,36.6],[74.9,36.7],[75.1,36.7],[75.1,36.8],[75.3,36.8],[75.3,36.9],[75.5,36.9],[75.5,37.0],[75.6,37.0],[75.6,37.4],[75.7,37.4],[75.7,37.6],[75.8,37.6],[75.8,37.7],[75.9,37.7],[75.9,37.9],[76.0,37.9],[76.0,38.1],[76.2,38.1],[76.2,38.4],[76.3,38.4],[76.3,38.7],[76.4,38.7],[76.4,38.8],[76.5,38.8],[76.5,39.0],[76.6,39.0],[76.6,39.1],[76.7,39.1],[76.7,39.4],[76.8,39.4],[76.8,39.7],[76.9,39.7],[76.9,40.1],[77.0,40.1],[77.0,40.5],[77.1,40.5],[77.1,40.6],[77.2,40.6],[77.2,40.8],[77.3,40.8],[77.3,41.0],[77.4,41.0],[77.4,41.1],[77.5,41.1],[77.5,41.5],[77.6,41.5],[77.6,42.0],[77.7,42.0],[77.7,42.6],[77.8,42.6],[77.8,42.7],[78.6,42.7],[78.6,42.8],[79.0,42.8],[79.0,42.9],[79.2,42.9],[79.2,43.0],[79.4,43.0],[79.4,43.1],[79.7,43.1],[79.7,43.2],[79.9,43.2],[79.9,43.3],[80.2,43.3],[80.2,43.4],[80.5,43.4],[80.5,43.5],[80.8,43.5],[80.8,43.6],[81.1,43.6],[81.1,43.7],[81.5,43.7],[81.5,43.8],[81.8,43.8],[81.8,43.9],[82.2,43.9],[82.2,44.0],[82.5,44.0],[82.5,44.1],[83.1,44.1],[83.1,44.2],[83.4,44.2],[83.4,44.3],[83.5,44.3],[83.5,44.4],[83.6,44.4],[83.6,44.5],[83.8,44.5],[83.8,44.6],[84.0,44.6],[84.0,44.7],[84.3,44.7],[84.3,44.8],[84.8,44.8],[84.8,44.9],[85.0,44.9],[85.0,45.0],[61.4,45.0],[61.4,44.9],[61.3,44.9],[61.3,44.8],[61.1,44.8],[61.1,44.7],[61.0,44.7],[61.0,44.5],[60.9,44.5],[60.9,44.3],[60.8,44.3],[60.8,44.2],[60.6,44.2],[60.6,44.1],[60.3,44.1],[60.3,44.0],[60.2,44.0],[60.2,43.9],[60.1,43.9]]]]},"properties":{"tile_id":"51","start_year":760,"end_year":790,"source_image":"data/raw/toolbay/t/51/760.png","source_url":"https://www.toolbay.cc/history-map/t/51/760.png","source_color":"#00ffff","polity_id":null,"polity_assignment":"unverified","geometry_origin":"raster_color_trace","pixel_size_degrees":0.1,"source_color_pixels":15363,"simplification_degrees":0}},{"type":"Feature","id":"51:760:#999900","bbox":[72.8,12.6,82.4,23.6],"geometry":{"type":"Polygon","coordinates":[[[79.8,23.6],[79.2,23.6],[79.2,23.5],[79.0,23.5],[79.0,23.3],[78.9,23.3],[78.9,23.2],[78.8,23.2],[78.8,23.1],[78.7,23.1],[78.7,23.0],[78.6,23.0],[78.6,22.9],[78.5,22.9],[78.5,22.8],[78.4,22.8],[78.4,22.7],[78.3,22.7],[78.3,22.6],[78.2,22.6],[78.2,22.5],[78.1,22.5],[78.1,22.4],[75.6,22.4],[75.6,22.3],[75.3,22.3],[75.3,22.2],[74.7,22.2],[74.7,21.6],[74.6,21.6],[74.6,21.2],[74.5,21.2],[74.5,21.1],[74.4,21.1],[74.4,21.0],[74.3,21.0],[74.3,20.8],[74.2,20.8],[74.2,20.7],[74.1,20.7],[74.1,20.6],[74.0,20.6],[74.0,20.4],[73.9,20.4],[73.9,20.2],[73.8,20.2],[73.8,20.1],[73.7,20.1],[73.7,20.0],[73.6,20.0],[73.6,19.9],[73.5,19.9],[73.5,19.8],[73.4,19.8],[73.4,19.7],[73.2,19.7],[73.2,19.6],[72.8,19.6],[72.8,18.9],[72.9,18.9],[72.9,18.3],[73.0,18.3],[73.0,18.0],[73.1,18.0],[73.1,17.6],[73.2,17.6],[73.2,17.2],[73.3,17.2],[73.3,16.5],[73.4,16.5],[73.4,16.2],[73.5,16.2],[73.5,16.0],[73.6,16.0],[73.6,15.9],[73.7,15.9],[73.7,15.6],[73.8,15.6],[73.8,15.4],[73.9,15.4],[73.9,15.1],[74.0,15.1],[74.0,15.0],[74.1,15.0],[74.1,14.9],[74.2,14.9],[74.2,14.7],[74.3,14.7],[74.3,14.5],[74.4,14.5],[74.4,14.3],[74.5,14.3],[74.5,14.0],[74.6,14.0],[74.6,13.7],[74.8,13.7],[74.8,13.9],[75.1,13.9],[75.1,14.0],[75.5,14.0],[75.5,14.1],[76.9,14.1],[76.9,14.0],[77.4,14.0],[77.4,13.9],[77.9,13.9],[77.9,13.8],[78.1,13.8],[78.1,13.7],[78.4,13.7],[78.4,13.6],[78.6,13.6],[78.6,13.5],[78.9,13.5],[78.9,13.4],[79.4,13.4],[79.4,13.3],[79.5,13.3],[79.5,13.2],[79.6,13.2],[79.6,13.1],[79.7,13.1],[79.7,12.9],[79.8,12.9],[79.8,12.8],[79.9,12.8],[79.9,12.7],[80.0,12.7],[80.0,12.6],[80.2,12.6],[80.2,12.7],[80.3,12.7],[80.3,13.1],[80.4,13.1],[80.4,13.6],[80.3,13.6],[80.3,14.0],[80.2,14.0],[80.2,14.9],[80.1,14.9],[80.1,15.4],[80.2,15.4],[80.2,15.5],[80.3,15.5],[80.3,15.7],[80.4,15.7],[80.4,15.8],[80.5,15.8],[80.5,15.9],[80.4,15.9],[80.4,16.1],[80.3,16.1],[80.3,16.2],[80.2,16.2],[80.2,16.3],[80.1,16.3],[80.1,16.4],[79.9,16.4],[79.9,16.5],[79.8,16.5],[79.8,16.6],[79.7,16.6],[79.7,16.7],[79.6,16.7],[79.6,16.9],[79.5,16.9],[79.5,17.1],[79.4,17.1],[79.4,17.3],[79.3,17.3],[79.3,17.9],[79.4,17.9],[79.4,18.1],[79.5,18.1],[79.5,18.2],[79.6,18.2],[79.6,18.3],[79.7,18.3],[79.7,18.4],[79.8,18.4],[79.8,18.5],[79.9,18.5],[79.9,18.6],[80.0,18.6],[80.0,18.8],[80.1,18.8],[80.1,18.9],[80.2,18.9],[80.2,19.0],[80.4,19.0],[80.4,19.2],[80.5,19.2],[80.5,19.3],[80.6,19.3],[80.6,19.4],[80.7,19.4],[80.7,19.6],[80.8,19.6],[80.8,19.8],[80.9,19.8],[80.9,19.9],[81.0,19.9],[81.0,20.1],[81.1,20.1],[81.1,20.3],[81.2,20.3],[81.2,20.4],[81.3,20.4],[81.3,20.5],[81.4,20.5],[81.4,20.8],[81.5,20.8],[81.5,20.9],[81.6,20.9],[81.6,21.0],[81.7,21.0],[81.7,21.1],[81.8,21.1],[81.8,21.2],[81.9,21.2],[81.9,21.3],[82.0,21.3],[82.0,21.4],[82.1,21.4],[82.1,21.5],[82.2,21.5],[82.2,21.7],[82.3,21.7],[82.3,21.9],[82.4,21.9],[82.4,22.0],[82.3,22.0],[82.3,22.2],[82.2,22.2],[82.2,22.3],[82.0,22.3],[82.0,22.4],[81.9,22.4],[81.9,22.5],[81.8,22.5],[81.8,22.6],[81.6,22.6],[81.6,22.7],[81.5,22.7],[81.5,22.8],[81.3,22.8],[81.3,22.9],[81.2,22.9],[81.2,23.0],[81.0,23.0],[81.0,23.1],[80.7,23.1],[80.7,23.2],[80.3,23.2],[80.3,23.3],[80.2,23.3],[80.2,23.4],[79.9,23.4],[79.9,23.5],[79.8,23.5],[79.8,23.6]]]},"properties":{"tile_id":"51","start_year":760,"end_year":790,"source_image":"data/raw/toolbay/t/51/760.png","source_url":"https://www.toolbay.cc/history-map/t/51/760.png","source_color":"#999900","polity_id":null,"polity_assignment":"unverified","geometry_origin":"raster_color_trace","pixel_size_degrees":0.1,"source_color_pixels":6162,"simplification_degrees":0}},{"type":"Feature","id":"51:760:#ff0000","bbox":[68.1,8.2,79.0,28.3],"geometry":{"type":"MultiPolygon","coordinates":[[[[76.3,11.2],[76.3,11.3],[75.8,11.3],[75.8,11.1],[75.9,11.1],[75.9,10.8],[76.0,10.8],[76.0,10.5],[76.1,10.5],[76.1,10.3],[76.2,10.3],[76.2,9.9],[76.3,9.9],[76.3,9.5],[76.4,9.5],[76.4,9.2],[76.5,9.2],[76.5,9.0],[76.6,9.0],[76.6,8.9],[76.7,8.9],[76.7,8.8],[76.8,8.8],[76.8,8.7],[76.9,8.7],[76.9,8.5],[77.0,8.5],[77.0,8.4],[77.1,8.4],[77.1,8.3],[77.2,8.3],[77.2,8.2],[77.8,8.2],[77.8,8.3],[78.0,8.3],[78.0,8.4],[78.1,8.4],[78.1,8.5],[78.2,8.5],[78.2,8.9],[78.3,8.9],[78.3,9.1],[78.4,9.1],[78.4,9.2],[78.8,9.2],[78.8,9.3],[78.9,9.3],[78.9,9.4],[79.0,9.4],[79.0,9.9],[78.6,9.9],[78.6,10.0],[78.4,10.0],[78.4,10.1],[78.2,10.1],[78.2,10.2],[78.0,10.2],[78.0,10.3],[77.9,10.3],[77.9,10.4],[77.8,10.4],[77.8,10.5],[77.6,10.5],[77.6,10.6],[77.4,10.6],[77.4,10.7],[77.3,10.7],[77.3,10.8],[77.1,10.8],[77.1,10.9],[77.0,10.9],[77.0,11.0],[76.8,11.0],[76.8,11.1],[76.6,11.1],[76.6,11.2],[76.3,11.2]]],[[[71.6,28.2],[71.6,28.3],[70.7,28.3],[70.7,28.2],[70.1,28.2],[70.1,28.1],[69.9,28.1],[69.9,28.0],[69.8,28.0],[69.8,27.6],[69.7,27.6],[69.7,27.3],[69.6,27.3],[69.6,27.0],[69.5,27.0],[69.5,26.6],[69.4,26.6],[69.4,26.3],[69.3,26.3],[69.3,25.9],[69.2,25.9],[69.2,25.7],[69.1,25.7],[69.1,25.5],[69.0,25.5],[69.0,25.2],[68.9,25.2],[68.9,25.1],[68.8,25.1],[68.8,24.9],[68.7,24.9],[68.7,24.7],[68.6,24.7],[68.6,24.5],[68.5,24.5],[68.5,24.4],[68.4,24.4],[68.4,24.2],[68.3,24.2],[68.3,24.1],[68.2,24.1],[68.2,23.9],[68.1,23.9],[68.1,23.7],[68.2,23.7],[68.2,23.6],[68.3,23.6],[68.3,23.5],[68.4,23.5],[68.4,23.4],[68.5,23.4],[68.5,23.3],[68.6,23.3],[68.6,23.2],[68.7,23.2],[68.7,23.1],[68.9,23.1],[68.9,23.0],[69.1,23.0],[69.1,22.9],[69.5,22.9],[69.5,22.8],[69.8,22.8],[69.8,22.9],[70.1,22.9],[70.1,22.8],[70.2,22.8],[70.2,22.7],[70.1,22.7],[70.1,22.6],[69.6,22.6],[69.6,22.5],[69.1,22.5],[69.1,22.4],[69.0,22.4],[69.0,22.2],[69.1,22.2],[69.1,22.1],[69.2,22.1],[69.2,22.0],[69.3,22.0],[69.3,21.9],[69.4,21.9],[69.4,21.8],[69.5,21.8],[69.5,21.7],[69.6,21.7],[69.6,21.6],[69.7,21.6],[69.7,21.5],[69.8,21.5],[69.8,21.4],[69.9,21.4],[69.9,21.3],[70.0,21.3],[70.0,21.2],[70.1,21.2],[70.1,21.1],[70.2,21.1],[70.2,21.0],[70.4,21.0],[70.4,20.9],[70.5,20.9],[70.5,20.8],[70.8,20.8],[70.8,20.7],[71.0,20.7],[71.0,20.8],[71.3,20.8],[71.3,20.9],[71.5,20.9],[71.5,21.0],[71.7,21.0],[71.7,21.1],[71.9,21.1],[71.9,21.2],[72.1,21.2],[72.1,21.3],[72.2,21.3],[72.2,21.5],[72.3,21.5],[72.3,22.0],[72.5,22.0],[72.5,21.8],[72.6,21.8],[72.6,21.1],[72.7,21.1],[72.7,21.0],[72.8,21.0],[72.8,20.8],[72.9,20.8],[72.9,20.5],[72.8,20.5],[72.8,20.3],[72.7,20.3],[72.7,19.5],[72.8,19.5],[72.8,19.6],[73.2,19.6],[73.2,19.7],[73.4,19.7],[73.4,19.8],[73.5,19.8],[73.5,19.9],[73.6,19.9],[73.6,20.0],[73.7,20.0],[73.7,20.1],[73.8,20.1],[73.8,20.2],[73.9,20.2],[73.9,20.4],[74.0,20.4],[74.0,20.6],[74.1,20.6],[74.1,20.7],[74.2,20.7],[74.2,20.8],[74.3,20.8],[74.3,21.0],[74.4,21.0],[74.4,21.1],[74.5,21.1],[74.5,21.2],[74.6,21.2],[74.6,21.6],[74.7,21.6],[74.7,22.2],[74.6,22.2],[74.6,22.3],[74.5,22.3],[74.5,22.4],[74.4,22.4],[74.4,22.6],[74.3,22.6],[74.3,22.7],[74.2,22.7],[74.2,22.9],[74.1,22.9],[74.1,23.1],[73.9,23.1],[73.9,23.3],[73.8,23.3],[73.8,23.4],[73.7,23.4],[73.7,23.6],[73.6,23.6],[73.6,23.7],[73.5,23.7],[73.5,23.8],[73.4,23.8],[73.4,24.0],[73.3,24.0],[73.3,24.2],[73.2,24.2],[73.2,24.3],[73.1,24.3],[73.1,24.7],[73.0,24.7],[73.0,24.9],[72.9,24.9],[72.9,25.8],[73.0,25.8],[73.0,25.9],[73.1,25.9],[73.1,26.4],[73.2,26.4],[73.2,26.6],[73.3,26.6],[73.3,27.3],[73.2,27.3],[73.2,27.4],[73.1,27.4],[73.1,27.5],[73.0,27.5],[73.0,27.6],[72.8,27.6],[72.8,27.7],[72.7,27.7],[72.7,27.8],[72.6,27.8],[72.6,27.9],[72.3,27.9],[72.3,28.0],[72.1,28.0],[72.1,28.1],[71.9,28.1],[71.9,28.2],[71.6,28.2]]]]},"properties":{"tile_id":"51","start_year":760,"end_year":790,"source_image":"data/raw/toolbay/t/51/760.png","source_url":"https://www.toolbay.cc/history-map/t/51/760.png","source_color":"#ff0000","polity_id":null,"polity_assignment":"unverified","geometry_origin":"raster_color_trace","pixel_size_degrees":0.1,"source_color_pixels":3769,"simplification_degrees":0}},{"type":"Feature","id":"51:760:#ff00ff","bbox":[72.9,27.5,90.0,37.8],"geometry":{"type":"Polygon","coordinates":[[[85.2,37.8],[84.8,37.8],[84.8,37.7],[84.4,37.7],[84.4,37.6],[84.1,37.6],[84.1,37.5],[83.8,37.5],[83.8,37.4],[83.3,37.4],[83.3,37.3],[83.1,37.3],[83.1,37.2],[82.8,37.2],[82.8,37.1],[82.4,37.1],[82.4,37.0],[82.2,37.0],[82.2,36.9],[81.9,36.9],[81.9,36.8],[81.4,36.8],[81.4,36.7],[80.9,36.7],[80.9,36.6],[79.2,36.6],[79.2,36.7],[78.8,36.7],[78.8,36.8],[78.4,36.8],[78.4,36.9],[78.2,36.9],[78.2,37.0],[77.9,37.0],[77.9,37.1],[77.8,37.1],[77.8,37.2],[77.7,37.2],[77.7,37.1],[77.4,37.1],[77.4,37.2],[76.0,37.2],[76.0,37.1],[75.7,37.1],[75.7,37.0],[75.5,37.0],[75.5,36.9],[75.3,36.9],[75.3,36.8],[75.1,36.8],[75.1,36.7],[74.9,36.7],[74.9,36.6],[74.8,36.6],[74.8,36.5],[74.7,36.5],[74.7,36.4],[74.6,36.4],[74.6,36.3],[74.5,36.3],[74.5,36.2],[74.4,36.2],[74.4,36.1],[74.1,36.1],[74.1,36.0],[73.8,36.0],[73.8,36.1],[73.7,36.1],[73.7,36.2],[73.5,36.2],[73.5,35.9],[73.4,35.9],[73.4,35.6],[73.5,35.6],[73.5,35.3],[73.4,35.3],[73.4,35.2],[73.3,35.2],[73.3,34.7],[73.2,34.7],[73.2,34.0],[73.1,34.0],[73.1,33.6],[73.0,33.6],[73.0,33.3],[72.9,33.3],[72.9,33.1],[73.1,33.1],[73.1,33.0],[73.3,33.0],[73.3,32.9],[73.4,32.9],[73.4,32.8],[73.6,32.8],[73.6,32.7],[73.7,32.7],[73.7,32.6],[73.8,32.6],[73.8,32.5],[73.9,32.5],[73.9,32.4],[74.1,32.4],[74.1,32.3],[74.2,32.3],[74.2,32.2],[75.3,32.2],[75.3,32.1],[75.7,32.1],[75.7,32.0],[76.4,32.0],[76.4,31.9],[76.8,31.9],[76.8,31.8],[77.2,31.8],[77.2,31.7],[77.4,31.7],[77.4,31.6],[77.7,31.6],[77.7,31.5],[78.0,31.5],[78.0,31.4],[78.6,31.4],[78.6,31.3],[78.9,31.3],[78.9,31.2],[79.1,31.2],[79.1,31.1],[79.3,31.1],[79.3,31.0],[79.5,31.0],[79.5,30.9],[79.7,30.9],[79.7,30.8],[80.1,30.8],[80.1,30.7],[80.3,30.7],[80.3,30.6],[80.6,30.6],[80.6,30.4],[80.8,30.4],[80.8,30.3],[81.1,30.3],[81.1,30.2],[81.4,30.2],[81.4,30.1],[81.6,30.1],[81.6,30.0],[81.8,30.0],[81.8,29.9],[82.0,29.9],[82.0,29.8],[82.2,29.8],[82.2,29.7],[82.5,29.7],[82.5,29.6],[83.0,29.6],[83.0,29.5],[83.3,29.5],[83.3,29.4],[83.7,29.4],[83.7,29.3],[83.8,29.3],[83.8,29.2],[84.2,29.2],[84.2,29.1],[84.7,29.1],[84.7,29.0],[85.0,29.0],[85.0,28.9],[85.3,28.9],[85.3,28.8],[85.6,28.8],[85.6,28.7],[85.8,28.7],[85.8,28.6],[85.9,28.6],[85.9,28.5],[86.1,28.5],[86.1,28.3],[86.2,28.3],[86.2,28.2],[86.3,28.2],[86.3,28.1],[86.9,28.1],[86.9,28.0],[87.5,28.0],[87.5,27.9],[87.8,27.9],[87.8,27.8],[88.2,27.8],[88.2,27.7],[88.7,27.7],[88.7,27.6],[89.1,27.6],[89.1,27.5],[90.0,27.5],[90.0,37.7],[88.3,37.7],[88.3,37.6],[87.7,37.6],[87.7,37.5],[87.3,37.5],[87.3,37.4],[87.0,37.4],[87.0,37.3],[85.9,37.3],[85.9,37.4],[85.7,37.4],[85.7,37.5],[85.5,37.5],[85.5,37.6],[85.3,37.6],[85.3,37.7],[85.2,37.7],[85.2,37.8]]]},"properties":{"tile_id":"51","start_year":760,"end_year":790,"source_image":"data/raw/toolbay/t/51/760.png","source_url":"https://www.toolbay.cc/history-map/t/51/760.png","source_color":"#ff00ff","polity_id":null,"polity_assignment":"unverified","geometry_origin":"raster_color_trace","pixel_size_degrees":0.1,"source_color_pixels":12364,"simplification_degrees":0}},{"type":"Feature","id":"51:760:#ff9900","bbox":[79.7,6.0,81.9,9.9],"geometry":{"type":"Polygon","coordinates":[[[80.3,9.9],[80.0,9.9],[80.0,9.5],[80.1,9.5],[80.1,9.2],[80.0,9.2],[80.0,9.1],[79.9,9.1],[79.9,8.5],[79.8,8.5],[79.8,8.4],[79.7,8.4],[79.7,7.9],[79.8,7.9],[79.8,6.9],[79.9,6.9],[79.9,6.7],[80.0,6.7],[80.0,6.3],[80.1,6.3],[80.1,6.1],[80.2,6.1],[80.2,6.0],[80.8,6.0],[80.8,6.1],[81.1,6.1],[81.1,6.2],[81.4,6.2],[81.4,6.3],[81.5,6.3],[81.5,6.4],[81.6,6.4],[81.6,6.5],[81.7,6.5],[81.7,6.6],[81.8,6.6],[81.8,6.8],[81.9,6.8],[81.9,7.2],[81.8,7.2],[81.8,7.8],[81.7,7.8],[81.7,7.9],[81.6,7.9],[81.6,8.1],[81.5,8.1],[81.5,8.3],[81.4,8.3],[81.4,8.6],[81.3,8.6],[81.3,8.7],[81.2,8.7],[81.2,8.9],[81.1,8.9],[81.1,9.0],[81.0,9.0],[81.0,9.2],[80.9,9.2],[80.9,9.4],[80.8,9.4],[80.8,9.5],[80.7,9.5],[80.7,9.6],[80.6,9.6],[80.6,9.7],[80.4,9.7],[80.4,9.8],[80.3,9.8],[80.3,9.9]]]},"properties":{"tile_id":"51","start_year":760,"end_year":790,"source_image":"data/raw/toolbay/t/51/760.png","source_url":"https://www.toolbay.cc/history-map/t/51/760.png","source_color":"#ff9900","polity_id":null,"polity_assignment":"unverified","geometry_origin":"raster_color_trace","pixel_size_degrees":0.1,"source_color_pixels":574,"simplification_degrees":0}},{"type":"Feature","id":"51:760:#ff9933","bbox":[75.6,27.0,90.0,45.0],"geometry":{"type":"MultiPolygon","coordinates":[[[[80.1,30.7],[80.1,30.8],[79.7,30.8],[79.7,30.6],[79.6,30.6],[79.6,30.5],[79.5,30.5],[79.5,30.4],[79.2,30.4],[79.2,30.2],[79.0,30.2],[79.0,30.1],[78.9,30.1],[78.9,30.0],[78.8,30.0],[78.8,29.9],[78.7,29.9],[78.7,29.8],[78.8,29.8],[78.8,29.6],[79.1,29.6],[79.1,29.5],[79.2,29.5],[79.2,29.4],[79.4,29.4],[79.4,29.3],[79.6,29.3],[79.6,29.2],[79.8,29.2],[79.8,29.1],[79.9,29.1],[79.9,29.0],[80.1,29.0],[80.1,28.9],[80.5,28.9],[80.5,28.8],[80.7,28.8],[80.7,28.7],[80.9,28.7],[80.9,28.6],[81.2,28.6],[81.2,28.5],[81.5,28.5],[81.5,28.4],[81.7,28.4],[81.7,28.3],[82.1,28.3],[82.1,28.2],[82.5,28.2],[82.5,28.1],[82.7,28.1],[82.7,28.0],[83.3,28.0],[83.3,27.9],[83.4,27.9],[83.4,27.8],[83.7,27.8],[83.7,27.7],[84.0,27.7],[84.0,27.6],[84.4,27.6],[84.4,27.5],[84.9,27.5],[84.9,27.4],[85.2,27.4],[85.2,27.3],[85.4,27.3],[85.4,27.2],[85.5,27.2],[85.5,27.1],[85.8,27.1],[85.8,27.0],[86.1,27.0],[86.1,27.8],[86.2,27.8],[86.2,28.1],[86.3,28.1],[86.3,28.2],[86.2,28.2],[86.2,28.3],[86.1,28.3],[86.1,28.5],[85.9,28.5],[85.9,28.6],[85.8,28.6],[85.8,28.7],[85.6,28.7],[85.6,28.8],[85.3,28.8],[85.3,28.9],[85.0,28.9],[85.0,29.0],[84.7,29.0],[84.7,29.1],[84.2,29.1],[84.2,29.2],[83.8,29.2],[83.8,29.3],[83.7,29.3],[83.7,29.4],[83.3,29.4],[83.3,29.5],[83.0,29.5],[83.0,29.6],[82.5,29.6],[82.5,29.7],[82.2,29.7],[82.2,29.8],[82.0,29.8],[82.0,29.9],[81.8,29.9],[81.8,30.0],[81.6,30.0],[81.6,30.1],[81.4,30.1],[81.4,30.2],[81.1,30.2],[81.1,30.3],[80.8,30.3],[80.8,30.4],[80.6,30.4],[80.6,30.6],[80.3,30.6],[80.3,30.7],[80.1,30.7]]],[[[90.0,37.7],[90.0,45.0],[85.0,45.0],[85.0,44.9],[84.8,44.9],[84.8,44.8],[84.3,44.8],[84.3,44.7],[84.0,44.7],[84.0,44.6],[83.8,44.6],[83.8,44.5],[83.6,44.5],[83.6,44.4],[83.5,44.4],[83.5,44.3],[83.4,44.3],[83.4,44.2],[83.1,44.2],[83.1,44.1],[82.5,44.1],[82.5,44.0],[82.2,44.0],[82.2,43.9],[81.8,43.9],[81.8,43.8],[81.5,43.8],[81.5,43.7],[81.1,43.7],[81.1,43.6],[80.8,43.6],[80.8,43.5],[80.5,43.5],[80.5,43.4],[80.2,43.4],[80.2,43.3],[79.9,43.3],[79.9,43.2],[79.7,43.2],[79.7,43.1],[79.4,43.1],[79.4,43.0],[79.2,43.0],[79.2,42.9],[79.0,42.9],[79.0,42.8],[78.6,42.8],[78.6,42.7],[77.8,42.7],[77.8,42.6],[77.7,42.6],[77.7,42.0],[77.6,42.0],[77.6,41.5],[77.5,41.5],[77.5,41.1],[77.4,41.1],[77.4,41.0],[77.3,41.0],[77.3,40.8],[77.2,40.8],[77.2,40.6],[77.1,40.6],[77.1,40.5],[77.0,40.5],[77.0,40.1],[76.9,40.1],[76.9,39.7],[76.8,39.7],[76.8,39.4],[76.7,39.4],[76.7,39.1],[76.6,39.1],[76.6,39.0],[76.5,39.0],[76.5,38.8],[76.4,38.8],[76.4,38.7],[76.3,38.7],[76.3,38.4],[76.2,38.4],[76.2,38.1],[76.0,38.1],[76.0,37.9],[75.9,37.9],[75.9,37.7],[75.8,37.7],[75.8,37.6],[75.7,37.6],[75.7,37.4],[75.6,37.4],[75.6,37.0],[75.7,37.0],[75.7,37.1],[76.0,37.1],[76.0,37.2],[77.4,37.2],[77.4,37.1],[77.7,37.1],[77.7,37.2],[77.8,37.2],[77.8,37.1],[77.9,37.1],[77.9,37.0],[78.2,37.0],[78.2,36.9],[78.4,36.9],[78.4,36.8],[78.8,36.8],[78.8,36.7],[79.2,36.7],[79.2,36.6],[80.9,36.6],[80.9,36.7],[81.4,36.7],[81.4,36.8],[81.9,36.8],[81.9,36.9],[82.2,36.9],[82.2,37.0],[82.4,37.0],[82.4,37.1],[82.8,37.1],[82.8,37.2],[83.1,37.2],[83.1,37.3],[83.3,37.3],[83.3,37.4],[83.8,37.4],[83.8,37.5],[84.1,37.5],[84.1,37.6],[84.4,37.6],[84.4,37.7],[84.8,37.7],[84.8,37.8],[85.2,37.8],[85.2,37.7],[85.3,37.7],[85.3,37.6],[85.5,37.6],[85.5,37.5],[85.7,37.5],[85.7,37.4],[85.9,37.4],[85.9,37.3],[87.0,37.3],[87.0,37.4],[87.3,37.4],[87.3,37.5],[87.7,37.5],[87.7,37.6],[88.3,37.6],[88.3,37.7],[90.0,37.7]]]]},"properties":{"tile_id":"51","start_year":760,"end_year":790,"source_image":"data/raw/toolbay/t/51/760.png","source_url":"https://www.toolbay.cc/history-map/t/51/760.png","source_color":"#ff9933","polity_id":null,"polity_assignment":"unverified","geometry_origin":"raster_color_trace","pixel_size_degrees":0.1,"source_color_pixels":10201,"simplification_degrees":0}},{"type":"Feature","id":"51:760:#ffff00","bbox":[74.7,9.8,80.2,14.1],"geometry":{"type":"Polygon","coordinates":[[[76.9,14.1],[75.5,14.1],[75.5,14.0],[75.1,14.0],[75.1,13.9],[74.8,13.9],[74.8,13.7],[74.7,13.7],[74.7,13.3],[74.8,13.3],[74.8,12.8],[74.9,12.8],[74.9,12.6],[75.0,12.6],[75.0,12.4],[75.1,12.4],[75.1,12.2],[75.2,12.2],[75.2,12.0],[75.3,12.0],[75.3,11.9],[75.4,11.9],[75.4,11.8],[75.5,11.8],[75.5,11.7],[75.6,11.7],[75.6,11.5],[75.7,11.5],[75.7,11.3],[76.3,11.3],[76.3,11.2],[76.6,11.2],[76.6,11.1],[76.8,11.1],[76.8,11.0],[77.0,11.0],[77.0,10.9],[77.1,10.9],[77.1,10.8],[77.3,10.8],[77.3,10.7],[77.4,10.7],[77.4,10.6],[77.6,10.6],[77.6,10.5],[77.8,10.5],[77.8,10.4],[77.9,10.4],[77.9,10.3],[78.0,10.3],[78.0,10.2],[78.2,10.2],[78.2,10.1],[78.4,10.1],[78.4,10.0],[78.6,10.0],[78.6,9.9],[79.0,9.9],[79.0,9.8],[79.1,9.8],[79.1,9.9],[79.2,9.9],[79.2,10.0],[79.3,10.0],[79.3,10.3],[79.4,10.3],[79.4,10.4],[79.6,10.4],[79.6,10.3],[79.8,10.3],[79.8,10.4],[79.9,10.4],[79.9,11.5],[79.8,11.5],[79.8,11.9],[79.9,11.9],[79.9,12.2],[80.0,12.2],[80.0,12.3],[80.1,12.3],[80.1,12.5],[80.2,12.5],[80.2,12.6],[80.0,12.6],[80.0,12.7],[79.9,12.7],[79.9,12.8],[79.8,12.8],[79.8,12.9],[79.7,12.9],[79.7,13.1],[79.6,13.1],[79.6,13.2],[79.5,13.2],[79.5,13.3],[79.4,13.3],[79.4,13.4],[78.9,13.4],[78.9,13.5],[78.6,13.5],[78.6,13.6],[78.4,13.6],[78.4,13.7],[78.1,13.7],[78.1,13.8],[77.9,13.8],[77.9,13.9],[77.4,13.9],[77.4,14.0],[76.9,14.0],[76.9,14.1]]]},"properties":{"tile_id":"51","start_year":760,"end_year":790,"source_image":"data/raw/toolbay/t/51/760.png","source_url":"https://www.toolbay.cc/history-map/t/51/760.png","source_color":"#ffff00","polity_id":null,"polity_assignment":"unverified","geometry_origin":"raster_color_trace","pixel_size_degrees":0.1,"source_color_pixels":1516,"simplification_degrees":0}}]}
