{"type":"FeatureCollection","features":[{"type":"Feature","id":"51:945:#0000ff","bbox":[66.0,19.5,83.9,29.8],"geometry":{"type":"Polygon","coordinates":[[[78.8,29.8],[78.3,29.8],[78.3,29.7],[77.9,29.7],[77.9,29.6],[77.2,29.6],[77.2,29.5],[77.0,29.5],[77.0,29.4],[76.8,29.4],[76.8,29.3],[76.6,29.3],[76.6,29.2],[76.4,29.2],[76.4,29.1],[76.1,29.1],[76.1,29.0],[75.6,29.0],[75.6,28.9],[74.3,28.9],[74.3,28.8],[72.2,28.8],[72.2,28.9],[71.6,28.9],[71.6,29.0],[70.9,29.0],[70.9,29.1],[69.3,29.1],[69.3,29.2],[69.1,29.2],[69.1,29.3],[68.8,29.3],[68.8,29.2],[68.7,29.2],[68.7,29.1],[68.6,29.1],[68.6,28.9],[68.5,28.9],[68.5,28.8],[68.4,28.8],[68.4,28.5],[68.3,28.5],[68.3,28.4],[68.2,28.4],[68.2,28.3],[68.1,28.3],[68.1,28.2],[68.0,28.2],[68.0,28.1],[67.9,28.1],[67.9,27.9],[67.8,27.9],[67.8,27.7],[67.7,27.7],[67.7,27.6],[67.6,27.6],[67.6,27.4],[67.5,27.4],[67.5,27.3],[67.4,27.3],[67.4,27.1],[67.3,27.1],[67.3,27.0],[67.2,27.0],[67.2,26.9],[67.1,26.9],[67.1,26.8],[67.0,26.8],[67.0,26.7],[66.9,26.7],[66.9,26.6],[66.8,26.6],[66.8,26.5],[66.7,26.5],[66.7,26.4],[66.6,26.4],[66.6,26.3],[66.5,26.3],[66.5,26.2],[66.4,26.2],[66.4,26.1],[66.3,26.1],[66.3,25.9],[66.2,25.9],[66.2,25.7],[66.1,25.7],[66.1,25.6],[66.0,25.6],[66.0,25.4],[66.1,25.4],[66.1,25.5],[66.5,25.5],[66.5,25.4],[66.6,25.4],[66.6,25.3],[66.7,25.3],[66.7,25.0],[66.8,25.0],[66.8,24.9],[67.0,24.9],[67.0,24.8],[67.1,24.8],[67.1,24.7],[67.2,24.7],[67.2,24.5],[67.3,24.5],[67.3,24.2],[67.4,24.2],[67.4,24.1],[67.5,24.1],[67.5,23.9],[67.6,23.9],[67.6,23.8],[68.1,23.8],[68.1,23.7],[68.2,23.7],[68.2,23.6],[68.3,23.6],[68.3,23.5],[68.4,23.5],[68.4,23.4],[68.5,23.4],[68.5,23.3],[68.6,23.3],[68.6,23.2],[68.7,23.2],[68.7,23.1],[68.9,23.1],[68.9,23.0],[69.1,23.0],[69.1,22.9],[69.5,22.9],[69.5,22.8],[69.8,22.8],[69.8,22.9],[70.1,22.9],[70.1,22.8],[70.2,22.8],[70.2,22.7],[70.1,22.7],[70.1,22.6],[69.6,22.6],[69.6,22.5],[69.1,22.5],[69.1,22.4],[69.0,22.4],[69.0,22.2],[69.1,22.2],[69.1,22.1],[69.2,22.1],[69.2,22.0],[69.3,22.0],[69.3,21.9],[69.4,21.9],[69.4,21.8],[69.5,21.8],[69.5,21.7],[69.6,21.7],[69.6,21.6],[69.7,21.6],[69.7,21.5],[69.8,21.5],[69.8,21.4],[69.9,21.4],[69.9,21.3],[70.0,21.3],[70.0,21.2],[70.1,21.2],[70.1,21.1],[70.2,21.1],[70.2,21.0],[70.4,21.0],[70.4,20.9],[70.5,20.9],[70.5,20.8],[70.8,20.8],[70.8,20.7],[71.0,20.7],[71.0,20.8],[71.3,20.8],[71.3,20.9],[71.5,20.9],[71.5,21.0],[71.7,21.0],[71.7,21.1],[71.9,21.1],[71.9,21.2],[72.1,21.2],[72.1,21.3],[72.2,21.3],[72.2,21.5],[72.3,21.5],[72.3,22.0],[72.5,22.0],[72.5,21.8],[72.6,21.8],[72.6,21.1],[72.7,21.1],[72.7,21.0],[72.8,21.0],[72.8,20.8],[72.9,20.8],[72.9,20.5],[72.8,20.5],[72.8,20.3],[72.7,20.3],[72.7,19.5],[72.8,19.5],[72.8,19.6],[73.2,19.6],[73.2,19.7],[73.4,19.7],[73.4,19.8],[73.5,19.8],[73.5,19.9],[73.6,19.9],[73.6,20.0],[73.7,20.0],[73.7,20.1],[73.8,20.1],[73.8,20.2],[73.9,20.2],[73.9,20.4],[74.0,20.4],[74.0,20.6],[74.1,20.6],[74.1,20.7],[74.2,20.7],[74.2,20.8],[74.3,20.8],[74.3,21.0],[74.4,21.0],[74.4,21.1],[74.5,21.1],[74.5,21.2],[74.6,21.2],[74.6,21.6],[74.7,21.6],[74.7,22.2],[75.3,22.2],[75.3,22.3],[75.6,22.3],[75.6,22.4],[78.1,22.4],[78.1,22.5],[78.2,22.5],[78.2,22.6],[78.3,22.6],[78.3,22.7],[78.4,22.7],[78.4,22.8],[78.5,22.8],[78.5,22.9],[78.6,22.9],[78.6,23.0],[78.7,23.0],[78.7,23.1],[78.8,23.1],[78.8,23.2],[78.9,23.2],[78.9,23.3],[79.0,23.3],[79.0,23.5],[79.2,23.5],[79.2,23.6],[79.8,23.6],[79.8,23.5],[79.9,23.5],[79.9,23.4],[80.2,23.4],[80.2,23.3],[80.3,23.3],[80.3,23.2],[80.7,23.2],[80.7,23.1],[81.0,23.1],[81.0,23.0],[81.2,23.0],[81.2,22.9],[81.3,22.9],[81.3,22.8],[81.5,22.8],[81.5,22.7],[81.6,22.7],[81.6,22.6],[81.8,22.6],[81.8,22.5],[81.9,22.5],[81.9,22.4],[82.0,22.4],[82.0,22.3],[82.2,22.3],[82.2,22.8],[82.3,22.8],[82.3,22.9],[82.4,22.9],[82.4,23.1],[82.5,23.1],[82.5,23.2],[82.6,23.2],[82.6,23.3],[82.8,23.3],[82.8,23.4],[82.9,23.4],[82.9,23.5],[83.1,23.5],[83.1,23.6],[83.9,23.6],[83.9,23.8],[83.8,23.8],[83.8,24.2],[83.7,24.2],[83.7,24.4],[83.6,24.4],[83.6,24.6],[83.5,24.6],[83.5,24.8],[83.4,24.8],[83.4,24.9],[83.3,24.9],[83.3,25.1],[83.2,25.1],[83.2,25.2],[83.1,25.2],[83.1,25.4],[83.0,25.4],[83.0,25.5],[83.1,25.5],[83.1,26.1],[83.2,26.1],[83.2,26.3],[83.3,26.3],[83.3,26.7],[83.4,26.7],[83.4,27.0],[83.5,27.0],[83.5,27.2],[83.6,27.2],[83.6,27.6],[83.7,27.6],[83.7,27.8],[83.4,27.8],[83.4,27.9],[83.3,27.9],[83.3,28.0],[82.7,28.0],[82.7,28.1],[82.5,28.1],[82.5,28.2],[82.1,28.2],[82.1,28.3],[81.7,28.3],[81.7,28.4],[81.5,28.4],[81.5,28.5],[81.2,28.5],[81.2,28.6],[80.9,28.6],[80.9,28.7],[80.7,28.7],[80.7,28.8],[80.5,28.8],[80.5,28.9],[80.1,28.9],[80.1,29.0],[79.9,29.0],[79.9,29.1],[79.8,29.1],[79.8,29.2],[79.6,29.2],[79.6,29.3],[79.4,29.3],[79.4,29.4],[79.2,29.4],[79.2,29.5],[79.1,29.5],[79.1,29.6],[78.8,29.6],[78.8,29.8]],[[67.7,24.2],[67.7,24.3],[67.9,24.3],[67.9,24.0],[67.7,24.0],[67.7,24.1],[67.6,24.1],[67.6,24.2],[67.7,24.2]]]},"properties":{"tile_id":"51","start_year":945,"end_year":973,"source_image":"data/raw/toolbay/t/51/945.png","source_url":"https://www.toolbay.cc/history-map/t/51/945.png","source_color":"#0000ff","polity_id":null,"polity_assignment":"unverified","geometry_origin":"raster_color_trace","pixel_size_degrees":0.1,"source_color_pixels":18737,"simplification_degrees":0}},{"type":"Feature","id":"51:945:#009900","bbox":[70.8,8.2,80.5,36.3],"geometry":{"type":"MultiPolygon","coordinates":[[[[79.7,16.6],[79.7,16.7],[79.5,16.7],[79.5,16.6],[79.4,16.6],[79.4,16.5],[79.3,16.5],[79.3,16.4],[79.2,16.4],[79.2,16.2],[79.1,16.2],[79.1,16.1],[79.0,16.1],[79.0,16.0],[78.9,16.0],[78.9,15.8],[78.8,15.8],[78.8,15.7],[78.3,15.7],[78.3,15.6],[78.1,15.6],[78.1,15.5],[77.7,15.5],[77.7,15.4],[77.3,15.4],[77.3,15.3],[77.0,15.3],[77.0,15.2],[76.7,15.2],[76.7,15.1],[76.5,15.1],[76.5,15.0],[76.4,15.0],[76.4,14.9],[76.2,14.9],[76.2,14.8],[75.8,14.8],[75.8,14.7],[75.3,14.7],[75.3,14.6],[74.4,14.6],[74.4,14.3],[74.5,14.3],[74.5,14.0],[74.6,14.0],[74.6,13.7],[74.7,13.7],[74.7,13.3],[74.8,13.3],[74.8,12.8],[74.9,12.8],[74.9,12.6],[75.0,12.6],[75.0,12.4],[75.1,12.4],[75.1,12.2],[75.2,12.2],[75.2,12.0],[75.3,12.0],[75.3,11.9],[75.4,11.9],[75.4,11.8],[75.5,11.8],[75.5,11.7],[75.6,11.7],[75.6,11.5],[75.7,11.5],[75.7,11.3],[75.8,11.3],[75.8,11.1],[75.9,11.1],[75.9,10.8],[76.0,10.8],[76.0,10.5],[76.1,10.5],[76.1,10.3],[76.2,10.3],[76.2,9.9],[76.3,9.9],[76.3,9.5],[76.4,9.5],[76.4,9.2],[76.5,9.2],[76.5,9.0],[76.6,9.0],[76.6,8.9],[76.7,8.9],[76.7,8.8],[76.8,8.8],[76.8,8.7],[76.9,8.7],[76.9,8.5],[77.0,8.5],[77.0,8.4],[77.1,8.4],[77.1,8.3],[77.2,8.3],[77.2,8.2],[77.8,8.2],[77.8,8.3],[78.0,8.3],[78.0,8.4],[78.1,8.4],[78.1,8.5],[78.2,8.5],[78.2,8.9],[78.3,8.9],[78.3,9.1],[78.4,9.1],[78.4,9.2],[78.8,9.2],[78.8,9.3],[78.9,9.3],[78.9,9.4],[79.0,9.4],[79.0,9.8],[79.1,9.8],[79.1,9.9],[79.2,9.9],[79.2,10.0],[79.3,10.0],[79.3,10.3],[79.4,10.3],[79.4,10.4],[79.6,10.4],[79.6,10.3],[79.8,10.3],[79.8,10.4],[79.9,10.4],[79.9,11.5],[79.8,11.5],[79.8,11.9],[79.9,11.9],[79.9,12.2],[80.0,12.2],[80.0,12.3],[80.1,12.3],[80.1,12.5],[80.2,12.5],[80.2,12.7],[80.3,12.7],[80.3,13.1],[80.4,13.1],[80.4,13.6],[80.3,13.6],[80.3,14.0],[80.2,14.0],[80.2,14.9],[80.1,14.9],[80.1,15.4],[80.2,15.4],[80.2,15.5],[80.3,15.5],[80.3,15.7],[80.4,15.7],[80.4,15.8],[80.5,15.8],[80.5,15.9],[80.4,15.9],[80.4,16.1],[80.3,16.1],[80.3,16.2],[80.2,16.2],[80.2,16.3],[80.1,16.3],[80.1,16.4],[79.9,16.4],[79.9,16.5],[79.8,16.5],[79.8,16.6],[79.7,16.6]]],[[[74.9,35.9],[74.9,36.3],[73.1,36.3],[73.1,36.2],[73.0,36.2],[73.0,36.1],[72.9,36.1],[72.9,36.0],[72.3,36.0],[72.3,35.9],[72.2,35.9],[72.2,35.7],[72.1,35.7],[72.1,35.6],[72.0,35.6],[72.0,35.5],[71.9,35.5],[71.9,35.4],[71.8,35.4],[71.8,35.3],[71.7,35.3],[71.7,35.2],[71.6,35.2],[71.6,35.0],[71.5,35.0],[71.5,34.8],[71.4,34.8],[71.4,34.6],[71.3,34.6],[71.3,34.5],[71.2,34.5],[71.2,34.3],[71.1,34.3],[71.1,34.0],[71.0,34.0],[71.0,33.8],[70.9,33.8],[70.9,33.6],[70.8,33.6],[70.8,31.7],[70.9,31.7],[70.9,31.6],[71.4,31.6],[71.4,31.7],[72.1,31.7],[72.1,31.6],[72.6,31.6],[72.6,31.5],[73.1,31.5],[73.1,31.4],[73.7,31.4],[73.7,31.3],[75.2,31.3],[75.2,31.4],[75.6,31.4],[75.6,31.5],[76.3,31.5],[76.3,31.4],[76.7,31.4],[76.7,31.3],[77.3,31.3],[77.3,31.2],[78.5,31.2],[78.5,31.1],[78.9,31.1],[78.9,31.0],[79.2,31.0],[79.2,30.9],[79.4,30.9],[79.4,31.0],[79.5,31.0],[79.5,31.1],[79.4,31.1],[79.4,31.2],[79.3,31.2],[79.3,31.3],[79.1,31.3],[79.1,31.4],[78.9,31.4],[78.9,31.5],[78.8,31.5],[78.8,31.6],[78.7,31.6],[78.7,31.7],[78.6,31.7],[78.6,31.8],[78.5,31.8],[78.5,31.9],[78.4,31.9],[78.4,32.0],[78.3,32.0],[78.3,32.1],[78.2,32.1],[78.2,32.2],[78.0,32.2],[78.0,32.3],[77.8,32.3],[77.8,32.4],[77.7,32.4],[77.7,32.5],[77.5,32.5],[77.5,32.7],[77.4,32.7],[77.4,32.8],[77.3,32.8],[77.3,32.9],[77.2,32.9],[77.2,33.0],[77.1,33.0],[77.1,33.1],[77.0,33.1],[77.0,33.2],[76.8,33.2],[76.8,33.3],[76.7,33.3],[76.7,33.4],[76.6,33.4],[76.6,33.5],[76.5,33.5],[76.5,33.7],[76.3,33.7],[76.3,33.8],[76.2,33.8],[76.2,33.9],[76.1,33.9],[76.1,34.0],[76.0,34.0],[76.0,34.2],[75.9,34.2],[75.9,34.3],[75.8,34.3],[75.8,34.4],[75.7,34.4],[75.7,34.5],[75.6,34.5],[75.6,34.7],[75.5,34.7],[75.5,34.9],[75.4,34.9],[75.4,35.0],[75.3,35.0],[75.3,35.1],[75.2,35.1],[75.2,35.4],[75.1,35.4],[75.1,35.6],[75.0,35.6],[75.0,35.9],[74.9,35.9]]]]},"properties":{"tile_id":"51","start_year":945,"end_year":973,"source_image":"data/raw/toolbay/t/51/945.png","source_url":"https://www.toolbay.cc/history-map/t/51/945.png","source_color":"#009900","polity_id":null,"polity_assignment":"unverified","geometry_origin":"raster_color_trace","pixel_size_degrees":0.1,"source_color_pixels":5595,"simplification_degrees":0}},{"type":"Feature","id":"51:945:#00ff00","bbox":[60.0,21.6,90.0,43.3],"geometry":{"type":"MultiPolygon","coordinates":[[[[86.9,28.0],[86.9,28.1],[86.2,28.1],[86.2,27.8],[86.1,27.8],[86.1,27.1],[85.5,27.1],[85.5,27.2],[85.4,27.2],[85.4,27.3],[85.2,27.3],[85.2,27.4],[84.9,27.4],[84.9,27.5],[84.4,27.5],[84.4,27.6],[84.0,27.6],[84.0,27.7],[83.7,27.7],[83.7,27.6],[83.6,27.6],[83.6,27.2],[83.5,27.2],[83.5,27.0],[83.4,27.0],[83.4,26.7],[83.3,26.7],[83.3,26.3],[83.2,26.3],[83.2,26.1],[83.1,26.1],[83.1,25.5],[83.0,25.5],[83.0,25.4],[83.1,25.4],[83.1,25.2],[83.2,25.2],[83.2,25.1],[83.3,25.1],[83.3,24.9],[83.4,24.9],[83.4,24.8],[83.5,24.8],[83.5,24.6],[83.6,24.6],[83.6,24.4],[83.7,24.4],[83.7,24.2],[83.8,24.2],[83.8,23.8],[83.9,23.8],[83.9,23.6],[84.6,23.6],[84.6,23.5],[85.2,23.5],[85.2,23.4],[85.5,23.4],[85.5,23.3],[85.8,23.3],[85.8,23.2],[86.0,23.2],[86.0,23.1],[86.2,23.1],[86.2,23.0],[86.3,23.0],[86.3,22.9],[86.5,22.9],[86.5,22.7],[86.6,22.7],[86.6,22.6],[86.7,22.6],[86.7,22.5],[86.8,22.5],[86.8,22.4],[86.9,22.4],[86.9,22.3],[87.0,22.3],[87.0,22.1],[87.1,22.1],[87.1,21.7],[87.2,21.7],[87.2,21.6],[87.5,21.6],[87.5,21.7],[87.8,21.7],[87.8,21.8],[88.1,21.8],[88.1,21.7],[88.2,21.7],[88.2,21.6],[89.0,21.6],[89.0,21.7],[89.4,21.7],[89.4,21.8],[89.7,21.8],[89.7,21.9],[89.9,21.9],[89.9,22.0],[90.0,22.0],[90.0,25.8],[89.9,25.8],[89.9,26.1],[90.0,26.1],[90.0,27.5],[89.1,27.5],[89.1,27.6],[88.7,27.6],[88.7,27.7],[88.2,27.7],[88.2,27.8],[87.8,27.8],[87.8,27.9],[87.5,27.9],[87.5,28.0],[86.9,28.0]],[[89.9,24.3],[89.7,24.3],[89.7,24.7],[89.9,24.7],[89.9,24.3]]],[[[61.2,32.5],[60.1,32.5],[60.1,32.4],[60.0,32.4],[60.0,25.4],[60.7,25.4],[60.7,25.3],[61.1,25.3],[61.1,25.2],[61.3,25.2],[61.3,25.1],[62.0,25.1],[62.0,25.2],[62.5,25.2],[62.5,25.3],[63.6,25.3],[63.6,25.4],[64.2,25.4],[64.2,25.3],[64.8,25.3],[64.8,25.4],[65.0,25.4],[65.0,25.3],[65.2,25.3],[65.2,25.4],[66.0,25.4],[66.0,25.6],[66.1,25.6],[66.1,25.7],[66.2,25.7],[66.2,25.9],[66.3,25.9],[66.3,26.1],[66.4,26.1],[66.4,26.2],[66.5,26.2],[66.5,26.3],[66.6,26.3],[66.6,26.4],[66.7,26.4],[66.7,26.5],[66.8,26.5],[66.8,26.6],[66.9,26.6],[66.9,26.7],[67.0,26.7],[67.0,26.8],[67.1,26.8],[67.1,26.9],[67.2,26.9],[67.2,27.0],[67.3,27.0],[67.3,27.1],[67.4,27.1],[67.4,27.3],[67.5,27.3],[67.5,27.4],[67.6,27.4],[67.6,27.6],[67.7,27.6],[67.7,27.7],[67.8,27.7],[67.8,27.9],[67.9,27.9],[67.9,28.1],[68.0,28.1],[68.0,28.2],[68.1,28.2],[68.1,28.3],[68.2,28.3],[68.2,28.4],[68.3,28.4],[68.3,28.5],[68.4,28.5],[68.4,28.8],[68.5,28.8],[68.5,28.9],[68.6,28.9],[68.6,29.1],[68.7,29.1],[68.7,29.2],[68.8,29.2],[68.8,29.5],[68.9,29.5],[68.9,29.6],[69.0,29.6],[69.0,29.8],[69.1,29.8],[69.1,30.0],[69.2,30.0],[69.2,30.2],[69.3,30.2],[69.3,30.4],[69.4,30.4],[69.4,30.5],[69.5,30.5],[69.5,30.6],[69.6,30.6],[69.6,30.8],[69.7,30.8],[69.7,30.9],[69.8,30.9],[69.8,31.0],[69.9,31.0],[69.9,31.1],[70.0,31.1],[70.0,31.2],[70.1,31.2],[70.1,31.3],[70.3,31.3],[70.3,31.4],[70.4,31.4],[70.4,31.5],[70.5,31.5],[70.5,31.6],[70.6,31.6],[70.6,31.8],[70.7,31.8],[70.7,32.0],[70.5,32.0],[70.5,32.1],[70.2,32.1],[70.2,32.2],[70.0,32.2],[70.0,32.3],[69.7,32.3],[69.7,32.4],[69.5,32.4],[69.5,32.5],[69.3,32.5],[69.3,32.6],[69.0,32.6],[69.0,32.7],[68.8,32.7],[68.8,32.8],[68.5,32.8],[68.5,32.9],[67.8,32.9],[67.8,33.0],[67.6,33.0],[67.6,32.9],[67.3,32.9],[67.3,33.0],[66.8,33.0],[66.8,33.1],[66.5,33.1],[66.5,33.2],[66.3,33.2],[66.3,33.3],[64.6,33.3],[64.6,33.2],[64.1,33.2],[64.1,33.1],[63.8,33.1],[63.8,33.0],[63.4,33.0],[63.4,32.9],[63.1,32.9],[63.1,32.8],[62.7,32.8],[62.7,32.7],[61.9,32.7],[61.9,32.6],[61.2,32.6],[61.2,32.5]]],[[[88.3,37.7],[90.0,37.7],[90.0,43.3],[88.9,43.3],[88.9,43.2],[88.5,43.2],[88.5,43.1],[88.1,43.1],[88.1,43.0],[87.8,43.0],[87.8,42.9],[87.0,42.9],[87.0,42.8],[86.3,42.8],[86.3,42.7],[85.5,42.7],[85.5,42.6],[85.0,42.6],[85.0,42.5],[84.7,42.5],[84.7,42.4],[84.3,42.4],[84.3,42.3],[83.1,42.3],[83.1,42.0],[83.2,42.0],[83.2,41.9],[83.3,41.9],[83.3,41.8],[83.4,41.8],[83.4,41.7],[83.5,41.7],[83.5,41.6],[83.7,41.6],[83.7,41.5],[83.8,41.5],[83.8,41.3],[83.9,41.3],[83.9,41.2],[84.0,41.2],[84.0,40.9],[84.1,40.9],[84.1,40.5],[84.2,40.5],[84.2,39.9],[84.3,39.9],[84.3,39.6],[84.4,39.6],[84.4,39.4],[84.5,39.4],[84.5,39.1],[84.6,39.1],[84.6,39.0],[84.7,39.0],[84.7,38.8],[84.8,38.8],[84.8,38.4],[84.9,38.4],[84.9,38.1],[85.0,38.1],[85.0,38.0],[85.1,38.0],[85.1,37.8],[85.2,37.8],[85.2,37.7],[85.3,37.7],[85.3,37.6],[85.5,37.6],[85.5,37.5],[85.7,37.5],[85.7,37.4],[85.9,37.4],[85.9,37.3],[87.0,37.3],[87.0,37.4],[87.3,37.4],[87.3,37.5],[87.7,37.5],[87.7,37.6],[88.3,37.6],[88.3,37.7]]]]},"properties":{"tile_id":"51","start_year":945,"end_year":973,"source_image":"data/raw/toolbay/t/51/945.png","source_url":"https://www.toolbay.cc/history-map/t/51/945.png","source_color":"#00ff00","polity_id":null,"polity_assignment":"unverified","geometry_origin":"raster_color_trace","pixel_size_degrees":0.1,"source_color_pixels":14020,"simplification_degrees":0}},{"type":"Feature","id":"51:945:#00ffff","bbox":[69.5,15.8,87.7,45.0],"geometry":{"type":"MultiPolygon","coordinates":[[[[82.5,19.0],[82.5,19.1],[82.0,19.1],[82.0,19.0],[81.9,19.0],[81.9,18.9],[81.8,18.9],[81.8,18.8],[81.7,18.8],[81.7,18.7],[81.6,18.7],[81.6,18.5],[81.5,18.5],[81.5,18.4],[81.4,18.4],[81.4,18.3],[81.3,18.3],[81.3,18.2],[81.2,18.2],[81.2,18.1],[81.1,18.1],[81.1,18.0],[81.0,18.0],[81.0,17.9],[80.9,17.9],[80.9,17.8],[80.8,17.8],[80.8,17.7],[80.6,17.7],[80.6,17.6],[80.5,17.6],[80.5,17.5],[80.4,17.5],[80.4,17.4],[80.3,17.4],[80.3,17.3],[80.1,17.3],[80.1,17.2],[80.0,17.2],[80.0,17.1],[79.8,17.1],[79.8,17.0],[79.7,17.0],[79.7,16.9],[79.6,16.9],[79.6,16.7],[79.7,16.7],[79.7,16.6],[79.8,16.6],[79.8,16.5],[79.9,16.5],[79.9,16.4],[80.1,16.4],[80.1,16.3],[80.2,16.3],[80.2,16.2],[80.3,16.2],[80.3,16.1],[80.4,16.1],[80.4,15.9],[80.7,15.9],[80.7,15.8],[81.0,15.8],[81.0,15.9],[81.1,15.9],[81.1,16.0],[81.2,16.0],[81.2,16.2],[81.3,16.2],[81.3,16.3],[81.4,16.3],[81.4,16.4],[81.9,16.4],[81.9,16.5],[82.2,16.5],[82.2,16.6],[82.3,16.6],[82.3,16.7],[82.4,16.7],[82.4,17.2],[82.5,17.2],[82.5,17.3],[82.7,17.3],[82.7,17.4],[82.8,17.4],[82.8,17.5],[83.1,17.5],[83.1,17.6],[83.2,17.6],[83.2,17.7],[83.3,17.7],[83.3,17.8],[83.4,17.8],[83.4,17.9],[83.5,17.9],[83.5,18.0],[83.6,18.0],[83.6,18.1],[83.8,18.1],[83.8,18.2],[83.6,18.2],[83.6,18.3],[83.4,18.3],[83.4,18.4],[83.3,18.4],[83.3,18.5],[83.1,18.5],[83.1,18.6],[83.0,18.6],[83.0,18.7],[82.9,18.7],[82.9,18.8],[82.8,18.8],[82.8,18.9],[82.6,18.9],[82.6,19.0],[82.5,19.0]]],[[[85.0,44.9],[85.0,45.0],[69.5,45.0],[69.5,44.9],[69.9,44.9],[69.9,44.8],[70.2,44.8],[70.2,44.7],[70.5,44.7],[70.5,44.6],[70.9,44.6],[70.9,44.5],[71.2,44.5],[71.2,44.4],[71.5,44.4],[71.5,44.3],[71.6,44.3],[71.6,44.2],[71.8,44.2],[71.8,44.1],[71.9,44.1],[71.9,44.0],[72.1,44.0],[72.1,43.9],[72.2,43.9],[72.2,43.8],[72.3,43.8],[72.3,43.7],[72.4,43.7],[72.4,43.6],[72.5,43.6],[72.5,43.5],[72.6,43.5],[72.6,43.4],[72.7,43.4],[72.7,43.3],[72.8,43.3],[72.8,43.2],[73.0,43.2],[73.0,43.1],[73.1,43.1],[73.1,43.0],[73.2,43.0],[73.2,42.8],[73.3,42.8],[73.3,42.7],[73.4,42.7],[73.4,42.6],[73.6,42.6],[73.6,42.5],[73.7,42.5],[73.7,42.4],[73.8,42.4],[73.8,42.3],[74.0,42.3],[74.0,42.2],[74.1,42.2],[74.1,42.1],[74.2,42.1],[74.2,42.0],[74.3,42.0],[74.3,41.9],[74.4,41.9],[74.4,41.8],[74.5,41.8],[74.5,41.7],[74.6,41.7],[74.6,41.5],[74.7,41.5],[74.7,41.1],[74.8,41.1],[74.8,40.7],[74.9,40.7],[74.9,40.4],[75.0,40.4],[75.0,39.8],[75.1,39.8],[75.1,39.1],[75.2,39.1],[75.2,37.4],[75.1,37.4],[75.1,37.1],[75.0,37.1],[75.0,36.8],[74.9,36.8],[74.9,36.7],[75.1,36.7],[75.1,36.8],[75.3,36.8],[75.3,36.9],[75.5,36.9],[75.5,37.0],[75.7,37.0],[75.7,37.1],[76.0,37.1],[76.0,37.2],[77.4,37.2],[77.4,37.1],[77.7,37.1],[77.7,37.2],[77.8,37.2],[77.8,37.1],[77.9,37.1],[77.9,37.0],[78.2,37.0],[78.2,36.9],[78.4,36.9],[78.4,36.8],[78.8,36.8],[78.8,36.7],[79.2,36.7],[79.2,36.6],[80.9,36.6],[80.9,36.7],[81.4,36.7],[81.4,36.8],[81.9,36.8],[81.9,36.9],[82.2,36.9],[82.2,37.0],[82.4,37.0],[82.4,37.1],[82.8,37.1],[82.8,37.2],[83.1,37.2],[83.1,37.3],[83.3,37.3],[83.3,37.4],[83.8,37.4],[83.8,37.5],[84.1,37.5],[84.1,37.6],[84.4,37.6],[84.4,37.7],[84.8,37.7],[84.8,37.8],[85.1,37.8],[85.1,38.0],[85.0,38.0],[85.0,38.1],[84.9,38.1],[84.9,38.4],[84.8,38.4],[84.8,38.8],[84.7,38.8],[84.7,39.0],[84.6,39.0],[84.6,39.1],[84.5,39.1],[84.5,39.4],[84.4,39.4],[84.4,39.6],[84.3,39.6],[84.3,39.9],[84.2,39.9],[84.2,40.5],[84.1,40.5],[84.1,40.9],[84.0,40.9],[84.0,41.2],[83.9,41.2],[83.9,41.3],[83.8,41.3],[83.8,41.5],[83.7,41.5],[83.7,41.6],[83.5,41.6],[83.5,41.7],[83.4,41.7],[83.4,41.8],[83.3,41.8],[83.3,41.9],[83.2,41.9],[83.2,42.0],[83.1,42.0],[83.1,42.3],[84.3,42.3],[84.3,42.4],[84.7,42.4],[84.7,42.5],[85.0,42.5],[85.0,42.6],[85.5,42.6],[85.5,42.7],[86.3,42.7],[86.3,42.8],[87.0,42.8],[87.0,42.9],[87.7,42.9],[87.7,43.0],[87.6,43.0],[87.6,43.1],[87.5,43.1],[87.5,43.2],[87.3,43.2],[87.3,43.3],[87.1,43.3],[87.1,43.4],[87.0,43.4],[87.0,43.5],[86.9,43.5],[86.9,43.6],[86.7,43.6],[86.7,43.7],[86.6,43.7],[86.6,43.8],[86.4,43.8],[86.4,43.9],[86.3,43.9],[86.3,44.0],[86.2,44.0],[86.2,44.1],[86.1,44.1],[86.1,44.2],[85.9,44.2],[85.9,44.3],[85.8,44.3],[85.8,44.4],[85.6,44.4],[85.6,44.5],[85.5,44.5],[85.5,44.6],[85.3,44.6],[85.3,44.7],[85.2,44.7],[85.2,44.8],[85.1,44.8],[85.1,44.9],[85.0,44.9]]]]},"properties":{"tile_id":"51","start_year":945,"end_year":973,"source_image":"data/raw/toolbay/t/51/945.png","source_url":"https://www.toolbay.cc/history-map/t/51/945.png","source_color":"#00ffff","polity_id":null,"polity_assignment":"unverified","geometry_origin":"raster_color_trace","pixel_size_degrees":0.1,"source_color_pixels":10391,"simplification_degrees":0}},{"type":"Feature","id":"51:945:#999900","bbox":[72.8,14.5,82.3,23.6],"geometry":{"type":"Polygon","coordinates":[[[79.8,23.6],[79.2,23.6],[79.2,23.5],[79.0,23.5],[79.0,23.3],[78.9,23.3],[78.9,23.2],[78.8,23.2],[78.8,23.1],[78.7,23.1],[78.7,23.0],[78.6,23.0],[78.6,22.9],[78.5,22.9],[78.5,22.8],[78.4,22.8],[78.4,22.7],[78.3,22.7],[78.3,22.6],[78.2,22.6],[78.2,22.5],[78.1,22.5],[78.1,22.4],[75.6,22.4],[75.6,22.3],[75.3,22.3],[75.3,22.2],[74.7,22.2],[74.7,21.6],[74.6,21.6],[74.6,21.2],[74.5,21.2],[74.5,21.1],[74.4,21.1],[74.4,21.0],[74.3,21.0],[74.3,20.8],[74.2,20.8],[74.2,20.7],[74.1,20.7],[74.1,20.6],[74.0,20.6],[74.0,20.4],[73.9,20.4],[73.9,20.2],[73.8,20.2],[73.8,20.1],[73.7,20.1],[73.7,20.0],[73.6,20.0],[73.6,19.9],[73.5,19.9],[73.5,19.8],[73.4,19.8],[73.4,19.7],[73.2,19.7],[73.2,19.6],[72.8,19.6],[72.8,18.9],[72.9,18.9],[72.9,18.3],[73.0,18.3],[73.0,18.0],[73.1,18.0],[73.1,17.6],[73.2,17.6],[73.2,17.2],[73.3,17.2],[73.3,16.5],[73.4,16.5],[73.4,16.2],[73.5,16.2],[73.5,16.0],[73.6,16.0],[73.6,15.9],[73.7,15.9],[73.7,15.6],[73.8,15.6],[73.8,15.4],[73.9,15.4],[73.9,15.1],[74.0,15.1],[74.0,15.0],[74.1,15.0],[74.1,14.9],[74.2,14.9],[74.2,14.7],[74.3,14.7],[74.3,14.5],[74.4,14.5],[74.4,14.6],[75.3,14.6],[75.3,14.7],[75.8,14.7],[75.8,14.8],[76.2,14.8],[76.2,14.9],[76.4,14.9],[76.4,15.0],[76.5,15.0],[76.5,15.1],[76.7,15.1],[76.7,15.2],[77.0,15.2],[77.0,15.3],[77.3,15.3],[77.3,15.4],[77.7,15.4],[77.7,15.5],[78.1,15.5],[78.1,15.6],[78.3,15.6],[78.3,15.7],[78.8,15.7],[78.8,15.8],[78.9,15.8],[78.9,16.0],[79.0,16.0],[79.0,16.1],[79.1,16.1],[79.1,16.2],[79.2,16.2],[79.2,16.4],[79.3,16.4],[79.3,16.5],[79.4,16.5],[79.4,16.6],[79.5,16.6],[79.5,16.7],[79.6,16.7],[79.6,16.9],[79.7,16.9],[79.7,17.0],[79.8,17.0],[79.8,17.1],[80.0,17.1],[80.0,17.2],[80.1,17.2],[80.1,17.3],[80.3,17.3],[80.3,17.4],[80.4,17.4],[80.4,17.5],[80.5,17.5],[80.5,17.6],[80.6,17.6],[80.6,17.7],[80.8,17.7],[80.8,17.8],[80.9,17.8],[80.9,17.9],[81.0,17.9],[81.0,18.0],[81.1,18.0],[81.1,18.1],[81.2,18.1],[81.2,18.2],[81.3,18.2],[81.3,18.3],[81.4,18.3],[81.4,18.4],[81.5,18.4],[81.5,18.5],[81.6,18.5],[81.6,18.7],[81.7,18.7],[81.7,18.8],[81.8,18.8],[81.8,18.9],[81.9,18.9],[81.9,19.0],[82.0,19.0],[82.0,19.4],[82.1,19.4],[82.1,19.7],[82.2,19.7],[82.2,19.9],[82.3,19.9],[82.3,20.9],[82.2,20.9],[82.2,21.2],[82.1,21.2],[82.1,21.7],[82.2,21.7],[82.2,21.9],[82.3,21.9],[82.3,22.2],[82.2,22.2],[82.2,22.3],[82.0,22.3],[82.0,22.4],[81.9,22.4],[81.9,22.5],[81.8,22.5],[81.8,22.6],[81.6,22.6],[81.6,22.7],[81.5,22.7],[81.5,22.8],[81.3,22.8],[81.3,22.9],[81.2,22.9],[81.2,23.0],[81.0,23.0],[81.0,23.1],[80.7,23.1],[80.7,23.2],[80.3,23.2],[80.3,23.3],[80.2,23.3],[80.2,23.4],[79.9,23.4],[79.9,23.5],[79.8,23.5],[79.8,23.6]]]},"properties":{"tile_id":"51","start_year":945,"end_year":973,"source_image":"data/raw/toolbay/t/51/945.png","source_url":"https://www.toolbay.cc/history-map/t/51/945.png","source_color":"#999900","polity_id":null,"polity_assignment":"unverified","geometry_origin":"raster_color_trace","pixel_size_degrees":0.1,"source_color_pixels":5703,"simplification_degrees":0}},{"type":"Feature","id":"51:945:#ff00ff","bbox":[74.6,30.6,84.5,37.2],"geometry":{"type":"Polygon","coordinates":[[[77.4,37.2],[76.0,37.2],[76.0,37.1],[75.7,37.1],[75.7,37.0],[75.5,37.0],[75.5,36.9],[75.3,36.9],[75.3,36.8],[75.1,36.8],[75.1,36.7],[74.9,36.7],[74.9,36.6],[74.8,36.6],[74.8,36.5],[74.7,36.5],[74.7,36.4],[74.6,36.4],[74.6,36.3],[74.9,36.3],[74.9,35.9],[75.0,35.9],[75.0,35.6],[75.1,35.6],[75.1,35.4],[75.2,35.4],[75.2,35.1],[75.3,35.1],[75.3,35.0],[75.4,35.0],[75.4,34.9],[75.5,34.9],[75.5,34.7],[75.6,34.7],[75.6,34.5],[75.7,34.5],[75.7,34.4],[75.8,34.4],[75.8,34.3],[75.9,34.3],[75.9,34.2],[76.0,34.2],[76.0,34.0],[76.1,34.0],[76.1,33.9],[76.2,33.9],[76.2,33.8],[76.3,33.8],[76.3,33.7],[76.5,33.7],[76.5,33.5],[76.6,33.5],[76.6,33.4],[76.7,33.4],[76.7,33.3],[76.8,33.3],[76.8,33.2],[77.0,33.2],[77.0,33.1],[77.1,33.1],[77.1,33.0],[77.2,33.0],[77.2,32.9],[77.3,32.9],[77.3,32.8],[77.4,32.8],[77.4,32.7],[77.5,32.7],[77.5,32.5],[77.7,32.5],[77.7,32.4],[77.8,32.4],[77.8,32.3],[78.0,32.3],[78.0,32.2],[78.2,32.2],[78.2,32.1],[78.3,32.1],[78.3,32.0],[78.4,32.0],[78.4,31.9],[78.5,31.9],[78.5,31.8],[78.6,31.8],[78.6,31.7],[78.7,31.7],[78.7,31.6],[78.8,31.6],[78.8,31.5],[78.9,31.5],[78.9,31.4],[79.1,31.4],[79.1,31.3],[79.3,31.3],[79.3,31.2],[79.4,31.2],[79.4,31.1],[79.5,31.1],[79.5,30.9],[79.7,30.9],[79.7,30.8],[80.1,30.8],[80.1,30.7],[80.3,30.7],[80.3,30.6],[80.6,30.6],[80.6,30.7],[80.7,30.7],[80.7,30.8],[81.1,30.8],[81.1,30.9],[81.3,30.9],[81.3,31.0],[81.4,31.0],[81.4,31.1],[81.5,31.1],[81.5,31.2],[81.6,31.2],[81.6,31.4],[81.7,31.4],[81.7,31.5],[81.8,31.5],[81.8,31.6],[81.9,31.6],[81.9,31.7],[82.0,31.7],[82.0,31.8],[82.1,31.8],[82.1,31.9],[82.2,31.9],[82.2,32.0],[82.3,32.0],[82.3,32.1],[82.4,32.1],[82.4,32.2],[82.5,32.2],[82.5,32.3],[82.6,32.3],[82.6,32.5],[82.7,32.5],[82.7,32.6],[82.9,32.6],[82.9,32.7],[83.0,32.7],[83.0,32.8],[83.1,32.8],[83.1,32.9],[83.2,32.9],[83.2,33.0],[83.3,33.0],[83.3,33.1],[83.4,33.1],[83.4,33.2],[83.5,33.2],[83.5,33.3],[83.6,33.3],[83.6,34.0],[83.7,34.0],[83.7,34.2],[83.8,34.2],[83.8,34.4],[83.9,34.4],[83.9,34.5],[84.0,34.5],[84.0,34.7],[84.1,34.7],[84.1,34.8],[84.2,34.8],[84.2,35.0],[84.3,35.0],[84.3,35.2],[84.4,35.2],[84.4,35.6],[84.5,35.6],[84.5,35.8],[84.4,35.8],[84.4,36.2],[84.3,36.2],[84.3,36.3],[84.2,36.3],[84.2,36.5],[84.1,36.5],[84.1,36.7],[84.0,36.7],[84.0,36.8],[83.8,36.8],[83.8,36.9],[83.6,36.9],[83.6,37.0],[83.4,37.0],[83.4,37.1],[83.2,37.1],[83.2,37.2],[82.8,37.2],[82.8,37.1],[82.4,37.1],[82.4,37.0],[82.2,37.0],[82.2,36.9],[81.9,36.9],[81.9,36.8],[81.4,36.8],[81.4,36.7],[80.9,36.7],[80.9,36.6],[79.2,36.6],[79.2,36.7],[78.8,36.7],[78.8,36.8],[78.4,36.8],[78.4,36.9],[78.2,36.9],[78.2,37.0],[77.9,37.0],[77.9,37.1],[77.8,37.1],[77.8,37.2],[77.7,37.2],[77.7,37.1],[77.4,37.1],[77.4,37.2]]]},"properties":{"tile_id":"51","start_year":945,"end_year":973,"source_image":"data/raw/toolbay/t/51/945.png","source_url":"https://www.toolbay.cc/history-map/t/51/945.png","source_color":"#ff00ff","polity_id":null,"polity_assignment":"unverified","geometry_origin":"raster_color_trace","pixel_size_degrees":0.1,"source_color_pixels":4708,"simplification_degrees":0}},{"type":"Feature","id":"51:945:#ff9900","bbox":[79.7,6.0,81.9,9.9],"geometry":{"type":"Polygon","coordinates":[[[80.3,9.9],[80.0,9.9],[80.0,9.5],[80.1,9.5],[80.1,9.2],[80.0,9.2],[80.0,9.1],[79.9,9.1],[79.9,8.5],[79.8,8.5],[79.8,8.4],[79.7,8.4],[79.7,7.9],[79.8,7.9],[79.8,6.9],[79.9,6.9],[79.9,6.7],[80.0,6.7],[80.0,6.3],[80.1,6.3],[80.1,6.1],[80.2,6.1],[80.2,6.0],[80.8,6.0],[80.8,6.1],[81.1,6.1],[81.1,6.2],[81.4,6.2],[81.4,6.3],[81.5,6.3],[81.5,6.4],[81.6,6.4],[81.6,6.5],[81.7,6.5],[81.7,6.6],[81.8,6.6],[81.8,6.8],[81.9,6.8],[81.9,7.2],[81.8,7.2],[81.8,7.8],[81.7,7.8],[81.7,7.9],[81.6,7.9],[81.6,8.1],[81.5,8.1],[81.5,8.3],[81.4,8.3],[81.4,8.6],[81.3,8.6],[81.3,8.7],[81.2,8.7],[81.2,8.9],[81.1,8.9],[81.1,9.0],[81.0,9.0],[81.0,9.2],[80.9,9.2],[80.9,9.4],[80.8,9.4],[80.8,9.5],[80.7,9.5],[80.7,9.6],[80.6,9.6],[80.6,9.7],[80.4,9.7],[80.4,9.8],[80.3,9.8],[80.3,9.9]]]},"properties":{"tile_id":"51","start_year":945,"end_year":973,"source_image":"data/raw/toolbay/t/51/945.png","source_url":"https://www.toolbay.cc/history-map/t/51/945.png","source_color":"#ff9900","polity_id":null,"polity_assignment":"unverified","geometry_origin":"raster_color_trace","pixel_size_degrees":0.1,"source_color_pixels":574,"simplification_degrees":0}},{"type":"Feature","id":"51:945:#ff9933","bbox":[78.7,27.1,86.3,30.8],"geometry":{"type":"Polygon","coordinates":[[[80.1,30.8],[79.7,30.8],[79.7,30.6],[79.6,30.6],[79.6,30.5],[79.5,30.5],[79.5,30.4],[79.2,30.4],[79.2,30.2],[79.0,30.2],[79.0,30.1],[78.9,30.1],[78.9,30.0],[78.8,30.0],[78.8,29.9],[78.7,29.9],[78.7,29.8],[78.8,29.8],[78.8,29.6],[79.1,29.6],[79.1,29.5],[79.2,29.5],[79.2,29.4],[79.4,29.4],[79.4,29.3],[79.6,29.3],[79.6,29.2],[79.8,29.2],[79.8,29.1],[79.9,29.1],[79.9,29.0],[80.1,29.0],[80.1,28.9],[80.5,28.9],[80.5,28.8],[80.7,28.8],[80.7,28.7],[80.9,28.7],[80.9,28.6],[81.2,28.6],[81.2,28.5],[81.5,28.5],[81.5,28.4],[81.7,28.4],[81.7,28.3],[82.1,28.3],[82.1,28.2],[82.5,28.2],[82.5,28.1],[82.7,28.1],[82.7,28.0],[83.3,28.0],[83.3,27.9],[83.4,27.9],[83.4,27.8],[83.7,27.8],[83.7,27.7],[84.0,27.7],[84.0,27.6],[84.4,27.6],[84.4,27.5],[84.9,27.5],[84.9,27.4],[85.2,27.4],[85.2,27.3],[85.4,27.3],[85.4,27.2],[85.5,27.2],[85.5,27.1],[86.1,27.1],[86.1,27.8],[86.2,27.8],[86.2,28.1],[86.3,28.1],[86.3,28.2],[86.2,28.2],[86.2,28.3],[86.1,28.3],[86.1,28.5],[85.9,28.5],[85.9,28.6],[85.8,28.6],[85.8,28.7],[85.6,28.7],[85.6,28.8],[85.3,28.8],[85.3,28.9],[85.0,28.9],[85.0,29.0],[84.7,29.0],[84.7,29.1],[84.2,29.1],[84.2,29.2],[83.8,29.2],[83.8,29.3],[83.7,29.3],[83.7,29.4],[83.3,29.4],[83.3,29.5],[83.0,29.5],[83.0,29.6],[82.5,29.6],[82.5,29.7],[82.2,29.7],[82.2,29.8],[82.0,29.8],[82.0,29.9],[81.8,29.9],[81.8,30.0],[81.6,30.0],[81.6,30.1],[81.4,30.1],[81.4,30.2],[81.1,30.2],[81.1,30.3],[80.8,30.3],[80.8,30.4],[80.6,30.4],[80.6,30.6],[80.3,30.6],[80.3,30.7],[80.1,30.7],[80.1,30.8]]]},"properties":{"tile_id":"51","start_year":945,"end_year":973,"source_image":"data/raw/toolbay/t/51/945.png","source_url":"https://www.toolbay.cc/history-map/t/51/945.png","source_color":"#ff9933","polity_id":null,"polity_assignment":"unverified","geometry_origin":"raster_color_trace","pixel_size_degrees":0.1,"source_color_pixels":1107,"simplification_degrees":0}},{"type":"Feature","id":"51:945:#ffff00","bbox":[60.0,31.9,75.2,45.0],"geometry":{"type":"Polygon","coordinates":[[[60.1,43.8],[60.0,43.8],[60.0,32.4],[60.1,32.4],[60.1,32.5],[61.2,32.5],[61.2,32.6],[61.9,32.6],[61.9,32.7],[62.7,32.7],[62.7,32.8],[63.1,32.8],[63.1,32.9],[63.4,32.9],[63.4,33.0],[63.8,33.0],[63.8,33.1],[64.1,33.1],[64.1,33.2],[64.6,33.2],[64.6,33.3],[66.3,33.3],[66.3,33.2],[66.5,33.2],[66.5,33.1],[66.8,33.1],[66.8,33.0],[67.3,33.0],[67.3,32.9],[67.6,32.9],[67.6,33.0],[67.8,33.0],[67.8,32.9],[68.5,32.9],[68.5,32.8],[68.8,32.8],[68.8,32.7],[69.0,32.7],[69.0,32.6],[69.3,32.6],[69.3,32.5],[69.5,32.5],[69.5,32.4],[69.7,32.4],[69.7,32.3],[70.0,32.3],[70.0,32.2],[70.2,32.2],[70.2,32.1],[70.5,32.1],[70.5,32.0],[70.7,32.0],[70.7,31.9],[70.8,31.9],[70.8,33.6],[70.9,33.6],[70.9,33.8],[71.0,33.8],[71.0,34.0],[71.1,34.0],[71.1,34.3],[71.2,34.3],[71.2,34.5],[71.3,34.5],[71.3,34.6],[71.4,34.6],[71.4,34.8],[71.5,34.8],[71.5,35.0],[71.6,35.0],[71.6,35.2],[71.7,35.2],[71.7,35.3],[71.8,35.3],[71.8,35.4],[71.9,35.4],[71.9,35.5],[72.0,35.5],[72.0,35.6],[72.1,35.6],[72.1,35.7],[72.2,35.7],[72.2,35.9],[72.3,35.9],[72.3,36.0],[72.9,36.0],[72.9,36.1],[73.0,36.1],[73.0,36.2],[73.1,36.2],[73.1,36.3],[74.6,36.3],[74.6,36.4],[74.7,36.4],[74.7,36.5],[74.8,36.5],[74.8,36.6],[74.9,36.6],[74.9,36.8],[75.0,36.8],[75.0,37.1],[75.1,37.1],[75.1,37.4],[75.2,37.4],[75.2,39.1],[75.1,39.1],[75.1,39.8],[75.0,39.8],[75.0,40.4],[74.9,40.4],[74.9,40.7],[74.8,40.7],[74.8,41.1],[74.7,41.1],[74.7,41.5],[74.6,41.5],[74.6,41.7],[74.5,41.7],[74.5,41.8],[74.4,41.8],[74.4,41.9],[74.3,41.9],[74.3,42.0],[74.2,42.0],[74.2,42.1],[74.1,42.1],[74.1,42.2],[74.0,42.2],[74.0,42.3],[73.8,42.3],[73.8,42.4],[73.7,42.4],[73.7,42.5],[73.6,42.5],[73.6,42.6],[73.4,42.6],[73.4,42.7],[73.3,42.7],[73.3,42.8],[73.2,42.8],[73.2,43.0],[73.1,43.0],[73.1,43.1],[73.0,43.1],[73.0,43.2],[72.8,43.2],[72.8,43.3],[72.7,43.3],[72.7,43.4],[72.6,43.4],[72.6,43.5],[72.5,43.5],[72.5,43.6],[72.4,43.6],[72.4,43.7],[72.3,43.7],[72.3,43.8],[72.2,43.8],[72.2,43.9],[72.1,43.9],[72.1,44.0],[71.9,44.0],[71.9,44.1],[71.8,44.1],[71.8,44.2],[71.6,44.2],[71.6,44.3],[71.5,44.3],[71.5,44.4],[71.2,44.4],[71.2,44.5],[70.9,44.5],[70.9,44.6],[70.5,44.6],[70.5,44.7],[70.2,44.7],[70.2,44.8],[69.9,44.8],[69.9,44.9],[69.5,44.9],[69.5,45.0],[68.0,45.0],[68.0,44.9],[67.8,44.9],[67.8,44.8],[67.5,44.8],[67.5,44.7],[67.4,44.7],[67.4,44.6],[67.2,44.6],[67.2,44.5],[67.1,44.5],[67.1,44.4],[67.0,44.4],[67.0,44.3],[66.8,44.3],[66.8,44.2],[66.7,44.2],[66.7,44.1],[66.5,44.1],[66.5,44.0],[66.3,44.0],[66.3,43.9],[66.0,43.9],[66.0,43.8],[65.7,43.8],[65.7,43.7],[63.9,43.7],[63.9,43.8],[63.7,43.8],[63.7,43.9],[63.4,43.9],[63.4,44.0],[63.2,44.0],[63.2,44.1],[63.0,44.1],[63.0,44.2],[62.8,44.2],[62.8,44.3],[62.7,44.3],[62.7,44.4],[62.6,44.4],[62.6,44.5],[62.4,44.5],[62.4,44.6],[62.3,44.6],[62.3,44.7],[62.2,44.7],[62.2,44.8],[62.1,44.8],[62.1,44.9],[62.0,44.9],[62.0,45.0],[61.4,45.0],[61.4,44.9],[61.3,44.9],[61.3,44.8],[61.1,44.8],[61.1,44.7],[61.0,44.7],[61.0,44.5],[60.9,44.5],[60.9,44.3],[60.8,44.3],[60.8,44.2],[60.6,44.2],[60.6,44.1],[60.3,44.1],[60.3,44.0],[60.2,44.0],[60.2,43.9],[60.1,43.9],[60.1,43.8]]]},"properties":{"tile_id":"51","start_year":945,"end_year":973,"source_image":"data/raw/toolbay/t/51/945.png","source_url":"https://www.toolbay.cc/history-map/t/51/945.png","source_color":"#ffff00","polity_id":null,"polity_assignment":"unverified","geometry_origin":"raster_color_trace","pixel_size_degrees":0.1,"source_color_pixels":20300,"simplification_degrees":0}}]}
