{"type":"FeatureCollection","features":[{"type":"Feature","id":"71:1115:#00ffff","bbox":[139.7,37.1,142.1,41.6],"geometry":{"type":"Polygon","coordinates":[[[141.1,41.6],[140.9,41.6],[140.9,41.5],[140.8,41.5],[140.8,41.3],[140.9,41.3],[140.9,41.2],[141.0,41.2],[141.0,41.0],[140.8,41.0],[140.8,41.1],[140.7,41.1],[140.7,41.2],[140.6,41.2],[140.6,41.3],[140.4,41.3],[140.4,41.2],[140.3,41.2],[140.3,40.9],[140.2,40.9],[140.2,40.8],[140.0,40.8],[140.0,40.7],[139.9,40.7],[139.9,40.5],[140.0,40.5],[140.0,40.2],[139.9,40.2],[139.9,39.9],[140.0,39.9],[140.0,39.8],[140.1,39.8],[140.1,39.5],[140.0,39.5],[140.0,39.4],[139.9,39.4],[139.9,39.1],[139.8,39.1],[139.8,38.9],[139.7,38.9],[139.7,38.8],[139.9,38.8],[139.9,38.7],[140.0,38.7],[140.0,38.2],[139.9,38.2],[139.9,38.0],[139.8,38.0],[139.8,37.9],[139.7,37.9],[139.7,37.4],[139.8,37.4],[139.8,37.3],[140.0,37.3],[140.0,37.2],[140.8,37.2],[140.8,37.1],[141.1,37.1],[141.1,37.8],[141.0,37.8],[141.0,38.3],[141.1,38.3],[141.1,38.4],[141.5,38.4],[141.5,38.5],[141.6,38.5],[141.6,38.9],[141.7,38.9],[141.7,39.0],[141.8,39.0],[141.8,39.1],[141.9,39.1],[141.9,39.2],[142.0,39.2],[142.0,39.4],[142.1,39.4],[142.1,39.8],[142.0,39.8],[142.0,40.1],[141.9,40.1],[141.9,40.3],[141.8,40.3],[141.8,40.5],[141.7,40.5],[141.7,40.6],[141.6,40.6],[141.6,40.7],[141.5,40.7],[141.5,40.9],[141.4,40.9],[141.4,41.4],[141.3,41.4],[141.3,41.5],[141.1,41.5],[141.1,41.6]]]},"properties":{"tile_id":"71","start_year":1115,"end_year":1180,"source_image":"data/raw/toolbay/t/71/1115.png","source_url":"https://www.toolbay.cc/history-map/t/71/1115.png","source_color":"#00ffff","polity_id":null,"polity_assignment":"unverified","geometry_origin":"raster_color_trace","pixel_size_degrees":0.1,"source_color_pixels":664,"simplification_degrees":0}},{"type":"Feature","id":"71:1115:#ff9933","bbox":[135.0,33.5,141.0,38.8],"geometry":{"type":"MultiPolygon","coordinates":[[[[139.5,35.4],[139.5,35.3],[139.8,35.3],[139.8,35.1],[140.2,35.1],[140.2,35.2],[140.3,35.2],[140.3,35.3],[140.4,35.3],[140.4,35.5],[140.5,35.5],[140.5,35.6],[140.6,35.6],[140.6,35.7],[140.7,35.7],[140.7,35.8],[140.8,35.8],[140.8,36.0],[140.7,36.0],[140.7,36.2],[140.6,36.2],[140.6,36.4],[140.7,36.4],[140.7,36.7],[140.8,36.7],[140.8,36.9],[140.9,36.9],[140.9,37.0],[141.0,37.0],[141.0,37.1],[140.8,37.1],[140.8,37.2],[140.0,37.2],[140.0,37.3],[139.8,37.3],[139.8,37.4],[139.7,37.4],[139.7,37.9],[139.8,37.9],[139.8,38.0],[139.9,38.0],[139.9,38.2],[140.0,38.2],[140.0,38.7],[139.9,38.7],[139.9,38.8],[139.6,38.8],[139.6,38.6],[139.5,38.6],[139.5,38.4],[139.4,38.4],[139.4,38.2],[139.3,38.2],[139.3,38.1],[139.2,38.1],[139.2,38.0],[138.9,38.0],[138.9,37.9],[138.8,37.9],[138.8,37.7],[138.7,37.7],[138.7,37.6],[138.6,37.6],[138.6,37.5],[138.5,37.5],[138.5,37.4],[138.4,37.4],[138.4,37.3],[138.2,37.3],[138.2,37.2],[138.0,37.2],[138.0,37.1],[137.6,37.1],[137.6,37.0],[137.4,37.0],[137.4,36.9],[137.2,36.9],[137.2,37.0],[137.1,37.0],[137.1,37.2],[137.2,37.2],[137.2,37.5],[136.8,37.5],[136.8,37.4],[136.7,37.4],[136.7,37.1],[136.8,37.1],[136.8,36.9],[136.7,36.9],[136.7,36.7],[136.6,36.7],[136.6,36.6],[136.5,36.6],[136.5,36.5],[136.3,36.5],[136.3,36.4],[136.2,36.4],[136.2,36.3],[136.1,36.3],[136.1,36.2],[136.0,36.2],[136.0,35.8],[135.9,35.8],[135.9,35.7],[135.7,35.7],[135.7,35.6],[135.5,35.6],[135.5,35.7],[135.4,35.7],[135.4,35.8],[135.0,35.8],[135.0,34.7],[135.1,34.7],[135.1,34.6],[135.2,34.6],[135.2,34.4],[135.1,34.4],[135.1,33.9],[135.2,33.9],[135.2,33.8],[135.3,33.8],[135.3,33.7],[135.4,33.7],[135.4,33.6],[135.6,33.6],[135.6,33.5],[135.9,33.5],[135.9,33.6],[136.0,33.6],[136.0,33.7],[136.1,33.7],[136.1,33.9],[136.2,33.9],[136.2,34.0],[136.3,34.0],[136.3,34.2],[136.4,34.2],[136.4,34.3],[136.9,34.3],[136.9,34.6],[136.7,34.6],[136.7,34.9],[136.9,34.9],[136.9,34.8],[137.0,34.8],[137.0,34.7],[138.2,34.7],[138.2,34.8],[138.3,34.8],[138.3,34.9],[138.4,34.9],[138.4,35.0],[138.5,35.0],[138.5,35.1],[138.7,35.1],[138.7,35.0],[138.8,35.0],[138.8,34.8],[139.1,34.8],[139.1,34.9],[139.2,34.9],[139.2,35.3],[139.3,35.3],[139.3,35.4],[139.5,35.4]],[[139.9,35.3],[139.8,35.3],[139.8,35.4],[139.7,35.4],[139.7,35.5],[139.8,35.5],[139.8,35.7],[140.1,35.7],[140.1,35.6],[140.0,35.6],[140.0,35.5],[139.9,35.5],[139.9,35.3]]],[[[138.6,38.3],[138.6,38.4],[138.4,38.4],[138.4,38.3],[138.3,38.3],[138.3,38.2],[138.2,38.2],[138.2,38.1],[138.3,38.1],[138.3,38.0],[138.2,38.0],[138.2,37.9],[138.4,37.9],[138.4,38.0],[138.5,38.0],[138.5,38.1],[138.6,38.1],[138.6,38.2],[138.5,38.2],[138.5,38.3],[138.6,38.3]]]]},"properties":{"tile_id":"71","start_year":1115,"end_year":1180,"source_image":"data/raw/toolbay/t/71/1115.png","source_url":"https://www.toolbay.cc/history-map/t/71/1115.png","source_color":"#ff9933","polity_id":null,"polity_assignment":"unverified","geometry_origin":"raster_color_trace","pixel_size_degrees":0.1,"source_color_pixels":1391,"simplification_degrees":0}},{"type":"Feature","id":"71:1115:#ffff00","bbox":[135.0,43.5,136.6,45.0],"geometry":{"type":"Polygon","coordinates":[[[136.6,45.0],[135.0,45.0],[135.0,43.5],[135.1,43.5],[135.1,43.6],[135.3,43.6],[135.3,43.7],[135.4,43.7],[135.4,43.8],[135.5,43.8],[135.5,43.9],[135.6,43.9],[135.6,44.1],[135.7,44.1],[135.7,44.3],[135.8,44.3],[135.8,44.4],[135.9,44.4],[135.9,44.5],[136.2,44.5],[136.2,44.6],[136.3,44.6],[136.3,44.7],[136.4,44.7],[136.4,44.8],[136.5,44.8],[136.5,44.9],[136.6,44.9],[136.6,45.0]]]},"properties":{"tile_id":"71","start_year":1115,"end_year":1180,"source_image":"data/raw/toolbay/t/71/1115.png","source_url":"https://www.toolbay.cc/history-map/t/71/1115.png","source_color":"#ffff00","polity_id":null,"polity_assignment":"unverified","geometry_origin":"raster_color_trace","pixel_size_degrees":0.1,"source_color_pixels":126,"simplification_degrees":0}}]}
