{"type":"FeatureCollection","features":[{"type":"Feature","id":"71:1336:#993300","bbox":[135.0,43.5,136.6,45.0],"geometry":{"type":"Polygon","coordinates":[[[136.6,45.0],[135.0,45.0],[135.0,43.5],[135.1,43.5],[135.1,43.6],[135.3,43.6],[135.3,43.7],[135.4,43.7],[135.4,43.8],[135.5,43.8],[135.5,43.9],[135.6,43.9],[135.6,44.1],[135.7,44.1],[135.7,44.3],[135.8,44.3],[135.8,44.4],[135.9,44.4],[135.9,44.5],[136.2,44.5],[136.2,44.6],[136.3,44.6],[136.3,44.7],[136.4,44.7],[136.4,44.8],[136.5,44.8],[136.5,44.9],[136.6,44.9],[136.6,45.0]]]},"properties":{"tile_id":"71","start_year":1336,"end_year":1342,"source_image":"data/raw/toolbay/t/71/1336.png","source_url":"https://www.toolbay.cc/history-map/t/71/1336.png","source_color":"#993300","polity_id":null,"polity_assignment":"unverified","geometry_origin":"raster_color_trace","pixel_size_degrees":0.1,"source_color_pixels":126,"simplification_degrees":0}},{"type":"Feature","id":"71:1336:#ff0000","bbox":[135.5,34.1,136.2,34.8],"geometry":{"type":"Polygon","coordinates":[[[136.1,34.8],[135.8,34.8],[135.8,34.7],[135.7,34.7],[135.7,34.6],[135.6,34.6],[135.6,34.5],[135.5,34.5],[135.5,34.1],[136.0,34.1],[136.0,34.3],[136.2,34.3],[136.2,34.7],[136.1,34.7],[136.1,34.8]]]},"properties":{"tile_id":"71","start_year":1336,"end_year":1342,"source_image":"data/raw/toolbay/t/71/1336.png","source_url":"https://www.toolbay.cc/history-map/t/71/1336.png","source_color":"#ff0000","polity_id":null,"polity_assignment":"unverified","geometry_origin":"raster_color_trace","pixel_size_degrees":0.1,"source_color_pixels":38,"simplification_degrees":0}}]}
