{"type":"FeatureCollection","features":[{"type":"Feature","id":"71:1351:#009900","bbox":[135.0,33.5,136.5,35.9],"geometry":{"type":"MultiPolygon","coordinates":[[[[135.2,34.3],[135.2,34.4],[135.1,34.4],[135.1,33.9],[135.2,33.9],[135.2,33.8],[135.3,33.8],[135.3,33.7],[135.4,33.7],[135.4,33.6],[135.6,33.6],[135.6,33.5],[135.9,33.5],[135.9,33.6],[136.0,33.6],[136.0,33.7],[136.1,33.7],[136.1,33.9],[136.2,33.9],[136.2,34.0],[136.0,34.0],[136.0,34.1],[135.5,34.1],[135.5,34.2],[135.4,34.2],[135.4,34.3],[135.2,34.3]]],[[[136.1,35.8],[136.1,35.9],[136.0,35.9],[136.0,35.8],[135.9,35.8],[135.9,35.7],[135.7,35.7],[135.7,35.6],[135.5,35.6],[135.5,35.7],[135.4,35.7],[135.4,35.8],[135.0,35.8],[135.0,35.1],[135.4,35.1],[135.4,35.2],[136.5,35.2],[136.5,35.4],[136.4,35.4],[136.4,35.6],[136.3,35.6],[136.3,35.7],[136.2,35.7],[136.2,35.8],[136.1,35.8]]]]},"properties":{"tile_id":"71","start_year":1351,"end_year":1352,"source_image":"data/raw/toolbay/t/71/1351.png","source_url":"https://www.toolbay.cc/history-map/t/71/1351.png","source_color":"#009900","polity_id":null,"polity_assignment":"unverified","geometry_origin":"raster_color_trace","pixel_size_degrees":0.1,"source_color_pixels":135,"simplification_degrees":0}},{"type":"Feature","id":"71:1351:#993300","bbox":[135.0,43.5,136.6,45.0],"geometry":{"type":"Polygon","coordinates":[[[136.6,45.0],[135.0,45.0],[135.0,43.5],[135.1,43.5],[135.1,43.6],[135.3,43.6],[135.3,43.7],[135.4,43.7],[135.4,43.8],[135.5,43.8],[135.5,43.9],[135.6,43.9],[135.6,44.1],[135.7,44.1],[135.7,44.3],[135.8,44.3],[135.8,44.4],[135.9,44.4],[135.9,44.5],[136.2,44.5],[136.2,44.6],[136.3,44.6],[136.3,44.7],[136.4,44.7],[136.4,44.8],[136.5,44.8],[136.5,44.9],[136.6,44.9],[136.6,45.0]]]},"properties":{"tile_id":"71","start_year":1351,"end_year":1352,"source_image":"data/raw/toolbay/t/71/1351.png","source_url":"https://www.toolbay.cc/history-map/t/71/1351.png","source_color":"#993300","polity_id":null,"polity_assignment":"unverified","geometry_origin":"raster_color_trace","pixel_size_degrees":0.1,"source_color_pixels":126,"simplification_degrees":0}},{"type":"Feature","id":"71:1351:#ff0000","bbox":[135.0,34.0,139.8,35.7],"geometry":{"type":"Polygon","coordinates":[[[139.8,35.7],[139.4,35.7],[139.4,35.6],[138.7,35.6],[138.7,35.5],[138.4,35.5],[138.4,35.4],[138.2,35.4],[138.2,35.3],[137.2,35.3],[137.2,35.4],[136.8,35.4],[136.8,35.3],[136.5,35.3],[136.5,35.2],[135.4,35.2],[135.4,35.1],[135.0,35.1],[135.0,34.7],[135.1,34.7],[135.1,34.6],[135.2,34.6],[135.2,34.3],[135.4,34.3],[135.4,34.2],[135.5,34.2],[135.5,34.1],[136.0,34.1],[136.0,34.0],[136.3,34.0],[136.3,34.2],[136.4,34.2],[136.4,34.3],[136.9,34.3],[136.9,34.6],[136.7,34.6],[136.7,34.9],[136.9,34.9],[136.9,34.8],[137.0,34.8],[137.0,34.7],[138.2,34.7],[138.2,34.8],[138.3,34.8],[138.3,34.9],[138.4,34.9],[138.4,35.0],[138.5,35.0],[138.5,35.1],[138.7,35.1],[138.7,35.0],[138.8,35.0],[138.8,34.8],[139.1,34.8],[139.1,34.9],[139.2,34.9],[139.2,35.3],[139.3,35.3],[139.3,35.4],[139.5,35.4],[139.5,35.3],[139.8,35.3],[139.8,35.4],[139.7,35.4],[139.7,35.5],[139.8,35.5],[139.8,35.7]]]},"properties":{"tile_id":"71","start_year":1351,"end_year":1352,"source_image":"data/raw/toolbay/t/71/1351.png","source_url":"https://www.toolbay.cc/history-map/t/71/1351.png","source_color":"#ff0000","polity_id":null,"polity_assignment":"unverified","geometry_origin":"raster_color_trace","pixel_size_degrees":0.1,"source_color_pixels":340,"simplification_degrees":0}}]}
