{"type":"FeatureCollection","features":[{"type":"Feature","id":"71:1467:#0000ff","bbox":[135.0,34.8,140.0,45.0],"geometry":{"type":"MultiPolygon","coordinates":[[[[139.7,38.5],[139.7,38.6],[139.5,38.6],[139.5,38.4],[139.4,38.4],[139.4,38.2],[139.3,38.2],[139.3,38.1],[139.2,38.1],[139.2,38.0],[138.9,38.0],[138.9,37.9],[138.8,37.9],[138.8,37.7],[138.7,37.7],[138.7,37.6],[138.6,37.6],[138.6,37.5],[138.5,37.5],[138.5,37.4],[138.4,37.4],[138.4,37.3],[138.2,37.3],[138.2,37.2],[138.0,37.2],[138.0,37.1],[137.9,37.1],[137.9,36.8],[137.8,36.8],[137.8,36.7],[138.2,36.7],[138.2,36.8],[138.4,36.8],[138.4,36.9],[138.6,36.9],[138.6,37.0],[138.7,37.0],[138.7,36.9],[138.9,36.9],[138.9,36.8],[139.0,36.8],[139.0,36.6],[138.9,36.6],[138.9,36.5],[138.8,36.5],[138.8,36.2],[138.9,36.2],[138.9,35.9],[139.0,35.9],[139.0,35.8],[138.9,35.8],[138.9,35.5],[138.8,35.5],[138.8,35.3],[138.7,35.3],[138.7,35.0],[138.8,35.0],[138.8,34.8],[139.1,34.8],[139.1,34.9],[139.2,34.9],[139.2,35.3],[139.3,35.3],[139.3,35.4],[139.5,35.4],[139.5,35.3],[139.8,35.3],[139.8,35.4],[139.7,35.4],[139.7,35.5],[139.8,35.5],[139.8,35.7],[140.0,35.7],[140.0,36.5],[139.9,36.5],[139.9,36.7],[139.8,36.7],[139.8,37.1],[139.7,37.1],[139.7,37.6],[139.8,37.6],[139.8,38.0],[139.9,38.0],[139.9,38.4],[139.8,38.4],[139.8,38.5],[139.7,38.5]]],[[[136.6,44.9],[136.6,45.0],[135.0,45.0],[135.0,43.5],[135.1,43.5],[135.1,43.6],[135.3,43.6],[135.3,43.7],[135.4,43.7],[135.4,43.8],[135.5,43.8],[135.5,43.9],[135.6,43.9],[135.6,44.1],[135.7,44.1],[135.7,44.3],[135.8,44.3],[135.8,44.4],[135.9,44.4],[135.9,44.5],[136.2,44.5],[136.2,44.6],[136.3,44.6],[136.3,44.7],[136.4,44.7],[136.4,44.8],[136.5,44.8],[136.5,44.9],[136.6,44.9]]]]},"properties":{"tile_id":"71","start_year":1467,"end_year":1477,"source_image":"data/raw/toolbay/t/71/1467.png","source_url":"https://www.toolbay.cc/history-map/t/71/1467.png","source_color":"#0000ff","polity_id":null,"polity_assignment":"unverified","geometry_origin":"raster_color_trace","pixel_size_degrees":0.1,"source_color_pixels":491,"simplification_degrees":0}},{"type":"Feature","id":"71:1467:#009900","bbox":[135.0,34.3,137.5,35.5],"geometry":{"type":"MultiPolygon","coordinates":[[[[135.5,35.4],[135.5,35.5],[135.0,35.5],[135.0,34.7],[135.1,34.7],[135.1,34.6],[135.2,34.6],[135.2,34.4],[135.1,34.4],[135.1,34.3],[135.3,34.3],[135.3,34.7],[135.4,34.7],[135.4,35.1],[135.5,35.1],[135.5,35.2],[135.6,35.2],[135.6,35.4],[135.5,35.4]]],[[[137.4,35.3],[137.4,35.4],[137.0,35.4],[137.0,35.2],[136.9,35.2],[136.9,34.8],[137.0,34.8],[137.0,34.7],[137.4,34.7],[137.4,34.9],[137.5,34.9],[137.5,35.3],[137.4,35.3]]]]},"properties":{"tile_id":"71","start_year":1467,"end_year":1477,"source_image":"data/raw/toolbay/t/71/1467.png","source_url":"https://www.toolbay.cc/history-map/t/71/1467.png","source_color":"#009900","polity_id":null,"polity_assignment":"unverified","geometry_origin":"raster_color_trace","pixel_size_degrees":0.1,"source_color_pixels":80,"simplification_degrees":0}},{"type":"Feature","id":"71:1467:#009999","bbox":[136.9,36.5,137.9,37.1],"geometry":{"type":"Polygon","coordinates":[[[137.9,37.1],[137.6,37.1],[137.6,37.0],[137.4,37.0],[137.4,36.9],[137.2,36.9],[137.2,37.0],[137.0,37.0],[137.0,36.9],[136.9,36.9],[136.9,36.5],[137.5,36.5],[137.5,36.6],[137.7,36.6],[137.7,36.7],[137.8,36.7],[137.8,36.8],[137.9,36.8],[137.9,37.1]]]},"properties":{"tile_id":"71","start_year":1467,"end_year":1477,"source_image":"data/raw/toolbay/t/71/1467.png","source_url":"https://www.toolbay.cc/history-map/t/71/1467.png","source_color":"#009999","polity_id":null,"polity_assignment":"unverified","geometry_origin":"raster_color_trace","pixel_size_degrees":0.1,"source_color_pixels":43,"simplification_degrees":0}},{"type":"Feature","id":"71:1467:#00ff00","bbox":[135.1,33.5,137.7,36.6],"geometry":{"type":"MultiPolygon","coordinates":[[[[135.5,34.2],[135.5,34.7],[135.3,34.7],[135.3,34.3],[135.1,34.3],[135.1,33.9],[135.2,33.9],[135.2,33.8],[135.3,33.8],[135.3,33.7],[135.4,33.7],[135.4,33.6],[135.6,33.6],[135.6,33.5],[135.9,33.5],[135.9,33.6],[136.0,33.6],[136.0,33.7],[136.1,33.7],[136.1,33.9],[136.2,33.9],[136.2,34.0],[136.3,34.0],[136.3,34.2],[136.4,34.2],[136.4,34.4],[136.1,34.4],[136.1,34.3],[135.9,34.3],[135.9,34.2],[135.8,34.2],[135.8,34.1],[135.6,34.1],[135.6,34.2],[135.5,34.2]]],[[[136.1,35.5],[136.0,35.5],[136.0,35.6],[135.7,35.6],[135.7,35.5],[135.6,35.5],[135.6,35.3],[135.7,35.3],[135.7,35.2],[135.9,35.2],[135.9,35.1],[136.0,35.1],[136.0,35.0],[136.1,35.0],[136.1,35.2],[136.2,35.2],[136.2,35.4],[136.1,35.4],[136.1,35.5]]],[[[137.6,36.2],[137.7,36.2],[137.7,36.6],[137.5,36.6],[137.5,36.5],[136.9,36.5],[136.9,36.2],[137.1,36.2],[137.1,36.1],[137.2,36.1],[137.2,36.0],[137.3,36.0],[137.3,35.9],[137.5,35.9],[137.5,35.8],[137.6,35.8],[137.6,36.2]]]]},"properties":{"tile_id":"71","start_year":1467,"end_year":1477,"source_image":"data/raw/toolbay/t/71/1467.png","source_url":"https://www.toolbay.cc/history-map/t/71/1467.png","source_color":"#00ff00","polity_id":null,"polity_assignment":"unverified","geometry_origin":"raster_color_trace","pixel_size_degrees":0.1,"source_color_pixels":140,"simplification_degrees":0}},{"type":"Feature","id":"71:1467:#00ffff","bbox":[135.9,34.7,138.3,36.2],"geometry":{"type":"MultiPolygon","coordinates":[[[[138.1,35.1],[138.1,35.3],[137.5,35.3],[137.5,34.9],[137.4,34.9],[137.4,34.7],[138.2,34.7],[138.2,34.8],[138.3,34.8],[138.3,34.9],[138.2,34.9],[138.2,35.1],[138.1,35.1]]],[[[136.9,35.2],[137.0,35.2],[137.0,35.4],[136.6,35.4],[136.6,34.9],[136.9,34.9],[136.9,35.2]]],[[[136.4,36.1],[136.3,36.1],[136.3,36.2],[136.0,36.2],[136.0,35.8],[135.9,35.8],[135.9,35.7],[136.2,35.7],[136.2,35.9],[136.3,35.9],[136.3,36.0],[136.4,36.0],[136.4,36.1]]]]},"properties":{"tile_id":"71","start_year":1467,"end_year":1477,"source_image":"data/raw/toolbay/t/71/1467.png","source_url":"https://www.toolbay.cc/history-map/t/71/1467.png","source_color":"#00ffff","polity_id":null,"polity_assignment":"unverified","geometry_origin":"raster_color_trace","pixel_size_degrees":0.1,"source_color_pixels":75,"simplification_degrees":0}},{"type":"Feature","id":"71:1467:#990000","bbox":[135.0,34.3,136.9,35.8],"geometry":{"type":"MultiPolygon","coordinates":[[[[136.3,35.1],[136.3,35.2],[136.1,35.2],[136.1,35.0],[136.0,35.0],[136.0,34.9],[136.1,34.9],[136.1,34.8],[136.2,34.8],[136.2,34.5],[136.1,34.5],[136.1,34.4],[136.4,34.4],[136.4,34.3],[136.9,34.3],[136.9,34.6],[136.7,34.6],[136.7,34.9],[136.6,34.9],[136.6,35.0],[136.4,35.0],[136.4,35.1],[136.3,35.1]]],[[[135.4,35.5],[135.4,35.8],[135.0,35.8],[135.0,35.5],[135.4,35.5]]]]},"properties":{"tile_id":"71","start_year":1467,"end_year":1477,"source_image":"data/raw/toolbay/t/71/1467.png","source_url":"https://www.toolbay.cc/history-map/t/71/1467.png","source_color":"#990000","polity_id":null,"polity_assignment":"unverified","geometry_origin":"raster_color_trace","pixel_size_degrees":0.1,"source_color_pixels":59,"simplification_degrees":0}},{"type":"Feature","id":"71:1467:#ff0000","bbox":[135.4,34.8,137.2,37.5],"geometry":{"type":"MultiPolygon","coordinates":[[[[135.7,35.2],[135.7,35.3],[135.6,35.3],[135.6,35.2],[135.5,35.2],[135.5,35.1],[135.4,35.1],[135.4,34.8],[135.9,34.8],[135.9,34.9],[136.0,34.9],[136.0,35.1],[135.9,35.1],[135.9,35.2],[135.7,35.2]]],[[[137.2,37.2],[137.2,37.5],[136.8,37.5],[136.8,37.4],[136.7,37.4],[136.7,37.1],[136.8,37.1],[136.8,36.9],[137.0,36.9],[137.0,37.0],[137.1,37.0],[137.1,37.2],[137.2,37.2]]]]},"properties":{"tile_id":"71","start_year":1467,"end_year":1477,"source_image":"data/raw/toolbay/t/71/1467.png","source_url":"https://www.toolbay.cc/history-map/t/71/1467.png","source_color":"#ff0000","polity_id":null,"polity_assignment":"unverified","geometry_origin":"raster_color_trace","pixel_size_degrees":0.1,"source_color_pixels":45,"simplification_degrees":0}},{"type":"Feature","id":"71:1467:#ff00ff","bbox":[136.0,35.0,137.5,36.2],"geometry":{"type":"Polygon","coordinates":[[[137.1,36.2],[136.6,36.2],[136.6,36.1],[136.5,36.1],[136.5,36.0],[136.3,36.0],[136.3,35.9],[136.2,35.9],[136.2,35.7],[136.0,35.7],[136.0,35.5],[136.1,35.5],[136.1,35.4],[136.2,35.4],[136.2,35.2],[136.3,35.2],[136.3,35.1],[136.4,35.1],[136.4,35.0],[136.6,35.0],[136.6,35.4],[137.4,35.4],[137.4,35.6],[137.5,35.6],[137.5,35.9],[137.3,35.9],[137.3,36.0],[137.2,36.0],[137.2,36.1],[137.1,36.1],[137.1,36.2]]]},"properties":{"tile_id":"71","start_year":1467,"end_year":1477,"source_image":"data/raw/toolbay/t/71/1467.png","source_url":"https://www.toolbay.cc/history-map/t/71/1467.png","source_color":"#ff00ff","polity_id":null,"polity_assignment":"unverified","geometry_origin":"raster_color_trace","pixel_size_degrees":0.1,"source_color_pixels":103,"simplification_degrees":0}},{"type":"Feature","id":"71:1467:#ffff00","bbox":[135.4,34.1,139.0,37.0],"geometry":{"type":"MultiPolygon","coordinates":[[[[136.1,34.8],[136.1,34.9],[135.9,34.9],[135.9,34.8],[135.4,34.8],[135.4,34.7],[135.5,34.7],[135.5,34.2],[135.6,34.2],[135.6,34.1],[135.8,34.1],[135.8,34.2],[135.9,34.2],[135.9,34.3],[136.1,34.3],[136.1,34.5],[136.2,34.5],[136.2,34.8],[136.1,34.8]]],[[[138.7,36.9],[138.7,37.0],[138.6,37.0],[138.6,36.9],[138.4,36.9],[138.4,36.8],[138.2,36.8],[138.2,36.7],[137.7,36.7],[137.7,36.2],[137.6,36.2],[137.6,35.8],[137.5,35.8],[137.5,35.6],[137.4,35.6],[137.4,35.3],[138.1,35.3],[138.1,35.7],[138.2,35.7],[138.2,35.8],[138.3,35.8],[138.3,35.9],[138.5,35.9],[138.5,36.0],[138.9,36.0],[138.9,36.2],[138.8,36.2],[138.8,36.5],[138.9,36.5],[138.9,36.6],[139.0,36.6],[139.0,36.8],[138.9,36.8],[138.9,36.9],[138.7,36.9]]]]},"properties":{"tile_id":"71","start_year":1467,"end_year":1477,"source_image":"data/raw/toolbay/t/71/1467.png","source_url":"https://www.toolbay.cc/history-map/t/71/1467.png","source_color":"#ffff00","polity_id":null,"polity_assignment":"unverified","geometry_origin":"raster_color_trace","pixel_size_degrees":0.1,"source_color_pixels":190,"simplification_degrees":0}}]}
