{"type":"FeatureCollection","features":[{"type":"Feature","id":"71:1550:#0000ff","bbox":[137.1,36.6,140.0,38.8],"geometry":{"type":"Polygon","coordinates":[[[139.9,38.8],[139.6,38.8],[139.6,38.6],[139.5,38.6],[139.5,38.4],[139.4,38.4],[139.4,38.2],[139.3,38.2],[139.3,38.1],[139.2,38.1],[139.2,38.0],[138.9,38.0],[138.9,37.9],[138.8,37.9],[138.8,37.7],[138.7,37.7],[138.7,37.6],[138.6,37.6],[138.6,37.5],[138.5,37.5],[138.5,37.4],[138.4,37.4],[138.4,37.3],[138.2,37.3],[138.2,37.2],[138.0,37.2],[138.0,37.1],[137.6,37.1],[137.6,37.0],[137.4,37.0],[137.4,36.9],[137.2,36.9],[137.2,37.0],[137.1,37.0],[137.1,36.6],[137.7,36.6],[137.7,36.7],[137.9,36.7],[137.9,36.8],[138.2,36.8],[138.2,36.9],[138.6,36.9],[138.6,37.0],[138.9,37.0],[138.9,37.1],[139.1,37.1],[139.1,37.2],[139.5,37.2],[139.5,37.3],[139.6,37.3],[139.6,37.4],[139.7,37.4],[139.7,37.6],[139.8,37.6],[139.8,38.0],[139.9,38.0],[139.9,38.2],[140.0,38.2],[140.0,38.6],[139.9,38.6],[139.9,38.8]]]},"properties":{"tile_id":"71","start_year":1550,"end_year":1560,"source_image":"data/raw/toolbay/t/71/1550.png","source_url":"https://www.toolbay.cc/history-map/t/71/1550.png","source_color":"#0000ff","polity_id":null,"polity_assignment":"unverified","geometry_origin":"raster_color_trace","pixel_size_degrees":0.1,"source_color_pixels":191,"simplification_degrees":0}},{"type":"Feature","id":"71:1550:#009900","bbox":[135.0,34.3,141.1,42.2],"geometry":{"type":"MultiPolygon","coordinates":[[[[135.3,34.7],[135.3,34.8],[135.0,34.8],[135.0,34.7],[135.1,34.7],[135.1,34.6],[135.2,34.6],[135.2,34.4],[135.1,34.4],[135.1,34.3],[135.3,34.3],[135.3,34.4],[135.4,34.4],[135.4,34.7],[135.3,34.7]]],[[[138.9,36.8],[139.0,36.8],[139.0,37.1],[138.9,37.1],[138.9,37.0],[138.6,37.0],[138.6,36.9],[138.2,36.9],[138.2,36.8],[137.9,36.8],[137.9,36.7],[137.7,36.7],[137.7,36.6],[137.4,36.6],[137.4,36.4],[137.3,36.4],[137.3,36.2],[137.2,36.2],[137.2,36.1],[137.1,36.1],[137.1,35.8],[137.2,35.8],[137.2,35.4],[137.6,35.4],[137.6,35.3],[138.1,35.3],[138.1,35.4],[138.7,35.4],[138.7,35.5],[138.8,35.5],[138.8,35.6],[139.0,35.6],[139.0,35.8],[138.9,35.8],[138.9,36.8]]],[[[141.0,42.1],[140.9,42.1],[140.9,42.2],[140.2,42.2],[140.2,42.1],[140.1,42.1],[140.1,41.8],[140.0,41.8],[140.0,41.6],[140.1,41.6],[140.1,41.5],[140.4,41.5],[140.4,41.6],[140.5,41.6],[140.5,41.7],[140.6,41.7],[140.6,41.8],[141.0,41.8],[141.0,41.9],[141.1,41.9],[141.1,42.0],[141.0,42.0],[141.0,42.1]]]]},"properties":{"tile_id":"71","start_year":1550,"end_year":1560,"source_image":"data/raw/toolbay/t/71/1550.png","source_url":"https://www.toolbay.cc/history-map/t/71/1550.png","source_color":"#009900","polity_id":null,"polity_assignment":"unverified","geometry_origin":"raster_color_trace","pixel_size_degrees":0.1,"source_color_pixels":301,"simplification_degrees":0}},{"type":"Feature","id":"71:1550:#00ffff","bbox":[138.2,37.9,138.6,38.4],"geometry":{"type":"Polygon","coordinates":[[[138.6,38.4],[138.4,38.4],[138.4,38.3],[138.3,38.3],[138.3,38.2],[138.2,38.2],[138.2,38.1],[138.3,38.1],[138.3,38.0],[138.2,38.0],[138.2,37.9],[138.4,37.9],[138.4,38.0],[138.5,38.0],[138.5,38.1],[138.6,38.1],[138.6,38.2],[138.5,38.2],[138.5,38.3],[138.6,38.3],[138.6,38.4]]]},"properties":{"tile_id":"71","start_year":1550,"end_year":1560,"source_image":"data/raw/toolbay/t/71/1550.png","source_url":"https://www.toolbay.cc/history-map/t/71/1550.png","source_color":"#00ffff","polity_id":null,"polity_assignment":"unverified","geometry_origin":"raster_color_trace","pixel_size_degrees":0.1,"source_color_pixels":12,"simplification_degrees":0}},{"type":"Feature","id":"71:1550:#999900","bbox":[136.8,34.7,138.6,35.4],"geometry":{"type":"Polygon","coordinates":[[[137.6,35.4],[137.2,35.4],[137.2,35.3],[137.0,35.3],[137.0,35.1],[136.9,35.1],[136.9,35.0],[136.8,35.0],[136.8,34.9],[136.9,34.9],[136.9,34.8],[137.0,34.8],[137.0,34.7],[138.2,34.7],[138.2,34.8],[138.3,34.8],[138.3,34.9],[138.4,34.9],[138.4,35.0],[138.5,35.0],[138.5,35.1],[138.6,35.1],[138.6,35.4],[138.1,35.4],[138.1,35.3],[137.6,35.3],[137.6,35.4]]]},"properties":{"tile_id":"71","start_year":1550,"end_year":1560,"source_image":"data/raw/toolbay/t/71/1550.png","source_url":"https://www.toolbay.cc/history-map/t/71/1550.png","source_color":"#999900","polity_id":null,"polity_assignment":"unverified","geometry_origin":"raster_color_trace","pixel_size_degrees":0.1,"source_color_pixels":99,"simplification_degrees":0}},{"type":"Feature","id":"71:1550:#ff00ff","bbox":[136.2,34.8,140.1,37.5],"geometry":{"type":"MultiPolygon","coordinates":[[[[136.4,35.7],[136.4,35.8],[136.2,35.8],[136.2,35.4],[136.3,35.4],[136.3,35.2],[136.5,35.2],[136.5,35.1],[137.0,35.1],[137.0,35.3],[137.2,35.3],[137.2,35.8],[137.0,35.8],[137.0,35.7],[136.4,35.7]]],[[[139.6,36.2],[139.5,36.2],[139.5,36.3],[138.9,36.3],[138.9,35.8],[139.0,35.8],[139.0,35.6],[138.8,35.6],[138.8,35.5],[138.7,35.5],[138.7,35.4],[138.6,35.4],[138.6,35.1],[138.7,35.1],[138.7,35.0],[138.8,35.0],[138.8,34.8],[139.1,34.8],[139.1,34.9],[139.2,34.9],[139.2,35.3],[139.3,35.3],[139.3,35.4],[139.5,35.4],[139.5,35.3],[139.8,35.3],[139.8,35.4],[139.7,35.4],[139.7,35.5],[139.8,35.5],[139.8,35.7],[140.1,35.7],[140.1,35.9],[140.0,35.9],[140.0,36.0],[139.9,36.0],[139.9,36.1],[139.6,36.1],[139.6,36.2]]],[[[137.1,37.2],[137.2,37.2],[137.2,37.5],[136.8,37.5],[136.8,37.4],[136.7,37.4],[136.7,37.1],[136.8,37.1],[136.8,36.9],[137.1,36.9],[137.1,37.2]]]]},"properties":{"tile_id":"71","start_year":1550,"end_year":1560,"source_image":"data/raw/toolbay/t/71/1550.png","source_url":"https://www.toolbay.cc/history-map/t/71/1550.png","source_color":"#ff00ff","polity_id":null,"polity_assignment":"unverified","geometry_origin":"raster_color_trace","pixel_size_degrees":0.1,"source_color_pixels":198,"simplification_degrees":0}},{"type":"Feature","id":"71:1550:#ff9933","bbox":[135.9,35.7,136.7,36.5],"geometry":{"type":"Polygon","coordinates":[[[136.5,36.5],[136.3,36.5],[136.3,36.4],[136.2,36.4],[136.2,36.3],[136.1,36.3],[136.1,36.2],[136.0,36.2],[136.0,35.8],[135.9,35.8],[135.9,35.7],[136.2,35.7],[136.2,35.8],[136.3,35.8],[136.3,35.9],[136.5,35.9],[136.5,36.0],[136.7,36.0],[136.7,36.3],[136.6,36.3],[136.6,36.4],[136.5,36.4],[136.5,36.5]]]},"properties":{"tile_id":"71","start_year":1550,"end_year":1560,"source_image":"data/raw/toolbay/t/71/1550.png","source_url":"https://www.toolbay.cc/history-map/t/71/1550.png","source_color":"#ff9933","polity_id":null,"polity_assignment":"unverified","geometry_origin":"raster_color_trace","pixel_size_degrees":0.1,"source_color_pixels":37,"simplification_degrees":0}}]}
