{"type":"FeatureCollection","features":[{"type":"Feature","id":"71:1586:#009900","bbox":[140.0,41.5,141.1,42.2],"geometry":{"type":"Polygon","coordinates":[[[140.9,42.2],[140.2,42.2],[140.2,42.1],[140.1,42.1],[140.1,41.8],[140.0,41.8],[140.0,41.6],[140.1,41.6],[140.1,41.5],[140.4,41.5],[140.4,41.6],[140.5,41.6],[140.5,41.7],[140.6,41.7],[140.6,41.8],[141.0,41.8],[141.0,41.9],[141.1,41.9],[141.1,42.0],[141.0,42.0],[141.0,42.1],[140.9,42.1],[140.9,42.2]]]},"properties":{"tile_id":"71","start_year":1586,"end_year":1589,"source_image":"data/raw/toolbay/t/71/1586.png","source_url":"https://www.toolbay.cc/history-map/t/71/1586.png","source_color":"#009900","polity_id":null,"polity_assignment":"unverified","geometry_origin":"raster_color_trace","pixel_size_degrees":0.1,"source_color_pixels":49,"simplification_degrees":0}},{"type":"Feature","id":"71:1586:#00ff00","bbox":[140.0,36.0,141.8,41.6],"geometry":{"type":"MultiPolygon","coordinates":[[[[140.6,37.1],[140.6,37.2],[140.5,37.2],[140.5,37.1],[140.4,37.1],[140.4,37.0],[140.3,37.0],[140.3,36.8],[140.2,36.8],[140.2,36.7],[140.1,36.7],[140.1,36.5],[140.0,36.5],[140.0,36.3],[140.2,36.3],[140.2,36.2],[140.3,36.2],[140.3,36.1],[140.5,36.1],[140.5,36.0],[140.7,36.0],[140.7,36.2],[140.6,36.2],[140.6,36.4],[140.7,36.4],[140.7,36.7],[140.8,36.7],[140.8,36.9],[140.9,36.9],[140.9,37.0],[140.8,37.0],[140.8,37.1],[140.6,37.1]]],[[[141.1,41.5],[141.1,41.6],[140.9,41.6],[140.9,41.5],[140.8,41.5],[140.8,41.3],[140.9,41.3],[140.9,41.2],[141.0,41.2],[141.0,41.0],[140.8,41.0],[140.8,41.1],[140.7,41.1],[140.7,41.2],[140.6,41.2],[140.6,41.3],[140.4,41.3],[140.4,41.2],[140.3,41.2],[140.3,40.9],[140.2,40.9],[140.2,40.8],[140.6,40.8],[140.6,40.7],[140.8,40.7],[140.8,40.4],[140.9,40.4],[140.9,40.3],[141.8,40.3],[141.8,40.5],[141.7,40.5],[141.7,40.6],[141.6,40.6],[141.6,40.7],[141.5,40.7],[141.5,40.9],[141.4,40.9],[141.4,41.4],[141.3,41.4],[141.3,41.5],[141.1,41.5]]]]},"properties":{"tile_id":"71","start_year":1586,"end_year":1589,"source_image":"data/raw/toolbay/t/71/1586.png","source_url":"https://www.toolbay.cc/history-map/t/71/1586.png","source_color":"#00ff00","polity_id":null,"polity_assignment":"unverified","geometry_origin":"raster_color_trace","pixel_size_degrees":0.1,"source_color_pixels":163,"simplification_degrees":0}},{"type":"Feature","id":"71:1586:#00ffff","bbox":[138.2,37.9,138.6,38.4],"geometry":{"type":"Polygon","coordinates":[[[138.6,38.4],[138.4,38.4],[138.4,38.3],[138.3,38.3],[138.3,38.2],[138.2,38.2],[138.2,38.1],[138.3,38.1],[138.3,38.0],[138.2,38.0],[138.2,37.9],[138.4,37.9],[138.4,38.0],[138.5,38.0],[138.5,38.1],[138.6,38.1],[138.6,38.2],[138.5,38.2],[138.5,38.3],[138.6,38.3],[138.6,38.4]]]},"properties":{"tile_id":"71","start_year":1586,"end_year":1589,"source_image":"data/raw/toolbay/t/71/1586.png","source_url":"https://www.toolbay.cc/history-map/t/71/1586.png","source_color":"#00ffff","polity_id":null,"polity_assignment":"unverified","geometry_origin":"raster_color_trace","pixel_size_degrees":0.1,"source_color_pixels":12,"simplification_degrees":0}},{"type":"Feature","id":"71:1586:#990000","bbox":[135.0,33.5,140.0,38.8],"geometry":{"type":"Polygon","coordinates":[[[139.9,38.8],[139.6,38.8],[139.6,38.6],[139.5,38.6],[139.5,38.4],[139.4,38.4],[139.4,38.2],[139.3,38.2],[139.3,38.1],[139.2,38.1],[139.2,38.0],[138.9,38.0],[138.9,37.9],[138.8,37.9],[138.8,37.7],[138.7,37.7],[138.7,37.6],[138.6,37.6],[138.6,37.5],[138.5,37.5],[138.5,37.4],[138.4,37.4],[138.4,37.3],[138.2,37.3],[138.2,37.2],[138.0,37.2],[138.0,37.1],[137.6,37.1],[137.6,37.0],[137.4,37.0],[137.4,36.9],[137.2,36.9],[137.2,37.0],[137.1,37.0],[137.1,37.2],[137.2,37.2],[137.2,37.5],[136.8,37.5],[136.8,37.4],[136.7,37.4],[136.7,37.1],[136.8,37.1],[136.8,36.9],[136.7,36.9],[136.7,36.7],[136.6,36.7],[136.6,36.6],[136.5,36.6],[136.5,36.5],[136.3,36.5],[136.3,36.4],[136.2,36.4],[136.2,36.3],[136.1,36.3],[136.1,36.2],[136.0,36.2],[136.0,35.8],[135.9,35.8],[135.9,35.7],[135.7,35.7],[135.7,35.6],[135.5,35.6],[135.5,35.7],[135.4,35.7],[135.4,35.8],[135.0,35.8],[135.0,34.7],[135.1,34.7],[135.1,34.6],[135.2,34.6],[135.2,34.4],[135.1,34.4],[135.1,33.9],[135.2,33.9],[135.2,33.8],[135.3,33.8],[135.3,33.7],[135.4,33.7],[135.4,33.6],[135.6,33.6],[135.6,33.5],[135.9,33.5],[135.9,33.6],[136.0,33.6],[136.0,33.7],[136.1,33.7],[136.1,33.9],[136.2,33.9],[136.2,34.0],[136.3,34.0],[136.3,34.2],[136.4,34.2],[136.4,34.3],[136.9,34.3],[136.9,34.6],[136.7,34.6],[136.7,34.9],[136.9,34.9],[136.9,34.8],[137.0,34.8],[137.0,34.7],[138.2,34.7],[138.2,34.8],[138.3,34.8],[138.3,34.9],[138.4,34.9],[138.4,35.0],[138.5,35.0],[138.5,35.1],[138.6,35.1],[138.6,35.4],[138.7,35.4],[138.7,35.5],[138.8,35.5],[138.8,35.6],[139.0,35.6],[139.0,35.8],[138.9,35.8],[138.9,36.8],[139.0,36.8],[139.0,37.1],[139.1,37.1],[139.1,37.2],[139.5,37.2],[139.5,37.3],[139.6,37.3],[139.6,37.4],[139.7,37.4],[139.7,37.6],[139.8,37.6],[139.8,38.0],[139.9,38.0],[139.9,38.2],[140.0,38.2],[140.0,38.6],[139.9,38.6],[139.9,38.8]]]},"properties":{"tile_id":"71","start_year":1586,"end_year":1589,"source_image":"data/raw/toolbay/t/71/1586.png","source_url":"https://www.toolbay.cc/history-map/t/71/1586.png","source_color":"#990000","polity_id":null,"polity_assignment":"unverified","geometry_origin":"raster_color_trace","pixel_size_degrees":0.1,"source_color_pixels":1011,"simplification_degrees":0}},{"type":"Feature","id":"71:1586:#990099","bbox":[139.9,37.9,141.4,38.9],"geometry":{"type":"Polygon","coordinates":[[[141.1,38.9],[140.3,38.9],[140.3,38.8],[140.1,38.8],[140.1,38.7],[140.0,38.7],[140.0,38.2],[139.9,38.2],[139.9,38.0],[140.2,38.0],[140.2,38.1],[140.6,38.1],[140.6,38.0],[140.9,38.0],[140.9,37.9],[141.0,37.9],[141.0,38.3],[141.1,38.3],[141.1,38.4],[141.4,38.4],[141.4,38.6],[141.3,38.6],[141.3,38.7],[141.2,38.7],[141.2,38.8],[141.1,38.8],[141.1,38.9]]]},"properties":{"tile_id":"71","start_year":1586,"end_year":1589,"source_image":"data/raw/toolbay/t/71/1586.png","source_url":"https://www.toolbay.cc/history-map/t/71/1586.png","source_color":"#990099","polity_id":null,"polity_assignment":"unverified","geometry_origin":"raster_color_trace","pixel_size_degrees":0.1,"source_color_pixels":100,"simplification_degrees":0}},{"type":"Feature","id":"71:1586:#ff00ff","bbox":[138.6,34.8,140.8,37.0],"geometry":{"type":"Polygon","coordinates":[[[139.5,37.0],[139.0,37.0],[139.0,36.8],[138.9,36.8],[138.9,35.8],[139.0,35.8],[139.0,35.6],[138.8,35.6],[138.8,35.5],[138.7,35.5],[138.7,35.4],[138.6,35.4],[138.6,35.1],[138.7,35.1],[138.7,35.0],[138.8,35.0],[138.8,34.8],[139.1,34.8],[139.1,34.9],[139.2,34.9],[139.2,35.3],[139.3,35.3],[139.3,35.4],[139.5,35.4],[139.5,35.3],[139.8,35.3],[139.8,35.4],[139.7,35.4],[139.7,35.5],[139.8,35.5],[139.8,35.7],[140.1,35.7],[140.1,35.6],[140.0,35.6],[140.0,35.5],[140.1,35.5],[140.1,35.4],[140.4,35.4],[140.4,35.5],[140.5,35.5],[140.5,35.6],[140.6,35.6],[140.6,35.7],[140.7,35.7],[140.7,35.8],[140.8,35.8],[140.8,36.0],[140.5,36.0],[140.5,36.1],[140.3,36.1],[140.3,36.2],[140.2,36.2],[140.2,36.3],[140.0,36.3],[140.0,36.7],[139.9,36.7],[139.9,36.8],[139.8,36.8],[139.8,36.9],[139.5,36.9],[139.5,37.0]]]},"properties":{"tile_id":"71","start_year":1586,"end_year":1589,"source_image":"data/raw/toolbay/t/71/1586.png","source_url":"https://www.toolbay.cc/history-map/t/71/1586.png","source_color":"#ff00ff","polity_id":null,"polity_assignment":"unverified","geometry_origin":"raster_color_trace","pixel_size_degrees":0.1,"source_color_pixels":240,"simplification_degrees":0}}]}
