{"type":"FeatureCollection","features":[{"type":"Feature","id":"71:1598:#0000ff","bbox":[139.4,37.2,140.6,39.7],"geometry":{"type":"Polygon","coordinates":[[[140.2,39.7],[140.1,39.7],[140.1,39.5],[140.0,39.5],[140.0,39.4],[139.9,39.4],[139.9,39.1],[139.8,39.1],[139.8,38.9],[139.7,38.9],[139.7,38.8],[139.6,38.8],[139.6,38.6],[139.5,38.6],[139.5,38.4],[139.4,38.4],[139.4,38.3],[139.5,38.3],[139.5,38.2],[139.6,38.2],[139.6,37.9],[139.5,37.9],[139.5,37.7],[139.4,37.7],[139.4,37.3],[139.6,37.3],[139.6,37.2],[140.1,37.2],[140.1,37.3],[140.3,37.3],[140.3,37.4],[140.5,37.4],[140.5,37.5],[140.6,37.5],[140.6,38.0],[140.5,38.0],[140.5,38.7],[140.2,38.7],[140.2,38.8],[140.1,38.8],[140.1,39.0],[140.2,39.0],[140.2,39.2],[140.3,39.2],[140.3,39.6],[140.2,39.6],[140.2,39.7]]]},"properties":{"tile_id":"71","start_year":1598,"end_year":1600,"source_image":"data/raw/toolbay/t/71/1598.png","source_url":"https://www.toolbay.cc/history-map/t/71/1598.png","source_color":"#0000ff","polity_id":null,"polity_assignment":"unverified","geometry_origin":"raster_color_trace","pixel_size_degrees":0.1,"source_color_pixels":183,"simplification_degrees":0}},{"type":"Feature","id":"71:1598:#009900","bbox":[138.6,34.8,141.1,42.2],"geometry":{"type":"MultiPolygon","coordinates":[[[[139.5,35.4],[139.5,35.3],[139.8,35.3],[139.8,35.1],[140.2,35.1],[140.2,35.2],[140.3,35.2],[140.3,35.3],[140.4,35.3],[140.4,35.5],[140.5,35.5],[140.5,35.6],[140.6,35.6],[140.6,35.7],[140.7,35.7],[140.7,35.8],[140.8,35.8],[140.8,36.0],[140.7,36.0],[140.7,36.2],[140.6,36.2],[140.6,36.4],[140.4,36.4],[140.4,36.3],[140.2,36.3],[140.2,36.4],[139.5,36.4],[139.5,36.5],[139.0,36.5],[139.0,36.4],[138.9,36.4],[138.9,36.3],[138.7,36.3],[138.7,36.2],[138.6,36.2],[138.6,35.9],[138.7,35.9],[138.7,35.2],[138.6,35.2],[138.6,35.1],[138.7,35.1],[138.7,35.0],[138.8,35.0],[138.8,34.8],[139.1,34.8],[139.1,34.9],[139.2,34.9],[139.2,35.3],[139.3,35.3],[139.3,35.4],[139.5,35.4]],[[139.9,35.3],[139.8,35.3],[139.8,35.4],[139.7,35.4],[139.7,35.5],[139.8,35.5],[139.8,35.7],[140.1,35.7],[140.1,35.6],[140.0,35.6],[140.0,35.5],[139.9,35.5],[139.9,35.3]]],[[[140.9,42.1],[140.9,42.2],[140.2,42.2],[140.2,42.1],[140.1,42.1],[140.1,41.8],[140.0,41.8],[140.0,41.6],[140.1,41.6],[140.1,41.5],[140.4,41.5],[140.4,41.6],[140.5,41.6],[140.5,41.7],[140.6,41.7],[140.6,41.8],[141.0,41.8],[141.0,41.9],[141.1,41.9],[141.1,42.0],[141.0,42.0],[141.0,42.1],[140.9,42.1]]]]},"properties":{"tile_id":"71","start_year":1598,"end_year":1600,"source_image":"data/raw/toolbay/t/71/1598.png","source_url":"https://www.toolbay.cc/history-map/t/71/1598.png","source_color":"#009900","polity_id":null,"polity_assignment":"unverified","geometry_origin":"raster_color_trace","pixel_size_degrees":0.1,"source_color_pixels":286,"simplification_degrees":0}},{"type":"Feature","id":"71:1598:#00ff00","bbox":[140.2,39.5,142.1,41.6],"geometry":{"type":"Polygon","coordinates":[[[141.1,41.6],[140.9,41.6],[140.9,41.5],[140.8,41.5],[140.8,41.3],[140.9,41.3],[140.9,41.2],[141.0,41.2],[141.0,41.0],[140.8,41.0],[140.8,41.1],[140.7,41.1],[140.7,41.2],[140.6,41.2],[140.6,41.3],[140.4,41.3],[140.4,41.2],[140.3,41.2],[140.3,40.9],[140.2,40.9],[140.2,40.8],[140.6,40.8],[140.6,40.7],[140.8,40.7],[140.8,40.4],[140.9,40.4],[140.9,39.9],[141.0,39.9],[141.0,39.6],[141.3,39.6],[141.3,39.5],[141.7,39.5],[141.7,39.6],[142.1,39.6],[142.1,39.8],[142.0,39.8],[142.0,40.1],[141.9,40.1],[141.9,40.3],[141.8,40.3],[141.8,40.5],[141.7,40.5],[141.7,40.6],[141.6,40.6],[141.6,40.7],[141.5,40.7],[141.5,40.9],[141.4,40.9],[141.4,41.4],[141.3,41.4],[141.3,41.5],[141.1,41.5],[141.1,41.6]]]},"properties":{"tile_id":"71","start_year":1598,"end_year":1600,"source_image":"data/raw/toolbay/t/71/1598.png","source_url":"https://www.toolbay.cc/history-map/t/71/1598.png","source_color":"#00ff00","polity_id":null,"polity_assignment":"unverified","geometry_origin":"raster_color_trace","pixel_size_degrees":0.1,"source_color_pixels":184,"simplification_degrees":0}},{"type":"Feature","id":"71:1598:#990099","bbox":[140.5,38.2,142.1,39.6],"geometry":{"type":"Polygon","coordinates":[[[141.3,39.6],[141.0,39.6],[141.0,39.5],[140.9,39.5],[140.9,39.4],[140.8,39.4],[140.8,39.1],[140.7,39.1],[140.7,38.9],[140.6,38.9],[140.6,38.8],[140.5,38.8],[140.5,38.3],[140.7,38.3],[140.7,38.2],[141.0,38.2],[141.0,38.3],[141.1,38.3],[141.1,38.4],[141.5,38.4],[141.5,38.5],[141.6,38.5],[141.6,38.9],[141.7,38.9],[141.7,39.0],[141.8,39.0],[141.8,39.1],[141.9,39.1],[141.9,39.2],[142.0,39.2],[142.0,39.4],[142.1,39.4],[142.1,39.6],[141.7,39.6],[141.7,39.5],[141.3,39.5],[141.3,39.6]]]},"properties":{"tile_id":"71","start_year":1598,"end_year":1600,"source_image":"data/raw/toolbay/t/71/1598.png","source_url":"https://www.toolbay.cc/history-map/t/71/1598.png","source_color":"#990099","polity_id":null,"polity_assignment":"unverified","geometry_origin":"raster_color_trace","pixel_size_degrees":0.1,"source_color_pixels":137,"simplification_degrees":0}},{"type":"Feature","id":"71:1598:#ff0000","bbox":[136.1,36.1,137.8,37.5],"geometry":{"type":"Polygon","coordinates":[[[137.2,37.5],[136.8,37.5],[136.8,37.4],[136.7,37.4],[136.7,37.1],[136.8,37.1],[136.8,36.9],[136.7,36.9],[136.7,36.7],[136.6,36.7],[136.6,36.6],[136.5,36.6],[136.5,36.5],[136.3,36.5],[136.3,36.4],[136.2,36.4],[136.2,36.3],[136.1,36.3],[136.1,36.1],[137.0,36.1],[137.0,36.2],[137.1,36.2],[137.1,36.3],[137.3,36.3],[137.3,36.4],[137.5,36.4],[137.5,36.5],[137.6,36.5],[137.6,36.6],[137.7,36.6],[137.7,36.7],[137.8,36.7],[137.8,37.1],[137.6,37.1],[137.6,37.0],[137.4,37.0],[137.4,36.9],[137.2,36.9],[137.2,37.0],[137.1,37.0],[137.1,37.2],[137.2,37.2],[137.2,37.5]]]},"properties":{"tile_id":"71","start_year":1598,"end_year":1600,"source_image":"data/raw/toolbay/t/71/1598.png","source_url":"https://www.toolbay.cc/history-map/t/71/1598.png","source_color":"#ff0000","polity_id":null,"polity_assignment":"unverified","geometry_origin":"raster_color_trace","pixel_size_degrees":0.1,"source_color_pixels":117,"simplification_degrees":0}}]}
