{"type":"FeatureCollection","features":[{"type":"Feature","id":"71:300:#ff9933","bbox":[135.0,33.5,139.2,37.5],"geometry":{"type":"Polygon","coordinates":[[[137.2,37.5],[136.8,37.5],[136.8,37.4],[136.7,37.4],[136.7,37.1],[136.8,37.1],[136.8,36.9],[136.7,36.9],[136.7,36.7],[136.6,36.7],[136.6,36.6],[136.5,36.6],[136.5,36.5],[136.3,36.5],[136.3,36.4],[136.2,36.4],[136.2,36.3],[136.1,36.3],[136.1,36.2],[136.0,36.2],[136.0,35.8],[135.9,35.8],[135.9,35.7],[135.7,35.7],[135.7,35.6],[135.5,35.6],[135.5,35.7],[135.4,35.7],[135.4,35.8],[135.0,35.8],[135.0,34.7],[135.1,34.7],[135.1,34.6],[135.2,34.6],[135.2,34.4],[135.1,34.4],[135.1,33.9],[135.2,33.9],[135.2,33.8],[135.3,33.8],[135.3,33.7],[135.4,33.7],[135.4,33.6],[135.6,33.6],[135.6,33.5],[135.9,33.5],[135.9,33.6],[136.0,33.6],[136.0,33.7],[136.1,33.7],[136.1,33.9],[136.2,33.9],[136.2,34.0],[136.3,34.0],[136.3,34.2],[136.4,34.2],[136.4,34.3],[136.9,34.3],[136.9,34.6],[136.7,34.6],[136.7,34.9],[136.9,34.9],[136.9,34.8],[137.0,34.8],[137.0,34.7],[138.2,34.7],[138.2,34.8],[138.3,34.8],[138.3,34.9],[138.4,34.9],[138.4,35.0],[138.5,35.0],[138.5,35.1],[138.7,35.1],[138.7,35.0],[138.8,35.0],[138.8,34.8],[139.1,34.8],[139.1,34.9],[139.2,34.9],[139.2,35.3],[139.1,35.3],[139.1,35.5],[138.9,35.5],[138.9,35.6],[138.8,35.6],[138.8,35.7],[138.7,35.7],[138.7,35.8],[138.6,35.8],[138.6,35.9],[138.5,35.9],[138.5,36.0],[138.4,36.0],[138.4,36.1],[138.2,36.1],[138.2,36.2],[138.1,36.2],[138.1,36.3],[138.0,36.3],[138.0,36.5],[137.9,36.5],[137.9,36.6],[137.8,36.6],[137.8,36.7],[137.7,36.7],[137.7,37.1],[137.6,37.1],[137.6,37.0],[137.4,37.0],[137.4,36.9],[137.2,36.9],[137.2,37.0],[137.1,37.0],[137.1,37.2],[137.2,37.2],[137.2,37.5]]]},"properties":{"tile_id":"71","start_year":300,"end_year":350,"source_image":"data/raw/toolbay/t/71/300.png","source_url":"https://www.toolbay.cc/history-map/t/71/300.png","source_color":"#ff9933","polity_id":null,"polity_assignment":"unverified","geometry_origin":"raster_color_trace","pixel_size_degrees":0.1,"source_color_pixels":783,"simplification_degrees":0}}]}
