{"type":"FeatureCollection","features":[{"type":"Feature","id":"60:-196:#6666ff","bbox":[90.0,45.0,121.1,50.5],"geometry":{"type":"Polygon","coordinates":[[[92.4,50.5],[90.6,50.5],[90.6,50.4],[90.2,50.4],[90.2,50.3],[90.1,50.3],[90.1,50.0],[90.0,50.0],[90.0,49.3],[90.1,49.3],[90.1,49.2],[90.0,49.2],[90.0,48.6],[90.1,48.6],[90.1,48.5],[90.3,48.5],[90.3,48.2],[90.4,48.2],[90.4,48.1],[90.7,48.1],[90.7,48.0],[90.8,48.0],[90.8,47.9],[90.9,47.9],[90.9,47.8],[91.0,47.8],[91.0,47.6],[91.1,47.6],[91.1,47.5],[91.2,47.5],[91.2,47.4],[91.3,47.4],[91.3,47.3],[91.4,47.3],[91.4,47.2],[91.7,47.2],[91.7,47.1],[92.0,47.1],[92.0,47.0],[92.1,47.0],[92.1,46.9],[92.3,46.9],[92.3,46.8],[92.4,46.8],[92.4,46.6],[92.5,46.6],[92.5,46.4],[92.6,46.4],[92.6,46.2],[92.7,46.2],[92.7,46.1],[92.8,46.1],[92.8,45.8],[92.9,45.8],[92.9,45.6],[93.0,45.6],[93.0,45.4],[93.1,45.4],[93.1,45.3],[93.2,45.3],[93.2,45.2],[93.4,45.2],[93.4,45.1],[93.5,45.1],[93.5,45.0],[121.1,45.0],[121.1,45.2],[121.0,45.2],[121.0,45.3],[120.8,45.3],[120.8,45.4],[120.7,45.4],[120.7,45.5],[120.6,45.5],[120.6,45.6],[120.5,45.6],[120.5,45.8],[120.4,45.8],[120.4,45.9],[120.3,45.9],[120.3,46.1],[120.2,46.1],[120.2,46.5],[120.1,46.5],[120.1,46.8],[120.0,46.8],[120.0,47.0],[119.9,47.0],[119.9,47.2],[119.8,47.2],[119.8,47.4],[119.7,47.4],[119.7,47.7],[119.6,47.7],[119.6,48.0],[119.5,48.0],[119.5,48.2],[119.4,48.2],[119.4,48.4],[119.3,48.4],[119.3,48.6],[119.1,48.6],[119.1,48.7],[118.9,48.7],[118.9,48.8],[118.6,48.8],[118.6,48.9],[117.7,48.9],[117.7,49.0],[117.1,49.0],[117.1,49.1],[116.8,49.1],[116.8,49.2],[116.5,49.2],[116.5,49.3],[115.4,49.3],[115.4,49.4],[112.8,49.4],[112.8,49.3],[109.7,49.3],[109.7,49.2],[109.2,49.2],[109.2,49.1],[108.8,49.1],[108.8,49.0],[108.3,49.0],[108.3,48.9],[107.9,48.9],[107.9,48.8],[107.3,48.8],[107.3,48.7],[106.8,48.7],[106.8,48.6],[106.2,48.6],[106.2,48.5],[105.9,48.5],[105.9,48.4],[105.7,48.4],[105.7,48.3],[105.5,48.3],[105.5,48.2],[105.3,48.2],[105.3,48.1],[104.0,48.1],[104.0,48.2],[103.6,48.2],[103.6,48.3],[103.3,48.3],[103.3,48.4],[103.1,48.4],[103.1,48.5],[102.8,48.5],[102.8,48.6],[102.5,48.6],[102.5,48.7],[102.2,48.7],[102.2,48.8],[101.7,48.8],[101.7,48.9],[101.4,48.9],[101.4,49.0],[101.1,49.0],[101.1,49.1],[100.9,49.1],[100.9,49.2],[100.6,49.2],[100.6,49.3],[100.3,49.3],[100.3,49.4],[99.9,49.4],[99.9,49.5],[99.7,49.5],[99.7,49.6],[99.4,49.6],[99.4,49.7],[99.1,49.7],[99.1,49.8],[98.9,49.8],[98.9,49.9],[98.6,49.9],[98.6,50.0],[98.3,50.0],[98.3,50.1],[98.1,50.1],[98.1,50.2],[97.8,50.2],[97.8,50.3],[97.5,50.3],[97.5,50.4],[96.2,50.4],[96.2,50.5],[95.6,50.5],[95.6,50.4],[95.1,50.4],[95.1,50.3],[94.6,50.3],[94.6,50.2],[94.4,50.2],[94.4,50.3],[92.7,50.3],[92.7,50.4],[92.4,50.4],[92.4,50.5]]]},"properties":{"tile_id":"60","start_year":-196,"end_year":-176,"source_image":"data/raw/toolbay/t/60/-196.png","source_url":"https://www.toolbay.cc/history-map/t/60/-196.png","source_color":"#6666ff","polity_id":null,"polity_assignment":"unverified","geometry_origin":"raster_color_trace","pixel_size_degrees":0.1,"source_color_pixels":12468,"simplification_degrees":0}}]}
