{"type":"FeatureCollection","features":[{"type":"Feature","id":"60:-206:#6666ff","bbox":[98.4,45.0,121.1,49.4],"geometry":{"type":"Polygon","coordinates":[[[115.4,49.4],[112.8,49.4],[112.8,49.3],[109.7,49.3],[109.7,49.2],[109.2,49.2],[109.2,49.1],[108.8,49.1],[108.8,49.0],[108.3,49.0],[108.3,48.9],[107.9,48.9],[107.9,48.8],[107.3,48.8],[107.3,48.7],[106.8,48.7],[106.8,48.6],[106.2,48.6],[106.2,48.5],[105.9,48.5],[105.9,48.4],[105.7,48.4],[105.7,48.3],[105.5,48.3],[105.5,48.2],[105.3,48.2],[105.3,48.1],[105.2,48.1],[105.2,48.0],[105.1,48.0],[105.1,47.9],[104.9,47.9],[104.9,47.8],[104.8,47.8],[104.8,47.7],[104.7,47.7],[104.7,47.5],[104.6,47.5],[104.6,47.4],[104.4,47.4],[104.4,47.3],[104.3,47.3],[104.3,47.2],[104.2,47.2],[104.2,47.1],[104.1,47.1],[104.1,47.0],[104.0,47.0],[104.0,46.9],[103.8,46.9],[103.8,46.8],[103.3,46.8],[103.3,46.7],[102.8,46.7],[102.8,46.6],[102.2,46.6],[102.2,46.5],[101.7,46.5],[101.7,46.4],[101.1,46.4],[101.1,46.3],[100.5,46.3],[100.5,46.2],[100.3,46.2],[100.3,46.1],[100.2,46.1],[100.2,46.0],[100.0,46.0],[100.0,45.9],[99.9,45.9],[99.9,45.8],[99.6,45.8],[99.6,45.7],[99.4,45.7],[99.4,45.6],[99.2,45.6],[99.2,45.5],[99.0,45.5],[99.0,45.4],[98.8,45.4],[98.8,45.3],[98.5,45.3],[98.5,45.1],[98.4,45.1],[98.4,45.0],[121.1,45.0],[121.1,45.2],[121.0,45.2],[121.0,45.3],[120.8,45.3],[120.8,45.4],[120.7,45.4],[120.7,45.5],[120.6,45.5],[120.6,45.6],[120.5,45.6],[120.5,45.8],[120.4,45.8],[120.4,45.9],[120.3,45.9],[120.3,46.1],[120.2,46.1],[120.2,46.5],[120.1,46.5],[120.1,46.8],[120.0,46.8],[120.0,47.0],[119.9,47.0],[119.9,47.2],[119.8,47.2],[119.8,47.4],[119.7,47.4],[119.7,47.7],[119.6,47.7],[119.6,48.0],[119.5,48.0],[119.5,48.2],[119.4,48.2],[119.4,48.4],[119.3,48.4],[119.3,48.6],[119.1,48.6],[119.1,48.7],[118.9,48.7],[118.9,48.8],[118.6,48.8],[118.6,48.9],[117.7,48.9],[117.7,49.0],[117.1,49.0],[117.1,49.1],[116.8,49.1],[116.8,49.2],[116.5,49.2],[116.5,49.3],[115.4,49.3],[115.4,49.4]]]},"properties":{"tile_id":"60","start_year":-206,"end_year":-196,"source_image":"data/raw/toolbay/t/60/-206.png","source_url":"https://www.toolbay.cc/history-map/t/60/-206.png","source_color":"#6666ff","polity_id":null,"polity_assignment":"unverified","geometry_origin":"raster_color_trace","pixel_size_degrees":0.1,"source_color_pixels":7006,"simplification_degrees":0}}]}
