{"type":"FeatureCollection","features":[{"type":"Feature","id":"60:-310:#6666ff","bbox":[105.1,45.0,114.7,46.4],"geometry":{"type":"Polygon","coordinates":[[[108.7,46.4],[108.3,46.4],[108.3,46.3],[107.7,46.3],[107.7,46.2],[107.3,46.2],[107.3,46.1],[106.9,46.1],[106.9,46.0],[106.4,46.0],[106.4,45.9],[106.0,45.9],[106.0,45.8],[105.8,45.8],[105.8,45.7],[105.6,45.7],[105.6,45.6],[105.5,45.6],[105.5,45.5],[105.4,45.5],[105.4,45.4],[105.3,45.4],[105.3,45.3],[105.2,45.3],[105.2,45.2],[105.1,45.2],[105.1,45.0],[114.7,45.0],[114.7,45.2],[114.6,45.2],[114.6,45.3],[114.5,45.3],[114.5,45.4],[114.4,45.4],[114.4,45.5],[114.2,45.5],[114.2,45.6],[113.4,45.6],[113.4,45.7],[113.2,45.7],[113.2,45.8],[113.1,45.8],[113.1,45.9],[112.8,45.9],[112.8,46.0],[112.0,46.0],[112.0,46.1],[111.5,46.1],[111.5,46.2],[110.7,46.2],[110.7,46.3],[108.7,46.3],[108.7,46.4]]]},"properties":{"tile_id":"60","start_year":-310,"end_year":-206,"source_image":"data/raw/toolbay/t/60/-310.png","source_url":"https://www.toolbay.cc/history-map/t/60/-310.png","source_color":"#6666ff","polity_id":null,"polity_assignment":"unverified","geometry_origin":"raster_color_trace","pixel_size_degrees":0.1,"source_color_pixels":969,"simplification_degrees":0}}]}
