{"type":"FeatureCollection","features":[{"type":"Feature","id":"60:1100:#009999","bbox":[90.2,45.0,134.0,51.5],"geometry":{"type":"Polygon","coordinates":[[[127.0,51.5],[123.8,51.5],[123.8,51.4],[121.8,51.4],[121.8,51.3],[120.9,51.3],[120.9,51.2],[120.0,51.2],[120.0,51.1],[119.6,51.1],[119.6,51.0],[119.2,51.0],[119.2,50.9],[118.9,50.9],[118.9,50.8],[118.7,50.8],[118.7,50.7],[118.5,50.7],[118.5,50.6],[118.4,50.6],[118.4,50.5],[118.3,50.5],[118.3,50.4],[118.1,50.4],[118.1,50.3],[118.0,50.3],[118.0,50.2],[117.9,50.2],[117.9,50.1],[117.7,50.1],[117.7,50.0],[117.6,50.0],[117.6,49.9],[117.5,49.9],[117.5,49.8],[117.3,49.8],[117.3,49.7],[117.2,49.7],[117.2,49.6],[117.1,49.6],[117.1,49.5],[116.9,49.5],[116.9,49.3],[116.7,49.3],[116.7,49.2],[116.6,49.2],[116.6,49.1],[116.4,49.1],[116.4,48.9],[116.2,48.9],[116.2,48.8],[116.1,48.8],[116.1,48.7],[116.0,48.7],[116.0,48.6],[115.9,48.6],[115.9,48.5],[115.8,48.5],[115.8,48.4],[115.6,48.4],[115.6,48.3],[115.5,48.3],[115.5,48.2],[115.4,48.2],[115.4,48.1],[115.3,48.1],[115.3,48.0],[115.2,48.0],[115.2,47.9],[115.1,47.9],[115.1,47.8],[115.0,47.8],[115.0,47.7],[114.9,47.7],[114.9,47.6],[114.7,47.6],[114.7,47.5],[114.6,47.5],[114.6,47.4],[114.4,47.4],[114.4,47.3],[114.2,47.3],[114.2,47.2],[114.0,47.2],[114.0,47.1],[113.9,47.1],[113.9,47.0],[113.7,47.0],[113.7,46.9],[113.5,46.9],[113.5,46.7],[113.1,46.7],[113.1,46.6],[112.9,46.6],[112.9,46.5],[112.7,46.5],[112.7,46.4],[112.2,46.4],[112.2,46.3],[111.7,46.3],[111.7,46.2],[111.3,46.2],[111.3,46.1],[111.0,46.1],[111.0,46.0],[110.0,46.0],[110.0,45.9],[108.9,45.9],[108.9,45.8],[104.9,45.8],[104.9,45.9],[104.4,45.9],[104.4,46.0],[104.2,46.0],[104.2,46.1],[104.0,46.1],[104.0,46.2],[103.6,46.2],[103.6,46.3],[103.3,46.3],[103.3,46.4],[102.8,46.4],[102.8,46.5],[102.6,46.5],[102.6,46.6],[102.3,46.6],[102.3,46.7],[102.1,46.7],[102.1,46.8],[101.8,46.8],[101.8,46.9],[101.6,46.9],[101.6,47.0],[101.1,47.0],[101.1,47.1],[100.8,47.1],[100.8,47.2],[100.5,47.2],[100.5,47.3],[100.3,47.3],[100.3,47.5],[100.0,47.5],[100.0,47.6],[99.8,47.6],[99.8,47.7],[99.3,47.7],[99.3,47.8],[99.1,47.8],[99.1,47.9],[98.9,47.9],[98.9,48.0],[98.8,48.0],[98.8,48.1],[98.7,48.1],[98.7,48.2],[98.5,48.2],[98.5,48.3],[98.2,48.3],[98.2,48.4],[97.9,48.4],[97.9,48.6],[97.6,48.6],[97.6,48.7],[97.4,48.7],[97.4,48.8],[97.0,48.8],[97.0,48.9],[96.7,48.9],[96.7,49.0],[96.6,49.0],[96.6,49.1],[96.5,49.1],[96.5,49.3],[96.4,49.3],[96.4,49.4],[96.2,49.4],[96.2,49.5],[96.0,49.5],[96.0,49.6],[95.7,49.6],[95.7,49.7],[95.5,49.7],[95.5,49.8],[95.1,49.8],[95.1,49.9],[94.7,49.9],[94.7,49.8],[94.5,49.8],[94.5,49.7],[94.4,49.7],[94.4,49.6],[94.1,49.6],[94.1,49.7],[92.2,49.7],[92.2,49.6],[91.6,49.6],[91.6,49.5],[91.3,49.5],[91.3,49.4],[90.7,49.4],[90.7,49.3],[90.6,49.3],[90.6,49.2],[90.5,49.2],[90.5,49.0],[90.4,49.0],[90.4,48.7],[90.3,48.7],[90.3,48.4],[90.2,48.4],[90.2,47.6],[90.3,47.6],[90.3,47.4],[90.4,47.4],[90.4,47.2],[90.5,47.2],[90.5,47.1],[90.6,47.1],[90.6,46.9],[90.7,46.9],[90.7,46.7],[90.8,46.7],[90.8,46.6],[90.9,46.6],[90.9,46.4],[91.0,46.4],[91.0,46.2],[91.1,46.2],[91.1,46.1],[91.2,46.1],[91.2,45.9],[91.3,45.9],[91.3,45.8],[91.4,45.8],[91.4,45.6],[91.5,45.6],[91.5,45.5],[91.6,45.5],[91.6,45.3],[91.8,45.3],[91.8,45.1],[91.9,45.1],[91.9,45.0],[131.4,45.0],[131.4,45.1],[131.5,45.1],[131.5,45.2],[131.6,45.2],[131.6,45.6],[131.7,45.6],[131.7,45.7],[131.8,45.7],[131.8,45.8],[131.9,45.8],[131.9,45.9],[132.0,45.9],[132.0,46.0],[132.2,46.0],[132.2,46.1],[132.3,46.1],[132.3,46.2],[132.4,46.2],[132.4,46.4],[132.5,46.4],[132.5,46.5],[132.6,46.5],[132.6,46.6],[132.7,46.6],[132.7,46.7],[132.8,46.7],[132.8,46.8],[132.9,46.8],[132.9,46.9],[133.0,46.9],[133.0,47.0],[133.1,47.0],[133.1,47.2],[133.2,47.2],[133.2,47.3],[133.3,47.3],[133.3,47.4],[133.4,47.4],[133.4,47.6],[133.5,47.6],[133.5,47.7],[133.6,47.7],[133.6,47.8],[133.7,47.8],[133.7,48.0],[133.8,48.0],[133.8,48.1],[133.9,48.1],[133.9,48.3],[134.0,48.3],[134.0,48.9],[133.9,48.9],[133.9,49.1],[133.8,49.1],[133.8,49.2],[133.7,49.2],[133.7,49.3],[133.6,49.3],[133.6,49.4],[133.4,49.4],[133.4,49.5],[133.3,49.5],[133.3,49.6],[133.1,49.6],[133.1,49.7],[133.0,49.7],[133.0,49.8],[132.9,49.8],[132.9,49.9],[132.7,49.9],[132.7,50.0],[132.5,50.0],[132.5,50.1],[132.3,50.1],[132.3,50.2],[132.1,50.2],[132.1,50.3],[131.9,50.3],[131.9,50.4],[131.7,50.4],[131.7,50.5],[131.3,50.5],[131.3,50.6],[130.9,50.6],[130.9,50.7],[130.3,50.7],[130.3,50.8],[129.7,50.8],[129.7,50.9],[129.2,50.9],[129.2,51.0],[128.8,51.0],[128.8,51.1],[128.4,51.1],[128.4,51.2],[127.9,51.2],[127.9,51.3],[127.5,51.3],[127.5,51.4],[127.0,51.4],[127.0,51.5]]]},"properties":{"tile_id":"60","start_year":1100,"end_year":1115,"source_image":"data/raw/toolbay/t/60/1100.png","source_url":"https://www.toolbay.cc/history-map/t/60/1100.png","source_color":"#009999","polity_id":null,"polity_assignment":"unverified","geometry_origin":"raster_color_trace","pixel_size_degrees":0.1,"source_color_pixels":16156,"simplification_degrees":0}},{"type":"Feature","id":"60:1100:#999900","bbox":[95.9,45.8,117.7,52.9],"geometry":{"type":"Polygon","coordinates":[[[107.8,52.9],[107.6,52.9],[107.6,52.8],[107.2,52.8],[107.2,52.7],[107.1,52.7],[107.1,52.6],[107.0,52.6],[107.0,52.5],[106.9,52.5],[106.9,52.4],[106.8,52.4],[106.8,52.3],[106.7,52.3],[106.7,52.2],[106.4,52.2],[106.4,52.1],[106.2,52.1],[106.2,52.0],[105.9,52.0],[105.9,51.9],[105.7,51.9],[105.7,51.8],[105.6,51.8],[105.6,51.7],[105.1,51.7],[105.1,51.6],[104.7,51.6],[104.7,51.5],[104.4,51.5],[104.4,51.6],[104.3,51.6],[104.3,51.7],[102.8,51.7],[102.8,51.6],[102.3,51.6],[102.3,51.5],[101.8,51.5],[101.8,51.4],[101.3,51.4],[101.3,51.3],[100.7,51.3],[100.7,51.2],[100.3,51.2],[100.3,51.1],[99.9,51.1],[99.9,51.0],[99.5,51.0],[99.5,50.9],[99.3,50.9],[99.3,50.8],[98.9,50.8],[98.9,50.7],[98.8,50.7],[98.8,50.6],[98.6,50.6],[98.6,50.5],[98.3,50.5],[98.3,50.4],[98.2,50.4],[98.2,50.3],[97.9,50.3],[97.9,50.2],[97.5,50.2],[97.5,50.1],[97.3,50.1],[97.3,50.0],[96.9,50.0],[96.9,49.9],[96.6,49.9],[96.6,49.8],[96.1,49.8],[96.1,49.7],[95.9,49.7],[95.9,49.6],[96.0,49.6],[96.0,49.5],[96.2,49.5],[96.2,49.4],[96.4,49.4],[96.4,49.3],[96.5,49.3],[96.5,49.1],[96.6,49.1],[96.6,49.0],[96.7,49.0],[96.7,48.9],[97.0,48.9],[97.0,48.8],[97.4,48.8],[97.4,48.7],[97.6,48.7],[97.6,48.6],[97.9,48.6],[97.9,48.4],[98.2,48.4],[98.2,48.3],[98.5,48.3],[98.5,48.2],[98.7,48.2],[98.7,48.1],[98.8,48.1],[98.8,48.0],[98.9,48.0],[98.9,47.9],[99.1,47.9],[99.1,47.8],[99.3,47.8],[99.3,47.7],[99.8,47.7],[99.8,47.6],[100.0,47.6],[100.0,47.5],[100.3,47.5],[100.3,47.3],[100.5,47.3],[100.5,47.2],[100.8,47.2],[100.8,47.1],[101.1,47.1],[101.1,47.0],[101.6,47.0],[101.6,46.9],[101.8,46.9],[101.8,46.8],[102.1,46.8],[102.1,46.7],[102.3,46.7],[102.3,46.6],[102.6,46.6],[102.6,46.5],[102.8,46.5],[102.8,46.4],[103.3,46.4],[103.3,46.3],[103.6,46.3],[103.6,46.2],[104.0,46.2],[104.0,46.1],[104.2,46.1],[104.2,46.0],[104.4,46.0],[104.4,45.9],[104.9,45.9],[104.9,45.8],[108.9,45.8],[108.9,45.9],[110.0,45.9],[110.0,46.0],[111.0,46.0],[111.0,46.1],[111.3,46.1],[111.3,46.2],[111.7,46.2],[111.7,46.3],[112.2,46.3],[112.2,46.4],[112.7,46.4],[112.7,46.5],[112.9,46.5],[112.9,46.6],[113.1,46.6],[113.1,46.7],[113.5,46.7],[113.5,46.9],[113.7,46.9],[113.7,47.0],[113.9,47.0],[113.9,47.1],[114.0,47.1],[114.0,47.2],[114.2,47.2],[114.2,47.3],[114.4,47.3],[114.4,47.4],[114.6,47.4],[114.6,47.5],[114.7,47.5],[114.7,47.6],[114.9,47.6],[114.9,47.7],[115.0,47.7],[115.0,47.8],[115.1,47.8],[115.1,47.9],[115.2,47.9],[115.2,48.0],[115.3,48.0],[115.3,48.1],[115.4,48.1],[115.4,48.2],[115.5,48.2],[115.5,48.3],[115.6,48.3],[115.6,48.4],[115.8,48.4],[115.8,48.5],[115.9,48.5],[115.9,48.6],[116.0,48.6],[116.0,48.7],[116.1,48.7],[116.1,48.8],[116.2,48.8],[116.2,48.9],[116.4,48.9],[116.4,49.1],[116.6,49.1],[116.6,49.2],[116.7,49.2],[116.7,49.3],[116.9,49.3],[116.9,49.5],[117.1,49.5],[117.1,49.6],[117.2,49.6],[117.2,49.7],[117.3,49.7],[117.3,49.8],[117.5,49.8],[117.5,49.9],[117.6,49.9],[117.6,50.0],[117.7,50.0],[117.7,50.2],[117.6,50.2],[117.6,50.3],[117.4,50.3],[117.4,50.4],[117.3,50.4],[117.3,50.5],[117.2,50.5],[117.2,50.6],[117.0,50.6],[117.0,50.7],[116.8,50.7],[116.8,50.8],[116.6,50.8],[116.6,50.9],[116.2,50.9],[116.2,51.0],[115.8,51.0],[115.8,51.1],[113.5,51.1],[113.5,51.0],[112.7,51.0],[112.7,51.1],[112.2,51.1],[112.2,51.2],[111.9,51.2],[111.9,51.3],[111.6,51.3],[111.6,51.4],[111.4,51.4],[111.4,51.5],[111.2,51.5],[111.2,51.6],[110.9,51.6],[110.9,51.7],[110.8,51.7],[110.8,51.8],[110.6,51.8],[110.6,51.9],[110.3,51.9],[110.3,52.0],[110.1,52.0],[110.1,52.1],[109.9,52.1],[109.9,52.2],[109.7,52.2],[109.7,52.3],[109.5,52.3],[109.5,52.4],[109.4,52.4],[109.4,52.5],[109.3,52.5],[109.3,52.6],[109.1,52.6],[109.1,52.7],[109.0,52.7],[109.0,52.8],[108.5,52.8],[108.5,52.9],[107.9,52.9],[107.9,52.8],[107.8,52.8],[107.8,52.9]]]},"properties":{"tile_id":"60","start_year":1100,"end_year":1115,"source_image":"data/raw/toolbay/t/60/1100.png","source_url":"https://www.toolbay.cc/history-map/t/60/1100.png","source_color":"#999900","polity_id":null,"polity_assignment":"unverified","geometry_origin":"raster_color_trace","pixel_size_degrees":0.1,"source_color_pixels":9370,"simplification_degrees":0}}]}
