{"type":"FeatureCollection","features":[{"type":"Feature","id":"60:1125:#0000ff","bbox":[116.2,45.0,124.8,47.8],"geometry":{"type":"Polygon","coordinates":[[[122.7,47.8],[121.1,47.8],[121.1,47.7],[120.6,47.7],[120.6,47.6],[120.3,47.6],[120.3,47.5],[120.0,47.5],[120.0,47.4],[119.7,47.4],[119.7,47.3],[119.4,47.3],[119.4,47.2],[119.2,47.2],[119.2,47.1],[118.2,47.1],[118.2,47.0],[117.7,47.0],[117.7,46.9],[117.2,46.9],[117.2,46.8],[116.9,46.8],[116.9,46.6],[116.7,46.6],[116.7,46.5],[116.6,46.5],[116.6,46.4],[116.4,46.4],[116.4,46.2],[116.3,46.2],[116.3,46.1],[116.2,46.1],[116.2,45.6],[116.3,45.6],[116.3,45.4],[116.4,45.4],[116.4,45.3],[116.6,45.3],[116.6,45.2],[116.7,45.2],[116.7,45.1],[117.2,45.1],[117.2,45.0],[122.3,45.0],[122.3,45.1],[122.5,45.1],[122.5,45.2],[122.9,45.2],[122.9,45.3],[123.1,45.3],[123.1,45.4],[123.5,45.4],[123.5,45.5],[123.8,45.5],[123.8,45.6],[124.1,45.6],[124.1,45.7],[124.2,45.7],[124.2,45.8],[124.4,45.8],[124.4,45.9],[124.5,45.9],[124.5,46.0],[124.6,46.0],[124.6,46.1],[124.7,46.1],[124.7,46.2],[124.8,46.2],[124.8,46.6],[124.7,46.6],[124.7,46.8],[124.6,46.8],[124.6,46.9],[124.5,46.9],[124.5,47.0],[124.4,47.0],[124.4,47.1],[124.2,47.1],[124.2,47.2],[124.1,47.2],[124.1,47.3],[123.8,47.3],[123.8,47.4],[123.6,47.4],[123.6,47.5],[123.3,47.5],[123.3,47.6],[123.0,47.6],[123.0,47.7],[122.7,47.7],[122.7,47.8]]]},"properties":{"tile_id":"60","start_year":1125,"end_year":1150,"source_image":"data/raw/toolbay/t/60/1125.png","source_url":"https://www.toolbay.cc/history-map/t/60/1125.png","source_color":"#0000ff","polity_id":null,"polity_assignment":"unverified","geometry_origin":"raster_color_trace","pixel_size_degrees":0.1,"source_color_pixels":1813,"simplification_degrees":0}},{"type":"Feature","id":"60:1125:#999900","bbox":[96.4,45.5,116.2,52.9],"geometry":{"type":"Polygon","coordinates":[[[107.8,52.9],[107.6,52.9],[107.6,52.8],[107.2,52.8],[107.2,52.7],[107.1,52.7],[107.1,52.6],[107.0,52.6],[107.0,52.5],[106.9,52.5],[106.9,52.4],[106.8,52.4],[106.8,52.3],[106.7,52.3],[106.7,52.2],[106.4,52.2],[106.4,52.1],[106.2,52.1],[106.2,52.0],[105.9,52.0],[105.9,51.9],[105.7,51.9],[105.7,51.8],[105.6,51.8],[105.6,51.7],[105.1,51.7],[105.1,51.6],[104.7,51.6],[104.7,51.5],[104.4,51.5],[104.4,51.6],[104.3,51.6],[104.3,51.7],[102.8,51.7],[102.8,51.6],[102.3,51.6],[102.3,51.5],[101.8,51.5],[101.8,51.4],[101.3,51.4],[101.3,51.3],[100.7,51.3],[100.7,51.2],[100.3,51.2],[100.3,51.1],[99.9,51.1],[99.9,51.0],[99.5,51.0],[99.5,50.9],[99.3,50.9],[99.3,50.8],[98.9,50.8],[98.9,50.7],[98.8,50.7],[98.8,50.6],[98.6,50.6],[98.6,50.5],[98.3,50.5],[98.3,50.4],[98.2,50.4],[98.2,50.3],[97.9,50.3],[97.9,50.2],[97.5,50.2],[97.5,50.1],[97.3,50.1],[97.3,50.0],[96.9,50.0],[96.9,49.9],[96.6,49.9],[96.6,49.8],[96.5,49.8],[96.5,49.6],[96.4,49.6],[96.4,49.4],[96.5,49.4],[96.5,49.1],[96.6,49.1],[96.6,49.0],[96.7,49.0],[96.7,48.8],[96.8,48.8],[96.8,48.6],[96.9,48.6],[96.9,48.2],[97.0,48.2],[97.0,48.1],[97.1,48.1],[97.1,48.0],[97.2,48.0],[97.2,47.9],[97.3,47.9],[97.3,47.8],[97.4,47.8],[97.4,47.4],[97.5,47.4],[97.5,47.3],[97.6,47.3],[97.6,47.2],[97.7,47.2],[97.7,47.1],[97.8,47.1],[97.8,47.0],[98.0,47.0],[98.0,46.9],[98.2,46.9],[98.2,46.8],[98.5,46.8],[98.5,46.7],[98.7,46.7],[98.7,46.6],[99.0,46.6],[99.0,46.5],[99.2,46.5],[99.2,46.4],[99.5,46.4],[99.5,46.3],[99.8,46.3],[99.8,46.2],[100.0,46.2],[100.0,46.0],[100.2,46.0],[100.2,45.9],[100.6,45.9],[100.6,45.8],[100.9,45.8],[100.9,45.7],[101.6,45.7],[101.6,45.6],[103.8,45.6],[103.8,45.5],[106.5,45.5],[106.5,45.6],[107.9,45.6],[107.9,45.7],[109.7,45.7],[109.7,45.8],[110.9,45.8],[110.9,45.9],[111.2,45.9],[111.2,46.0],[111.5,46.0],[111.5,46.1],[112.0,46.1],[112.0,46.2],[112.3,46.2],[112.3,46.3],[112.7,46.3],[112.7,46.4],[112.9,46.4],[112.9,46.5],[113.1,46.5],[113.1,46.6],[113.4,46.6],[113.4,46.7],[113.6,46.7],[113.6,46.8],[113.7,46.8],[113.7,46.9],[113.8,46.9],[113.8,47.0],[113.9,47.0],[113.9,47.1],[114.1,47.1],[114.1,47.2],[114.2,47.2],[114.2,47.3],[114.4,47.3],[114.4,47.4],[114.6,47.4],[114.6,47.5],[114.7,47.5],[114.7,47.6],[114.9,47.6],[114.9,47.7],[115.0,47.7],[115.0,47.8],[115.1,47.8],[115.1,47.9],[115.2,47.9],[115.2,48.0],[115.3,48.0],[115.3,48.1],[115.4,48.1],[115.4,48.2],[115.5,48.2],[115.5,48.3],[115.6,48.3],[115.6,48.4],[115.8,48.4],[115.8,48.5],[115.9,48.5],[115.9,48.6],[116.0,48.6],[116.0,48.7],[116.1,48.7],[116.1,48.8],[116.2,48.8],[116.2,49.0],[116.1,49.0],[116.1,49.6],[116.0,49.6],[116.0,49.9],[115.9,49.9],[115.9,50.0],[115.8,50.0],[115.8,50.2],[115.7,50.2],[115.7,50.3],[115.6,50.3],[115.6,50.5],[115.4,50.5],[115.4,50.6],[115.2,50.6],[115.2,50.7],[115.0,50.7],[115.0,50.8],[114.8,50.8],[114.8,51.0],[114.5,51.0],[114.5,51.1],[113.5,51.1],[113.5,51.0],[112.7,51.0],[112.7,51.1],[112.2,51.1],[112.2,51.2],[111.9,51.2],[111.9,51.3],[111.6,51.3],[111.6,51.4],[111.4,51.4],[111.4,51.5],[111.2,51.5],[111.2,51.6],[110.9,51.6],[110.9,51.7],[110.8,51.7],[110.8,51.8],[110.6,51.8],[110.6,51.9],[110.3,51.9],[110.3,52.0],[110.1,52.0],[110.1,52.1],[109.9,52.1],[109.9,52.2],[109.7,52.2],[109.7,52.3],[109.5,52.3],[109.5,52.4],[109.4,52.4],[109.4,52.5],[109.3,52.5],[109.3,52.6],[109.1,52.6],[109.1,52.7],[109.0,52.7],[109.0,52.8],[108.5,52.8],[108.5,52.9],[107.9,52.9],[107.9,52.8],[107.8,52.8],[107.8,52.9]]]},"properties":{"tile_id":"60","start_year":1125,"end_year":1150,"source_image":"data/raw/toolbay/t/60/1125.png","source_url":"https://www.toolbay.cc/history-map/t/60/1125.png","source_color":"#999900","polity_id":null,"polity_assignment":"unverified","geometry_origin":"raster_color_trace","pixel_size_degrees":0.1,"source_color_pixels":10121,"simplification_degrees":0}},{"type":"Feature","id":"60:1125:#ffff00","bbox":[122.3,45.0,135.0,49.6],"geometry":{"type":"Polygon","coordinates":[[[135.0,49.6],[134.9,49.6],[134.9,49.5],[133.8,49.5],[133.8,49.4],[133.6,49.4],[133.6,49.3],[133.3,49.3],[133.3,49.2],[133.1,49.2],[133.1,49.1],[132.8,49.1],[132.8,49.0],[132.7,49.0],[132.7,48.9],[132.5,48.9],[132.5,48.8],[132.3,48.8],[132.3,48.7],[132.1,48.7],[132.1,48.6],[131.8,48.6],[131.8,48.5],[131.7,48.5],[131.7,48.4],[131.3,48.4],[131.3,48.3],[131.1,48.3],[131.1,48.2],[130.9,48.2],[130.9,48.1],[130.7,48.1],[130.7,48.0],[130.5,48.0],[130.5,47.9],[130.2,47.9],[130.2,47.8],[130.0,47.8],[130.0,47.7],[129.7,47.7],[129.7,47.6],[129.4,47.6],[129.4,47.5],[129.3,47.5],[129.3,47.4],[129.1,47.4],[129.1,47.3],[128.8,47.3],[128.8,47.2],[128.6,47.2],[128.6,47.1],[128.3,47.1],[128.3,47.0],[128.0,47.0],[128.0,46.9],[127.4,46.9],[127.4,46.8],[127.0,46.8],[127.0,46.7],[126.7,46.7],[126.7,46.6],[126.5,46.6],[126.5,46.5],[126.3,46.5],[126.3,46.4],[126.1,46.4],[126.1,46.3],[125.8,46.3],[125.8,46.2],[125.6,46.2],[125.6,46.1],[125.4,46.1],[125.4,46.0],[125.2,46.0],[125.2,45.9],[124.9,45.9],[124.9,45.8],[124.5,45.8],[124.5,45.7],[124.1,45.7],[124.1,45.6],[123.8,45.6],[123.8,45.5],[123.5,45.5],[123.5,45.4],[123.1,45.4],[123.1,45.3],[122.9,45.3],[122.9,45.2],[122.5,45.2],[122.5,45.1],[122.3,45.1],[122.3,45.0],[135.0,45.0],[135.0,49.6]]]},"properties":{"tile_id":"60","start_year":1125,"end_year":1150,"source_image":"data/raw/toolbay/t/60/1125.png","source_url":"https://www.toolbay.cc/history-map/t/60/1125.png","source_color":"#ffff00","polity_id":null,"polity_assignment":"unverified","geometry_origin":"raster_color_trace","pixel_size_degrees":0.1,"source_color_pixels":2959,"simplification_degrees":0}}]}
