{"type":"FeatureCollection","features":[{"type":"Feature","id":"60:1150:#0000ff","bbox":[116.2,45.0,124.8,47.8],"geometry":{"type":"Polygon","coordinates":[[[122.7,47.8],[121.1,47.8],[121.1,47.7],[120.6,47.7],[120.6,47.6],[120.3,47.6],[120.3,47.5],[120.0,47.5],[120.0,47.4],[119.7,47.4],[119.7,47.3],[119.4,47.3],[119.4,47.2],[119.2,47.2],[119.2,47.1],[118.2,47.1],[118.2,47.0],[117.7,47.0],[117.7,46.9],[117.2,46.9],[117.2,46.8],[116.9,46.8],[116.9,46.6],[116.7,46.6],[116.7,46.5],[116.6,46.5],[116.6,46.4],[116.4,46.4],[116.4,46.2],[116.3,46.2],[116.3,46.1],[116.2,46.1],[116.2,45.6],[116.3,45.6],[116.3,45.4],[116.4,45.4],[116.4,45.3],[116.6,45.3],[116.6,45.2],[116.7,45.2],[116.7,45.1],[117.2,45.1],[117.2,45.0],[122.3,45.0],[122.3,45.1],[122.5,45.1],[122.5,45.2],[122.9,45.2],[122.9,45.3],[123.1,45.3],[123.1,45.4],[123.5,45.4],[123.5,45.5],[123.8,45.5],[123.8,45.6],[124.1,45.6],[124.1,45.7],[124.2,45.7],[124.2,45.8],[124.4,45.8],[124.4,45.9],[124.5,45.9],[124.5,46.0],[124.6,46.0],[124.6,46.1],[124.7,46.1],[124.7,46.2],[124.8,46.2],[124.8,46.6],[124.7,46.6],[124.7,46.8],[124.6,46.8],[124.6,46.9],[124.5,46.9],[124.5,47.0],[124.4,47.0],[124.4,47.1],[124.2,47.1],[124.2,47.2],[124.1,47.2],[124.1,47.3],[123.8,47.3],[123.8,47.4],[123.6,47.4],[123.6,47.5],[123.3,47.5],[123.3,47.6],[123.0,47.6],[123.0,47.7],[122.7,47.7],[122.7,47.8]]]},"properties":{"tile_id":"60","start_year":1150,"end_year":1181,"source_image":"data/raw/toolbay/t/60/1150.png","source_url":"https://www.toolbay.cc/history-map/t/60/1150.png","source_color":"#0000ff","polity_id":null,"polity_assignment":"unverified","geometry_origin":"raster_color_trace","pixel_size_degrees":0.1,"source_color_pixels":1813,"simplification_degrees":0}},{"type":"Feature","id":"60:1150:#00ffff","bbox":[104.5,46.7,117.6,56.6],"geometry":{"type":"Polygon","coordinates":[[[115.6,56.6],[112.0,56.6],[112.0,56.5],[110.7,56.5],[110.7,56.4],[110.5,56.4],[110.5,56.3],[110.4,56.3],[110.4,56.2],[110.2,56.2],[110.2,56.1],[109.9,56.1],[109.9,56.0],[109.8,56.0],[109.8,55.5],[109.7,55.5],[109.7,55.4],[109.8,55.4],[109.8,55.0],[109.7,55.0],[109.7,54.8],[109.6,54.8],[109.6,54.4],[109.5,54.4],[109.5,54.2],[109.4,54.2],[109.4,54.1],[109.3,54.1],[109.3,53.9],[109.2,53.9],[109.2,53.6],[109.1,53.6],[109.1,53.5],[109.0,53.5],[109.0,53.4],[108.8,53.4],[108.8,53.3],[108.6,53.3],[108.6,53.2],[108.4,53.2],[108.4,53.1],[108.3,53.1],[108.3,53.0],[108.2,53.0],[108.2,52.9],[107.9,52.9],[107.9,52.8],[107.8,52.8],[107.8,52.9],[107.6,52.9],[107.6,52.8],[107.2,52.8],[107.2,52.7],[107.1,52.7],[107.1,52.6],[107.0,52.6],[107.0,52.5],[106.9,52.5],[106.9,52.4],[106.8,52.4],[106.8,52.3],[106.7,52.3],[106.7,52.2],[106.4,52.2],[106.4,52.1],[106.2,52.1],[106.2,52.0],[105.9,52.0],[105.9,51.9],[105.7,51.9],[105.7,51.8],[105.6,51.8],[105.6,51.7],[105.1,51.7],[105.1,51.6],[104.7,51.6],[104.7,51.5],[104.5,51.5],[104.5,51.1],[104.6,51.1],[104.6,50.8],[104.7,50.8],[104.7,50.7],[104.8,50.7],[104.8,50.6],[104.9,50.6],[104.9,50.5],[105.0,50.5],[105.0,50.4],[105.1,50.4],[105.1,50.3],[105.2,50.3],[105.2,50.2],[105.3,50.2],[105.3,50.0],[105.4,50.0],[105.4,49.8],[105.5,49.8],[105.5,49.6],[105.6,49.6],[105.6,49.5],[105.7,49.5],[105.7,49.4],[105.8,49.4],[105.8,49.3],[105.9,49.3],[105.9,49.1],[106.0,49.1],[106.0,48.9],[106.1,48.9],[106.1,48.7],[106.2,48.7],[106.2,48.5],[106.3,48.5],[106.3,48.4],[106.4,48.4],[106.4,48.2],[106.6,48.2],[106.6,48.0],[106.7,48.0],[106.7,47.9],[106.8,47.9],[106.8,47.8],[106.9,47.8],[106.9,47.6],[107.0,47.6],[107.0,47.5],[107.1,47.5],[107.1,47.4],[107.2,47.4],[107.2,47.3],[107.3,47.3],[107.3,47.1],[107.4,47.1],[107.4,46.9],[107.5,46.9],[107.5,46.7],[107.6,46.7],[107.6,46.8],[107.7,46.8],[107.7,46.9],[107.8,46.9],[107.8,47.0],[107.9,47.0],[107.9,47.3],[108.0,47.3],[108.0,47.5],[108.1,47.5],[108.1,47.8],[108.2,47.8],[108.2,47.9],[108.4,47.9],[108.4,48.0],[108.5,48.0],[108.5,48.1],[108.6,48.1],[108.6,48.2],[108.9,48.2],[108.9,48.3],[109.0,48.3],[109.0,48.4],[109.1,48.4],[109.1,48.5],[109.3,48.5],[109.3,48.6],[109.4,48.6],[109.4,48.7],[109.5,48.7],[109.5,48.8],[109.6,48.8],[109.6,48.9],[109.8,48.9],[109.8,49.0],[109.9,49.0],[109.9,49.1],[110.0,49.1],[110.0,49.2],[110.1,49.2],[110.1,49.3],[110.3,49.3],[110.3,49.4],[110.4,49.4],[110.4,49.5],[110.5,49.5],[110.5,49.6],[110.7,49.6],[110.7,49.7],[110.8,49.7],[110.8,49.8],[110.9,49.8],[110.9,49.9],[111.1,49.9],[111.1,50.0],[111.2,50.0],[111.2,50.1],[111.4,50.1],[111.4,50.2],[111.6,50.2],[111.6,50.3],[111.7,50.3],[111.7,50.4],[111.8,50.4],[111.8,50.5],[111.9,50.5],[111.9,50.6],[112.1,50.6],[112.1,50.7],[112.8,50.7],[112.8,50.8],[112.9,50.8],[112.9,50.9],[113.0,50.9],[113.0,51.0],[113.1,51.0],[113.1,51.1],[113.2,51.1],[113.2,51.2],[113.5,51.2],[113.5,51.3],[113.7,51.3],[113.7,51.4],[113.9,51.4],[113.9,51.5],[114.1,51.5],[114.1,51.6],[114.2,51.6],[114.2,51.7],[114.3,51.7],[114.3,51.8],[114.6,51.8],[114.6,51.9],[114.9,51.9],[114.9,52.0],[115.0,52.0],[115.0,52.1],[115.2,52.1],[115.2,52.2],[115.3,52.2],[115.3,52.3],[115.5,52.3],[115.5,52.4],[115.6,52.4],[115.6,52.5],[115.7,52.5],[115.7,52.6],[115.9,52.6],[115.9,52.7],[116.0,52.7],[116.0,52.8],[116.1,52.8],[116.1,52.9],[116.2,52.9],[116.2,53.0],[116.4,53.0],[116.4,53.1],[116.6,53.1],[116.6,53.3],[116.8,53.3],[116.8,53.5],[116.9,53.5],[116.9,53.6],[117.0,53.6],[117.0,53.7],[117.1,53.7],[117.1,53.8],[117.2,53.8],[117.2,53.9],[117.3,53.9],[117.3,54.1],[117.4,54.1],[117.4,54.3],[117.5,54.3],[117.5,54.9],[117.6,54.9],[117.6,55.1],[117.5,55.1],[117.5,55.3],[117.4,55.3],[117.4,55.5],[117.3,55.5],[117.3,55.6],[117.2,55.6],[117.2,55.7],[117.1,55.7],[117.1,55.8],[117.0,55.8],[117.0,55.9],[116.9,55.9],[116.9,56.0],[116.8,56.0],[116.8,56.1],[116.7,56.1],[116.7,56.2],[116.5,56.2],[116.5,56.3],[116.3,56.3],[116.3,56.4],[115.9,56.4],[115.9,56.5],[115.6,56.5],[115.6,56.6]]]},"properties":{"tile_id":"60","start_year":1150,"end_year":1181,"source_image":"data/raw/toolbay/t/60/1150.png","source_url":"https://www.toolbay.cc/history-map/t/60/1150.png","source_color":"#00ffff","polity_id":null,"polity_assignment":"unverified","geometry_origin":"raster_color_trace","pixel_size_degrees":0.1,"source_color_pixels":6025,"simplification_degrees":0}},{"type":"Feature","id":"60:1150:#999900","bbox":[93.6,45.1,107.6,51.7],"geometry":{"type":"Polygon","coordinates":[[[104.3,51.7],[102.8,51.7],[102.8,51.6],[102.3,51.6],[102.3,51.5],[101.8,51.5],[101.8,51.4],[101.3,51.4],[101.3,51.3],[100.7,51.3],[100.7,51.2],[100.3,51.2],[100.3,51.1],[99.9,51.1],[99.9,51.0],[99.5,51.0],[99.5,50.9],[99.3,50.9],[99.3,50.8],[98.9,50.8],[98.9,50.7],[98.8,50.7],[98.8,50.6],[98.6,50.6],[98.6,50.5],[98.3,50.5],[98.3,50.4],[98.2,50.4],[98.2,50.3],[97.9,50.3],[97.9,50.2],[97.5,50.2],[97.5,50.1],[97.3,50.1],[97.3,50.0],[96.9,50.0],[96.9,49.9],[95.7,49.9],[95.7,49.8],[94.8,49.8],[94.8,49.7],[94.3,49.7],[94.3,49.6],[94.0,49.6],[94.0,49.5],[93.8,49.5],[93.8,49.4],[93.7,49.4],[93.7,49.2],[93.6,49.2],[93.6,48.8],[93.7,48.8],[93.7,48.6],[93.8,48.6],[93.8,48.5],[93.9,48.5],[93.9,48.3],[94.0,48.3],[94.0,48.2],[94.1,48.2],[94.1,48.0],[94.2,48.0],[94.2,47.9],[94.3,47.9],[94.3,47.7],[94.4,47.7],[94.4,47.4],[94.5,47.4],[94.5,47.2],[94.6,47.2],[94.6,47.1],[94.7,47.1],[94.7,46.9],[94.9,46.9],[94.9,46.8],[95.0,46.8],[95.0,46.7],[95.2,46.7],[95.2,46.6],[95.3,46.6],[95.3,46.5],[95.5,46.5],[95.5,46.4],[95.7,46.4],[95.7,46.3],[96.0,46.3],[96.0,46.2],[96.2,46.2],[96.2,46.1],[96.4,46.1],[96.4,46.0],[96.7,46.0],[96.7,45.9],[96.9,45.9],[96.9,45.8],[97.2,45.8],[97.2,45.7],[97.6,45.7],[97.6,45.6],[97.7,45.6],[97.7,45.5],[98.2,45.5],[98.2,45.4],[98.4,45.4],[98.4,45.3],[98.9,45.3],[98.9,45.2],[100.3,45.2],[100.3,45.1],[100.5,45.1],[100.5,45.2],[102.8,45.2],[102.8,45.3],[103.2,45.3],[103.2,45.4],[103.9,45.4],[103.9,45.5],[106.5,45.5],[106.5,45.6],[107.5,45.6],[107.5,45.8],[107.6,45.8],[107.6,46.7],[107.5,46.7],[107.5,46.9],[107.4,46.9],[107.4,47.1],[107.3,47.1],[107.3,47.3],[107.2,47.3],[107.2,47.4],[107.1,47.4],[107.1,47.5],[107.0,47.5],[107.0,47.6],[106.9,47.6],[106.9,47.8],[106.8,47.8],[106.8,47.9],[106.7,47.9],[106.7,48.0],[106.6,48.0],[106.6,48.2],[106.4,48.2],[106.4,48.4],[106.3,48.4],[106.3,48.5],[106.2,48.5],[106.2,48.7],[106.1,48.7],[106.1,48.9],[106.0,48.9],[106.0,49.1],[105.9,49.1],[105.9,49.3],[105.8,49.3],[105.8,49.4],[105.7,49.4],[105.7,49.5],[105.6,49.5],[105.6,49.6],[105.5,49.6],[105.5,49.8],[105.4,49.8],[105.4,50.0],[105.3,50.0],[105.3,50.2],[105.2,50.2],[105.2,50.3],[105.1,50.3],[105.1,50.4],[105.0,50.4],[105.0,50.5],[104.9,50.5],[104.9,50.6],[104.8,50.6],[104.8,50.7],[104.7,50.7],[104.7,50.8],[104.6,50.8],[104.6,51.1],[104.5,51.1],[104.5,51.5],[104.4,51.5],[104.4,51.6],[104.3,51.6],[104.3,51.7]]]},"properties":{"tile_id":"60","start_year":1150,"end_year":1181,"source_image":"data/raw/toolbay/t/60/1150.png","source_url":"https://www.toolbay.cc/history-map/t/60/1150.png","source_color":"#999900","polity_id":null,"polity_assignment":"unverified","geometry_origin":"raster_color_trace","pixel_size_degrees":0.1,"source_color_pixels":6367,"simplification_degrees":0}},{"type":"Feature","id":"60:1150:#ff00ff","bbox":[90.0,45.0,97.6,49.4],"geometry":{"type":"Polygon","coordinates":[[[93.4,49.4],[92.0,49.4],[92.0,49.3],[91.5,49.3],[91.5,49.2],[91.2,49.2],[91.2,49.1],[90.7,49.1],[90.7,49.0],[90.5,49.0],[90.5,48.9],[90.0,48.9],[90.0,45.0],[94.1,45.0],[94.1,45.1],[94.2,45.1],[94.2,45.2],[94.4,45.2],[94.4,45.3],[94.6,45.3],[94.6,45.4],[96.5,45.4],[96.5,45.5],[97.6,45.5],[97.6,45.7],[97.2,45.7],[97.2,45.8],[96.9,45.8],[96.9,45.9],[96.7,45.9],[96.7,46.0],[96.4,46.0],[96.4,46.1],[96.2,46.1],[96.2,46.2],[96.0,46.2],[96.0,46.3],[95.7,46.3],[95.7,46.4],[95.5,46.4],[95.5,46.5],[95.3,46.5],[95.3,46.6],[95.2,46.6],[95.2,46.7],[95.0,46.7],[95.0,46.8],[94.9,46.8],[94.9,46.9],[94.7,46.9],[94.7,47.1],[94.6,47.1],[94.6,47.2],[94.5,47.2],[94.5,47.4],[94.4,47.4],[94.4,47.7],[94.3,47.7],[94.3,47.9],[94.2,47.9],[94.2,48.0],[94.1,48.0],[94.1,48.2],[94.0,48.2],[94.0,48.3],[93.9,48.3],[93.9,48.5],[93.8,48.5],[93.8,48.6],[93.7,48.6],[93.7,48.8],[93.6,48.8],[93.6,49.3],[93.4,49.3],[93.4,49.4]]]},"properties":{"tile_id":"60","start_year":1150,"end_year":1181,"source_image":"data/raw/toolbay/t/60/1150.png","source_url":"https://www.toolbay.cc/history-map/t/60/1150.png","source_color":"#ff00ff","polity_id":null,"polity_assignment":"unverified","geometry_origin":"raster_color_trace","pixel_size_degrees":0.1,"source_color_pixels":2057,"simplification_degrees":0}},{"type":"Feature","id":"60:1150:#ffff00","bbox":[122.3,45.0,135.0,49.6],"geometry":{"type":"Polygon","coordinates":[[[135.0,49.6],[134.9,49.6],[134.9,49.5],[133.8,49.5],[133.8,49.4],[133.6,49.4],[133.6,49.3],[133.3,49.3],[133.3,49.2],[133.1,49.2],[133.1,49.1],[132.8,49.1],[132.8,49.0],[132.7,49.0],[132.7,48.9],[132.5,48.9],[132.5,48.8],[132.3,48.8],[132.3,48.7],[132.1,48.7],[132.1,48.6],[131.8,48.6],[131.8,48.5],[131.7,48.5],[131.7,48.4],[131.3,48.4],[131.3,48.3],[131.1,48.3],[131.1,48.2],[130.9,48.2],[130.9,48.1],[130.7,48.1],[130.7,48.0],[130.5,48.0],[130.5,47.9],[130.2,47.9],[130.2,47.8],[130.0,47.8],[130.0,47.7],[129.7,47.7],[129.7,47.6],[129.4,47.6],[129.4,47.5],[129.3,47.5],[129.3,47.4],[129.1,47.4],[129.1,47.3],[128.8,47.3],[128.8,47.2],[128.6,47.2],[128.6,47.1],[128.3,47.1],[128.3,47.0],[128.0,47.0],[128.0,46.9],[127.4,46.9],[127.4,46.8],[127.0,46.8],[127.0,46.7],[126.7,46.7],[126.7,46.6],[126.5,46.6],[126.5,46.5],[126.3,46.5],[126.3,46.4],[126.1,46.4],[126.1,46.3],[125.8,46.3],[125.8,46.2],[125.6,46.2],[125.6,46.1],[125.4,46.1],[125.4,46.0],[125.2,46.0],[125.2,45.9],[124.9,45.9],[124.9,45.8],[124.5,45.8],[124.5,45.7],[124.1,45.7],[124.1,45.6],[123.8,45.6],[123.8,45.5],[123.5,45.5],[123.5,45.4],[123.1,45.4],[123.1,45.3],[122.9,45.3],[122.9,45.2],[122.5,45.2],[122.5,45.1],[122.3,45.1],[122.3,45.0],[135.0,45.0],[135.0,49.6]]]},"properties":{"tile_id":"60","start_year":1150,"end_year":1181,"source_image":"data/raw/toolbay/t/60/1150.png","source_url":"https://www.toolbay.cc/history-map/t/60/1150.png","source_color":"#ffff00","polity_id":null,"polity_assignment":"unverified","geometry_origin":"raster_color_trace","pixel_size_degrees":0.1,"source_color_pixels":2959,"simplification_degrees":0}}]}
