{"type":"FeatureCollection","features":[{"type":"Feature","id":"60:1189:#0000ff","bbox":[116.2,45.0,124.8,47.8],"geometry":{"type":"Polygon","coordinates":[[[122.7,47.8],[121.1,47.8],[121.1,47.7],[120.6,47.7],[120.6,47.6],[120.3,47.6],[120.3,47.5],[120.0,47.5],[120.0,47.4],[119.7,47.4],[119.7,47.3],[119.4,47.3],[119.4,47.2],[119.2,47.2],[119.2,47.1],[118.2,47.1],[118.2,47.0],[117.7,47.0],[117.7,46.9],[117.2,46.9],[117.2,46.8],[116.9,46.8],[116.9,46.6],[116.7,46.6],[116.7,46.5],[116.6,46.5],[116.6,46.4],[116.4,46.4],[116.4,46.2],[116.3,46.2],[116.3,46.1],[116.2,46.1],[116.2,45.6],[116.3,45.6],[116.3,45.4],[116.4,45.4],[116.4,45.3],[116.6,45.3],[116.6,45.2],[116.7,45.2],[116.7,45.1],[117.2,45.1],[117.2,45.0],[122.3,45.0],[122.3,45.1],[122.5,45.1],[122.5,45.2],[122.9,45.2],[122.9,45.3],[123.1,45.3],[123.1,45.4],[123.5,45.4],[123.5,45.5],[123.8,45.5],[123.8,45.6],[124.1,45.6],[124.1,45.7],[124.2,45.7],[124.2,45.8],[124.4,45.8],[124.4,45.9],[124.5,45.9],[124.5,46.0],[124.6,46.0],[124.6,46.1],[124.7,46.1],[124.7,46.2],[124.8,46.2],[124.8,46.6],[124.7,46.6],[124.7,46.8],[124.6,46.8],[124.6,46.9],[124.5,46.9],[124.5,47.0],[124.4,47.0],[124.4,47.1],[124.2,47.1],[124.2,47.2],[124.1,47.2],[124.1,47.3],[123.8,47.3],[123.8,47.4],[123.6,47.4],[123.6,47.5],[123.3,47.5],[123.3,47.6],[123.0,47.6],[123.0,47.7],[122.7,47.7],[122.7,47.8]]]},"properties":{"tile_id":"60","start_year":1189,"end_year":1201,"source_image":"data/raw/toolbay/t/60/1189.png","source_url":"https://www.toolbay.cc/history-map/t/60/1189.png","source_color":"#0000ff","polity_id":null,"polity_assignment":"unverified","geometry_origin":"raster_color_trace","pixel_size_degrees":0.1,"source_color_pixels":1813,"simplification_degrees":0}},{"type":"Feature","id":"60:1189:#00ffff","bbox":[105.4,48.9,122.5,57.1],"geometry":{"type":"Polygon","coordinates":[[[121.2,57.1],[119.8,57.1],[119.8,57.0],[118.7,57.0],[118.7,56.9],[116.4,56.9],[116.4,56.8],[115.2,56.8],[115.2,56.7],[114.6,56.7],[114.6,56.6],[112.0,56.6],[112.0,56.5],[110.7,56.5],[110.7,56.4],[110.5,56.4],[110.5,56.3],[110.4,56.3],[110.4,56.2],[110.2,56.2],[110.2,56.1],[109.9,56.1],[109.9,56.0],[109.8,56.0],[109.8,55.5],[109.7,55.5],[109.7,55.4],[109.8,55.4],[109.8,55.0],[109.7,55.0],[109.7,54.8],[109.6,54.8],[109.6,54.4],[109.5,54.4],[109.5,54.2],[109.4,54.2],[109.4,54.1],[109.3,54.1],[109.3,53.9],[109.2,53.9],[109.2,53.6],[109.1,53.6],[109.1,53.5],[109.0,53.5],[109.0,53.4],[108.8,53.4],[108.8,53.3],[108.6,53.3],[108.6,53.2],[108.4,53.2],[108.4,53.1],[108.3,53.1],[108.3,53.0],[108.2,53.0],[108.2,52.9],[107.9,52.9],[107.9,52.8],[107.8,52.8],[107.8,52.9],[107.6,52.9],[107.6,52.8],[107.2,52.8],[107.2,52.7],[107.1,52.7],[107.1,52.6],[107.0,52.6],[107.0,52.5],[106.9,52.5],[106.9,52.4],[106.8,52.4],[106.8,52.3],[106.7,52.3],[106.7,52.2],[106.4,52.2],[106.4,52.1],[106.2,52.1],[106.2,52.0],[105.9,52.0],[105.9,51.9],[105.7,51.9],[105.7,51.8],[105.6,51.8],[105.6,51.7],[105.4,51.7],[105.4,51.2],[105.5,51.2],[105.5,50.9],[105.6,50.9],[105.6,50.6],[105.7,50.6],[105.7,50.1],[105.8,50.1],[105.8,49.3],[105.9,49.3],[105.9,49.2],[106.0,49.2],[106.0,48.9],[107.1,48.9],[107.1,49.0],[107.5,49.0],[107.5,49.1],[107.8,49.1],[107.8,49.2],[108.0,49.2],[108.0,49.3],[108.3,49.3],[108.3,49.4],[108.6,49.4],[108.6,49.5],[109.0,49.5],[109.0,49.6],[109.3,49.6],[109.3,49.7],[109.4,49.7],[109.4,49.8],[109.5,49.8],[109.5,49.9],[109.8,49.9],[109.8,50.0],[110.0,50.0],[110.0,50.1],[110.2,50.1],[110.2,50.2],[110.5,50.2],[110.5,50.3],[110.7,50.3],[110.7,50.5],[110.8,50.5],[110.8,50.6],[110.9,50.6],[110.9,50.7],[111.1,50.7],[111.1,50.8],[111.2,50.8],[111.2,50.9],[111.5,50.9],[111.5,51.0],[111.6,51.0],[111.6,51.1],[111.7,51.1],[111.7,51.2],[112.0,51.2],[112.0,51.3],[112.3,51.3],[112.3,51.4],[112.5,51.4],[112.5,51.5],[112.6,51.5],[112.6,51.6],[112.8,51.6],[112.8,51.7],[113.0,51.7],[113.0,51.8],[113.2,51.8],[113.2,51.9],[113.5,51.9],[113.5,52.0],[113.8,52.0],[113.8,52.1],[114.0,52.1],[114.0,52.2],[114.1,52.2],[114.1,52.3],[114.2,52.3],[114.2,52.4],[114.3,52.4],[114.3,52.5],[114.5,52.5],[114.5,52.6],[114.7,52.6],[114.7,52.7],[114.9,52.7],[114.9,52.8],[115.1,52.8],[115.1,52.9],[115.3,52.9],[115.3,53.0],[115.5,53.0],[115.5,53.1],[115.7,53.1],[115.7,53.2],[115.9,53.2],[115.9,53.3],[116.0,53.3],[116.0,53.4],[116.3,53.4],[116.3,53.5],[116.5,53.5],[116.5,53.6],[117.0,53.6],[117.0,53.7],[117.1,53.7],[117.1,53.8],[117.2,53.8],[117.2,53.9],[117.3,53.9],[117.3,54.1],[117.7,54.1],[117.7,54.2],[118.0,54.2],[118.0,54.3],[118.2,54.3],[118.2,54.4],[118.5,54.4],[118.5,54.5],[118.7,54.5],[118.7,54.6],[119.0,54.6],[119.0,54.7],[119.3,54.7],[119.3,54.8],[119.4,54.8],[119.4,54.9],[119.7,54.9],[119.7,55.0],[119.9,55.0],[119.9,55.1],[120.0,55.1],[120.0,55.2],[120.3,55.2],[120.3,55.4],[120.7,55.4],[120.7,55.5],[121.0,55.5],[121.0,55.6],[121.2,55.6],[121.2,55.7],[121.4,55.7],[121.4,55.8],[121.6,55.8],[121.6,55.9],[121.9,55.9],[121.9,56.0],[122.1,56.0],[122.1,56.1],[122.2,56.1],[122.2,56.5],[122.4,56.5],[122.4,56.6],[122.5,56.6],[122.5,57.0],[122.4,57.0],[122.4,57.1],[121.7,57.1],[121.7,57.0],[121.2,57.0],[121.2,57.1]]]},"properties":{"tile_id":"60","start_year":1189,"end_year":1201,"source_image":"data/raw/toolbay/t/60/1189.png","source_url":"https://www.toolbay.cc/history-map/t/60/1189.png","source_color":"#00ffff","polity_id":null,"polity_assignment":"unverified","geometry_origin":"raster_color_trace","pixel_size_degrees":0.1,"source_color_pixels":5984,"simplification_degrees":0}},{"type":"Feature","id":"60:1189:#999900","bbox":[97.1,45.0,107.6,52.3],"geometry":{"type":"Polygon","coordinates":[[[102.3,52.3],[99.8,52.3],[99.8,52.2],[99.1,52.2],[99.1,52.1],[99.0,52.1],[99.0,52.0],[98.4,52.0],[98.4,51.9],[97.9,51.9],[97.9,51.8],[97.7,51.8],[97.7,51.7],[97.3,51.7],[97.3,51.6],[97.1,51.6],[97.1,51.4],[97.2,51.4],[97.2,51.3],[97.3,51.3],[97.3,51.1],[97.4,51.1],[97.4,51.0],[97.5,51.0],[97.5,50.9],[97.6,50.9],[97.6,50.7],[97.7,50.7],[97.7,50.6],[97.8,50.6],[97.8,50.5],[97.9,50.5],[97.9,50.4],[98.0,50.4],[98.0,50.2],[98.1,50.2],[98.1,50.0],[98.2,50.0],[98.2,49.8],[98.3,49.8],[98.3,49.3],[98.4,49.3],[98.4,48.7],[98.3,48.7],[98.3,47.8],[98.2,47.8],[98.2,47.1],[98.3,47.1],[98.3,46.4],[98.4,46.4],[98.4,45.4],[98.3,45.4],[98.3,45.0],[102.2,45.0],[102.2,45.1],[102.3,45.1],[102.3,45.2],[102.8,45.2],[102.8,45.3],[103.2,45.3],[103.2,45.4],[103.9,45.4],[103.9,45.5],[106.5,45.5],[106.5,45.6],[107.5,45.6],[107.5,45.8],[107.6,45.8],[107.6,46.7],[107.5,46.7],[107.5,46.9],[107.4,46.9],[107.4,47.1],[107.3,47.1],[107.3,47.3],[107.2,47.3],[107.2,47.4],[107.1,47.4],[107.1,47.5],[107.0,47.5],[107.0,47.6],[106.9,47.6],[106.9,47.8],[106.8,47.8],[106.8,47.9],[106.7,47.9],[106.7,48.0],[106.6,48.0],[106.6,48.2],[106.4,48.2],[106.4,48.4],[106.3,48.4],[106.3,48.5],[106.2,48.5],[106.2,48.7],[106.1,48.7],[106.1,48.9],[106.0,48.9],[106.0,49.2],[105.9,49.2],[105.9,49.3],[105.8,49.3],[105.8,50.1],[105.7,50.1],[105.7,50.6],[105.6,50.6],[105.6,50.9],[105.5,50.9],[105.5,51.2],[105.4,51.2],[105.4,51.7],[105.1,51.7],[105.1,51.6],[104.7,51.6],[104.7,51.5],[104.4,51.5],[104.4,51.6],[104.3,51.6],[104.3,51.9],[103.7,51.9],[103.7,52.0],[103.5,52.0],[103.5,52.1],[103.1,52.1],[103.1,52.2],[102.3,52.2],[102.3,52.3]]]},"properties":{"tile_id":"60","start_year":1189,"end_year":1201,"source_image":"data/raw/toolbay/t/60/1189.png","source_url":"https://www.toolbay.cc/history-map/t/60/1189.png","source_color":"#999900","polity_id":null,"polity_assignment":"unverified","geometry_origin":"raster_color_trace","pixel_size_degrees":0.1,"source_color_pixels":5668,"simplification_degrees":0}},{"type":"Feature","id":"60:1189:#ff00ff","bbox":[90.0,45.0,98.4,51.6],"geometry":{"type":"Polygon","coordinates":[[[97.0,51.6],[95.3,51.6],[95.3,51.5],[95.0,51.5],[95.0,51.4],[94.7,51.4],[94.7,51.3],[94.6,51.3],[94.6,51.2],[94.4,51.2],[94.4,51.1],[94.3,51.1],[94.3,51.0],[94.1,51.0],[94.1,50.9],[94.0,50.9],[94.0,50.8],[93.9,50.8],[93.9,50.7],[93.7,50.7],[93.7,50.6],[93.4,50.6],[93.4,50.5],[93.1,50.5],[93.1,50.4],[92.8,50.4],[92.8,50.3],[92.5,50.3],[92.5,50.2],[92.2,50.2],[92.2,50.1],[92.0,50.1],[92.0,50.0],[91.8,50.0],[91.8,49.9],[91.6,49.9],[91.6,49.8],[91.5,49.8],[91.5,49.7],[91.3,49.7],[91.3,49.6],[91.2,49.6],[91.2,49.5],[91.0,49.5],[91.0,49.4],[90.8,49.4],[90.8,49.3],[90.7,49.3],[90.7,49.2],[90.5,49.2],[90.5,49.1],[90.3,49.1],[90.3,49.0],[90.2,49.0],[90.2,48.9],[90.0,48.9],[90.0,45.0],[98.3,45.0],[98.3,45.4],[98.4,45.4],[98.4,46.4],[98.3,46.4],[98.3,47.1],[98.2,47.1],[98.2,47.8],[98.3,47.8],[98.3,48.7],[98.4,48.7],[98.4,49.3],[98.3,49.3],[98.3,49.8],[98.2,49.8],[98.2,50.0],[98.1,50.0],[98.1,50.2],[98.0,50.2],[98.0,50.4],[97.9,50.4],[97.9,50.5],[97.8,50.5],[97.8,50.6],[97.7,50.6],[97.7,50.7],[97.6,50.7],[97.6,50.9],[97.5,50.9],[97.5,51.0],[97.4,51.0],[97.4,51.1],[97.3,51.1],[97.3,51.3],[97.2,51.3],[97.2,51.4],[97.1,51.4],[97.1,51.5],[97.0,51.5],[97.0,51.6]]]},"properties":{"tile_id":"60","start_year":1189,"end_year":1201,"source_image":"data/raw/toolbay/t/60/1189.png","source_url":"https://www.toolbay.cc/history-map/t/60/1189.png","source_color":"#ff00ff","polity_id":null,"polity_assignment":"unverified","geometry_origin":"raster_color_trace","pixel_size_degrees":0.1,"source_color_pixels":4664,"simplification_degrees":0}},{"type":"Feature","id":"60:1189:#ffff00","bbox":[122.3,45.0,135.0,49.6],"geometry":{"type":"Polygon","coordinates":[[[135.0,49.6],[134.9,49.6],[134.9,49.5],[133.8,49.5],[133.8,49.4],[133.6,49.4],[133.6,49.3],[133.3,49.3],[133.3,49.2],[133.1,49.2],[133.1,49.1],[132.8,49.1],[132.8,49.0],[132.7,49.0],[132.7,48.9],[132.5,48.9],[132.5,48.8],[132.3,48.8],[132.3,48.7],[132.1,48.7],[132.1,48.6],[131.8,48.6],[131.8,48.5],[131.7,48.5],[131.7,48.4],[131.3,48.4],[131.3,48.3],[131.1,48.3],[131.1,48.2],[130.9,48.2],[130.9,48.1],[130.7,48.1],[130.7,48.0],[130.5,48.0],[130.5,47.9],[130.2,47.9],[130.2,47.8],[130.0,47.8],[130.0,47.7],[129.7,47.7],[129.7,47.6],[129.4,47.6],[129.4,47.5],[129.3,47.5],[129.3,47.4],[129.1,47.4],[129.1,47.3],[128.8,47.3],[128.8,47.2],[128.6,47.2],[128.6,47.1],[128.3,47.1],[128.3,47.0],[128.0,47.0],[128.0,46.9],[127.4,46.9],[127.4,46.8],[127.0,46.8],[127.0,46.7],[126.7,46.7],[126.7,46.6],[126.5,46.6],[126.5,46.5],[126.3,46.5],[126.3,46.4],[126.1,46.4],[126.1,46.3],[125.8,46.3],[125.8,46.2],[125.6,46.2],[125.6,46.1],[125.4,46.1],[125.4,46.0],[125.2,46.0],[125.2,45.9],[124.9,45.9],[124.9,45.8],[124.5,45.8],[124.5,45.7],[124.1,45.7],[124.1,45.6],[123.8,45.6],[123.8,45.5],[123.5,45.5],[123.5,45.4],[123.1,45.4],[123.1,45.3],[122.9,45.3],[122.9,45.2],[122.5,45.2],[122.5,45.1],[122.3,45.1],[122.3,45.0],[135.0,45.0],[135.0,49.6]]]},"properties":{"tile_id":"60","start_year":1189,"end_year":1201,"source_image":"data/raw/toolbay/t/60/1189.png","source_url":"https://www.toolbay.cc/history-map/t/60/1189.png","source_color":"#ffff00","polity_id":null,"polity_assignment":"unverified","geometry_origin":"raster_color_trace","pixel_size_degrees":0.1,"source_color_pixels":2959,"simplification_degrees":0}}]}
