{"type":"FeatureCollection","features":[{"type":"Feature","id":"60:1201:#00ffff","bbox":[109.7,52.8,122.5,57.1],"geometry":{"type":"Polygon","coordinates":[[[121.2,57.1],[119.8,57.1],[119.8,57.0],[118.7,57.0],[118.7,56.9],[116.4,56.9],[116.4,56.8],[115.2,56.8],[115.2,56.7],[114.6,56.7],[114.6,56.6],[112.0,56.6],[112.0,56.5],[110.7,56.5],[110.7,56.4],[110.5,56.4],[110.5,56.3],[110.4,56.3],[110.4,56.2],[110.2,56.2],[110.2,56.1],[109.9,56.1],[109.9,56.0],[109.8,56.0],[109.8,55.5],[109.7,55.5],[109.7,55.4],[109.8,55.4],[109.8,55.0],[109.7,55.0],[109.7,54.8],[110.4,54.8],[110.4,54.7],[110.7,54.7],[110.7,54.6],[111.1,54.6],[111.1,54.5],[111.3,54.5],[111.3,54.4],[111.5,54.4],[111.5,54.3],[111.7,54.3],[111.7,54.2],[112.0,54.2],[112.0,54.1],[112.2,54.1],[112.2,54.0],[112.4,54.0],[112.4,53.9],[112.7,53.9],[112.7,53.8],[112.9,53.8],[112.9,53.7],[113.1,53.7],[113.1,53.6],[113.3,53.6],[113.3,53.5],[113.4,53.5],[113.4,53.4],[113.6,53.4],[113.6,53.3],[113.7,53.3],[113.7,53.2],[113.9,53.2],[113.9,53.1],[114.0,53.1],[114.0,53.0],[114.2,53.0],[114.2,52.9],[114.4,52.9],[114.4,52.8],[115.1,52.8],[115.1,52.9],[115.3,52.9],[115.3,53.0],[115.5,53.0],[115.5,53.1],[115.7,53.1],[115.7,53.2],[115.9,53.2],[115.9,53.3],[116.0,53.3],[116.0,53.4],[116.3,53.4],[116.3,53.5],[116.5,53.5],[116.5,53.6],[117.0,53.6],[117.0,53.7],[117.1,53.7],[117.1,53.8],[117.2,53.8],[117.2,53.9],[117.3,53.9],[117.3,54.1],[117.7,54.1],[117.7,54.2],[118.0,54.2],[118.0,54.3],[118.2,54.3],[118.2,54.4],[118.5,54.4],[118.5,54.5],[118.7,54.5],[118.7,54.6],[119.0,54.6],[119.0,54.7],[119.3,54.7],[119.3,54.8],[119.4,54.8],[119.4,54.9],[119.7,54.9],[119.7,55.0],[119.9,55.0],[119.9,55.1],[120.0,55.1],[120.0,55.2],[120.3,55.2],[120.3,55.4],[120.7,55.4],[120.7,55.5],[121.0,55.5],[121.0,55.6],[121.2,55.6],[121.2,55.7],[121.4,55.7],[121.4,55.8],[121.6,55.8],[121.6,55.9],[121.9,55.9],[121.9,56.0],[122.1,56.0],[122.1,56.1],[122.2,56.1],[122.2,56.5],[122.4,56.5],[122.4,56.6],[122.5,56.6],[122.5,57.0],[122.4,57.0],[122.4,57.1],[121.7,57.1],[121.7,57.0],[121.2,57.0],[121.2,57.1]]]},"properties":{"tile_id":"60","start_year":1201,"end_year":1204,"source_image":"data/raw/toolbay/t/60/1201.png","source_url":"https://www.toolbay.cc/history-map/t/60/1201.png","source_color":"#00ffff","polity_id":null,"polity_assignment":"unverified","geometry_origin":"raster_color_trace","pixel_size_degrees":0.1,"source_color_pixels":3160,"simplification_degrees":0}},{"type":"Feature","id":"60:1201:#999900","bbox":[92.5,45.0,119.1,54.8],"geometry":{"type":"Polygon","coordinates":[[[110.4,54.8],[109.6,54.8],[109.6,54.4],[109.5,54.4],[109.5,54.2],[109.4,54.2],[109.4,54.1],[109.3,54.1],[109.3,53.9],[109.2,53.9],[109.2,53.6],[109.1,53.6],[109.1,53.5],[109.0,53.5],[109.0,53.4],[108.8,53.4],[108.8,53.3],[108.6,53.3],[108.6,53.2],[108.4,53.2],[108.4,53.1],[108.3,53.1],[108.3,53.0],[108.2,53.0],[108.2,52.9],[107.9,52.9],[107.9,52.8],[107.8,52.8],[107.8,52.9],[107.6,52.9],[107.6,52.8],[107.2,52.8],[107.2,52.7],[107.1,52.7],[107.1,52.6],[107.0,52.6],[107.0,52.5],[106.9,52.5],[106.9,52.4],[106.8,52.4],[106.8,52.3],[106.7,52.3],[106.7,52.2],[106.4,52.2],[106.4,52.1],[106.2,52.1],[106.2,52.0],[105.9,52.0],[105.9,51.9],[105.7,51.9],[105.7,51.8],[105.6,51.8],[105.6,51.7],[105.1,51.7],[105.1,51.6],[104.7,51.6],[104.7,51.5],[104.4,51.5],[104.4,51.6],[104.3,51.6],[104.3,51.9],[103.7,51.9],[103.7,52.0],[103.5,52.0],[103.5,52.1],[103.1,52.1],[103.1,52.2],[102.3,52.2],[102.3,52.3],[99.8,52.3],[99.8,52.2],[99.1,52.2],[99.1,52.1],[99.0,52.1],[99.0,52.0],[98.4,52.0],[98.4,51.9],[97.9,51.9],[97.9,51.8],[97.7,51.8],[97.7,51.7],[97.3,51.7],[97.3,51.6],[97.1,51.6],[97.1,51.5],[97.0,51.5],[97.0,51.6],[95.3,51.6],[95.3,51.5],[95.0,51.5],[95.0,51.4],[94.7,51.4],[94.7,51.3],[94.6,51.3],[94.6,51.2],[94.4,51.2],[94.4,51.1],[94.3,51.1],[94.3,51.0],[94.1,51.0],[94.1,50.9],[94.0,50.9],[94.0,50.8],[93.9,50.8],[93.9,50.7],[93.7,50.7],[93.7,50.6],[93.4,50.6],[93.4,50.5],[93.1,50.5],[93.1,50.4],[92.8,50.4],[92.8,50.3],[92.5,50.3],[92.5,50.1],[92.6,50.1],[92.6,50.0],[92.7,50.0],[92.7,49.9],[92.8,49.9],[92.8,49.8],[92.9,49.8],[92.9,49.7],[93.0,49.7],[93.0,49.6],[93.1,49.6],[93.1,49.5],[93.2,49.5],[93.2,49.4],[93.3,49.4],[93.3,49.3],[93.4,49.3],[93.4,49.2],[93.5,49.2],[93.5,49.0],[93.6,49.0],[93.6,48.9],[93.7,48.9],[93.7,48.7],[93.8,48.7],[93.8,48.6],[93.9,48.6],[93.9,48.5],[94.0,48.5],[94.0,48.3],[94.1,48.3],[94.1,48.0],[94.3,48.0],[94.3,47.6],[94.4,47.6],[94.4,47.4],[94.5,47.4],[94.5,47.3],[94.6,47.3],[94.6,47.2],[94.7,47.2],[94.7,47.0],[94.8,47.0],[94.8,46.9],[95.0,46.9],[95.0,46.8],[95.1,46.8],[95.1,46.7],[95.2,46.7],[95.2,46.6],[95.4,46.6],[95.4,46.5],[95.7,46.5],[95.7,46.4],[95.9,46.4],[95.9,46.3],[96.2,46.3],[96.2,46.2],[96.5,46.2],[96.5,46.1],[96.7,46.1],[96.7,46.0],[97.0,46.0],[97.0,45.9],[97.2,45.9],[97.2,45.8],[97.4,45.8],[97.4,45.7],[97.6,45.7],[97.6,45.6],[97.8,45.6],[97.8,45.5],[98.0,45.5],[98.0,45.4],[98.1,45.4],[98.1,45.3],[98.2,45.3],[98.2,45.2],[98.3,45.2],[98.3,45.0],[102.2,45.0],[102.2,45.1],[102.3,45.1],[102.3,45.2],[102.8,45.2],[102.8,45.3],[103.2,45.3],[103.2,45.4],[103.9,45.4],[103.9,45.5],[106.5,45.5],[106.5,45.6],[107.6,45.6],[107.6,45.5],[112.9,45.5],[112.9,45.6],[114.2,45.6],[114.2,45.7],[115.2,45.7],[115.2,45.8],[115.5,45.8],[115.5,45.9],[115.8,45.9],[115.8,46.0],[116.3,46.0],[116.3,46.1],[116.6,46.1],[116.6,46.2],[117.0,46.2],[117.0,46.3],[117.2,46.3],[117.2,46.4],[117.6,46.4],[117.6,46.5],[117.9,46.5],[117.9,46.6],[118.0,46.6],[118.0,46.7],[118.1,46.7],[118.1,46.8],[118.2,46.8],[118.2,46.9],[118.3,46.9],[118.3,47.0],[118.4,47.0],[118.4,47.1],[118.5,47.1],[118.5,47.2],[118.6,47.2],[118.6,47.5],[118.7,47.5],[118.7,47.8],[118.8,47.8],[118.8,48.0],[118.9,48.0],[118.9,48.4],[119.0,48.4],[119.0,49.0],[119.1,49.0],[119.1,49.2],[118.9,49.2],[118.9,49.5],[118.8,49.5],[118.8,49.6],[118.7,49.6],[118.7,49.9],[118.6,49.9],[118.6,50.1],[118.5,50.1],[118.5,50.2],[118.4,50.2],[118.4,50.4],[118.3,50.4],[118.3,50.5],[118.2,50.5],[118.2,50.6],[118.1,50.6],[118.1,50.8],[118.0,50.8],[118.0,50.9],[117.9,50.9],[117.9,51.1],[117.8,51.1],[117.8,51.2],[117.7,51.2],[117.7,51.4],[117.6,51.4],[117.6,51.5],[117.5,51.5],[117.5,51.6],[117.4,51.6],[117.4,51.7],[117.3,51.7],[117.3,51.8],[117.1,51.8],[117.1,51.9],[116.8,51.9],[116.8,52.0],[116.7,52.0],[116.7,52.1],[116.5,52.1],[116.5,52.2],[116.4,52.2],[116.4,52.3],[116.2,52.3],[116.2,52.4],[116.0,52.4],[116.0,52.5],[115.8,52.5],[115.8,52.6],[115.5,52.6],[115.5,52.7],[115.4,52.7],[115.4,52.8],[114.4,52.8],[114.4,52.9],[114.2,52.9],[114.2,53.0],[114.0,53.0],[114.0,53.1],[113.9,53.1],[113.9,53.2],[113.7,53.2],[113.7,53.3],[113.6,53.3],[113.6,53.4],[113.4,53.4],[113.4,53.5],[113.3,53.5],[113.3,53.6],[113.1,53.6],[113.1,53.7],[112.9,53.7],[112.9,53.8],[112.7,53.8],[112.7,53.9],[112.4,53.9],[112.4,54.0],[112.2,54.0],[112.2,54.1],[112.0,54.1],[112.0,54.2],[111.7,54.2],[111.7,54.3],[111.5,54.3],[111.5,54.4],[111.3,54.4],[111.3,54.5],[111.1,54.5],[111.1,54.6],[110.7,54.6],[110.7,54.7],[110.4,54.7],[110.4,54.8]]]},"properties":{"tile_id":"60","start_year":1201,"end_year":1204,"source_image":"data/raw/toolbay/t/60/1201.png","source_url":"https://www.toolbay.cc/history-map/t/60/1201.png","source_color":"#999900","polity_id":null,"polity_assignment":"unverified","geometry_origin":"raster_color_trace","pixel_size_degrees":0.1,"source_color_pixels":16928,"simplification_degrees":0}},{"type":"Feature","id":"60:1201:#ff00ff","bbox":[90.0,45.0,98.3,50.2],"geometry":{"type":"Polygon","coordinates":[[[92.5,50.2],[92.2,50.2],[92.2,50.1],[92.0,50.1],[92.0,50.0],[91.8,50.0],[91.8,49.9],[91.6,49.9],[91.6,49.8],[91.5,49.8],[91.5,49.7],[91.3,49.7],[91.3,49.6],[91.2,49.6],[91.2,49.5],[91.0,49.5],[91.0,49.4],[90.8,49.4],[90.8,49.3],[90.7,49.3],[90.7,49.2],[90.5,49.2],[90.5,49.1],[90.3,49.1],[90.3,49.0],[90.2,49.0],[90.2,48.9],[90.0,48.9],[90.0,45.0],[98.3,45.0],[98.3,45.2],[98.2,45.2],[98.2,45.3],[98.1,45.3],[98.1,45.4],[98.0,45.4],[98.0,45.5],[97.8,45.5],[97.8,45.6],[97.6,45.6],[97.6,45.7],[97.4,45.7],[97.4,45.8],[97.2,45.8],[97.2,45.9],[97.0,45.9],[97.0,46.0],[96.7,46.0],[96.7,46.1],[96.5,46.1],[96.5,46.2],[96.2,46.2],[96.2,46.3],[95.9,46.3],[95.9,46.4],[95.7,46.4],[95.7,46.5],[95.4,46.5],[95.4,46.6],[95.2,46.6],[95.2,46.7],[95.1,46.7],[95.1,46.8],[95.0,46.8],[95.0,46.9],[94.8,46.9],[94.8,47.0],[94.7,47.0],[94.7,47.2],[94.6,47.2],[94.6,47.3],[94.5,47.3],[94.5,47.4],[94.4,47.4],[94.4,47.6],[94.3,47.6],[94.3,48.0],[94.1,48.0],[94.1,48.3],[94.0,48.3],[94.0,48.5],[93.9,48.5],[93.9,48.6],[93.8,48.6],[93.8,48.7],[93.7,48.7],[93.7,48.9],[93.6,48.9],[93.6,49.0],[93.5,49.0],[93.5,49.2],[93.4,49.2],[93.4,49.3],[93.3,49.3],[93.3,49.4],[93.2,49.4],[93.2,49.5],[93.1,49.5],[93.1,49.6],[93.0,49.6],[93.0,49.7],[92.9,49.7],[92.9,49.8],[92.8,49.8],[92.8,49.9],[92.7,49.9],[92.7,50.0],[92.6,50.0],[92.6,50.1],[92.5,50.1],[92.5,50.2]]]},"properties":{"tile_id":"60","start_year":1201,"end_year":1204,"source_image":"data/raw/toolbay/t/60/1201.png","source_url":"https://www.toolbay.cc/history-map/t/60/1201.png","source_color":"#ff00ff","polity_id":null,"polity_assignment":"unverified","geometry_origin":"raster_color_trace","pixel_size_degrees":0.1,"source_color_pixels":2393,"simplification_degrees":0}},{"type":"Feature","id":"60:1201:#ffff00","bbox":[122.3,45.0,135.0,49.6],"geometry":{"type":"Polygon","coordinates":[[[135.0,49.6],[134.9,49.6],[134.9,49.5],[133.8,49.5],[133.8,49.4],[133.6,49.4],[133.6,49.3],[133.3,49.3],[133.3,49.2],[133.1,49.2],[133.1,49.1],[132.8,49.1],[132.8,49.0],[132.7,49.0],[132.7,48.9],[132.5,48.9],[132.5,48.8],[132.3,48.8],[132.3,48.7],[132.1,48.7],[132.1,48.6],[131.8,48.6],[131.8,48.5],[131.7,48.5],[131.7,48.4],[131.3,48.4],[131.3,48.3],[131.1,48.3],[131.1,48.2],[130.9,48.2],[130.9,48.1],[130.7,48.1],[130.7,48.0],[130.5,48.0],[130.5,47.9],[130.2,47.9],[130.2,47.8],[130.0,47.8],[130.0,47.7],[129.7,47.7],[129.7,47.6],[129.4,47.6],[129.4,47.5],[129.3,47.5],[129.3,47.4],[129.1,47.4],[129.1,47.3],[128.8,47.3],[128.8,47.2],[128.6,47.2],[128.6,47.1],[128.3,47.1],[128.3,47.0],[128.0,47.0],[128.0,46.9],[127.4,46.9],[127.4,46.8],[127.0,46.8],[127.0,46.7],[126.7,46.7],[126.7,46.6],[126.5,46.6],[126.5,46.5],[126.3,46.5],[126.3,46.4],[126.1,46.4],[126.1,46.3],[125.8,46.3],[125.8,46.2],[125.6,46.2],[125.6,46.1],[125.4,46.1],[125.4,46.0],[125.2,46.0],[125.2,45.9],[124.9,45.9],[124.9,45.8],[124.5,45.8],[124.5,45.7],[124.1,45.7],[124.1,45.6],[123.8,45.6],[123.8,45.5],[123.5,45.5],[123.5,45.4],[123.1,45.4],[123.1,45.3],[122.9,45.3],[122.9,45.2],[122.5,45.2],[122.5,45.1],[122.3,45.1],[122.3,45.0],[135.0,45.0],[135.0,49.6]]]},"properties":{"tile_id":"60","start_year":1201,"end_year":1204,"source_image":"data/raw/toolbay/t/60/1201.png","source_url":"https://www.toolbay.cc/history-map/t/60/1201.png","source_color":"#ffff00","polity_id":null,"polity_assignment":"unverified","geometry_origin":"raster_color_trace","pixel_size_degrees":0.1,"source_color_pixels":2959,"simplification_degrees":0}}]}
