{"type":"FeatureCollection","features":[{"type":"Feature","id":"60:1233:#993300","bbox":[90.0,45.0,135.0,59.0],"geometry":{"type":"Polygon","coordinates":[[[108.8,59.0],[108.2,59.0],[108.2,58.9],[108.0,58.9],[108.0,58.8],[107.7,58.8],[107.7,58.7],[103.1,58.7],[103.1,58.6],[101.9,58.6],[101.9,58.5],[101.4,58.5],[101.4,58.4],[101.0,58.4],[101.0,58.3],[100.6,58.3],[100.6,58.2],[100.0,58.2],[100.0,58.1],[99.6,58.1],[99.6,58.0],[99.2,58.0],[99.2,57.9],[98.9,57.9],[98.9,57.8],[98.5,57.8],[98.5,57.7],[98.2,57.7],[98.2,57.6],[97.8,57.6],[97.8,57.5],[97.4,57.5],[97.4,57.4],[97.1,57.4],[97.1,57.3],[96.8,57.3],[96.8,57.2],[96.6,57.2],[96.6,57.1],[96.3,57.1],[96.3,57.0],[96.1,57.0],[96.1,56.9],[95.7,56.9],[95.7,56.8],[95.3,56.8],[95.3,56.7],[94.9,56.7],[94.9,56.6],[94.4,56.6],[94.4,56.5],[94.0,56.5],[94.0,56.4],[93.3,56.4],[93.3,56.3],[93.2,56.3],[93.2,56.2],[93.0,56.2],[93.0,56.1],[92.8,56.1],[92.8,56.0],[92.6,56.0],[92.6,55.9],[92.4,55.9],[92.4,55.8],[92.3,55.8],[92.3,55.7],[92.2,55.7],[92.2,55.6],[92.0,55.6],[92.0,55.5],[91.8,55.5],[91.8,55.4],[91.6,55.4],[91.6,55.3],[91.3,55.3],[91.3,55.2],[91.0,55.2],[91.0,55.1],[90.6,55.1],[90.6,55.0],[90.3,55.0],[90.3,54.9],[90.1,54.9],[90.1,54.8],[90.0,54.8],[90.0,45.0],[135.0,45.0],[135.0,53.6],[134.7,53.6],[134.7,53.5],[133.4,53.5],[133.4,53.4],[133.0,53.4],[133.0,53.3],[132.3,53.3],[132.3,53.2],[131.8,53.2],[131.8,53.1],[131.2,53.1],[131.2,53.0],[129.6,53.0],[129.6,52.9],[129.0,52.9],[129.0,53.0],[127.0,53.0],[127.0,53.1],[125.0,53.1],[125.0,53.2],[124.2,53.2],[124.2,53.3],[123.0,53.3],[123.0,53.4],[122.0,53.4],[122.0,53.5],[121.4,53.5],[121.4,53.6],[121.2,53.6],[121.2,53.7],[121.1,53.7],[121.1,53.8],[120.9,53.8],[120.9,53.9],[120.8,53.9],[120.8,54.0],[120.6,54.0],[120.6,54.1],[120.4,54.1],[120.4,54.2],[120.2,54.2],[120.2,54.3],[120.1,54.3],[120.1,54.4],[119.9,54.4],[119.9,54.5],[119.6,54.5],[119.6,54.6],[119.5,54.6],[119.5,54.7],[119.4,54.7],[119.4,54.8],[119.2,54.8],[119.2,54.9],[119.1,54.9],[119.1,55.0],[118.8,55.0],[118.8,55.1],[118.7,55.1],[118.7,55.2],[118.5,55.2],[118.5,55.3],[118.4,55.3],[118.4,55.4],[118.0,55.4],[118.0,55.5],[117.8,55.5],[117.8,55.6],[117.5,55.6],[117.5,55.7],[117.2,55.7],[117.2,55.8],[117.0,55.8],[117.0,55.9],[116.8,55.9],[116.8,56.0],[116.6,56.0],[116.6,56.1],[116.3,56.1],[116.3,56.2],[116.0,56.2],[116.0,56.3],[115.9,56.3],[115.9,56.4],[115.8,56.4],[115.8,56.5],[115.5,56.5],[115.5,56.6],[115.3,56.6],[115.3,56.7],[115.2,56.7],[115.2,56.8],[115.0,56.8],[115.0,56.9],[114.9,56.9],[114.9,57.0],[114.7,57.0],[114.7,57.1],[114.5,57.1],[114.5,57.2],[114.4,57.2],[114.4,57.3],[114.3,57.3],[114.3,57.4],[114.2,57.4],[114.2,57.5],[114.0,57.5],[114.0,57.6],[113.8,57.6],[113.8,57.7],[113.6,57.7],[113.6,57.8],[113.3,57.8],[113.3,57.9],[113.1,57.9],[113.1,58.0],[112.9,58.0],[112.9,58.1],[112.6,58.1],[112.6,58.2],[112.4,58.2],[112.4,58.3],[112.1,58.3],[112.1,58.4],[111.9,58.4],[111.9,58.5],[111.7,58.5],[111.7,58.6],[111.3,58.6],[111.3,58.7],[110.7,58.7],[110.7,58.8],[109.9,58.8],[109.9,58.9],[108.8,58.9],[108.8,59.0]],[[109.7,55.8],[109.7,55.9],[109.8,55.9],[109.8,55.5],[109.7,55.5],[109.7,55.4],[109.8,55.4],[109.8,55.0],[109.7,55.0],[109.7,54.8],[109.6,54.8],[109.6,54.4],[109.5,54.4],[109.5,54.2],[109.4,54.2],[109.4,54.1],[109.3,54.1],[109.3,53.9],[109.2,53.9],[109.2,53.6],[109.1,53.6],[109.1,53.5],[109.0,53.5],[109.0,53.4],[108.8,53.4],[108.8,53.3],[108.6,53.3],[108.6,53.2],[108.4,53.2],[108.4,53.1],[108.3,53.1],[108.3,53.0],[108.2,53.0],[108.2,52.9],[107.9,52.9],[107.9,52.8],[107.8,52.8],[107.8,52.9],[107.6,52.9],[107.6,52.8],[107.2,52.8],[107.2,52.7],[107.1,52.7],[107.1,52.6],[107.0,52.6],[107.0,52.5],[106.9,52.5],[106.9,52.4],[106.8,52.4],[106.8,52.3],[106.7,52.3],[106.7,52.2],[106.4,52.2],[106.4,52.1],[106.2,52.1],[106.2,52.0],[105.9,52.0],[105.9,51.9],[105.7,51.9],[105.7,51.8],[105.6,51.8],[105.6,51.7],[105.1,51.7],[105.1,51.6],[104.7,51.6],[104.7,51.5],[104.4,51.5],[104.4,51.6],[104.3,51.6],[104.3,51.7],[104.4,51.7],[104.4,51.8],[105.1,51.8],[105.1,51.9],[105.4,51.9],[105.4,52.0],[105.6,52.0],[105.6,52.1],[105.7,52.1],[105.7,52.2],[105.8,52.2],[105.8,52.3],[105.9,52.3],[105.9,52.4],[106.0,52.4],[106.0,52.5],[106.2,52.5],[106.2,52.6],[106.4,52.6],[106.4,52.7],[106.7,52.7],[106.7,52.8],[106.8,52.8],[106.8,52.9],[106.9,52.9],[106.9,53.1],[107.0,53.1],[107.0,53.2],[107.1,53.2],[107.1,53.3],[107.2,53.3],[107.2,53.4],[107.4,53.4],[107.4,53.5],[107.7,53.5],[107.7,53.6],[107.9,53.6],[107.9,53.7],[108.0,53.7],[108.0,53.8],[108.2,53.8],[108.2,53.9],[108.3,53.9],[108.3,54.1],[108.4,54.1],[108.4,54.2],[108.5,54.2],[108.5,54.3],[108.6,54.3],[108.6,54.5],[108.7,54.5],[108.7,54.6],[108.9,54.6],[108.9,54.8],[109.0,54.8],[109.0,54.9],[109.1,54.9],[109.1,55.1],[109.3,55.1],[109.3,55.5],[109.4,55.5],[109.4,55.6],[109.6,55.6],[109.6,55.8],[109.7,55.8]]]},"properties":{"tile_id":"60","start_year":1233,"end_year":1387,"source_image":"data/raw/toolbay/t/60/1233.png","source_url":"https://www.toolbay.cc/history-map/t/60/1233.png","source_color":"#993300","polity_id":null,"polity_assignment":"unverified","geometry_origin":"raster_color_trace","pixel_size_degrees":0.1,"source_color_pixels":49208,"simplification_degrees":0}}]}
