{"type":"FeatureCollection","features":[{"type":"Feature","id":"60:1387:#0000ff","bbox":[121.0,45.0,135.0,48.0],"geometry":{"type":"Polygon","coordinates":[[[135.0,48.0],[134.8,48.0],[134.8,47.9],[134.7,47.9],[134.7,47.8],[134.4,47.8],[134.4,47.7],[134.2,47.7],[134.2,47.6],[134.0,47.6],[134.0,47.5],[133.8,47.5],[133.8,47.4],[133.6,47.4],[133.6,47.3],[133.4,47.3],[133.4,47.2],[133.1,47.2],[133.1,47.1],[133.0,47.1],[133.0,47.0],[132.6,47.0],[132.6,46.9],[132.2,46.9],[132.2,46.8],[131.6,46.8],[131.6,46.7],[131.3,46.7],[131.3,46.6],[130.8,46.6],[130.8,46.5],[130.3,46.5],[130.3,46.4],[127.9,46.4],[127.9,46.3],[127.6,46.3],[127.6,46.2],[126.8,46.2],[126.8,46.1],[126.3,46.1],[126.3,46.0],[125.8,46.0],[125.8,45.9],[125.4,45.9],[125.4,45.8],[125.0,45.8],[125.0,45.7],[124.4,45.7],[124.4,45.6],[124.1,45.6],[124.1,45.5],[123.7,45.5],[123.7,45.4],[123.3,45.4],[123.3,45.3],[122.8,45.3],[122.8,45.2],[121.8,45.2],[121.8,45.1],[121.0,45.1],[121.0,45.0],[135.0,45.0],[135.0,48.0]]]},"properties":{"tile_id":"60","start_year":1387,"end_year":1466,"source_image":"data/raw/toolbay/t/60/1387.png","source_url":"https://www.toolbay.cc/history-map/t/60/1387.png","source_color":"#0000ff","polity_id":null,"polity_assignment":"unverified","geometry_origin":"raster_color_trace","pixel_size_degrees":0.1,"source_color_pixels":1763,"simplification_degrees":0}},{"type":"Feature","id":"60:1387:#993300","bbox":[90.0,45.0,121.9,53.4],"geometry":{"type":"Polygon","coordinates":[[[109.0,53.4],[108.8,53.4],[108.8,53.3],[108.6,53.3],[108.6,53.2],[108.4,53.2],[108.4,53.1],[108.3,53.1],[108.3,53.0],[108.2,53.0],[108.2,52.9],[107.9,52.9],[107.9,52.8],[107.8,52.8],[107.8,52.9],[107.6,52.9],[107.6,52.8],[107.2,52.8],[107.2,52.7],[107.1,52.7],[107.1,52.6],[107.0,52.6],[107.0,52.5],[106.9,52.5],[106.9,52.4],[106.8,52.4],[106.8,52.3],[106.7,52.3],[106.7,52.2],[106.4,52.2],[106.4,52.1],[106.2,52.1],[106.2,52.0],[105.9,52.0],[105.9,51.9],[105.7,51.9],[105.7,51.8],[105.6,51.8],[105.6,51.7],[105.1,51.7],[105.1,51.6],[104.7,51.6],[104.7,51.5],[104.4,51.5],[104.4,51.6],[104.3,51.6],[104.3,51.7],[104.0,51.7],[104.0,51.8],[103.7,51.8],[103.7,51.9],[103.4,51.9],[103.4,52.0],[103.0,52.0],[103.0,52.1],[102.7,52.1],[102.7,52.2],[102.3,52.2],[102.3,52.3],[99.7,52.3],[99.7,52.2],[97.5,52.2],[97.5,52.1],[97.0,52.1],[97.0,52.0],[95.4,52.0],[95.4,51.9],[95.0,51.9],[95.0,51.8],[94.6,51.8],[94.6,51.7],[94.1,51.7],[94.1,51.6],[93.6,51.6],[93.6,51.5],[93.1,51.5],[93.1,51.4],[92.6,51.4],[92.6,51.3],[92.2,51.3],[92.2,51.2],[92.0,51.2],[92.0,51.1],[91.7,51.1],[91.7,51.0],[91.4,51.0],[91.4,50.9],[91.1,50.9],[91.1,50.8],[90.6,50.8],[90.6,50.7],[90.3,50.7],[90.3,50.6],[90.1,50.6],[90.1,50.5],[90.0,50.5],[90.0,45.0],[121.0,45.0],[121.0,45.1],[121.5,45.1],[121.5,45.4],[121.6,45.4],[121.6,45.8],[121.7,45.8],[121.7,46.0],[121.8,46.0],[121.8,46.2],[121.9,46.2],[121.9,47.3],[121.8,47.3],[121.8,47.4],[121.7,47.4],[121.7,47.5],[121.6,47.5],[121.6,47.6],[121.4,47.6],[121.4,47.7],[121.3,47.7],[121.3,47.8],[121.2,47.8],[121.2,47.9],[121.0,47.9],[121.0,48.0],[120.9,48.0],[120.9,48.1],[120.7,48.1],[120.7,48.2],[120.4,48.2],[120.4,48.3],[120.2,48.3],[120.2,48.4],[119.8,48.4],[119.8,48.5],[119.7,48.5],[119.7,48.6],[119.5,48.6],[119.5,48.7],[119.4,48.7],[119.4,48.8],[119.1,48.8],[119.1,48.9],[119.0,48.9],[119.0,49.0],[118.8,49.0],[118.8,49.1],[118.7,49.1],[118.7,49.2],[118.5,49.2],[118.5,49.3],[118.2,49.3],[118.2,49.4],[118.1,49.4],[118.1,49.5],[117.9,49.5],[117.9,49.6],[117.6,49.6],[117.6,49.7],[117.5,49.7],[117.5,49.8],[117.2,49.8],[117.2,49.9],[116.9,49.9],[116.9,50.0],[116.8,50.0],[116.8,50.1],[116.6,50.1],[116.6,50.2],[116.3,50.2],[116.3,50.3],[116.1,50.3],[116.1,50.4],[115.9,50.4],[115.9,50.5],[115.7,50.5],[115.7,50.6],[115.5,50.6],[115.5,50.7],[115.3,50.7],[115.3,50.8],[115.0,50.8],[115.0,50.9],[114.8,50.9],[114.8,51.0],[114.6,51.0],[114.6,51.1],[114.3,51.1],[114.3,51.2],[114.0,51.2],[114.0,51.3],[113.9,51.3],[113.9,51.4],[113.8,51.4],[113.8,51.5],[113.6,51.5],[113.6,51.6],[113.3,51.6],[113.3,51.7],[113.2,51.7],[113.2,51.8],[113.0,51.8],[113.0,51.9],[112.7,51.9],[112.7,52.0],[112.4,52.0],[112.4,52.1],[112.1,52.1],[112.1,52.2],[111.9,52.2],[111.9,52.3],[111.7,52.3],[111.7,52.4],[111.5,52.4],[111.5,52.5],[111.4,52.5],[111.4,52.6],[111.2,52.6],[111.2,52.7],[110.9,52.7],[110.9,52.8],[110.6,52.8],[110.6,52.9],[110.3,52.9],[110.3,53.0],[110.0,53.0],[110.0,53.1],[109.5,53.1],[109.5,53.2],[109.2,53.2],[109.2,53.3],[109.0,53.3],[109.0,53.4]]]},"properties":{"tile_id":"60","start_year":1387,"end_year":1466,"source_image":"data/raw/toolbay/t/60/1387.png","source_url":"https://www.toolbay.cc/history-map/t/60/1387.png","source_color":"#993300","polity_id":null,"polity_assignment":"unverified","geometry_origin":"raster_color_trace","pixel_size_degrees":0.1,"source_color_pixels":20385,"simplification_degrees":0}}]}
