{"type":"FeatureCollection","features":[{"type":"Feature","id":"60:1466:#0000ff","bbox":[121.0,45.0,135.0,48.0],"geometry":{"type":"Polygon","coordinates":[[[135.0,48.0],[134.8,48.0],[134.8,47.9],[134.7,47.9],[134.7,47.8],[134.4,47.8],[134.4,47.7],[134.2,47.7],[134.2,47.6],[134.0,47.6],[134.0,47.5],[133.8,47.5],[133.8,47.4],[133.6,47.4],[133.6,47.3],[133.4,47.3],[133.4,47.2],[133.1,47.2],[133.1,47.1],[133.0,47.1],[133.0,47.0],[132.6,47.0],[132.6,46.9],[132.2,46.9],[132.2,46.8],[131.6,46.8],[131.6,46.7],[131.3,46.7],[131.3,46.6],[130.8,46.6],[130.8,46.5],[130.3,46.5],[130.3,46.4],[127.9,46.4],[127.9,46.3],[127.6,46.3],[127.6,46.2],[126.8,46.2],[126.8,46.1],[126.3,46.1],[126.3,46.0],[125.8,46.0],[125.8,45.9],[125.4,45.9],[125.4,45.8],[125.0,45.8],[125.0,45.7],[124.4,45.7],[124.4,45.6],[124.1,45.6],[124.1,45.5],[123.7,45.5],[123.7,45.4],[123.3,45.4],[123.3,45.3],[122.8,45.3],[122.8,45.2],[121.8,45.2],[121.8,45.1],[121.0,45.1],[121.0,45.0],[135.0,45.0],[135.0,48.0]]]},"properties":{"tile_id":"60","start_year":1466,"end_year":1487,"source_image":"data/raw/toolbay/t/60/1466.png","source_url":"https://www.toolbay.cc/history-map/t/60/1466.png","source_color":"#0000ff","polity_id":null,"polity_assignment":"unverified","geometry_origin":"raster_color_trace","pixel_size_degrees":0.1,"source_color_pixels":1763,"simplification_degrees":0}}]}
