{"type":"FeatureCollection","features":[{"type":"Feature","id":"60:1500:#993300","bbox":[90.0,45.0,125.8,55.1],"geometry":{"type":"Polygon","coordinates":[[[110.0,55.1],[109.8,55.1],[109.8,55.0],[109.7,55.0],[109.7,54.8],[109.6,54.8],[109.6,54.4],[109.5,54.4],[109.5,54.2],[109.4,54.2],[109.4,54.1],[109.3,54.1],[109.3,53.9],[109.2,53.9],[109.2,53.6],[109.1,53.6],[109.1,53.5],[109.0,53.5],[109.0,53.4],[108.8,53.4],[108.8,53.3],[108.6,53.3],[108.6,53.2],[108.4,53.2],[108.4,53.1],[108.3,53.1],[108.3,53.0],[108.2,53.0],[108.2,52.9],[107.9,52.9],[107.9,52.8],[107.8,52.8],[107.8,52.9],[107.6,52.9],[107.6,52.8],[107.2,52.8],[107.2,52.7],[107.1,52.7],[107.1,52.6],[107.0,52.6],[107.0,52.5],[106.9,52.5],[106.9,52.4],[106.8,52.4],[106.8,52.3],[106.7,52.3],[106.7,52.2],[106.4,52.2],[106.4,52.1],[106.2,52.1],[106.2,52.0],[105.9,52.0],[105.9,51.9],[105.7,51.9],[105.7,51.8],[105.6,51.8],[105.6,51.7],[105.1,51.7],[105.1,51.6],[104.7,51.6],[104.7,51.5],[104.4,51.5],[104.4,51.6],[104.3,51.6],[104.3,51.7],[104.0,51.7],[104.0,51.8],[103.7,51.8],[103.7,51.9],[103.4,51.9],[103.4,52.0],[103.0,52.0],[103.0,52.1],[102.7,52.1],[102.7,52.2],[102.3,52.2],[102.3,52.3],[99.7,52.3],[99.7,52.2],[97.5,52.2],[97.5,52.1],[97.0,52.1],[97.0,52.0],[95.4,52.0],[95.4,51.9],[95.0,51.9],[95.0,51.8],[94.6,51.8],[94.6,51.7],[94.1,51.7],[94.1,51.6],[93.6,51.6],[93.6,51.5],[93.1,51.5],[93.1,51.4],[92.6,51.4],[92.6,51.3],[92.2,51.3],[92.2,51.2],[92.0,51.2],[92.0,51.1],[91.7,51.1],[91.7,51.0],[91.4,51.0],[91.4,50.9],[91.1,50.9],[91.1,50.8],[90.6,50.8],[90.6,50.7],[90.3,50.7],[90.3,50.6],[90.1,50.6],[90.1,50.5],[90.0,50.5],[90.0,45.0],[125.6,45.0],[125.6,46.0],[125.7,46.0],[125.7,46.8],[125.8,46.8],[125.8,48.3],[125.7,48.3],[125.7,48.9],[125.6,48.9],[125.6,49.2],[125.5,49.2],[125.5,49.4],[125.4,49.4],[125.4,49.6],[125.3,49.6],[125.3,49.9],[125.2,49.9],[125.2,50.0],[125.1,50.0],[125.1,50.1],[125.0,50.1],[125.0,50.3],[124.9,50.3],[124.9,50.4],[124.8,50.4],[124.8,50.5],[124.7,50.5],[124.7,50.6],[124.6,50.6],[124.6,50.7],[124.5,50.7],[124.5,50.8],[124.4,50.8],[124.4,50.9],[124.3,50.9],[124.3,51.0],[124.2,51.0],[124.2,51.1],[124.1,51.1],[124.1,51.2],[124.0,51.2],[124.0,51.3],[123.8,51.3],[123.8,51.4],[123.7,51.4],[123.7,51.5],[123.6,51.5],[123.6,51.6],[123.5,51.6],[123.5,51.7],[123.3,51.7],[123.3,51.8],[123.2,51.8],[123.2,51.9],[123.0,51.9],[123.0,52.0],[122.8,52.0],[122.8,52.1],[122.6,52.1],[122.6,52.2],[122.4,52.2],[122.4,52.3],[122.3,52.3],[122.3,52.4],[122.1,52.4],[122.1,52.5],[121.9,52.5],[121.9,52.6],[121.8,52.6],[121.8,52.7],[121.7,52.7],[121.7,52.8],[121.5,52.8],[121.5,52.9],[121.4,52.9],[121.4,53.0],[121.1,53.0],[121.1,53.1],[120.9,53.1],[120.9,53.2],[120.7,53.2],[120.7,53.3],[120.6,53.3],[120.6,53.4],[120.4,53.4],[120.4,53.5],[119.9,53.5],[119.9,53.6],[119.4,53.6],[119.4,53.7],[119.0,53.7],[119.0,53.8],[118.3,53.8],[118.3,53.9],[117.4,53.9],[117.4,54.0],[116.2,54.0],[116.2,54.1],[115.6,54.1],[115.6,54.2],[114.6,54.2],[114.6,54.3],[114.3,54.3],[114.3,54.4],[113.8,54.4],[113.8,54.5],[112.9,54.5],[112.9,54.6],[112.5,54.6],[112.5,54.7],[112.1,54.7],[112.1,54.8],[111.9,54.8],[111.9,54.9],[111.3,54.9],[111.3,55.0],[110.0,55.0],[110.0,55.1]]]},"properties":{"tile_id":"60","start_year":1500,"end_year":1616,"source_image":"data/raw/toolbay/t/60/1500.png","source_url":"https://www.toolbay.cc/history-map/t/60/1500.png","source_color":"#993300","polity_id":null,"polity_assignment":"unverified","geometry_origin":"raster_color_trace","pixel_size_degrees":0.1,"source_color_pixels":27338,"simplification_degrees":0}}]}
