{"type":"FeatureCollection","features":[{"type":"Feature","id":"60:1616:#993300","bbox":[90.0,45.0,124.6,55.1],"geometry":{"type":"Polygon","coordinates":[[[110.0,55.1],[109.8,55.1],[109.8,55.0],[109.7,55.0],[109.7,54.8],[109.6,54.8],[109.6,54.4],[109.5,54.4],[109.5,54.2],[109.4,54.2],[109.4,54.1],[109.3,54.1],[109.3,53.9],[109.2,53.9],[109.2,53.6],[109.1,53.6],[109.1,53.5],[109.0,53.5],[109.0,53.4],[108.8,53.4],[108.8,53.3],[108.6,53.3],[108.6,53.2],[108.4,53.2],[108.4,53.1],[108.3,53.1],[108.3,53.0],[108.2,53.0],[108.2,52.9],[107.9,52.9],[107.9,52.8],[107.8,52.8],[107.8,52.9],[107.6,52.9],[107.6,52.8],[107.2,52.8],[107.2,52.7],[107.1,52.7],[107.1,52.6],[107.0,52.6],[107.0,52.5],[106.9,52.5],[106.9,52.4],[106.8,52.4],[106.8,52.3],[106.7,52.3],[106.7,52.2],[106.4,52.2],[106.4,52.1],[106.2,52.1],[106.2,52.0],[105.9,52.0],[105.9,51.9],[105.7,51.9],[105.7,51.8],[105.6,51.8],[105.6,51.7],[105.1,51.7],[105.1,51.6],[104.7,51.6],[104.7,51.5],[104.4,51.5],[104.4,51.6],[104.3,51.6],[104.3,51.7],[104.0,51.7],[104.0,51.8],[103.7,51.8],[103.7,51.9],[103.4,51.9],[103.4,52.0],[103.0,52.0],[103.0,52.1],[102.7,52.1],[102.7,52.2],[102.3,52.2],[102.3,52.3],[99.7,52.3],[99.7,52.2],[97.5,52.2],[97.5,52.1],[97.0,52.1],[97.0,52.0],[95.4,52.0],[95.4,51.9],[95.0,51.9],[95.0,51.8],[94.6,51.8],[94.6,51.7],[94.1,51.7],[94.1,51.6],[93.6,51.6],[93.6,51.5],[93.1,51.5],[93.1,51.4],[92.6,51.4],[92.6,51.3],[92.2,51.3],[92.2,51.2],[92.0,51.2],[92.0,51.1],[91.7,51.1],[91.7,51.0],[91.4,51.0],[91.4,50.9],[91.1,50.9],[91.1,50.8],[90.6,50.8],[90.6,50.7],[90.3,50.7],[90.3,50.6],[90.1,50.6],[90.1,50.5],[90.0,50.5],[90.0,45.0],[122.0,45.0],[122.0,45.1],[122.1,45.1],[122.1,45.3],[122.2,45.3],[122.2,45.5],[122.3,45.5],[122.3,45.7],[122.4,45.7],[122.4,45.9],[122.5,45.9],[122.5,46.1],[122.6,46.1],[122.6,46.3],[122.7,46.3],[122.7,46.7],[122.8,46.7],[122.8,46.8],[122.9,46.8],[122.9,47.1],[123.0,47.1],[123.0,47.3],[123.1,47.3],[123.1,47.5],[123.2,47.5],[123.2,47.9],[123.3,47.9],[123.3,48.0],[123.4,48.0],[123.4,48.3],[123.5,48.3],[123.5,48.8],[123.6,48.8],[123.6,49.5],[123.7,49.5],[123.7,49.7],[123.8,49.7],[123.8,49.9],[123.9,49.9],[123.9,50.0],[124.0,50.0],[124.0,50.2],[124.1,50.2],[124.1,50.3],[124.2,50.3],[124.2,50.4],[124.3,50.4],[124.3,50.5],[124.4,50.5],[124.4,50.6],[124.6,50.6],[124.6,50.7],[124.5,50.7],[124.5,50.8],[124.4,50.8],[124.4,50.9],[124.3,50.9],[124.3,51.0],[124.2,51.0],[124.2,51.1],[124.1,51.1],[124.1,51.2],[124.0,51.2],[124.0,51.3],[123.8,51.3],[123.8,51.4],[123.7,51.4],[123.7,51.5],[123.6,51.5],[123.6,51.6],[123.5,51.6],[123.5,51.7],[123.3,51.7],[123.3,51.8],[123.2,51.8],[123.2,51.9],[123.0,51.9],[123.0,52.0],[122.8,52.0],[122.8,52.1],[122.6,52.1],[122.6,52.2],[122.4,52.2],[122.4,52.3],[122.3,52.3],[122.3,52.4],[122.1,52.4],[122.1,52.5],[121.9,52.5],[121.9,52.6],[121.8,52.6],[121.8,52.7],[121.7,52.7],[121.7,52.8],[121.5,52.8],[121.5,52.9],[121.4,52.9],[121.4,53.0],[121.1,53.0],[121.1,53.1],[120.9,53.1],[120.9,53.2],[120.7,53.2],[120.7,53.3],[120.6,53.3],[120.6,53.4],[120.4,53.4],[120.4,53.5],[119.9,53.5],[119.9,53.6],[119.4,53.6],[119.4,53.7],[119.0,53.7],[119.0,53.8],[118.3,53.8],[118.3,53.9],[117.4,53.9],[117.4,54.0],[116.2,54.0],[116.2,54.1],[115.6,54.1],[115.6,54.2],[114.6,54.2],[114.6,54.3],[114.3,54.3],[114.3,54.4],[113.8,54.4],[113.8,54.5],[112.9,54.5],[112.9,54.6],[112.5,54.6],[112.5,54.7],[112.1,54.7],[112.1,54.8],[111.9,54.8],[111.9,54.9],[111.3,54.9],[111.3,55.0],[110.0,55.0],[110.0,55.1]]]},"properties":{"tile_id":"60","start_year":1616,"end_year":1634,"source_image":"data/raw/toolbay/t/60/1616.png","source_url":"https://www.toolbay.cc/history-map/t/60/1616.png","source_color":"#993300","polity_id":null,"polity_assignment":"unverified","geometry_origin":"raster_color_trace","pixel_size_degrees":0.1,"source_color_pixels":25994,"simplification_degrees":0}},{"type":"Feature","id":"60:1616:#ff9933","bbox":[122.0,45.0,134.4,50.6],"geometry":{"type":"Polygon","coordinates":[[[124.7,50.6],[124.4,50.6],[124.4,50.5],[124.3,50.5],[124.3,50.4],[124.2,50.4],[124.2,50.3],[124.1,50.3],[124.1,50.2],[124.0,50.2],[124.0,50.0],[123.9,50.0],[123.9,49.9],[123.8,49.9],[123.8,49.7],[123.7,49.7],[123.7,49.5],[123.6,49.5],[123.6,48.8],[123.5,48.8],[123.5,48.3],[123.4,48.3],[123.4,48.0],[123.3,48.0],[123.3,47.9],[123.2,47.9],[123.2,47.5],[123.1,47.5],[123.1,47.3],[123.0,47.3],[123.0,47.1],[122.9,47.1],[122.9,46.8],[122.8,46.8],[122.8,46.7],[122.7,46.7],[122.7,46.3],[122.6,46.3],[122.6,46.1],[122.5,46.1],[122.5,45.9],[122.4,45.9],[122.4,45.7],[122.3,45.7],[122.3,45.5],[122.2,45.5],[122.2,45.3],[122.1,45.3],[122.1,45.1],[122.0,45.1],[122.0,45.0],[133.9,45.0],[133.9,45.3],[134.0,45.3],[134.0,45.6],[134.1,45.6],[134.1,45.9],[134.2,45.9],[134.2,46.5],[134.3,46.5],[134.3,46.9],[134.4,46.9],[134.4,47.1],[134.3,47.1],[134.3,47.3],[134.2,47.3],[134.2,47.4],[134.1,47.4],[134.1,47.6],[134.0,47.6],[134.0,47.8],[133.9,47.8],[133.9,47.9],[133.8,47.9],[133.8,48.0],[133.7,48.0],[133.7,48.1],[133.6,48.1],[133.6,48.2],[133.5,48.2],[133.5,48.3],[133.4,48.3],[133.4,48.4],[133.2,48.4],[133.2,48.5],[133.0,48.5],[133.0,48.6],[132.7,48.6],[132.7,48.7],[132.5,48.7],[132.5,48.8],[132.3,48.8],[132.3,48.9],[132.1,48.9],[132.1,49.0],[131.8,49.0],[131.8,49.1],[131.5,49.1],[131.5,49.2],[131.2,49.2],[131.2,49.3],[131.0,49.3],[131.0,49.4],[130.7,49.4],[130.7,49.5],[130.5,49.5],[130.5,49.6],[130.0,49.6],[130.0,49.7],[129.4,49.7],[129.4,49.8],[129.0,49.8],[129.0,49.9],[128.5,49.9],[128.5,50.0],[127.9,50.0],[127.9,50.1],[127.4,50.1],[127.4,50.2],[127.0,50.2],[127.0,50.1],[126.7,50.1],[126.7,50.2],[126.3,50.2],[126.3,50.3],[126.0,50.3],[126.0,50.4],[125.7,50.4],[125.7,50.5],[125.3,50.5],[125.3,50.6],[124.8,50.6],[124.8,50.5],[124.7,50.5],[124.7,50.6]]]},"properties":{"tile_id":"60","start_year":1616,"end_year":1634,"source_image":"data/raw/toolbay/t/60/1616.png","source_url":"https://www.toolbay.cc/history-map/t/60/1616.png","source_color":"#ff9933","polity_id":null,"polity_assignment":"unverified","geometry_origin":"raster_color_trace","pixel_size_degrees":0.1,"source_color_pixels":5181,"simplification_degrees":0}}]}
