{"type":"FeatureCollection","features":[{"type":"Feature","id":"60:1634:#ff66ff","bbox":[90.0,53.1,94.7,65.0],"geometry":{"type":"Polygon","coordinates":[[[90.5,64.9],[90.5,65.0],[90.4,65.0],[90.0,65.0],[90.0,53.1],[90.5,53.1],[90.5,53.2],[90.8,53.2],[90.8,53.3],[92.2,53.3],[92.2,53.4],[92.5,53.4],[92.5,53.5],[92.6,53.5],[92.6,53.6],[92.7,53.6],[92.7,53.7],[92.8,53.7],[92.8,53.9],[92.9,53.9],[92.9,54.0],[93.0,54.0],[93.0,54.2],[93.1,54.2],[93.1,54.3],[93.2,54.3],[93.2,54.5],[93.3,54.5],[93.3,54.7],[93.4,54.7],[93.4,54.9],[93.5,54.9],[93.5,55.2],[93.6,55.2],[93.6,55.6],[93.7,55.6],[93.7,55.9],[93.8,55.9],[93.8,56.3],[93.9,56.3],[93.9,56.5],[94.0,56.5],[94.0,56.8],[94.1,56.8],[94.1,57.4],[94.2,57.4],[94.2,57.9],[94.3,57.9],[94.3,58.2],[94.4,58.2],[94.4,58.7],[94.5,58.7],[94.5,59.3],[94.6,59.3],[94.6,60.4],[94.7,60.4],[94.7,60.6],[94.6,60.6],[94.6,61.6],[94.5,61.6],[94.5,61.8],[94.4,61.8],[94.4,62.0],[94.3,62.0],[94.3,62.1],[94.2,62.1],[94.2,62.2],[94.1,62.2],[94.1,62.4],[94.0,62.4],[94.0,62.5],[93.9,62.5],[93.9,62.6],[93.8,62.6],[93.8,62.7],[93.7,62.7],[93.7,62.8],[93.6,62.8],[93.6,62.9],[93.5,62.9],[93.5,63.0],[93.4,63.0],[93.4,63.1],[93.2,63.1],[93.2,63.2],[93.1,63.2],[93.1,63.3],[93.0,63.3],[93.0,63.4],[92.9,63.4],[92.9,63.5],[92.7,63.5],[92.7,63.6],[92.5,63.6],[92.5,63.7],[92.3,63.7],[92.3,63.8],[92.1,63.8],[92.1,63.9],[92.0,63.9],[92.0,64.0],[91.8,64.0],[91.8,64.1],[91.7,64.1],[91.7,64.2],[91.6,64.2],[91.6,64.3],[91.5,64.3],[91.5,64.4],[91.3,64.4],[91.3,64.5],[91.1,64.5],[91.1,64.6],[90.9,64.6],[90.9,64.7],[90.7,64.7],[90.7,64.8],[90.6,64.8],[90.6,64.9],[90.5,64.9]]]},"properties":{"tile_id":"60","start_year":1634,"end_year":1640,"source_image":"data/raw/toolbay/t/60/1634.png","source_url":"https://www.toolbay.cc/history-map/t/60/1634.png","source_color":"#ff66ff","polity_id":null,"polity_assignment":"unverified","geometry_origin":"raster_color_trace","pixel_size_degrees":0.1,"source_color_pixels":4298,"simplification_degrees":0}},{"type":"Feature","id":"60:1634:#ff9933","bbox":[122.0,45.0,134.4,50.6],"geometry":{"type":"Polygon","coordinates":[[[124.7,50.6],[124.4,50.6],[124.4,50.5],[124.3,50.5],[124.3,50.4],[124.2,50.4],[124.2,50.3],[124.1,50.3],[124.1,50.2],[124.0,50.2],[124.0,50.0],[123.9,50.0],[123.9,49.9],[123.8,49.9],[123.8,49.7],[123.7,49.7],[123.7,49.5],[123.6,49.5],[123.6,48.8],[123.5,48.8],[123.5,48.3],[123.4,48.3],[123.4,48.0],[123.3,48.0],[123.3,47.9],[123.2,47.9],[123.2,47.5],[123.1,47.5],[123.1,47.3],[123.0,47.3],[123.0,47.1],[122.9,47.1],[122.9,46.8],[122.8,46.8],[122.8,46.7],[122.7,46.7],[122.7,46.3],[122.6,46.3],[122.6,46.1],[122.5,46.1],[122.5,45.9],[122.4,45.9],[122.4,45.7],[122.3,45.7],[122.3,45.5],[122.2,45.5],[122.2,45.3],[122.1,45.3],[122.1,45.1],[122.0,45.1],[122.0,45.0],[133.9,45.0],[133.9,45.3],[134.0,45.3],[134.0,45.6],[134.1,45.6],[134.1,45.9],[134.2,45.9],[134.2,46.5],[134.3,46.5],[134.3,46.9],[134.4,46.9],[134.4,47.1],[134.3,47.1],[134.3,47.3],[134.2,47.3],[134.2,47.4],[134.1,47.4],[134.1,47.6],[134.0,47.6],[134.0,47.8],[133.9,47.8],[133.9,47.9],[133.8,47.9],[133.8,48.0],[133.7,48.0],[133.7,48.1],[133.6,48.1],[133.6,48.2],[133.5,48.2],[133.5,48.3],[133.4,48.3],[133.4,48.4],[133.2,48.4],[133.2,48.5],[133.0,48.5],[133.0,48.6],[132.7,48.6],[132.7,48.7],[132.5,48.7],[132.5,48.8],[132.3,48.8],[132.3,48.9],[132.1,48.9],[132.1,49.0],[131.8,49.0],[131.8,49.1],[131.5,49.1],[131.5,49.2],[131.2,49.2],[131.2,49.3],[131.0,49.3],[131.0,49.4],[130.7,49.4],[130.7,49.5],[130.5,49.5],[130.5,49.6],[130.0,49.6],[130.0,49.7],[129.4,49.7],[129.4,49.8],[129.0,49.8],[129.0,49.9],[128.5,49.9],[128.5,50.0],[127.9,50.0],[127.9,50.1],[127.4,50.1],[127.4,50.2],[127.0,50.2],[127.0,50.1],[126.7,50.1],[126.7,50.2],[126.3,50.2],[126.3,50.3],[126.0,50.3],[126.0,50.4],[125.7,50.4],[125.7,50.5],[125.3,50.5],[125.3,50.6],[124.8,50.6],[124.8,50.5],[124.7,50.5],[124.7,50.6]]]},"properties":{"tile_id":"60","start_year":1634,"end_year":1640,"source_image":"data/raw/toolbay/t/60/1634.png","source_url":"https://www.toolbay.cc/history-map/t/60/1634.png","source_color":"#ff9933","polity_id":null,"polity_assignment":"unverified","geometry_origin":"raster_color_trace","pixel_size_degrees":0.1,"source_color_pixels":5181,"simplification_degrees":0}},{"type":"Feature","id":"60:1634:#ffff00","bbox":[100.7,45.0,123.5,48.7],"geometry":{"type":"Polygon","coordinates":[[[120.1,48.7],[114.1,48.7],[114.1,48.6],[113.7,48.6],[113.7,48.5],[113.3,48.5],[113.3,48.4],[113.1,48.4],[113.1,48.3],[112.6,48.3],[112.6,48.2],[112.3,48.2],[112.3,48.1],[112.0,48.1],[112.0,48.0],[111.7,48.0],[111.7,47.9],[111.2,47.9],[111.2,47.8],[111.0,47.8],[111.0,47.7],[110.5,47.7],[110.5,47.5],[109.8,47.5],[109.8,47.4],[109.6,47.4],[109.6,47.3],[109.0,47.3],[109.0,47.2],[108.8,47.2],[108.8,47.1],[108.2,47.1],[108.2,47.0],[107.8,47.0],[107.8,46.9],[105.8,46.9],[105.8,47.0],[105.4,47.0],[105.4,47.1],[104.7,47.1],[104.7,47.2],[104.2,47.2],[104.2,47.1],[102.7,47.1],[102.7,47.0],[102.4,47.0],[102.4,46.9],[102.2,46.9],[102.2,46.8],[102.0,46.8],[102.0,46.7],[101.9,46.7],[101.9,46.6],[101.7,46.6],[101.7,46.5],[101.6,46.5],[101.6,46.4],[101.5,46.4],[101.5,46.3],[101.4,46.3],[101.4,46.2],[101.3,46.2],[101.3,46.0],[101.2,46.0],[101.2,45.9],[101.1,45.9],[101.1,45.7],[100.9,45.7],[100.9,45.5],[100.7,45.5],[100.7,45.0],[122.0,45.0],[122.0,45.1],[122.1,45.1],[122.1,45.3],[122.2,45.3],[122.2,45.5],[122.3,45.5],[122.3,45.7],[122.4,45.7],[122.4,45.9],[122.5,45.9],[122.5,46.1],[122.6,46.1],[122.6,46.3],[122.7,46.3],[122.7,46.7],[122.8,46.7],[122.8,46.8],[122.9,46.8],[122.9,47.1],[123.0,47.1],[123.0,47.3],[123.1,47.3],[123.1,47.5],[123.2,47.5],[123.2,47.9],[123.3,47.9],[123.3,48.0],[123.4,48.0],[123.4,48.3],[123.5,48.3],[123.5,48.7],[123.4,48.7],[123.4,48.6],[121.6,48.6],[121.6,48.5],[120.7,48.5],[120.7,48.6],[120.1,48.6],[120.1,48.7]]]},"properties":{"tile_id":"60","start_year":1634,"end_year":1640,"source_image":"data/raw/toolbay/t/60/1634.png","source_url":"https://www.toolbay.cc/history-map/t/60/1634.png","source_color":"#ffff00","polity_id":null,"polity_assignment":"unverified","geometry_origin":"raster_color_trace","pixel_size_degrees":0.1,"source_color_pixels":6246,"simplification_degrees":0}}]}
