{"type":"FeatureCollection","features":[{"type":"Feature","id":"60:1645:#ff66ff","bbox":[90.0,53.1,115.7,65.0],"geometry":{"type":"Polygon","coordinates":[[[114.2,64.9],[114.2,65.0],[90.0,65.0],[90.0,53.1],[90.5,53.1],[90.5,53.2],[90.8,53.2],[90.8,53.3],[92.2,53.3],[92.2,53.4],[92.6,53.4],[92.6,53.5],[92.8,53.5],[92.8,53.6],[93.2,53.6],[93.2,53.7],[93.4,53.7],[93.4,53.8],[93.5,53.8],[93.5,53.9],[93.7,53.9],[93.7,54.0],[93.9,54.0],[93.9,54.1],[94.1,54.1],[94.1,54.2],[94.2,54.2],[94.2,54.3],[94.4,54.3],[94.4,54.4],[94.6,54.4],[94.6,54.5],[94.7,54.5],[94.7,54.6],[94.9,54.6],[94.9,54.7],[95.1,54.7],[95.1,54.8],[95.3,54.8],[95.3,54.9],[95.4,54.9],[95.4,55.0],[95.6,55.0],[95.6,55.1],[95.7,55.1],[95.7,55.2],[95.8,55.2],[95.8,55.3],[96.1,55.3],[96.1,55.5],[96.2,55.5],[96.2,55.6],[96.4,55.6],[96.4,55.7],[96.6,55.7],[96.6,55.8],[96.9,55.8],[96.9,55.9],[97.2,55.9],[97.2,56.0],[97.6,56.0],[97.6,56.1],[97.7,56.1],[97.7,56.2],[98.3,56.2],[98.3,56.3],[98.5,56.3],[98.5,56.4],[99.0,56.4],[99.0,56.5],[99.4,56.5],[99.4,56.6],[99.7,56.6],[99.7,56.7],[100.1,56.7],[100.1,56.8],[100.4,56.8],[100.4,56.9],[100.7,56.9],[100.7,57.0],[101.4,57.0],[101.4,57.1],[101.5,57.1],[101.5,57.2],[101.9,57.2],[101.9,57.3],[102.1,57.3],[102.1,57.4],[102.4,57.4],[102.4,57.5],[102.8,57.5],[102.8,57.6],[103.3,57.6],[103.3,57.7],[103.6,57.7],[103.6,57.8],[104.1,57.8],[104.1,57.9],[104.7,57.9],[104.7,58.0],[106.4,58.0],[106.4,58.1],[106.8,58.1],[106.8,58.0],[108.7,58.0],[108.7,57.9],[112.3,57.9],[112.3,58.0],[112.8,58.0],[112.8,58.1],[113.0,58.1],[113.0,58.2],[113.3,58.2],[113.3,58.3],[113.6,58.3],[113.6,58.4],[113.8,58.4],[113.8,58.6],[114.0,58.6],[114.0,58.7],[114.2,58.7],[114.2,58.9],[114.3,58.9],[114.3,59.0],[114.5,59.0],[114.5,59.1],[114.6,59.1],[114.6,59.2],[114.7,59.2],[114.7,59.3],[114.8,59.3],[114.8,59.4],[114.9,59.4],[114.9,59.6],[115.1,59.6],[115.1,59.9],[115.2,59.9],[115.2,60.1],[115.3,60.1],[115.3,60.4],[115.4,60.4],[115.4,60.7],[115.5,60.7],[115.5,60.9],[115.6,60.9],[115.6,61.2],[115.7,61.2],[115.7,61.9],[115.6,61.9],[115.6,62.2],[115.5,62.2],[115.5,62.6],[115.4,62.6],[115.4,62.9],[115.3,62.9],[115.3,63.1],[115.2,63.1],[115.2,63.2],[115.1,63.2],[115.1,63.6],[115.0,63.6],[115.0,63.8],[114.9,63.8],[114.9,64.0],[114.8,64.0],[114.8,64.2],[114.7,64.2],[114.7,64.3],[114.6,64.3],[114.6,64.5],[114.5,64.5],[114.5,64.6],[114.4,64.6],[114.4,64.8],[114.3,64.8],[114.3,64.9],[114.2,64.9]],[[108.2,62.9],[108.2,63.0],[108.4,63.0],[108.4,62.9],[108.5,62.9],[108.5,62.6],[108.2,62.6],[108.2,62.7],[108.1,62.7],[108.1,62.9],[108.2,62.9]]]},"properties":{"tile_id":"60","start_year":1645,"end_year":1670,"source_image":"data/raw/toolbay/t/60/1645.png","source_url":"https://www.toolbay.cc/history-map/t/60/1645.png","source_color":"#ff66ff","polity_id":null,"polity_assignment":"unverified","geometry_origin":"raster_color_trace","pixel_size_degrees":0.1,"source_color_pixels":42572,"simplification_degrees":0}},{"type":"Feature","id":"60:1645:#ff9933","bbox":[122.0,45.0,134.4,50.6],"geometry":{"type":"Polygon","coordinates":[[[124.7,50.6],[124.4,50.6],[124.4,50.5],[124.3,50.5],[124.3,50.4],[124.2,50.4],[124.2,50.3],[124.1,50.3],[124.1,50.2],[124.0,50.2],[124.0,50.0],[123.9,50.0],[123.9,49.9],[123.8,49.9],[123.8,49.7],[123.7,49.7],[123.7,49.5],[123.6,49.5],[123.6,48.8],[123.5,48.8],[123.5,48.3],[123.4,48.3],[123.4,48.0],[123.3,48.0],[123.3,47.9],[123.2,47.9],[123.2,47.5],[123.1,47.5],[123.1,47.3],[123.0,47.3],[123.0,47.1],[122.9,47.1],[122.9,46.8],[122.8,46.8],[122.8,46.7],[122.7,46.7],[122.7,46.3],[122.6,46.3],[122.6,46.1],[122.5,46.1],[122.5,45.9],[122.4,45.9],[122.4,45.7],[122.3,45.7],[122.3,45.5],[122.2,45.5],[122.2,45.3],[122.1,45.3],[122.1,45.1],[122.0,45.1],[122.0,45.0],[133.9,45.0],[133.9,45.3],[134.0,45.3],[134.0,45.6],[134.1,45.6],[134.1,45.9],[134.2,45.9],[134.2,46.5],[134.3,46.5],[134.3,46.9],[134.4,46.9],[134.4,47.1],[134.3,47.1],[134.3,47.3],[134.2,47.3],[134.2,47.4],[134.1,47.4],[134.1,47.6],[134.0,47.6],[134.0,47.8],[133.9,47.8],[133.9,47.9],[133.8,47.9],[133.8,48.0],[133.7,48.0],[133.7,48.1],[133.6,48.1],[133.6,48.2],[133.5,48.2],[133.5,48.3],[133.4,48.3],[133.4,48.4],[133.2,48.4],[133.2,48.5],[133.0,48.5],[133.0,48.6],[132.7,48.6],[132.7,48.7],[132.5,48.7],[132.5,48.8],[132.3,48.8],[132.3,48.9],[132.1,48.9],[132.1,49.0],[131.8,49.0],[131.8,49.1],[131.5,49.1],[131.5,49.2],[131.2,49.2],[131.2,49.3],[131.0,49.3],[131.0,49.4],[130.7,49.4],[130.7,49.5],[130.5,49.5],[130.5,49.6],[130.0,49.6],[130.0,49.7],[129.4,49.7],[129.4,49.8],[129.0,49.8],[129.0,49.9],[128.5,49.9],[128.5,50.0],[127.9,50.0],[127.9,50.1],[127.4,50.1],[127.4,50.2],[127.0,50.2],[127.0,50.1],[126.7,50.1],[126.7,50.2],[126.3,50.2],[126.3,50.3],[126.0,50.3],[126.0,50.4],[125.7,50.4],[125.7,50.5],[125.3,50.5],[125.3,50.6],[124.8,50.6],[124.8,50.5],[124.7,50.5],[124.7,50.6]]]},"properties":{"tile_id":"60","start_year":1645,"end_year":1670,"source_image":"data/raw/toolbay/t/60/1645.png","source_url":"https://www.toolbay.cc/history-map/t/60/1645.png","source_color":"#ff9933","polity_id":null,"polity_assignment":"unverified","geometry_origin":"raster_color_trace","pixel_size_degrees":0.1,"source_color_pixels":5181,"simplification_degrees":0}},{"type":"Feature","id":"60:1645:#ffff00","bbox":[98.6,45.0,123.5,48.7],"geometry":{"type":"Polygon","coordinates":[[[120.1,48.7],[114.1,48.7],[114.1,48.6],[113.7,48.6],[113.7,48.5],[113.3,48.5],[113.3,48.4],[113.1,48.4],[113.1,48.3],[112.6,48.3],[112.6,48.2],[112.3,48.2],[112.3,48.1],[112.0,48.1],[112.0,48.0],[111.7,48.0],[111.7,47.9],[111.2,47.9],[111.2,47.8],[111.0,47.8],[111.0,47.7],[110.5,47.7],[110.5,47.5],[109.8,47.5],[109.8,47.4],[109.6,47.4],[109.6,47.3],[109.0,47.3],[109.0,47.2],[108.8,47.2],[108.8,47.1],[108.2,47.1],[108.2,47.0],[107.8,47.0],[107.8,46.9],[105.8,46.9],[105.8,47.0],[105.4,47.0],[105.4,47.1],[104.7,47.1],[104.7,47.2],[104.2,47.2],[104.2,47.1],[102.7,47.1],[102.7,47.0],[102.4,47.0],[102.4,46.9],[101.4,46.9],[101.4,46.8],[100.8,46.8],[100.8,46.7],[100.6,46.7],[100.6,46.6],[100.3,46.6],[100.3,46.5],[99.8,46.5],[99.8,46.4],[99.6,46.4],[99.6,46.3],[99.5,46.3],[99.5,46.2],[99.3,46.2],[99.3,46.1],[99.2,46.1],[99.2,46.0],[99.1,46.0],[99.1,45.9],[99.0,45.9],[99.0,45.8],[98.9,45.8],[98.9,45.7],[98.8,45.7],[98.8,45.5],[98.7,45.5],[98.7,45.3],[98.6,45.3],[98.6,45.1],[98.7,45.1],[98.7,45.0],[122.0,45.0],[122.0,45.1],[122.1,45.1],[122.1,45.3],[122.2,45.3],[122.2,45.5],[122.3,45.5],[122.3,45.7],[122.4,45.7],[122.4,45.9],[122.5,45.9],[122.5,46.1],[122.6,46.1],[122.6,46.3],[122.7,46.3],[122.7,46.7],[122.8,46.7],[122.8,46.8],[122.9,46.8],[122.9,47.1],[123.0,47.1],[123.0,47.3],[123.1,47.3],[123.1,47.5],[123.2,47.5],[123.2,47.9],[123.3,47.9],[123.3,48.0],[123.4,48.0],[123.4,48.3],[123.5,48.3],[123.5,48.7],[123.4,48.7],[123.4,48.6],[121.6,48.6],[121.6,48.5],[120.7,48.5],[120.7,48.6],[120.1,48.6],[120.1,48.7]]]},"properties":{"tile_id":"60","start_year":1645,"end_year":1670,"source_image":"data/raw/toolbay/t/60/1645.png","source_url":"https://www.toolbay.cc/history-map/t/60/1645.png","source_color":"#ffff00","polity_id":null,"polity_assignment":"unverified","geometry_origin":"raster_color_trace","pixel_size_degrees":0.1,"source_color_pixels":6598,"simplification_degrees":0}}]}
