{"type":"FeatureCollection","features":[{"type":"Feature","id":"60:1670:#ff66ff","bbox":[90.0,51.7,132.4,65.0],"geometry":{"type":"Polygon","coordinates":[[[131.8,64.8],[131.8,65.0],[90.0,65.0],[90.0,53.1],[90.5,53.1],[90.5,53.2],[90.8,53.2],[90.8,53.3],[92.4,53.3],[92.4,53.2],[93.0,53.2],[93.0,53.3],[93.6,53.3],[93.6,53.2],[93.8,53.2],[93.8,53.1],[94.1,53.1],[94.1,53.0],[94.3,53.0],[94.3,52.9],[94.6,52.9],[94.6,52.8],[94.8,52.8],[94.8,52.7],[95.3,52.7],[95.3,52.6],[95.8,52.6],[95.8,52.5],[96.6,52.5],[96.6,52.4],[96.9,52.4],[96.9,52.3],[97.5,52.3],[97.5,52.2],[99.7,52.2],[99.7,52.3],[102.3,52.3],[102.3,52.2],[102.7,52.2],[102.7,52.1],[103.0,52.1],[103.0,52.0],[103.4,52.0],[103.4,51.9],[103.7,51.9],[103.7,51.8],[104.0,51.8],[104.0,51.7],[104.4,51.7],[104.4,51.8],[105.1,51.8],[105.1,51.9],[105.4,51.9],[105.4,52.0],[105.6,52.0],[105.6,52.1],[105.7,52.1],[105.7,52.2],[105.8,52.2],[105.8,52.3],[105.9,52.3],[105.9,52.4],[106.0,52.4],[106.0,52.5],[106.2,52.5],[106.2,52.6],[106.4,52.6],[106.4,52.7],[106.7,52.7],[106.7,52.8],[106.8,52.8],[106.8,52.9],[106.9,52.9],[106.9,53.1],[107.0,53.1],[107.0,53.2],[107.1,53.2],[107.1,53.3],[107.2,53.3],[107.2,53.4],[107.4,53.4],[107.4,53.5],[107.7,53.5],[107.7,53.6],[107.9,53.6],[107.9,53.7],[108.0,53.7],[108.0,53.8],[108.2,53.8],[108.2,53.9],[108.3,53.9],[108.3,54.1],[108.4,54.1],[108.4,54.2],[108.5,54.2],[108.5,54.3],[108.6,54.3],[108.6,54.5],[108.7,54.5],[108.7,54.6],[108.9,54.6],[108.9,54.8],[109.0,54.8],[109.0,54.9],[109.1,54.9],[109.1,55.1],[109.3,55.1],[109.3,55.5],[109.4,55.5],[109.4,55.6],[109.6,55.6],[109.6,55.8],[109.7,55.8],[109.7,55.9],[110.0,55.9],[110.0,56.0],[110.1,56.0],[110.1,56.1],[110.3,56.1],[110.3,56.2],[110.5,56.2],[110.5,56.3],[110.7,56.3],[110.7,56.4],[110.9,56.4],[110.9,56.5],[111.1,56.5],[111.1,56.6],[111.4,56.6],[111.4,56.7],[111.7,56.7],[111.7,56.8],[112.0,56.8],[112.0,56.9],[112.4,56.9],[112.4,57.0],[112.8,57.0],[112.8,57.1],[113.3,57.1],[113.3,57.2],[113.6,57.2],[113.6,57.3],[114.0,57.3],[114.0,57.4],[114.4,57.4],[114.4,57.5],[114.6,57.5],[114.6,57.6],[117.3,57.6],[117.3,57.7],[119.1,57.7],[119.1,57.8],[120.5,57.8],[120.5,57.9],[121.4,57.9],[121.4,58.0],[122.2,58.0],[122.2,58.1],[123.1,58.1],[123.1,58.2],[123.8,58.2],[123.8,58.3],[124.6,58.3],[124.6,58.4],[125.2,58.4],[125.2,58.5],[125.8,58.5],[125.8,58.6],[126.0,58.6],[126.0,58.7],[126.3,58.7],[126.3,58.8],[126.9,58.8],[126.9,58.9],[127.1,58.9],[127.1,59.0],[127.6,59.0],[127.6,59.1],[128.1,59.1],[128.1,59.2],[128.6,59.2],[128.6,59.3],[128.9,59.3],[128.9,59.4],[129.1,59.4],[129.1,59.5],[129.3,59.5],[129.3,59.6],[129.6,59.6],[129.6,59.7],[129.9,59.7],[129.9,59.8],[130.2,59.8],[130.2,59.9],[130.4,59.9],[130.4,60.0],[130.6,60.0],[130.6,60.1],[130.8,60.1],[130.8,60.2],[131.0,60.2],[131.0,60.3],[131.2,60.3],[131.2,60.4],[131.4,60.4],[131.4,60.5],[131.5,60.5],[131.5,60.6],[131.6,60.6],[131.6,60.7],[131.7,60.7],[131.7,60.8],[131.8,60.8],[131.8,60.9],[131.9,60.9],[131.9,61.0],[132.0,61.0],[132.0,61.2],[132.1,61.2],[132.1,61.4],[132.2,61.4],[132.2,61.7],[132.3,61.7],[132.3,61.9],[132.4,61.9],[132.4,63.8],[132.3,63.8],[132.3,64.0],[132.2,64.0],[132.2,64.4],[132.1,64.4],[132.1,64.6],[132.0,64.6],[132.0,64.7],[131.9,64.7],[131.9,64.8],[131.8,64.8]],[[129.5,63.3],[129.5,63.5],[129.7,63.5],[129.7,63.3],[129.5,63.3]],[[108.2,62.9],[108.2,63.0],[108.4,63.0],[108.4,62.9],[108.5,62.9],[108.5,62.6],[108.2,62.6],[108.2,62.7],[108.1,62.7],[108.1,62.9],[108.2,62.9]]]},"properties":{"tile_id":"60","start_year":1670,"end_year":1697,"source_image":"data/raw/toolbay/t/60/1670.png","source_url":"https://www.toolbay.cc/history-map/t/60/1670.png","source_color":"#ff66ff","polity_id":null,"polity_assignment":"unverified","geometry_origin":"raster_color_trace","pixel_size_degrees":0.1,"source_color_pixels":74155,"simplification_degrees":0}},{"type":"Feature","id":"60:1670:#ff9933","bbox":[122.0,45.0,134.4,50.6],"geometry":{"type":"Polygon","coordinates":[[[124.7,50.6],[124.4,50.6],[124.4,50.5],[124.3,50.5],[124.3,50.4],[124.2,50.4],[124.2,50.3],[124.1,50.3],[124.1,50.2],[124.0,50.2],[124.0,50.0],[123.9,50.0],[123.9,49.9],[123.8,49.9],[123.8,49.7],[123.7,49.7],[123.7,49.5],[123.6,49.5],[123.6,48.8],[123.5,48.8],[123.5,48.3],[123.4,48.3],[123.4,48.0],[123.3,48.0],[123.3,47.9],[123.2,47.9],[123.2,47.5],[123.1,47.5],[123.1,47.3],[123.0,47.3],[123.0,47.1],[122.9,47.1],[122.9,46.8],[122.8,46.8],[122.8,46.7],[122.7,46.7],[122.7,46.3],[122.6,46.3],[122.6,46.1],[122.5,46.1],[122.5,45.9],[122.4,45.9],[122.4,45.7],[122.3,45.7],[122.3,45.5],[122.2,45.5],[122.2,45.3],[122.1,45.3],[122.1,45.1],[122.0,45.1],[122.0,45.0],[133.9,45.0],[133.9,45.3],[134.0,45.3],[134.0,45.6],[134.1,45.6],[134.1,45.9],[134.2,45.9],[134.2,46.5],[134.3,46.5],[134.3,46.9],[134.4,46.9],[134.4,47.1],[134.3,47.1],[134.3,47.3],[134.2,47.3],[134.2,47.4],[134.1,47.4],[134.1,47.6],[134.0,47.6],[134.0,47.8],[133.9,47.8],[133.9,47.9],[133.8,47.9],[133.8,48.0],[133.7,48.0],[133.7,48.1],[133.6,48.1],[133.6,48.2],[133.5,48.2],[133.5,48.3],[133.4,48.3],[133.4,48.4],[133.2,48.4],[133.2,48.5],[133.0,48.5],[133.0,48.6],[132.7,48.6],[132.7,48.7],[132.5,48.7],[132.5,48.8],[132.3,48.8],[132.3,48.9],[132.1,48.9],[132.1,49.0],[131.8,49.0],[131.8,49.1],[131.5,49.1],[131.5,49.2],[131.2,49.2],[131.2,49.3],[131.0,49.3],[131.0,49.4],[130.7,49.4],[130.7,49.5],[130.5,49.5],[130.5,49.6],[130.0,49.6],[130.0,49.7],[129.4,49.7],[129.4,49.8],[129.0,49.8],[129.0,49.9],[128.5,49.9],[128.5,50.0],[127.9,50.0],[127.9,50.1],[127.4,50.1],[127.4,50.2],[127.0,50.2],[127.0,50.1],[126.7,50.1],[126.7,50.2],[126.3,50.2],[126.3,50.3],[126.0,50.3],[126.0,50.4],[125.7,50.4],[125.7,50.5],[125.3,50.5],[125.3,50.6],[124.8,50.6],[124.8,50.5],[124.7,50.5],[124.7,50.6]]]},"properties":{"tile_id":"60","start_year":1670,"end_year":1697,"source_image":"data/raw/toolbay/t/60/1670.png","source_url":"https://www.toolbay.cc/history-map/t/60/1670.png","source_color":"#ff9933","polity_id":null,"polity_assignment":"unverified","geometry_origin":"raster_color_trace","pixel_size_degrees":0.1,"source_color_pixels":5181,"simplification_degrees":0}},{"type":"Feature","id":"60:1670:#ffff00","bbox":[98.6,45.0,123.5,48.7],"geometry":{"type":"Polygon","coordinates":[[[120.1,48.7],[114.1,48.7],[114.1,48.6],[113.7,48.6],[113.7,48.5],[113.3,48.5],[113.3,48.4],[113.1,48.4],[113.1,48.3],[112.6,48.3],[112.6,48.2],[112.3,48.2],[112.3,48.1],[112.0,48.1],[112.0,48.0],[111.7,48.0],[111.7,47.9],[111.2,47.9],[111.2,47.8],[111.0,47.8],[111.0,47.7],[110.5,47.7],[110.5,47.5],[109.8,47.5],[109.8,47.4],[109.6,47.4],[109.6,47.3],[109.0,47.3],[109.0,47.2],[108.8,47.2],[108.8,47.1],[108.2,47.1],[108.2,47.0],[107.8,47.0],[107.8,46.9],[105.8,46.9],[105.8,47.0],[105.4,47.0],[105.4,47.1],[104.7,47.1],[104.7,47.2],[104.2,47.2],[104.2,47.1],[102.7,47.1],[102.7,47.0],[102.4,47.0],[102.4,46.9],[101.4,46.9],[101.4,46.8],[100.8,46.8],[100.8,46.7],[100.6,46.7],[100.6,46.6],[100.3,46.6],[100.3,46.5],[99.8,46.5],[99.8,46.4],[99.6,46.4],[99.6,46.3],[99.5,46.3],[99.5,46.2],[99.3,46.2],[99.3,46.1],[99.2,46.1],[99.2,46.0],[99.1,46.0],[99.1,45.9],[99.0,45.9],[99.0,45.8],[98.9,45.8],[98.9,45.7],[98.8,45.7],[98.8,45.5],[98.7,45.5],[98.7,45.3],[98.6,45.3],[98.6,45.1],[98.7,45.1],[98.7,45.0],[122.0,45.0],[122.0,45.1],[122.1,45.1],[122.1,45.3],[122.2,45.3],[122.2,45.5],[122.3,45.5],[122.3,45.7],[122.4,45.7],[122.4,45.9],[122.5,45.9],[122.5,46.1],[122.6,46.1],[122.6,46.3],[122.7,46.3],[122.7,46.7],[122.8,46.7],[122.8,46.8],[122.9,46.8],[122.9,47.1],[123.0,47.1],[123.0,47.3],[123.1,47.3],[123.1,47.5],[123.2,47.5],[123.2,47.9],[123.3,47.9],[123.3,48.0],[123.4,48.0],[123.4,48.3],[123.5,48.3],[123.5,48.7],[123.4,48.7],[123.4,48.6],[121.6,48.6],[121.6,48.5],[120.7,48.5],[120.7,48.6],[120.1,48.6],[120.1,48.7]]]},"properties":{"tile_id":"60","start_year":1670,"end_year":1697,"source_image":"data/raw/toolbay/t/60/1670.png","source_url":"https://www.toolbay.cc/history-map/t/60/1670.png","source_color":"#ffff00","polity_id":null,"polity_assignment":"unverified","geometry_origin":"raster_color_trace","pixel_size_degrees":0.1,"source_color_pixels":6598,"simplification_degrees":0}}]}
