{"type":"FeatureCollection","features":[{"type":"Feature","id":"60:1905:#ff66ff","bbox":[90.0,45.0,135.0,65.0],"geometry":{"type":"MultiPolygon","coordinates":[[[[133.5,45.0],[135.0,45.0],[135.0,47.0],[134.8,47.0],[134.8,46.8],[134.7,46.8],[134.7,46.5],[134.6,46.5],[134.6,46.3],[134.5,46.3],[134.5,46.2],[134.4,46.2],[134.4,46.1],[134.3,46.1],[134.3,45.9],[134.2,45.9],[134.2,45.8],[134.1,45.8],[134.1,45.7],[134.0,45.7],[134.0,45.5],[133.9,45.5],[133.9,45.4],[133.8,45.4],[133.8,45.3],[133.7,45.3],[133.7,45.2],[133.6,45.2],[133.6,45.1],[133.5,45.1],[133.5,45.0]]],[[[107.8,53.3],[107.9,53.3],[107.9,53.4],[107.4,53.4],[107.4,53.3],[107.3,53.3],[107.3,53.2],[107.2,53.2],[107.2,53.1],[107.1,53.1],[107.1,53.0],[107.4,53.0],[107.4,53.1],[107.6,53.1],[107.6,53.2],[107.8,53.2],[107.8,53.3]]],[[[109.0,53.9],[108.9,53.9],[108.9,54.0],[108.8,54.0],[108.8,53.9],[108.7,53.9],[108.7,53.8],[108.6,53.8],[108.6,53.6],[108.8,53.6],[108.8,53.7],[109.0,53.7],[109.0,53.9]]],[[[134.9,49.4],[134.9,49.5],[135.0,49.5],[135.0,65.0],[90.0,65.0],[90.0,51.7],[90.9,51.7],[90.9,51.8],[91.0,51.8],[91.0,52.3],[90.9,52.3],[90.9,52.5],[91.1,52.5],[91.1,52.6],[91.3,52.6],[91.3,52.7],[91.6,52.7],[91.6,52.8],[91.8,52.8],[91.8,52.9],[92.1,52.9],[92.1,53.0],[92.4,53.0],[92.4,53.1],[92.7,53.1],[92.7,53.2],[93.0,53.2],[93.0,53.3],[93.4,53.3],[93.4,53.4],[93.8,53.4],[93.8,53.5],[94.0,53.5],[94.0,53.6],[94.3,53.6],[94.3,53.7],[94.7,53.7],[94.7,53.8],[95.0,53.8],[95.0,53.9],[95.3,53.9],[95.3,54.0],[96.2,54.0],[96.2,54.1],[96.6,54.1],[96.6,54.0],[97.4,54.0],[97.4,53.9],[97.5,53.9],[97.5,53.7],[97.6,53.7],[97.6,53.6],[97.7,53.6],[97.7,53.4],[97.8,53.4],[97.8,53.3],[97.9,53.3],[97.9,53.2],[98.1,53.2],[98.1,53.1],[98.2,53.1],[98.2,53.0],[98.3,53.0],[98.3,52.8],[98.5,52.8],[98.5,52.5],[98.6,52.5],[98.6,52.3],[98.7,52.3],[98.7,52.1],[98.8,52.1],[98.8,52.0],[98.9,52.0],[98.9,51.9],[99.0,51.9],[99.0,51.8],[99.1,51.8],[99.1,51.7],[99.2,51.7],[99.2,51.6],[99.4,51.6],[99.4,51.5],[99.6,51.5],[99.6,51.4],[99.7,51.4],[99.7,51.3],[99.9,51.3],[99.9,51.2],[100.1,51.2],[100.1,51.1],[100.3,51.1],[100.3,51.0],[100.4,51.0],[100.4,50.9],[100.7,50.9],[100.7,50.8],[101.0,50.8],[101.0,50.7],[101.3,50.7],[101.3,50.6],[101.5,50.6],[101.5,50.5],[101.6,50.5],[101.6,50.4],[102.0,50.4],[102.0,50.3],[102.1,50.3],[102.1,50.2],[102.4,50.2],[102.4,50.1],[102.5,50.1],[102.5,50.0],[102.7,50.0],[102.7,49.9],[102.9,49.9],[102.9,49.8],[103.4,49.8],[103.4,49.7],[103.7,49.7],[103.7,49.6],[104.1,49.6],[104.1,49.5],[104.6,49.5],[104.6,49.4],[105.1,49.4],[105.1,49.5],[105.7,49.5],[105.7,49.4],[107.0,49.4],[107.0,49.5],[107.7,49.5],[107.7,49.6],[108.0,49.6],[108.0,49.7],[108.3,49.7],[108.3,49.8],[108.4,49.8],[108.4,49.9],[108.6,49.9],[108.6,50.0],[108.8,50.0],[108.8,50.1],[109.1,50.1],[109.1,50.2],[109.9,50.2],[109.9,50.3],[114.3,50.3],[114.3,50.4],[115.2,50.4],[115.2,50.5],[115.8,50.5],[115.8,50.6],[116.2,50.6],[116.2,50.7],[116.6,50.7],[116.6,50.8],[117.0,50.8],[117.0,50.9],[117.2,50.9],[117.2,51.0],[117.6,51.0],[117.6,51.1],[117.8,51.1],[117.8,51.2],[118.2,51.2],[118.2,51.3],[118.4,51.3],[118.4,51.4],[118.5,51.4],[118.5,51.5],[118.7,51.5],[118.7,51.6],[118.9,51.6],[118.9,51.7],[119.2,51.7],[119.2,51.8],[119.3,51.8],[119.3,51.9],[119.4,51.9],[119.4,52.0],[119.5,52.0],[119.5,52.1],[119.7,52.1],[119.7,52.2],[119.8,52.2],[119.8,52.3],[120.0,52.3],[120.0,52.4],[120.1,52.4],[120.1,52.5],[120.2,52.5],[120.2,52.6],[120.4,52.6],[120.4,52.7],[120.5,52.7],[120.5,52.8],[120.7,52.8],[120.7,52.9],[120.8,52.9],[120.8,53.0],[120.9,53.0],[120.9,53.1],[121.0,53.1],[121.0,53.2],[121.1,53.2],[121.1,53.3],[121.2,53.3],[121.2,53.4],[121.3,53.4],[121.3,53.5],[121.4,53.5],[121.4,53.6],[121.5,53.6],[121.5,53.7],[121.7,53.7],[121.7,53.8],[121.8,53.8],[121.8,53.9],[121.9,53.9],[121.9,54.0],[122.1,54.0],[122.1,54.1],[122.3,54.1],[122.3,54.2],[122.5,54.2],[122.5,54.3],[122.7,54.3],[122.7,54.4],[123.0,54.4],[123.0,54.5],[123.4,54.5],[123.4,54.6],[124.0,54.6],[124.0,54.7],[125.2,54.7],[125.2,54.8],[126.3,54.8],[126.3,54.7],[126.8,54.7],[126.8,54.6],[127.2,54.6],[127.2,54.5],[127.4,54.5],[127.4,54.4],[127.6,54.4],[127.6,54.3],[127.8,54.3],[127.8,54.2],[128.0,54.2],[128.0,54.1],[128.1,54.1],[128.1,54.0],[128.2,54.0],[128.2,53.9],[128.3,53.9],[128.3,53.8],[128.5,53.8],[128.5,53.7],[128.6,53.7],[128.6,53.6],[128.7,53.6],[128.7,53.5],[128.9,53.5],[128.9,53.4],[129.1,53.4],[129.1,53.3],[129.2,53.3],[129.2,53.2],[129.3,53.2],[129.3,53.1],[129.4,53.1],[129.4,53.0],[129.6,53.0],[129.6,52.9],[129.7,52.9],[129.7,52.7],[129.9,52.7],[129.9,52.6],[130.0,52.6],[130.0,52.5],[130.1,52.5],[130.1,52.4],[130.3,52.4],[130.3,52.3],[130.4,52.3],[130.4,52.2],[130.5,52.2],[130.5,52.1],[130.6,52.1],[130.6,52.0],[130.7,52.0],[130.7,51.9],[130.8,51.9],[130.8,51.8],[130.9,51.8],[130.9,51.7],[131.0,51.7],[131.0,51.6],[131.1,51.6],[131.1,51.5],[131.3,51.5],[131.3,51.4],[131.4,51.4],[131.4,51.3],[131.5,51.3],[131.5,51.1],[131.6,51.1],[131.6,51.0],[131.7,51.0],[131.7,50.9],[131.8,50.9],[131.8,50.8],[131.9,50.8],[131.9,50.7],[132.0,50.7],[132.0,50.6],[132.1,50.6],[132.1,50.5],[132.3,50.5],[132.3,50.4],[132.4,50.4],[132.4,50.3],[132.5,50.3],[132.5,50.2],[132.6,50.2],[132.6,50.1],[132.8,50.1],[132.8,50.0],[133.1,50.0],[133.1,49.9],[133.3,49.9],[133.3,49.8],[133.4,49.8],[133.4,49.7],[133.6,49.7],[133.6,49.6],[133.8,49.6],[133.8,49.5],[134.0,49.5],[134.0,49.4],[134.2,49.4],[134.2,49.3],[134.4,49.3],[134.4,49.2],[134.7,49.2],[134.7,49.3],[134.8,49.3],[134.8,49.4],[134.9,49.4]],[[129.7,63.5],[129.7,63.3],[129.5,63.3],[129.5,63.5],[129.7,63.5]],[[108.1,62.7],[108.1,62.9],[108.2,62.9],[108.2,63.0],[108.4,63.0],[108.4,62.9],[108.5,62.9],[108.5,62.6],[108.2,62.6],[108.2,62.7],[108.1,62.7]],[[109.6,55.6],[109.6,55.8],[109.7,55.8],[109.7,55.9],[109.8,55.9],[109.8,55.5],[109.7,55.5],[109.7,55.4],[109.8,55.4],[109.8,55.0],[109.7,55.0],[109.7,54.8],[109.6,54.8],[109.6,54.4],[109.5,54.4],[109.5,54.2],[109.4,54.2],[109.4,54.1],[109.3,54.1],[109.3,53.9],[109.2,53.9],[109.2,53.6],[109.1,53.6],[109.1,53.5],[109.0,53.5],[109.0,53.4],[108.8,53.4],[108.8,53.3],[108.6,53.3],[108.6,53.2],[108.4,53.2],[108.4,53.1],[108.3,53.1],[108.3,53.0],[108.2,53.0],[108.2,52.9],[107.9,52.9],[107.9,52.8],[107.8,52.8],[107.8,52.9],[107.6,52.9],[107.6,52.8],[107.2,52.8],[107.2,52.7],[107.1,52.7],[107.1,52.6],[107.0,52.6],[107.0,52.5],[106.9,52.5],[106.9,52.4],[106.8,52.4],[106.8,52.3],[106.7,52.3],[106.7,52.2],[106.4,52.2],[106.4,52.1],[106.2,52.1],[106.2,52.0],[105.9,52.0],[105.9,51.9],[105.7,51.9],[105.7,51.8],[105.6,51.8],[105.6,51.7],[105.1,51.7],[105.1,51.6],[104.7,51.6],[104.7,51.5],[104.4,51.5],[104.4,51.6],[104.3,51.6],[104.3,51.7],[104.4,51.7],[104.4,51.8],[105.1,51.8],[105.1,51.9],[105.4,51.9],[105.4,52.0],[105.6,52.0],[105.6,52.1],[105.7,52.1],[105.7,52.2],[105.8,52.2],[105.8,52.3],[105.9,52.3],[105.9,52.4],[106.0,52.4],[106.0,52.5],[106.2,52.5],[106.2,52.6],[106.4,52.6],[106.4,52.7],[106.7,52.7],[106.7,52.8],[106.8,52.8],[106.8,52.9],[106.9,52.9],[106.9,53.1],[107.0,53.1],[107.0,53.2],[107.1,53.2],[107.1,53.3],[107.2,53.3],[107.2,53.4],[107.4,53.4],[107.4,53.5],[107.7,53.5],[107.7,53.6],[107.9,53.6],[107.9,53.7],[108.0,53.7],[108.0,53.8],[108.2,53.8],[108.2,53.9],[108.3,53.9],[108.3,54.1],[108.4,54.1],[108.4,54.2],[108.5,54.2],[108.5,54.3],[108.6,54.3],[108.6,54.5],[108.7,54.5],[108.7,54.6],[108.9,54.6],[108.9,54.8],[109.0,54.8],[109.0,54.9],[109.1,54.9],[109.1,55.1],[109.3,55.1],[109.3,55.5],[109.4,55.5],[109.4,55.6],[109.6,55.6]]]]},"properties":{"tile_id":"60","start_year":1905,"end_year":1911,"source_image":"data/raw/toolbay/t/60/1905.png","source_url":"https://www.toolbay.cc/history-map/t/60/1905.png","source_color":"#ff66ff","polity_id":null,"polity_assignment":"unverified","geometry_origin":"raster_color_trace","pixel_size_degrees":0.1,"source_color_pixels":105261,"simplification_degrees":0}},{"type":"Feature","id":"60:1905:#ff9933","bbox":[117.0,45.0,135.0,54.8],"geometry":{"type":"Polygon","coordinates":[[[126.3,54.8],[125.2,54.8],[125.2,54.7],[124.0,54.7],[124.0,54.6],[123.4,54.6],[123.4,54.5],[123.0,54.5],[123.0,54.4],[122.7,54.4],[122.7,54.3],[122.5,54.3],[122.5,54.2],[122.3,54.2],[122.3,54.1],[122.1,54.1],[122.1,54.0],[121.9,54.0],[121.9,53.9],[121.8,53.9],[121.8,53.8],[121.7,53.8],[121.7,53.7],[121.5,53.7],[121.5,53.6],[121.4,53.6],[121.4,53.5],[121.3,53.5],[121.3,53.4],[121.2,53.4],[121.2,53.3],[121.1,53.3],[121.1,53.2],[121.0,53.2],[121.0,53.1],[120.9,53.1],[120.9,53.0],[120.8,53.0],[120.8,52.9],[120.7,52.9],[120.7,52.8],[120.5,52.8],[120.5,52.7],[120.4,52.7],[120.4,52.6],[120.2,52.6],[120.2,52.5],[120.1,52.5],[120.1,52.4],[120.0,52.4],[120.0,52.3],[119.8,52.3],[119.8,52.2],[119.7,52.2],[119.7,52.1],[119.5,52.1],[119.5,52.0],[119.4,52.0],[119.4,51.9],[119.3,51.9],[119.3,51.8],[119.2,51.8],[119.2,51.7],[118.9,51.7],[118.9,51.6],[118.7,51.6],[118.7,51.5],[118.5,51.5],[118.5,51.4],[118.4,51.4],[118.4,51.3],[118.2,51.3],[118.2,51.2],[117.8,51.2],[117.8,51.1],[117.6,51.1],[117.6,51.0],[117.2,51.0],[117.2,50.9],[117.0,50.9],[117.0,50.8],[117.1,50.8],[117.1,50.5],[117.2,50.5],[117.2,50.4],[117.4,50.4],[117.4,50.3],[117.5,50.3],[117.5,50.2],[117.6,50.2],[117.6,50.1],[117.7,50.1],[117.7,50.0],[117.9,50.0],[117.9,49.9],[118.1,49.9],[118.1,49.8],[118.8,49.8],[118.8,49.7],[119.7,49.7],[119.7,49.6],[120.2,49.6],[120.2,49.5],[120.7,49.5],[120.7,49.4],[121.0,49.4],[121.0,49.3],[121.4,49.3],[121.4,49.2],[121.7,49.2],[121.7,49.1],[122.0,49.1],[122.0,49.0],[122.2,49.0],[122.2,48.9],[122.3,48.9],[122.3,48.8],[122.5,48.8],[122.5,48.7],[122.7,48.7],[122.7,48.6],[122.9,48.6],[122.9,48.5],[123.0,48.5],[123.0,48.4],[123.1,48.4],[123.1,48.3],[123.2,48.3],[123.2,47.5],[123.1,47.5],[123.1,47.3],[123.0,47.3],[123.0,47.1],[122.9,47.1],[122.9,46.8],[122.8,46.8],[122.8,46.7],[122.7,46.7],[122.7,46.3],[122.6,46.3],[122.6,46.1],[122.5,46.1],[122.5,45.9],[122.4,45.9],[122.4,45.7],[122.3,45.7],[122.3,45.5],[122.2,45.5],[122.2,45.3],[122.1,45.3],[122.1,45.1],[122.0,45.1],[122.0,45.0],[133.5,45.0],[133.5,45.1],[133.6,45.1],[133.6,45.2],[133.7,45.2],[133.7,45.3],[133.8,45.3],[133.8,45.4],[133.9,45.4],[133.9,45.5],[134.0,45.5],[134.0,45.7],[134.1,45.7],[134.1,45.8],[134.2,45.8],[134.2,45.9],[134.3,45.9],[134.3,46.1],[134.4,46.1],[134.4,46.2],[134.5,46.2],[134.5,46.3],[134.6,46.3],[134.6,46.5],[134.7,46.5],[134.7,46.8],[134.8,46.8],[134.8,47.0],[135.0,47.0],[135.0,49.5],[134.9,49.5],[134.9,49.4],[134.8,49.4],[134.8,49.3],[134.7,49.3],[134.7,49.2],[134.4,49.2],[134.4,49.3],[134.2,49.3],[134.2,49.4],[134.0,49.4],[134.0,49.5],[133.8,49.5],[133.8,49.6],[133.6,49.6],[133.6,49.7],[133.4,49.7],[133.4,49.8],[133.3,49.8],[133.3,49.9],[133.1,49.9],[133.1,50.0],[132.8,50.0],[132.8,50.1],[132.6,50.1],[132.6,50.2],[132.5,50.2],[132.5,50.3],[132.4,50.3],[132.4,50.4],[132.3,50.4],[132.3,50.5],[132.1,50.5],[132.1,50.6],[132.0,50.6],[132.0,50.7],[131.9,50.7],[131.9,50.8],[131.8,50.8],[131.8,50.9],[131.7,50.9],[131.7,51.0],[131.6,51.0],[131.6,51.1],[131.5,51.1],[131.5,51.3],[131.4,51.3],[131.4,51.4],[131.3,51.4],[131.3,51.5],[131.1,51.5],[131.1,51.6],[131.0,51.6],[131.0,51.7],[130.9,51.7],[130.9,51.8],[130.8,51.8],[130.8,51.9],[130.7,51.9],[130.7,52.0],[130.6,52.0],[130.6,52.1],[130.5,52.1],[130.5,52.2],[130.4,52.2],[130.4,52.3],[130.3,52.3],[130.3,52.4],[130.1,52.4],[130.1,52.5],[130.0,52.5],[130.0,52.6],[129.9,52.6],[129.9,52.7],[129.7,52.7],[129.7,52.9],[129.6,52.9],[129.6,53.0],[129.4,53.0],[129.4,53.1],[129.3,53.1],[129.3,53.2],[129.2,53.2],[129.2,53.3],[129.1,53.3],[129.1,53.4],[128.9,53.4],[128.9,53.5],[128.7,53.5],[128.7,53.6],[128.6,53.6],[128.6,53.7],[128.5,53.7],[128.5,53.8],[128.3,53.8],[128.3,53.9],[128.2,53.9],[128.2,54.0],[128.1,54.0],[128.1,54.1],[128.0,54.1],[128.0,54.2],[127.8,54.2],[127.8,54.3],[127.6,54.3],[127.6,54.4],[127.4,54.4],[127.4,54.5],[127.2,54.5],[127.2,54.6],[126.8,54.6],[126.8,54.7],[126.3,54.7],[126.3,54.8]]]},"properties":{"tile_id":"60","start_year":1905,"end_year":1911,"source_image":"data/raw/toolbay/t/60/1905.png","source_url":"https://www.toolbay.cc/history-map/t/60/1905.png","source_color":"#ff9933","polity_id":null,"polity_assignment":"unverified","geometry_origin":"raster_color_trace","pixel_size_degrees":0.1,"source_color_pixels":10976,"simplification_degrees":0}},{"type":"Feature","id":"60:1905:#ffff00","bbox":[90.0,45.0,123.2,54.1],"geometry":{"type":"Polygon","coordinates":[[[96.6,54.1],[96.2,54.1],[96.2,54.0],[95.3,54.0],[95.3,53.9],[95.0,53.9],[95.0,53.8],[94.7,53.8],[94.7,53.7],[94.3,53.7],[94.3,53.6],[94.0,53.6],[94.0,53.5],[93.8,53.5],[93.8,53.4],[93.4,53.4],[93.4,53.3],[93.0,53.3],[93.0,53.2],[92.7,53.2],[92.7,53.1],[92.4,53.1],[92.4,53.0],[92.1,53.0],[92.1,52.9],[91.8,52.9],[91.8,52.8],[91.6,52.8],[91.6,52.7],[91.3,52.7],[91.3,52.6],[91.1,52.6],[91.1,52.5],[90.9,52.5],[90.9,52.3],[91.0,52.3],[91.0,51.8],[90.9,51.8],[90.9,51.7],[90.0,51.7],[90.0,45.0],[122.0,45.0],[122.0,45.1],[122.1,45.1],[122.1,45.3],[122.2,45.3],[122.2,45.5],[122.3,45.5],[122.3,45.7],[122.4,45.7],[122.4,45.9],[122.5,45.9],[122.5,46.1],[122.6,46.1],[122.6,46.3],[122.7,46.3],[122.7,46.7],[122.8,46.7],[122.8,46.8],[122.9,46.8],[122.9,47.1],[123.0,47.1],[123.0,47.3],[123.1,47.3],[123.1,47.5],[123.2,47.5],[123.2,48.3],[123.1,48.3],[123.1,48.4],[123.0,48.4],[123.0,48.5],[122.9,48.5],[122.9,48.6],[122.7,48.6],[122.7,48.7],[122.5,48.7],[122.5,48.8],[122.3,48.8],[122.3,48.9],[122.2,48.9],[122.2,49.0],[122.0,49.0],[122.0,49.1],[121.7,49.1],[121.7,49.2],[121.4,49.2],[121.4,49.3],[121.0,49.3],[121.0,49.4],[120.7,49.4],[120.7,49.5],[120.2,49.5],[120.2,49.6],[119.7,49.6],[119.7,49.7],[118.8,49.7],[118.8,49.8],[118.1,49.8],[118.1,49.9],[117.9,49.9],[117.9,50.0],[117.7,50.0],[117.7,50.1],[117.6,50.1],[117.6,50.2],[117.5,50.2],[117.5,50.3],[117.4,50.3],[117.4,50.4],[117.2,50.4],[117.2,50.5],[117.1,50.5],[117.1,50.8],[116.6,50.8],[116.6,50.7],[116.2,50.7],[116.2,50.6],[115.8,50.6],[115.8,50.5],[115.2,50.5],[115.2,50.4],[114.3,50.4],[114.3,50.3],[109.9,50.3],[109.9,50.2],[109.1,50.2],[109.1,50.1],[108.8,50.1],[108.8,50.0],[108.6,50.0],[108.6,49.9],[108.4,49.9],[108.4,49.8],[108.3,49.8],[108.3,49.7],[108.0,49.7],[108.0,49.6],[107.7,49.6],[107.7,49.5],[107.0,49.5],[107.0,49.4],[105.7,49.4],[105.7,49.5],[105.1,49.5],[105.1,49.4],[104.6,49.4],[104.6,49.5],[104.1,49.5],[104.1,49.6],[103.7,49.6],[103.7,49.7],[103.4,49.7],[103.4,49.8],[102.9,49.8],[102.9,49.9],[102.7,49.9],[102.7,50.0],[102.5,50.0],[102.5,50.1],[102.4,50.1],[102.4,50.2],[102.1,50.2],[102.1,50.3],[102.0,50.3],[102.0,50.4],[101.6,50.4],[101.6,50.5],[101.5,50.5],[101.5,50.6],[101.3,50.6],[101.3,50.7],[101.0,50.7],[101.0,50.8],[100.7,50.8],[100.7,50.9],[100.4,50.9],[100.4,51.0],[100.3,51.0],[100.3,51.1],[100.1,51.1],[100.1,51.2],[99.9,51.2],[99.9,51.3],[99.7,51.3],[99.7,51.4],[99.6,51.4],[99.6,51.5],[99.4,51.5],[99.4,51.6],[99.2,51.6],[99.2,51.7],[99.1,51.7],[99.1,51.8],[99.0,51.8],[99.0,51.9],[98.9,51.9],[98.9,52.0],[98.8,52.0],[98.8,52.1],[98.7,52.1],[98.7,52.3],[98.6,52.3],[98.6,52.5],[98.5,52.5],[98.5,52.8],[98.3,52.8],[98.3,53.0],[98.2,53.0],[98.2,53.1],[98.1,53.1],[98.1,53.2],[97.9,53.2],[97.9,53.3],[97.8,53.3],[97.8,53.4],[97.7,53.4],[97.7,53.6],[97.6,53.6],[97.6,53.7],[97.5,53.7],[97.5,53.9],[97.4,53.9],[97.4,54.0],[96.6,54.0],[96.6,54.1]]]},"properties":{"tile_id":"60","start_year":1905,"end_year":1911,"source_image":"data/raw/toolbay/t/60/1905.png","source_url":"https://www.toolbay.cc/history-map/t/60/1905.png","source_color":"#ffff00","polity_id":null,"polity_assignment":"unverified","geometry_origin":"raster_color_trace","pixel_size_degrees":0.1,"source_color_pixels":19371,"simplification_degrees":0}}]}
