{"type":"FeatureCollection","features":[{"type":"Feature","id":"60:1918:#006666","bbox":[90.0,45.0,118.5,51.7],"geometry":{"type":"Polygon","coordinates":[[[90.8,51.7],[90.0,51.7],[90.0,45.0],[115.2,45.0],[115.2,45.1],[115.5,45.1],[115.5,45.2],[115.8,45.2],[115.8,45.3],[116.3,45.3],[116.3,45.4],[116.4,45.4],[116.4,45.5],[116.6,45.5],[116.6,45.6],[116.7,45.6],[116.7,45.7],[117.0,45.7],[117.0,45.8],[117.3,45.8],[117.3,45.9],[117.5,45.9],[117.5,46.0],[117.6,46.0],[117.6,46.1],[117.7,46.1],[117.7,46.2],[117.9,46.2],[117.9,46.3],[118.1,46.3],[118.1,46.4],[118.3,46.4],[118.3,46.6],[118.4,46.6],[118.4,46.8],[118.5,46.8],[118.5,47.2],[118.4,47.2],[118.4,47.3],[118.3,47.3],[118.3,47.4],[117.4,47.4],[117.4,47.3],[115.9,47.3],[115.9,47.4],[115.4,47.4],[115.4,47.5],[115.3,47.5],[115.3,47.6],[115.2,47.6],[115.2,47.8],[115.1,47.8],[115.1,47.9],[115.0,47.9],[115.0,49.1],[114.9,49.1],[114.9,49.3],[114.8,49.3],[114.8,49.5],[114.7,49.5],[114.7,49.7],[114.6,49.7],[114.6,49.9],[114.5,49.9],[114.5,50.4],[114.3,50.4],[114.3,50.3],[109.9,50.3],[109.9,50.2],[109.2,50.2],[109.2,50.3],[108.7,50.3],[108.7,50.4],[107.4,50.4],[107.4,50.5],[106.6,50.5],[106.6,50.6],[106.0,50.6],[106.0,50.7],[105.2,50.7],[105.2,50.8],[104.5,50.8],[104.5,50.9],[103.9,50.9],[103.9,51.0],[103.4,51.0],[103.4,51.1],[102.9,51.1],[102.9,51.2],[102.5,51.2],[102.5,51.3],[102.0,51.3],[102.0,51.4],[101.7,51.4],[101.7,51.5],[101.4,51.5],[101.4,51.6],[101.0,51.6],[101.0,51.7],[99.6,51.7],[99.6,51.6],[98.7,51.6],[98.7,51.5],[98.5,51.5],[98.5,51.4],[98.2,51.4],[98.2,51.3],[98.1,51.3],[98.1,51.2],[98.0,51.2],[98.0,51.1],[97.9,51.1],[97.9,50.9],[97.8,50.9],[97.8,50.7],[97.7,50.7],[97.7,50.6],[97.6,50.6],[97.6,50.3],[97.5,50.3],[97.5,50.0],[97.4,50.0],[97.4,49.8],[97.3,49.8],[97.3,49.7],[97.2,49.7],[97.2,49.6],[97.0,49.6],[97.0,49.5],[96.3,49.5],[96.3,49.6],[96.0,49.6],[96.0,49.7],[95.9,49.7],[95.9,49.8],[95.7,49.8],[95.7,49.9],[95.5,49.9],[95.5,50.0],[95.3,50.0],[95.3,50.1],[94.9,50.1],[94.9,50.2],[94.5,50.2],[94.5,50.3],[94.2,50.3],[94.2,50.4],[93.9,50.4],[93.9,50.5],[93.7,50.5],[93.7,50.6],[93.5,50.6],[93.5,50.7],[93.3,50.7],[93.3,50.8],[93.2,50.8],[93.2,50.9],[92.9,50.9],[92.9,51.0],[92.6,51.0],[92.6,51.1],[92.2,51.1],[92.2,51.2],[92.0,51.2],[92.0,51.3],[91.9,51.3],[91.9,51.4],[91.4,51.4],[91.4,51.5],[91.3,51.5],[91.3,51.6],[90.8,51.6],[90.8,51.7]]]},"properties":{"tile_id":"60","start_year":1918,"end_year":1920,"source_image":"data/raw/toolbay/t/60/1918.png","source_url":"https://www.toolbay.cc/history-map/t/60/1918.png","source_color":"#006666","polity_id":null,"polity_assignment":"unverified","geometry_origin":"raster_color_trace","pixel_size_degrees":0.1,"source_color_pixels":14863,"simplification_degrees":0}},{"type":"Feature","id":"60:1918:#ff9933","bbox":[114.5,45.0,135.0,54.8],"geometry":{"type":"Polygon","coordinates":[[[126.3,54.8],[125.2,54.8],[125.2,54.7],[124.0,54.7],[124.0,54.6],[123.4,54.6],[123.4,54.5],[123.0,54.5],[123.0,54.4],[122.7,54.4],[122.7,54.3],[122.5,54.3],[122.5,54.2],[122.3,54.2],[122.3,54.1],[122.1,54.1],[122.1,54.0],[121.9,54.0],[121.9,53.9],[121.8,53.9],[121.8,53.8],[121.7,53.8],[121.7,53.7],[121.5,53.7],[121.5,53.6],[121.4,53.6],[121.4,53.5],[121.3,53.5],[121.3,53.4],[121.2,53.4],[121.2,53.3],[121.1,53.3],[121.1,53.2],[121.0,53.2],[121.0,53.1],[120.9,53.1],[120.9,53.0],[120.8,53.0],[120.8,52.9],[120.7,52.9],[120.7,52.8],[120.5,52.8],[120.5,52.7],[120.4,52.7],[120.4,52.6],[120.2,52.6],[120.2,52.5],[120.1,52.5],[120.1,52.4],[120.0,52.4],[120.0,52.3],[119.8,52.3],[119.8,52.2],[119.7,52.2],[119.7,52.1],[119.5,52.1],[119.5,52.0],[119.4,52.0],[119.4,51.9],[119.3,51.9],[119.3,51.8],[119.2,51.8],[119.2,51.7],[118.9,51.7],[118.9,51.6],[118.7,51.6],[118.7,51.5],[118.5,51.5],[118.5,51.4],[118.4,51.4],[118.4,51.3],[118.2,51.3],[118.2,51.2],[117.8,51.2],[117.8,51.1],[117.6,51.1],[117.6,51.0],[117.2,51.0],[117.2,50.9],[117.0,50.9],[117.0,50.8],[116.6,50.8],[116.6,50.7],[116.2,50.7],[116.2,50.6],[115.8,50.6],[115.8,50.5],[115.2,50.5],[115.2,50.4],[114.5,50.4],[114.5,49.9],[114.6,49.9],[114.6,49.7],[114.7,49.7],[114.7,49.5],[114.8,49.5],[114.8,49.3],[114.9,49.3],[114.9,49.1],[115.0,49.1],[115.0,47.9],[115.1,47.9],[115.1,47.8],[115.2,47.8],[115.2,47.6],[115.3,47.6],[115.3,47.5],[115.4,47.5],[115.4,47.4],[115.9,47.4],[115.9,47.3],[117.4,47.3],[117.4,47.4],[118.3,47.4],[118.3,47.3],[118.4,47.3],[118.4,47.2],[118.5,47.2],[118.5,46.8],[118.4,46.8],[118.4,46.6],[118.3,46.6],[118.3,46.4],[118.1,46.4],[118.1,46.3],[117.9,46.3],[117.9,46.2],[117.7,46.2],[117.7,46.1],[117.6,46.1],[117.6,46.0],[117.5,46.0],[117.5,45.9],[117.3,45.9],[117.3,45.8],[117.0,45.8],[117.0,45.7],[116.7,45.7],[116.7,45.6],[116.6,45.6],[116.6,45.5],[116.4,45.5],[116.4,45.4],[116.3,45.4],[116.3,45.3],[115.8,45.3],[115.8,45.2],[115.5,45.2],[115.5,45.1],[115.2,45.1],[115.2,45.0],[133.5,45.0],[133.5,45.1],[133.6,45.1],[133.6,45.2],[133.7,45.2],[133.7,45.3],[133.8,45.3],[133.8,45.4],[133.9,45.4],[133.9,45.5],[134.0,45.5],[134.0,45.7],[134.1,45.7],[134.1,45.8],[134.2,45.8],[134.2,45.9],[134.3,45.9],[134.3,46.1],[134.4,46.1],[134.4,46.2],[134.5,46.2],[134.5,46.3],[134.6,46.3],[134.6,46.5],[134.7,46.5],[134.7,46.8],[134.8,46.8],[134.8,47.0],[134.9,47.0],[134.9,47.2],[135.0,47.2],[135.0,49.5],[134.9,49.5],[134.9,49.4],[134.8,49.4],[134.8,49.3],[134.7,49.3],[134.7,49.2],[134.4,49.2],[134.4,49.3],[134.2,49.3],[134.2,49.4],[134.0,49.4],[134.0,49.5],[133.8,49.5],[133.8,49.6],[133.6,49.6],[133.6,49.7],[133.4,49.7],[133.4,49.8],[133.3,49.8],[133.3,49.9],[133.1,49.9],[133.1,50.0],[132.8,50.0],[132.8,50.1],[132.6,50.1],[132.6,50.2],[132.5,50.2],[132.5,50.3],[132.4,50.3],[132.4,50.4],[132.3,50.4],[132.3,50.5],[132.1,50.5],[132.1,50.6],[132.0,50.6],[132.0,50.7],[131.9,50.7],[131.9,50.8],[131.8,50.8],[131.8,50.9],[131.7,50.9],[131.7,51.0],[131.6,51.0],[131.6,51.1],[131.5,51.1],[131.5,51.3],[131.4,51.3],[131.4,51.4],[131.3,51.4],[131.3,51.5],[131.1,51.5],[131.1,51.6],[131.0,51.6],[131.0,51.7],[130.9,51.7],[130.9,51.8],[130.8,51.8],[130.8,51.9],[130.7,51.9],[130.7,52.0],[130.6,52.0],[130.6,52.1],[130.5,52.1],[130.5,52.2],[130.4,52.2],[130.4,52.3],[130.3,52.3],[130.3,52.4],[130.1,52.4],[130.1,52.5],[130.0,52.5],[130.0,52.6],[129.9,52.6],[129.9,52.7],[129.7,52.7],[129.7,52.9],[129.6,52.9],[129.6,53.0],[129.4,53.0],[129.4,53.1],[129.3,53.1],[129.3,53.2],[129.2,53.2],[129.2,53.3],[129.1,53.3],[129.1,53.4],[128.9,53.4],[128.9,53.5],[128.7,53.5],[128.7,53.6],[128.6,53.6],[128.6,53.7],[128.5,53.7],[128.5,53.8],[128.3,53.8],[128.3,53.9],[128.2,53.9],[128.2,54.0],[128.1,54.0],[128.1,54.1],[128.0,54.1],[128.0,54.2],[127.8,54.2],[127.8,54.3],[127.6,54.3],[127.6,54.4],[127.4,54.4],[127.4,54.5],[127.2,54.5],[127.2,54.6],[126.8,54.6],[126.8,54.7],[126.3,54.7],[126.3,54.8]]]},"properties":{"tile_id":"60","start_year":1918,"end_year":1920,"source_image":"data/raw/toolbay/t/60/1918.png","source_url":"https://www.toolbay.cc/history-map/t/60/1918.png","source_color":"#ff9933","polity_id":null,"polity_assignment":"unverified","geometry_origin":"raster_color_trace","pixel_size_degrees":0.1,"source_color_pixels":14179,"simplification_degrees":0}}]}
