{"type":"FeatureCollection","features":[{"type":"Feature","id":"60:376:#00ff00","bbox":[94.2,45.0,112.4,47.6],"geometry":{"type":"Polygon","coordinates":[[[97.1,47.6],[96.7,47.6],[96.7,47.5],[96.2,47.5],[96.2,47.4],[96.0,47.4],[96.0,47.3],[95.9,47.3],[95.9,47.2],[95.8,47.2],[95.8,47.1],[95.7,47.1],[95.7,47.0],[95.5,47.0],[95.5,46.9],[95.4,46.9],[95.4,46.8],[95.2,46.8],[95.2,46.7],[95.1,46.7],[95.1,46.5],[95.0,46.5],[95.0,46.4],[94.9,46.4],[94.9,46.3],[94.8,46.3],[94.8,46.2],[94.7,46.2],[94.7,46.0],[94.6,46.0],[94.6,45.9],[94.5,45.9],[94.5,45.7],[94.4,45.7],[94.4,45.5],[94.3,45.5],[94.3,45.3],[94.2,45.3],[94.2,45.0],[112.4,45.0],[112.4,45.1],[112.1,45.1],[112.1,45.2],[111.9,45.2],[111.9,45.3],[111.8,45.3],[111.8,45.4],[111.5,45.4],[111.5,45.5],[111.2,45.5],[111.2,45.6],[111.0,45.6],[111.0,45.7],[110.8,45.7],[110.8,45.8],[110.7,45.8],[110.7,45.9],[110.4,45.9],[110.4,46.0],[110.1,46.0],[110.1,46.1],[109.6,46.1],[109.6,46.2],[109.1,46.2],[109.1,46.3],[108.6,46.3],[108.6,46.4],[108.3,46.4],[108.3,46.5],[108.0,46.5],[108.0,46.6],[106.8,46.6],[106.8,46.5],[106.1,46.5],[106.1,46.4],[105.9,46.4],[105.9,46.3],[105.5,46.3],[105.5,46.2],[105.3,46.2],[105.3,46.1],[105.0,46.1],[105.0,46.0],[104.9,46.0],[104.9,45.9],[104.7,45.9],[104.7,45.8],[104.3,45.8],[104.3,45.7],[102.8,45.7],[102.8,45.8],[102.5,45.8],[102.5,45.9],[102.2,45.9],[102.2,46.0],[101.7,46.0],[101.7,46.1],[101.3,46.1],[101.3,46.2],[100.7,46.2],[100.7,46.3],[100.1,46.3],[100.1,46.4],[99.9,46.4],[99.9,46.5],[99.7,46.5],[99.7,46.6],[99.5,46.6],[99.5,46.7],[99.3,46.7],[99.3,46.8],[99.2,46.8],[99.2,46.9],[98.9,46.9],[98.9,47.0],[98.8,47.0],[98.8,47.1],[98.6,47.1],[98.6,47.2],[98.4,47.2],[98.4,47.3],[98.2,47.3],[98.2,47.4],[98.0,47.4],[98.0,47.5],[97.1,47.5],[97.1,47.6]]]},"properties":{"tile_id":"60","start_year":376,"end_year":401,"source_image":"data/raw/toolbay/t/60/376.png","source_url":"https://www.toolbay.cc/history-map/t/60/376.png","source_color":"#00ff00","polity_id":null,"polity_assignment":"unverified","geometry_origin":"raster_color_trace","pixel_size_degrees":0.1,"source_color_pixels":2456,"simplification_degrees":0}},{"type":"Feature","id":"60:376:#ff9933","bbox":[97.9,45.7,113.0,51.8],"geometry":{"type":"Polygon","coordinates":[[[109.1,51.8],[108.7,51.8],[108.7,51.7],[108.1,51.7],[108.1,51.6],[107.9,51.6],[107.9,51.5],[107.6,51.5],[107.6,51.4],[107.2,51.4],[107.2,51.3],[107.0,51.3],[107.0,51.2],[106.4,51.2],[106.4,51.1],[105.7,51.1],[105.7,51.0],[105.2,51.0],[105.2,50.9],[101.9,50.9],[101.9,51.0],[100.8,51.0],[100.8,50.9],[100.4,50.9],[100.4,50.8],[100.1,50.8],[100.1,50.7],[100.0,50.7],[100.0,50.6],[99.8,50.6],[99.8,50.5],[99.6,50.5],[99.6,50.4],[99.5,50.4],[99.5,50.3],[99.3,50.3],[99.3,50.2],[99.1,50.2],[99.1,50.1],[99.0,50.1],[99.0,50.0],[98.8,50.0],[98.8,49.9],[98.7,49.9],[98.7,49.8],[98.6,49.8],[98.6,49.7],[98.5,49.7],[98.5,49.5],[98.4,49.5],[98.4,49.4],[98.3,49.4],[98.3,49.3],[98.2,49.3],[98.2,49.0],[98.1,49.0],[98.1,48.8],[98.0,48.8],[98.0,48.3],[97.9,48.3],[97.9,47.7],[98.0,47.7],[98.0,47.4],[98.2,47.4],[98.2,47.3],[98.4,47.3],[98.4,47.2],[98.6,47.2],[98.6,47.1],[98.8,47.1],[98.8,47.0],[98.9,47.0],[98.9,46.9],[99.2,46.9],[99.2,46.8],[99.3,46.8],[99.3,46.7],[99.5,46.7],[99.5,46.6],[99.7,46.6],[99.7,46.5],[99.9,46.5],[99.9,46.4],[100.1,46.4],[100.1,46.3],[100.7,46.3],[100.7,46.2],[101.3,46.2],[101.3,46.1],[101.7,46.1],[101.7,46.0],[102.2,46.0],[102.2,45.9],[102.5,45.9],[102.5,45.8],[102.8,45.8],[102.8,45.7],[104.3,45.7],[104.3,45.8],[104.7,45.8],[104.7,45.9],[104.9,45.9],[104.9,46.0],[105.0,46.0],[105.0,46.1],[105.3,46.1],[105.3,46.2],[105.5,46.2],[105.5,46.3],[105.9,46.3],[105.9,46.4],[106.1,46.4],[106.1,46.5],[106.8,46.5],[106.8,46.6],[108.0,46.6],[108.0,46.5],[108.3,46.5],[108.3,46.4],[108.6,46.4],[108.6,46.3],[109.1,46.3],[109.1,46.2],[109.6,46.2],[109.6,46.1],[109.7,46.1],[109.7,46.2],[109.9,46.2],[109.9,46.3],[110.2,46.3],[110.2,46.4],[110.3,46.4],[110.3,46.5],[110.4,46.5],[110.4,46.6],[110.5,46.6],[110.5,46.8],[110.6,46.8],[110.6,46.9],[110.7,46.9],[110.7,47.0],[110.8,47.0],[110.8,47.2],[110.9,47.2],[110.9,47.3],[111.0,47.3],[111.0,47.4],[111.1,47.4],[111.1,47.6],[111.2,47.6],[111.2,47.7],[111.3,47.7],[111.3,47.9],[111.4,47.9],[111.4,48.0],[111.5,48.0],[111.5,48.2],[111.7,48.2],[111.7,48.3],[111.8,48.3],[111.8,48.4],[111.9,48.4],[111.9,48.5],[112.0,48.5],[112.0,48.7],[112.2,48.7],[112.2,48.8],[112.3,48.8],[112.3,48.9],[112.4,48.9],[112.4,49.0],[112.6,49.0],[112.6,49.2],[112.7,49.2],[112.7,49.3],[112.8,49.3],[112.8,49.5],[112.9,49.5],[112.9,49.7],[113.0,49.7],[113.0,50.2],[112.9,50.2],[112.9,50.3],[112.8,50.3],[112.8,50.5],[112.7,50.5],[112.7,50.6],[112.6,50.6],[112.6,50.7],[112.5,50.7],[112.5,50.8],[112.4,50.8],[112.4,50.9],[112.3,50.9],[112.3,51.0],[112.2,51.0],[112.2,51.1],[112.0,51.1],[112.0,51.2],[111.8,51.2],[111.8,51.3],[111.6,51.3],[111.6,51.4],[111.5,51.4],[111.5,51.5],[111.1,51.5],[111.1,51.6],[110.8,51.6],[110.8,51.7],[109.1,51.7],[109.1,51.8]]]},"properties":{"tile_id":"60","start_year":376,"end_year":401,"source_image":"data/raw/toolbay/t/60/376.png","source_url":"https://www.toolbay.cc/history-map/t/60/376.png","source_color":"#ff9933","polity_id":null,"polity_assignment":"unverified","geometry_origin":"raster_color_trace","pixel_size_degrees":0.1,"source_color_pixels":6600,"simplification_degrees":0}}]}
