{"type":"FeatureCollection","features":[{"type":"Feature","id":"60:401:#00ff00","bbox":[94.2,45.0,112.4,47.6],"geometry":{"type":"Polygon","coordinates":[[[97.1,47.6],[96.7,47.6],[96.7,47.5],[96.2,47.5],[96.2,47.4],[96.0,47.4],[96.0,47.3],[95.9,47.3],[95.9,47.2],[95.8,47.2],[95.8,47.1],[95.7,47.1],[95.7,47.0],[95.5,47.0],[95.5,46.9],[95.4,46.9],[95.4,46.8],[95.2,46.8],[95.2,46.7],[95.1,46.7],[95.1,46.5],[95.0,46.5],[95.0,46.4],[94.9,46.4],[94.9,46.3],[94.8,46.3],[94.8,46.2],[94.7,46.2],[94.7,46.0],[94.6,46.0],[94.6,45.9],[94.5,45.9],[94.5,45.7],[94.4,45.7],[94.4,45.5],[94.3,45.5],[94.3,45.3],[94.2,45.3],[94.2,45.0],[112.4,45.0],[112.4,45.2],[112.3,45.2],[112.3,45.3],[112.2,45.3],[112.2,45.4],[112.1,45.4],[112.1,45.5],[112.0,45.5],[112.0,45.7],[111.9,45.7],[111.9,46.8],[111.8,46.8],[111.8,46.9],[111.7,46.9],[111.7,47.0],[111.5,47.0],[111.5,47.1],[111.1,47.1],[111.1,47.2],[110.8,47.2],[110.8,47.3],[110.3,47.3],[110.3,47.4],[110.0,47.4],[110.0,47.5],[109.0,47.5],[109.0,47.4],[107.8,47.4],[107.8,47.3],[107.3,47.3],[107.3,47.2],[106.9,47.2],[106.9,47.1],[106.2,47.1],[106.2,47.0],[105.3,47.0],[105.3,46.9],[104.7,46.9],[104.7,46.8],[104.1,46.8],[104.1,46.9],[103.2,46.9],[103.2,47.0],[102.3,47.0],[102.3,47.1],[101.7,47.1],[101.7,47.2],[100.3,47.2],[100.3,47.3],[99.9,47.3],[99.9,47.4],[99.3,47.4],[99.3,47.5],[98.9,47.5],[98.9,47.6],[98.5,47.6],[98.5,47.5],[97.1,47.5],[97.1,47.6]]]},"properties":{"tile_id":"60","start_year":401,"end_year":404,"source_image":"data/raw/toolbay/t/60/401.png","source_url":"https://www.toolbay.cc/history-map/t/60/401.png","source_color":"#00ff00","polity_id":null,"polity_assignment":"unverified","geometry_origin":"raster_color_trace","pixel_size_degrees":0.1,"source_color_pixels":3843,"simplification_degrees":0}},{"type":"Feature","id":"60:401:#ff9933","bbox":[97.9,46.8,112.4,51.5],"geometry":{"type":"Polygon","coordinates":[[[107.9,51.5],[107.6,51.5],[107.6,51.4],[107.2,51.4],[107.2,51.3],[107.0,51.3],[107.0,51.2],[106.4,51.2],[106.4,51.1],[105.7,51.1],[105.7,51.0],[105.2,51.0],[105.2,50.9],[101.9,50.9],[101.9,51.0],[100.8,51.0],[100.8,50.9],[100.4,50.9],[100.4,50.8],[100.1,50.8],[100.1,50.7],[100.0,50.7],[100.0,50.6],[99.8,50.6],[99.8,50.5],[99.6,50.5],[99.6,50.4],[99.5,50.4],[99.5,50.3],[99.3,50.3],[99.3,50.2],[99.1,50.2],[99.1,50.1],[99.0,50.1],[99.0,50.0],[98.8,50.0],[98.8,49.9],[98.7,49.9],[98.7,49.8],[98.6,49.8],[98.6,49.7],[98.5,49.7],[98.5,49.5],[98.4,49.5],[98.4,49.4],[98.3,49.4],[98.3,49.3],[98.2,49.3],[98.2,49.0],[98.1,49.0],[98.1,48.8],[98.0,48.8],[98.0,48.3],[97.9,48.3],[97.9,47.7],[98.0,47.7],[98.0,47.5],[98.5,47.5],[98.5,47.6],[98.9,47.6],[98.9,47.5],[99.3,47.5],[99.3,47.4],[99.9,47.4],[99.9,47.3],[100.3,47.3],[100.3,47.2],[101.7,47.2],[101.7,47.1],[102.3,47.1],[102.3,47.0],[103.2,47.0],[103.2,46.9],[104.1,46.9],[104.1,46.8],[104.7,46.8],[104.7,46.9],[105.3,46.9],[105.3,47.0],[106.2,47.0],[106.2,47.1],[106.9,47.1],[106.9,47.2],[107.3,47.2],[107.3,47.3],[107.8,47.3],[107.8,47.4],[109.0,47.4],[109.0,47.5],[110.0,47.5],[110.0,47.4],[110.3,47.4],[110.3,47.3],[110.8,47.3],[110.8,47.2],[110.9,47.2],[110.9,47.3],[111.0,47.3],[111.0,47.4],[111.1,47.4],[111.1,47.6],[111.2,47.6],[111.2,47.7],[111.3,47.7],[111.3,47.9],[111.4,47.9],[111.4,48.0],[111.5,48.0],[111.5,48.2],[111.7,48.2],[111.7,48.3],[111.8,48.3],[111.8,48.4],[111.9,48.4],[111.9,48.5],[112.0,48.5],[112.0,48.7],[112.2,48.7],[112.2,48.8],[112.3,48.8],[112.3,49.2],[112.4,49.2],[112.4,49.6],[112.3,49.6],[112.3,49.8],[112.2,49.8],[112.2,49.9],[112.1,49.9],[112.1,50.1],[112.0,50.1],[112.0,50.2],[111.9,50.2],[111.9,50.3],[111.7,50.3],[111.7,50.4],[111.4,50.4],[111.4,50.5],[111.1,50.5],[111.1,50.6],[111.0,50.6],[111.0,50.7],[110.7,50.7],[110.7,50.8],[110.4,50.8],[110.4,50.9],[110.2,50.9],[110.2,51.0],[110.0,51.0],[110.0,51.1],[109.5,51.1],[109.5,51.2],[109.0,51.2],[109.0,51.3],[108.6,51.3],[108.6,51.4],[107.9,51.4],[107.9,51.5]]]},"properties":{"tile_id":"60","start_year":401,"end_year":404,"source_image":"data/raw/toolbay/t/60/401.png","source_url":"https://www.toolbay.cc/history-map/t/60/401.png","source_color":"#ff9933","polity_id":null,"polity_assignment":"unverified","geometry_origin":"raster_color_trace","pixel_size_degrees":0.1,"source_color_pixels":5052,"simplification_degrees":0}}]}
