{"type":"FeatureCollection","features":[{"type":"Feature","id":"60:404:#00ff00","bbox":[94.2,45.0,116.3,51.5],"geometry":{"type":"Polygon","coordinates":[[[107.9,51.5],[107.6,51.5],[107.6,51.4],[107.2,51.4],[107.2,51.3],[107.0,51.3],[107.0,51.2],[106.4,51.2],[106.4,51.1],[105.7,51.1],[105.7,51.0],[105.2,51.0],[105.2,50.9],[101.9,50.9],[101.9,51.0],[100.6,51.0],[100.6,50.9],[100.3,50.9],[100.3,50.8],[100.0,50.8],[100.0,50.7],[99.6,50.7],[99.6,50.6],[99.4,50.6],[99.4,50.5],[99.1,50.5],[99.1,50.4],[98.9,50.4],[98.9,50.3],[98.6,50.3],[98.6,50.2],[98.4,50.2],[98.4,50.1],[98.2,50.1],[98.2,50.0],[98.1,50.0],[98.1,49.9],[97.9,49.9],[97.9,49.8],[97.8,49.8],[97.8,49.7],[97.6,49.7],[97.6,49.6],[97.5,49.6],[97.5,49.5],[97.4,49.5],[97.4,49.4],[97.3,49.4],[97.3,49.3],[97.2,49.3],[97.2,49.2],[97.1,49.2],[97.1,49.1],[97.0,49.1],[97.0,49.0],[96.9,49.0],[96.9,48.8],[96.8,48.8],[96.8,48.7],[96.7,48.7],[96.7,48.5],[96.6,48.5],[96.6,48.4],[96.5,48.4],[96.5,48.3],[96.4,48.3],[96.4,48.2],[96.3,48.2],[96.3,48.1],[96.2,48.1],[96.2,48.0],[96.1,48.0],[96.1,47.8],[96.0,47.8],[96.0,47.7],[95.9,47.7],[95.9,47.6],[95.8,47.6],[95.8,47.5],[95.7,47.5],[95.7,47.3],[95.6,47.3],[95.6,47.2],[95.5,47.2],[95.5,47.0],[95.4,47.0],[95.4,46.9],[95.3,46.9],[95.3,46.8],[95.2,46.8],[95.2,46.7],[95.1,46.7],[95.1,46.5],[95.0,46.5],[95.0,46.4],[94.9,46.4],[94.9,46.3],[94.8,46.3],[94.8,46.2],[94.7,46.2],[94.7,46.0],[94.6,46.0],[94.6,45.9],[94.5,45.9],[94.5,45.7],[94.4,45.7],[94.4,45.5],[94.3,45.5],[94.3,45.3],[94.2,45.3],[94.2,45.0],[115.3,45.0],[115.3,45.1],[115.4,45.1],[115.4,45.2],[115.5,45.2],[115.5,45.4],[115.6,45.4],[115.6,45.5],[115.7,45.5],[115.7,45.6],[115.8,45.6],[115.8,45.7],[115.9,45.7],[115.9,45.8],[116.0,45.8],[116.0,45.9],[116.1,45.9],[116.1,46.0],[116.2,46.0],[116.2,46.1],[116.3,46.1],[116.3,46.9],[116.2,46.9],[116.2,47.2],[116.1,47.2],[116.1,47.4],[116.0,47.4],[116.0,47.7],[115.9,47.7],[115.9,47.8],[115.8,47.8],[115.8,48.0],[115.7,48.0],[115.7,48.2],[115.6,48.2],[115.6,48.3],[115.5,48.3],[115.5,48.5],[115.4,48.5],[115.4,48.7],[115.3,48.7],[115.3,48.8],[115.1,48.8],[115.1,48.9],[114.9,48.9],[114.9,49.0],[114.8,49.0],[114.8,49.1],[114.6,49.1],[114.6,49.2],[114.5,49.2],[114.5,49.3],[114.4,49.3],[114.4,49.4],[114.2,49.4],[114.2,49.5],[113.8,49.5],[113.8,49.6],[113.5,49.6],[113.5,49.7],[113.1,49.7],[113.1,49.8],[112.7,49.8],[112.7,49.9],[112.5,49.9],[112.5,50.0],[112.1,50.0],[112.1,50.1],[112.0,50.1],[112.0,50.2],[111.9,50.2],[111.9,50.3],[111.7,50.3],[111.7,50.4],[111.4,50.4],[111.4,50.5],[111.1,50.5],[111.1,50.6],[111.0,50.6],[111.0,50.7],[110.7,50.7],[110.7,50.8],[110.4,50.8],[110.4,50.9],[110.2,50.9],[110.2,51.0],[110.0,51.0],[110.0,51.1],[109.5,51.1],[109.5,51.2],[109.0,51.2],[109.0,51.3],[108.6,51.3],[108.6,51.4],[107.9,51.4],[107.9,51.5]]]},"properties":{"tile_id":"60","start_year":404,"end_year":410,"source_image":"data/raw/toolbay/t/60/404.png","source_url":"https://www.toolbay.cc/history-map/t/60/404.png","source_color":"#00ff00","polity_id":null,"polity_assignment":"unverified","geometry_origin":"raster_color_trace","pixel_size_degrees":0.1,"source_color_pixels":11065,"simplification_degrees":0}}]}
