{"type":"FeatureCollection","features":[{"type":"Feature","id":"60:410:#00ff00","bbox":[90.0,45.0,116.3,52.6],"geometry":{"type":"Polygon","coordinates":[[[94.3,52.6],[92.4,52.6],[92.4,52.5],[92.0,52.5],[92.0,52.4],[91.6,52.4],[91.6,52.3],[90.3,52.3],[90.3,52.4],[90.0,52.4],[90.0,45.0],[115.3,45.0],[115.3,45.1],[115.4,45.1],[115.4,45.2],[115.5,45.2],[115.5,45.4],[115.6,45.4],[115.6,45.5],[115.7,45.5],[115.7,45.6],[115.8,45.6],[115.8,45.7],[115.9,45.7],[115.9,45.8],[116.0,45.8],[116.0,45.9],[116.1,45.9],[116.1,46.0],[116.2,46.0],[116.2,46.1],[116.3,46.1],[116.3,46.9],[116.2,46.9],[116.2,47.2],[116.1,47.2],[116.1,47.4],[116.0,47.4],[116.0,47.7],[115.9,47.7],[115.9,47.8],[115.8,47.8],[115.8,48.0],[115.7,48.0],[115.7,48.2],[115.6,48.2],[115.6,48.3],[115.5,48.3],[115.5,48.5],[115.4,48.5],[115.4,48.7],[115.3,48.7],[115.3,48.8],[115.1,48.8],[115.1,48.9],[114.9,48.9],[114.9,49.0],[114.8,49.0],[114.8,49.1],[114.6,49.1],[114.6,49.2],[114.5,49.2],[114.5,49.3],[114.4,49.3],[114.4,49.4],[114.2,49.4],[114.2,49.5],[113.8,49.5],[113.8,49.6],[113.5,49.6],[113.5,49.7],[113.1,49.7],[113.1,49.8],[112.7,49.8],[112.7,49.9],[112.5,49.9],[112.5,50.0],[112.1,50.0],[112.1,50.1],[112.0,50.1],[112.0,50.2],[111.9,50.2],[111.9,50.3],[111.7,50.3],[111.7,50.4],[111.4,50.4],[111.4,50.5],[111.1,50.5],[111.1,50.6],[111.0,50.6],[111.0,50.7],[110.7,50.7],[110.7,50.8],[110.4,50.8],[110.4,50.9],[110.2,50.9],[110.2,51.0],[110.0,51.0],[110.0,51.1],[109.5,51.1],[109.5,51.2],[109.0,51.2],[109.0,51.3],[108.6,51.3],[108.6,51.4],[107.9,51.4],[107.9,51.5],[107.6,51.5],[107.6,51.4],[107.2,51.4],[107.2,51.3],[107.0,51.3],[107.0,51.2],[106.4,51.2],[106.4,51.1],[105.7,51.1],[105.7,51.0],[105.2,51.0],[105.2,50.9],[101.9,50.9],[101.9,51.0],[99.7,51.0],[99.7,51.1],[99.4,51.1],[99.4,51.2],[99.1,51.2],[99.1,51.3],[98.8,51.3],[98.8,51.4],[98.4,51.4],[98.4,51.5],[98.0,51.5],[98.0,51.6],[97.6,51.6],[97.6,51.7],[97.4,51.7],[97.4,51.8],[97.2,51.8],[97.2,51.9],[97.0,51.9],[97.0,52.0],[96.7,52.0],[96.7,52.1],[96.3,52.1],[96.3,52.2],[96.1,52.2],[96.1,52.3],[95.8,52.3],[95.8,52.4],[94.9,52.4],[94.9,52.5],[94.3,52.5],[94.3,52.6]]]},"properties":{"tile_id":"60","start_year":410,"end_year":417,"source_image":"data/raw/toolbay/t/60/410.png","source_url":"https://www.toolbay.cc/history-map/t/60/410.png","source_color":"#00ff00","polity_id":null,"polity_assignment":"unverified","geometry_origin":"raster_color_trace","pixel_size_degrees":0.1,"source_color_pixels":16032,"simplification_degrees":0}}]}
