{"type":"FeatureCollection","features":[{"type":"Feature","id":"60:417:#00ff00","bbox":[90.0,45.0,122.8,52.6],"geometry":{"type":"Polygon","coordinates":[[[94.3,52.6],[92.4,52.6],[92.4,52.5],[92.0,52.5],[92.0,52.4],[91.6,52.4],[91.6,52.3],[90.3,52.3],[90.3,52.4],[90.0,52.4],[90.0,45.0],[122.2,45.0],[122.2,45.1],[122.3,45.1],[122.3,45.2],[122.4,45.2],[122.4,45.4],[122.5,45.4],[122.5,45.5],[122.6,45.5],[122.6,45.6],[122.7,45.6],[122.7,45.8],[122.8,45.8],[122.8,46.9],[122.7,46.9],[122.7,47.7],[122.6,47.7],[122.6,47.9],[122.5,47.9],[122.5,48.1],[122.4,48.1],[122.4,48.3],[122.2,48.3],[122.2,48.4],[122.1,48.4],[122.1,48.6],[121.9,48.6],[121.9,48.7],[121.8,48.7],[121.8,48.8],[121.7,48.8],[121.7,48.9],[121.4,48.9],[121.4,49.0],[121.3,49.0],[121.3,49.1],[121.1,49.1],[121.1,49.2],[120.9,49.2],[120.9,49.3],[120.6,49.3],[120.6,49.4],[120.4,49.4],[120.4,49.5],[120.1,49.5],[120.1,49.6],[119.8,49.6],[119.8,49.7],[119.5,49.7],[119.5,49.8],[119.3,49.8],[119.3,49.9],[119.0,49.9],[119.0,50.0],[118.7,50.0],[118.7,50.1],[118.4,50.1],[118.4,50.2],[118.2,50.2],[118.2,50.3],[117.4,50.3],[117.4,50.4],[116.1,50.4],[116.1,50.5],[114.4,50.5],[114.4,50.6],[111.0,50.6],[111.0,50.7],[110.7,50.7],[110.7,50.8],[110.4,50.8],[110.4,50.9],[110.2,50.9],[110.2,51.0],[110.0,51.0],[110.0,51.1],[109.5,51.1],[109.5,51.2],[109.0,51.2],[109.0,51.3],[108.6,51.3],[108.6,51.4],[107.9,51.4],[107.9,51.5],[107.6,51.5],[107.6,51.4],[107.2,51.4],[107.2,51.3],[107.0,51.3],[107.0,51.2],[106.4,51.2],[106.4,51.1],[105.7,51.1],[105.7,51.0],[105.2,51.0],[105.2,50.9],[101.9,50.9],[101.9,51.0],[99.7,51.0],[99.7,51.1],[99.4,51.1],[99.4,51.2],[99.1,51.2],[99.1,51.3],[98.8,51.3],[98.8,51.4],[98.4,51.4],[98.4,51.5],[98.0,51.5],[98.0,51.6],[97.6,51.6],[97.6,51.7],[97.4,51.7],[97.4,51.8],[97.2,51.8],[97.2,51.9],[97.0,51.9],[97.0,52.0],[96.7,52.0],[96.7,52.1],[96.3,52.1],[96.3,52.2],[96.1,52.2],[96.1,52.3],[95.8,52.3],[95.8,52.4],[94.9,52.4],[94.9,52.5],[94.3,52.5],[94.3,52.6]]]},"properties":{"tile_id":"60","start_year":417,"end_year":551,"source_image":"data/raw/toolbay/t/60/417.png","source_url":"https://www.toolbay.cc/history-map/t/60/417.png","source_color":"#00ff00","polity_id":null,"polity_assignment":"unverified","geometry_origin":"raster_color_trace","pixel_size_degrees":0.1,"source_color_pixels":19667,"simplification_degrees":0}}]}
