{"type":"FeatureCollection","features":[{"type":"Feature","id":"60:552:#999900","bbox":[90.0,45.0,122.4,54.5],"geometry":{"type":"Polygon","coordinates":[[[119.0,54.5],[118.1,54.5],[118.1,54.4],[117.8,54.4],[117.8,54.3],[117.4,54.3],[117.4,54.2],[117.1,54.2],[117.1,54.1],[116.4,54.1],[116.4,54.0],[114.5,54.0],[114.5,53.9],[113.6,53.9],[113.6,53.8],[113.0,53.8],[113.0,53.7],[112.7,53.7],[112.7,53.6],[112.3,53.6],[112.3,53.5],[111.9,53.5],[111.9,53.4],[111.5,53.4],[111.5,53.3],[111.1,53.3],[111.1,53.2],[110.7,53.2],[110.7,53.1],[110.5,53.1],[110.5,53.0],[110.3,53.0],[110.3,52.9],[109.9,52.9],[109.9,52.8],[109.8,52.8],[109.8,52.7],[109.6,52.7],[109.6,52.6],[109.4,52.6],[109.4,52.5],[109.3,52.5],[109.3,52.4],[109.1,52.4],[109.1,52.3],[108.9,52.3],[108.9,52.2],[108.8,52.2],[108.8,52.1],[108.7,52.1],[108.7,52.0],[108.6,52.0],[108.6,51.9],[108.4,51.9],[108.4,51.8],[108.2,51.8],[108.2,51.7],[108.0,51.7],[108.0,51.6],[107.8,51.6],[107.8,51.5],[107.6,51.5],[107.6,51.4],[107.2,51.4],[107.2,51.3],[107.0,51.3],[107.0,51.2],[106.4,51.2],[106.4,51.1],[105.7,51.1],[105.7,51.0],[105.2,51.0],[105.2,50.9],[101.9,50.9],[101.9,51.0],[99.7,51.0],[99.7,51.1],[99.4,51.1],[99.4,51.2],[99.1,51.2],[99.1,51.3],[98.8,51.3],[98.8,51.4],[98.4,51.4],[98.4,51.5],[98.0,51.5],[98.0,51.6],[97.6,51.6],[97.6,51.7],[97.4,51.7],[97.4,51.8],[97.2,51.8],[97.2,51.9],[97.0,51.9],[97.0,52.0],[96.7,52.0],[96.7,52.1],[96.3,52.1],[96.3,52.2],[96.1,52.2],[96.1,52.3],[95.8,52.3],[95.8,52.4],[94.9,52.4],[94.9,52.5],[94.3,52.5],[94.3,52.6],[92.4,52.6],[92.4,52.5],[92.0,52.5],[92.0,52.4],[91.6,52.4],[91.6,52.3],[90.3,52.3],[90.3,52.4],[90.0,52.4],[90.0,45.0],[116.7,45.0],[116.7,45.1],[116.8,45.1],[116.8,45.2],[116.9,45.2],[116.9,45.3],[117.0,45.3],[117.0,45.4],[117.1,45.4],[117.1,45.5],[117.2,45.5],[117.2,45.7],[117.3,45.7],[117.3,45.8],[117.4,45.8],[117.4,45.9],[117.5,45.9],[117.5,46.0],[117.6,46.0],[117.6,46.1],[117.7,46.1],[117.7,46.2],[117.8,46.2],[117.8,46.3],[117.9,46.3],[117.9,46.4],[118.0,46.4],[118.0,46.5],[118.1,46.5],[118.1,46.6],[118.2,46.6],[118.2,46.7],[118.3,46.7],[118.3,46.9],[118.4,46.9],[118.4,47.0],[118.5,47.0],[118.5,47.1],[118.6,47.1],[118.6,47.2],[118.7,47.2],[118.7,47.3],[118.8,47.3],[118.8,47.5],[118.9,47.5],[118.9,47.6],[119.0,47.6],[119.0,47.7],[119.1,47.7],[119.1,47.8],[119.2,47.8],[119.2,47.9],[119.3,47.9],[119.3,48.0],[119.4,48.0],[119.4,48.2],[119.5,48.2],[119.5,48.3],[119.6,48.3],[119.6,48.4],[119.7,48.4],[119.7,48.6],[119.8,48.6],[119.8,48.7],[119.9,48.7],[119.9,48.9],[120.0,48.9],[120.0,49.1],[120.1,49.1],[120.1,49.2],[120.2,49.2],[120.2,49.3],[120.3,49.3],[120.3,49.5],[120.5,49.5],[120.5,49.6],[120.6,49.6],[120.6,49.8],[120.7,49.8],[120.7,49.9],[120.8,49.9],[120.8,50.0],[120.9,50.0],[120.9,50.2],[121.0,50.2],[121.0,50.3],[121.1,50.3],[121.1,50.6],[121.2,50.6],[121.2,50.8],[121.3,50.8],[121.3,51.0],[121.4,51.0],[121.4,51.2],[121.5,51.2],[121.5,51.3],[121.6,51.3],[121.6,51.4],[121.7,51.4],[121.7,51.6],[121.8,51.6],[121.8,51.7],[121.9,51.7],[121.9,51.9],[122.0,51.9],[122.0,52.0],[122.1,52.0],[122.1,52.2],[122.2,52.2],[122.2,52.4],[122.3,52.4],[122.3,52.8],[122.4,52.8],[122.4,53.3],[122.3,53.3],[122.3,53.6],[122.2,53.6],[122.2,53.7],[122.1,53.7],[122.1,53.8],[122.0,53.8],[122.0,53.9],[121.9,53.9],[121.9,54.0],[121.7,54.0],[121.7,54.1],[121.4,54.1],[121.4,54.2],[120.9,54.2],[120.9,54.3],[120.4,54.3],[120.4,54.4],[119.0,54.4],[119.0,54.5]]]},"properties":{"tile_id":"60","start_year":552,"end_year":560,"source_image":"data/raw/toolbay/t/60/552.png","source_url":"https://www.toolbay.cc/history-map/t/60/552.png","source_color":"#999900","polity_id":null,"polity_assignment":"unverified","geometry_origin":"raster_color_trace","pixel_size_degrees":0.1,"source_color_pixels":22480,"simplification_degrees":0}}]}
