{"type":"FeatureCollection","features":[{"type":"Feature","id":"60:602:#999900","bbox":[100.1,45.0,123.1,54.5],"geometry":{"type":"Polygon","coordinates":[[[119.0,54.5],[118.1,54.5],[118.1,54.4],[117.8,54.4],[117.8,54.3],[117.4,54.3],[117.4,54.2],[117.1,54.2],[117.1,54.1],[116.4,54.1],[116.4,54.0],[114.5,54.0],[114.5,53.9],[113.6,53.9],[113.6,53.8],[113.0,53.8],[113.0,53.7],[112.7,53.7],[112.7,53.6],[112.3,53.6],[112.3,53.5],[111.9,53.5],[111.9,53.4],[111.5,53.4],[111.5,53.3],[111.1,53.3],[111.1,53.2],[110.7,53.2],[110.7,53.1],[110.5,53.1],[110.5,53.0],[110.3,53.0],[110.3,52.9],[109.9,52.9],[109.9,52.8],[109.8,52.8],[109.8,52.7],[109.6,52.7],[109.6,52.6],[109.4,52.6],[109.4,52.5],[109.3,52.5],[109.3,52.4],[109.1,52.4],[109.1,52.3],[108.9,52.3],[108.9,52.2],[108.8,52.2],[108.8,52.1],[108.7,52.1],[108.7,52.0],[108.6,52.0],[108.6,51.9],[108.4,51.9],[108.4,51.8],[108.2,51.8],[108.2,51.7],[108.0,51.7],[108.0,51.6],[107.8,51.6],[107.8,51.5],[107.6,51.5],[107.6,51.4],[107.2,51.4],[107.2,51.3],[107.0,51.3],[107.0,51.2],[106.4,51.2],[106.4,51.1],[105.7,51.1],[105.7,51.0],[105.2,51.0],[105.2,50.9],[101.9,50.9],[101.9,51.0],[101.1,51.0],[101.1,50.6],[101.2,50.6],[101.2,49.8],[101.1,49.8],[101.1,49.6],[101.0,49.6],[101.0,49.3],[100.9,49.3],[100.9,48.5],[101.0,48.5],[101.0,48.1],[101.1,48.1],[101.1,47.0],[101.0,47.0],[101.0,46.8],[100.9,46.8],[100.9,46.7],[100.8,46.7],[100.8,46.5],[100.7,46.5],[100.7,46.3],[100.6,46.3],[100.6,46.0],[100.5,46.0],[100.5,45.6],[100.4,45.6],[100.4,45.4],[100.3,45.4],[100.3,45.2],[100.2,45.2],[100.2,45.1],[100.1,45.1],[100.1,45.0],[123.1,45.0],[123.1,45.3],[123.0,45.3],[123.0,45.5],[122.9,45.5],[122.9,45.7],[122.8,45.7],[122.8,45.9],[122.7,45.9],[122.7,46.1],[122.6,46.1],[122.6,46.4],[122.5,46.4],[122.5,46.8],[122.4,46.8],[122.4,47.2],[122.3,47.2],[122.3,47.7],[122.2,47.7],[122.2,48.2],[122.1,48.2],[122.1,50.5],[122.2,50.5],[122.2,50.9],[122.3,50.9],[122.3,51.6],[122.4,51.6],[122.4,53.3],[122.3,53.3],[122.3,53.6],[122.2,53.6],[122.2,53.7],[122.1,53.7],[122.1,53.8],[122.0,53.8],[122.0,53.9],[121.9,53.9],[121.9,54.0],[121.7,54.0],[121.7,54.1],[121.4,54.1],[121.4,54.2],[120.9,54.2],[120.9,54.3],[120.4,54.3],[120.4,54.4],[119.0,54.4],[119.0,54.5]]]},"properties":{"tile_id":"60","start_year":602,"end_year":630,"source_image":"data/raw/toolbay/t/60/602.png","source_url":"https://www.toolbay.cc/history-map/t/60/602.png","source_color":"#999900","polity_id":null,"polity_assignment":"unverified","geometry_origin":"raster_color_trace","pixel_size_degrees":0.1,"source_color_pixels":16800,"simplification_degrees":0}},{"type":"Feature","id":"60:602:#ffff00","bbox":[90.0,45.0,101.2,54.9],"geometry":{"type":"Polygon","coordinates":[[[90.3,54.9],[90.0,54.9],[90.0,45.0],[100.1,45.0],[100.1,45.1],[100.2,45.1],[100.2,45.2],[100.3,45.2],[100.3,45.4],[100.4,45.4],[100.4,45.6],[100.5,45.6],[100.5,46.0],[100.6,46.0],[100.6,46.3],[100.7,46.3],[100.7,46.5],[100.8,46.5],[100.8,46.7],[100.9,46.7],[100.9,46.8],[101.0,46.8],[101.0,47.0],[101.1,47.0],[101.1,48.1],[101.0,48.1],[101.0,48.5],[100.9,48.5],[100.9,49.3],[101.0,49.3],[101.0,49.6],[101.1,49.6],[101.1,49.8],[101.2,49.8],[101.2,50.6],[101.1,50.6],[101.1,51.0],[101.0,51.0],[101.0,51.2],[100.9,51.2],[100.9,51.5],[100.8,51.5],[100.8,51.6],[100.7,51.6],[100.7,51.8],[100.6,51.8],[100.6,52.0],[100.4,52.0],[100.4,52.1],[100.3,52.1],[100.3,52.2],[100.2,52.2],[100.2,52.3],[100.0,52.3],[100.0,52.4],[99.9,52.4],[99.9,52.5],[99.8,52.5],[99.8,52.6],[99.7,52.6],[99.7,52.7],[99.6,52.7],[99.6,52.9],[99.5,52.9],[99.5,53.0],[99.4,53.0],[99.4,53.1],[99.3,53.1],[99.3,53.2],[99.1,53.2],[99.1,53.3],[98.6,53.3],[98.6,53.4],[97.9,53.4],[97.9,53.5],[97.6,53.5],[97.6,53.6],[97.4,53.6],[97.4,53.7],[97.2,53.7],[97.2,53.8],[96.9,53.8],[96.9,53.9],[96.5,53.9],[96.5,54.0],[96.2,54.0],[96.2,54.1],[95.2,54.1],[95.2,54.2],[93.4,54.2],[93.4,54.3],[92.7,54.3],[92.7,54.4],[92.3,54.4],[92.3,54.5],[92.0,54.5],[92.0,54.6],[91.6,54.6],[91.6,54.7],[90.8,54.7],[90.8,54.8],[90.3,54.8],[90.3,54.9]]]},"properties":{"tile_id":"60","start_year":602,"end_year":630,"source_image":"data/raw/toolbay/t/60/602.png","source_url":"https://www.toolbay.cc/history-map/t/60/602.png","source_color":"#ffff00","polity_id":null,"polity_assignment":"unverified","geometry_origin":"raster_color_trace","pixel_size_degrees":0.1,"source_color_pixels":9654,"simplification_degrees":0}}]}
