{"type":"FeatureCollection","features":[{"type":"Feature","id":"60:646:#00ff00","bbox":[90.0,50.9,119.9,61.3],"geometry":{"type":"Polygon","coordinates":[[[106.5,61.3],[104.9,61.3],[104.9,61.2],[104.2,61.2],[104.2,61.1],[104.1,61.1],[104.1,61.0],[103.6,61.0],[103.6,60.9],[103.3,60.9],[103.3,60.8],[102.8,60.8],[102.8,60.7],[102.1,60.7],[102.1,60.6],[101.7,60.6],[101.7,60.5],[101.4,60.5],[101.4,60.4],[100.9,60.4],[100.9,60.3],[100.4,60.3],[100.4,60.2],[100.1,60.2],[100.1,60.1],[99.5,60.1],[99.5,60.0],[98.9,60.0],[98.9,59.9],[98.4,59.9],[98.4,59.8],[98.1,59.8],[98.1,59.7],[97.9,59.7],[97.9,59.6],[97.6,59.6],[97.6,59.5],[97.2,59.5],[97.2,59.4],[96.5,59.4],[96.5,59.3],[96.3,59.3],[96.3,59.2],[95.9,59.2],[95.9,59.1],[95.6,59.1],[95.6,59.0],[95.2,59.0],[95.2,58.9],[94.9,58.9],[94.9,58.8],[94.5,58.8],[94.5,58.7],[94.3,58.7],[94.3,58.6],[93.7,58.6],[93.7,58.5],[93.5,58.5],[93.5,58.4],[92.7,58.4],[92.7,58.2],[92.1,58.2],[92.1,58.1],[90.8,58.1],[90.8,58.2],[90.0,58.2],[90.0,54.9],[90.3,54.9],[90.3,54.8],[90.8,54.8],[90.8,54.7],[91.6,54.7],[91.6,54.6],[92.0,54.6],[92.0,54.5],[92.3,54.5],[92.3,54.4],[92.7,54.4],[92.7,54.3],[93.4,54.3],[93.4,54.2],[95.2,54.2],[95.2,54.1],[96.2,54.1],[96.2,54.0],[96.5,54.0],[96.5,53.9],[96.9,53.9],[96.9,53.8],[97.2,53.8],[97.2,53.7],[97.4,53.7],[97.4,53.6],[97.6,53.6],[97.6,53.5],[97.9,53.5],[97.9,53.4],[98.6,53.4],[98.6,53.3],[99.1,53.3],[99.1,53.2],[99.3,53.2],[99.3,53.1],[99.4,53.1],[99.4,53.0],[99.5,53.0],[99.5,52.9],[99.6,52.9],[99.6,52.7],[99.7,52.7],[99.7,52.6],[99.8,52.6],[99.8,52.5],[99.9,52.5],[99.9,52.4],[100.0,52.4],[100.0,52.3],[100.2,52.3],[100.2,52.2],[100.3,52.2],[100.3,52.1],[100.4,52.1],[100.4,52.0],[100.6,52.0],[100.6,51.8],[100.7,51.8],[100.7,51.6],[100.8,51.6],[100.8,51.5],[100.9,51.5],[100.9,51.2],[101.0,51.2],[101.0,51.0],[101.9,51.0],[101.9,50.9],[105.2,50.9],[105.2,51.0],[105.7,51.0],[105.7,51.1],[106.4,51.1],[106.4,51.2],[107.0,51.2],[107.0,51.3],[107.2,51.3],[107.2,51.4],[107.6,51.4],[107.6,51.5],[107.8,51.5],[107.8,51.6],[108.0,51.6],[108.0,51.7],[108.2,51.7],[108.2,51.8],[108.4,51.8],[108.4,51.9],[108.6,51.9],[108.6,52.0],[108.7,52.0],[108.7,52.1],[108.8,52.1],[108.8,52.2],[108.9,52.2],[108.9,52.3],[109.1,52.3],[109.1,52.4],[109.3,52.4],[109.3,52.5],[109.4,52.5],[109.4,52.6],[109.6,52.6],[109.6,52.7],[109.8,52.7],[109.8,52.8],[109.9,52.8],[109.9,52.9],[110.3,52.9],[110.3,53.0],[110.5,53.0],[110.5,53.1],[110.7,53.1],[110.7,53.2],[111.1,53.2],[111.1,53.3],[111.5,53.3],[111.5,53.4],[111.9,53.4],[111.9,53.5],[112.3,53.5],[112.3,53.6],[112.7,53.6],[112.7,53.7],[113.0,53.7],[113.0,53.8],[113.6,53.8],[113.6,53.9],[114.5,53.9],[114.5,54.0],[116.4,54.0],[116.4,54.1],[117.1,54.1],[117.1,54.2],[117.4,54.2],[117.4,54.3],[117.6,54.3],[117.6,54.4],[118.1,54.4],[118.1,54.5],[119.0,54.5],[119.0,54.6],[119.1,54.6],[119.1,54.8],[119.2,54.8],[119.2,55.0],[119.3,55.0],[119.3,55.3],[119.4,55.3],[119.4,55.5],[119.5,55.5],[119.5,55.6],[119.6,55.6],[119.6,56.0],[119.7,56.0],[119.7,56.2],[119.8,56.2],[119.8,56.6],[119.9,56.6],[119.9,57.6],[119.8,57.6],[119.8,57.9],[119.7,57.9],[119.7,58.0],[119.6,58.0],[119.6,58.1],[119.5,58.1],[119.5,58.2],[119.4,58.2],[119.4,58.3],[119.2,58.3],[119.2,58.4],[119.1,58.4],[119.1,58.5],[119.0,58.5],[119.0,58.6],[118.8,58.6],[118.8,58.7],[118.7,58.7],[118.7,58.8],[118.5,58.8],[118.5,58.9],[118.2,58.9],[118.2,59.0],[117.9,59.0],[117.9,59.1],[117.4,59.1],[117.4,59.2],[116.8,59.2],[116.8,59.3],[116.6,59.3],[116.6,59.4],[115.9,59.4],[115.9,59.5],[115.6,59.5],[115.6,59.6],[115.3,59.6],[115.3,59.7],[115.0,59.7],[115.0,59.8],[114.6,59.8],[114.6,59.9],[114.1,59.9],[114.1,60.0],[113.9,60.0],[113.9,60.1],[112.9,60.1],[112.9,60.2],[112.2,60.2],[112.2,60.3],[111.7,60.3],[111.7,60.4],[111.3,60.4],[111.3,60.5],[110.6,60.5],[110.6,60.6],[110.1,60.6],[110.1,60.7],[109.7,60.7],[109.7,60.8],[108.9,60.8],[108.9,60.9],[108.1,60.9],[108.1,61.0],[107.7,61.0],[107.7,61.1],[107.5,61.1],[107.5,61.2],[106.5,61.2],[106.5,61.3]],[[109.7,55.8],[109.7,55.9],[109.8,55.9],[109.8,55.5],[109.7,55.5],[109.7,55.4],[109.8,55.4],[109.8,55.0],[109.7,55.0],[109.7,54.8],[109.6,54.8],[109.6,54.4],[109.5,54.4],[109.5,54.2],[109.4,54.2],[109.4,54.1],[109.3,54.1],[109.3,53.9],[109.2,53.9],[109.2,53.6],[109.1,53.6],[109.1,53.5],[109.0,53.5],[109.0,53.4],[108.8,53.4],[108.8,53.3],[108.6,53.3],[108.6,53.2],[108.4,53.2],[108.4,53.1],[108.3,53.1],[108.3,53.0],[108.2,53.0],[108.2,52.9],[107.9,52.9],[107.9,52.8],[107.8,52.8],[107.8,52.9],[107.6,52.9],[107.6,52.8],[107.2,52.8],[107.2,52.7],[107.1,52.7],[107.1,52.6],[107.0,52.6],[107.0,52.5],[106.9,52.5],[106.9,52.4],[106.8,52.4],[106.8,52.3],[106.7,52.3],[106.7,52.2],[106.4,52.2],[106.4,52.1],[106.2,52.1],[106.2,52.0],[105.9,52.0],[105.9,51.9],[105.7,51.9],[105.7,51.8],[105.6,51.8],[105.6,51.7],[105.1,51.7],[105.1,51.6],[104.7,51.6],[104.7,51.5],[104.4,51.5],[104.4,51.6],[104.3,51.6],[104.3,51.7],[104.4,51.7],[104.4,51.8],[105.1,51.8],[105.1,51.9],[105.4,51.9],[105.4,52.0],[105.6,52.0],[105.6,52.1],[105.7,52.1],[105.7,52.2],[105.8,52.2],[105.8,52.3],[105.9,52.3],[105.9,52.4],[106.0,52.4],[106.0,52.5],[106.2,52.5],[106.2,52.6],[106.4,52.6],[106.4,52.7],[106.7,52.7],[106.7,52.8],[106.8,52.8],[106.8,52.9],[106.9,52.9],[106.9,53.1],[107.0,53.1],[107.0,53.2],[107.1,53.2],[107.1,53.3],[107.2,53.3],[107.2,53.4],[107.4,53.4],[107.4,53.5],[107.7,53.5],[107.7,53.6],[107.9,53.6],[107.9,53.7],[108.0,53.7],[108.0,53.8],[108.2,53.8],[108.2,53.9],[108.3,53.9],[108.3,54.1],[108.4,54.1],[108.4,54.2],[108.5,54.2],[108.5,54.3],[108.6,54.3],[108.6,54.5],[108.7,54.5],[108.7,54.6],[108.9,54.6],[108.9,54.8],[109.0,54.8],[109.0,54.9],[109.1,54.9],[109.1,55.1],[109.3,55.1],[109.3,55.5],[109.4,55.5],[109.4,55.6],[109.6,55.6],[109.6,55.8],[109.7,55.8]]]},"properties":{"tile_id":"60","start_year":646,"end_year":650,"source_image":"data/raw/toolbay/t/60/646.png","source_url":"https://www.toolbay.cc/history-map/t/60/646.png","source_color":"#00ff00","polity_id":null,"polity_assignment":"unverified","geometry_origin":"raster_color_trace","pixel_size_degrees":0.1,"source_color_pixels":19649,"simplification_degrees":0}},{"type":"Feature","id":"60:646:#ff9933","bbox":[90.0,45.0,125.0,54.9],"geometry":{"type":"Polygon","coordinates":[[[90.3,54.9],[90.0,54.9],[90.0,45.0],[123.3,45.0],[123.3,45.9],[123.2,45.9],[123.2,46.2],[123.1,46.2],[123.1,46.8],[123.2,46.8],[123.2,47.3],[123.3,47.3],[123.3,47.7],[123.4,47.7],[123.4,48.0],[123.5,48.0],[123.5,48.3],[123.6,48.3],[123.6,48.5],[123.7,48.5],[123.7,48.8],[123.8,48.8],[123.8,49.0],[123.9,49.0],[123.9,49.2],[124.0,49.2],[124.0,49.5],[124.1,49.5],[124.1,49.8],[124.2,49.8],[124.2,49.9],[124.3,49.9],[124.3,50.1],[124.4,50.1],[124.4,50.5],[124.5,50.5],[124.5,50.8],[124.6,50.8],[124.6,51.1],[124.7,51.1],[124.7,51.3],[124.8,51.3],[124.8,51.6],[124.9,51.6],[124.9,52.0],[125.0,52.0],[125.0,53.3],[124.9,53.3],[124.9,53.6],[124.8,53.6],[124.8,53.9],[124.7,53.9],[124.7,54.0],[124.6,54.0],[124.6,54.1],[124.4,54.1],[124.4,54.2],[124.3,54.2],[124.3,54.3],[124.1,54.3],[124.1,54.4],[123.9,54.4],[123.9,54.5],[123.6,54.5],[123.6,54.6],[123.2,54.6],[123.2,54.7],[121.8,54.7],[121.8,54.6],[121.2,54.6],[121.2,54.5],[120.6,54.5],[120.6,54.4],[119.3,54.4],[119.3,54.5],[118.1,54.5],[118.1,54.4],[117.6,54.4],[117.6,54.3],[117.4,54.3],[117.4,54.2],[117.1,54.2],[117.1,54.1],[116.4,54.1],[116.4,54.0],[114.5,54.0],[114.5,53.9],[113.6,53.9],[113.6,53.8],[113.0,53.8],[113.0,53.7],[112.7,53.7],[112.7,53.6],[112.3,53.6],[112.3,53.5],[111.9,53.5],[111.9,53.4],[111.5,53.4],[111.5,53.3],[111.1,53.3],[111.1,53.2],[110.7,53.2],[110.7,53.1],[110.5,53.1],[110.5,53.0],[110.3,53.0],[110.3,52.9],[109.9,52.9],[109.9,52.8],[109.8,52.8],[109.8,52.7],[109.6,52.7],[109.6,52.6],[109.4,52.6],[109.4,52.5],[109.3,52.5],[109.3,52.4],[109.1,52.4],[109.1,52.3],[108.9,52.3],[108.9,52.2],[108.8,52.2],[108.8,52.1],[108.7,52.1],[108.7,52.0],[108.6,52.0],[108.6,51.9],[108.4,51.9],[108.4,51.8],[108.2,51.8],[108.2,51.7],[108.0,51.7],[108.0,51.6],[107.8,51.6],[107.8,51.5],[107.6,51.5],[107.6,51.4],[107.2,51.4],[107.2,51.3],[107.0,51.3],[107.0,51.2],[106.4,51.2],[106.4,51.1],[105.7,51.1],[105.7,51.0],[105.2,51.0],[105.2,50.9],[101.9,50.9],[101.9,51.0],[101.0,51.0],[101.0,51.2],[100.9,51.2],[100.9,51.5],[100.8,51.5],[100.8,51.6],[100.7,51.6],[100.7,51.8],[100.6,51.8],[100.6,52.0],[100.4,52.0],[100.4,52.1],[100.3,52.1],[100.3,52.2],[100.2,52.2],[100.2,52.3],[100.0,52.3],[100.0,52.4],[99.9,52.4],[99.9,52.5],[99.8,52.5],[99.8,52.6],[99.7,52.6],[99.7,52.7],[99.6,52.7],[99.6,52.9],[99.5,52.9],[99.5,53.0],[99.4,53.0],[99.4,53.1],[99.3,53.1],[99.3,53.2],[99.1,53.2],[99.1,53.3],[98.6,53.3],[98.6,53.4],[97.9,53.4],[97.9,53.5],[97.6,53.5],[97.6,53.6],[97.4,53.6],[97.4,53.7],[97.2,53.7],[97.2,53.8],[96.9,53.8],[96.9,53.9],[96.5,53.9],[96.5,54.0],[96.2,54.0],[96.2,54.1],[95.2,54.1],[95.2,54.2],[93.4,54.2],[93.4,54.3],[92.7,54.3],[92.7,54.4],[92.3,54.4],[92.3,54.5],[92.0,54.5],[92.0,54.6],[91.6,54.6],[91.6,54.7],[90.8,54.7],[90.8,54.8],[90.3,54.8],[90.3,54.9]]]},"properties":{"tile_id":"60","start_year":646,"end_year":650,"source_image":"data/raw/toolbay/t/60/646.png","source_url":"https://www.toolbay.cc/history-map/t/60/646.png","source_color":"#ff9933","polity_id":null,"polity_assignment":"unverified","geometry_origin":"raster_color_trace","pixel_size_degrees":0.1,"source_color_pixels":28206,"simplification_degrees":0}}]}
