{"type":"FeatureCollection","features":[{"type":"Feature","id":"60:654:#ff9933","bbox":[90.0,45.0,128.9,61.3],"geometry":{"type":"Polygon","coordinates":[[[106.5,61.3],[104.9,61.3],[104.9,61.2],[104.2,61.2],[104.2,61.1],[104.1,61.1],[104.1,61.0],[103.6,61.0],[103.6,60.9],[103.3,60.9],[103.3,60.8],[102.8,60.8],[102.8,60.7],[102.1,60.7],[102.1,60.6],[101.7,60.6],[101.7,60.5],[101.4,60.5],[101.4,60.4],[100.9,60.4],[100.9,60.3],[100.4,60.3],[100.4,60.2],[100.1,60.2],[100.1,60.1],[99.5,60.1],[99.5,60.0],[98.9,60.0],[98.9,59.9],[98.4,59.9],[98.4,59.8],[98.1,59.8],[98.1,59.7],[97.9,59.7],[97.9,59.6],[97.6,59.6],[97.6,59.5],[97.2,59.5],[97.2,59.4],[96.5,59.4],[96.5,59.3],[96.3,59.3],[96.3,59.2],[95.9,59.2],[95.9,59.1],[95.6,59.1],[95.6,59.0],[95.2,59.0],[95.2,58.9],[94.9,58.9],[94.9,58.8],[94.5,58.8],[94.5,58.7],[94.3,58.7],[94.3,58.6],[93.7,58.6],[93.7,58.5],[93.5,58.5],[93.5,58.4],[92.7,58.4],[92.7,58.2],[92.1,58.2],[92.1,58.1],[90.8,58.1],[90.8,58.2],[90.0,58.2],[90.0,45.0],[124.6,45.0],[124.6,45.1],[124.7,45.1],[124.7,45.3],[124.8,45.3],[124.8,45.8],[124.9,45.8],[124.9,46.1],[125.0,46.1],[125.0,46.3],[125.1,46.3],[125.1,46.6],[125.2,46.6],[125.2,47.0],[125.3,47.0],[125.3,47.1],[125.4,47.1],[125.4,47.2],[125.5,47.2],[125.5,47.5],[125.6,47.5],[125.6,47.6],[125.7,47.6],[125.7,47.8],[125.8,47.8],[125.8,48.0],[125.9,48.0],[125.9,48.1],[126.0,48.1],[126.0,48.3],[126.1,48.3],[126.1,48.5],[126.2,48.5],[126.2,48.6],[126.4,48.6],[126.4,48.8],[126.5,48.8],[126.5,49.0],[126.6,49.0],[126.6,49.3],[126.7,49.3],[126.7,49.5],[126.8,49.5],[126.8,49.9],[126.9,49.9],[126.9,50.2],[127.0,50.2],[127.0,50.4],[127.1,50.4],[127.1,50.8],[127.2,50.8],[127.2,51.2],[127.3,51.2],[127.3,51.4],[127.4,51.4],[127.4,51.6],[127.6,51.6],[127.6,51.8],[127.8,51.8],[127.8,52.0],[127.9,52.0],[127.9,52.1],[128.0,52.1],[128.0,52.2],[128.1,52.2],[128.1,52.3],[128.2,52.3],[128.2,52.5],[128.3,52.5],[128.3,52.6],[128.4,52.6],[128.4,52.8],[128.5,52.8],[128.5,53.0],[128.6,53.0],[128.6,53.2],[128.7,53.2],[128.7,53.7],[128.8,53.7],[128.8,53.9],[128.9,53.9],[128.9,55.1],[128.8,55.1],[128.8,55.3],[128.7,55.3],[128.7,55.5],[128.6,55.5],[128.6,55.6],[128.5,55.6],[128.5,55.8],[128.4,55.8],[128.4,55.9],[128.3,55.9],[128.3,56.0],[128.2,56.0],[128.2,56.1],[128.1,56.1],[128.1,56.3],[127.9,56.3],[127.9,56.5],[127.7,56.5],[127.7,56.6],[127.6,56.6],[127.6,56.7],[127.3,56.7],[127.3,56.8],[127.1,56.8],[127.1,56.9],[126.8,56.9],[126.8,57.0],[126.6,57.0],[126.6,57.1],[126.3,57.1],[126.3,57.2],[126.0,57.2],[126.0,57.3],[125.6,57.3],[125.6,57.4],[125.2,57.4],[125.2,57.5],[124.6,57.5],[124.6,57.6],[124.1,57.6],[124.1,57.7],[123.8,57.7],[123.8,57.8],[123.1,57.8],[123.1,57.9],[122.5,57.9],[122.5,58.0],[122.1,58.0],[122.1,58.1],[121.3,58.1],[121.3,58.2],[120.8,58.2],[120.8,58.3],[120.2,58.3],[120.2,58.4],[119.7,58.4],[119.7,58.5],[119.4,58.5],[119.4,58.6],[119.2,58.6],[119.2,58.7],[118.9,58.7],[118.9,58.8],[118.5,58.8],[118.5,58.9],[118.2,58.9],[118.2,59.0],[117.9,59.0],[117.9,59.1],[117.4,59.1],[117.4,59.2],[116.8,59.2],[116.8,59.3],[116.6,59.3],[116.6,59.4],[115.9,59.4],[115.9,59.5],[115.6,59.5],[115.6,59.6],[115.3,59.6],[115.3,59.7],[115.0,59.7],[115.0,59.8],[114.6,59.8],[114.6,59.9],[114.1,59.9],[114.1,60.0],[113.9,60.0],[113.9,60.1],[112.9,60.1],[112.9,60.2],[112.2,60.2],[112.2,60.3],[111.7,60.3],[111.7,60.4],[111.3,60.4],[111.3,60.5],[110.6,60.5],[110.6,60.6],[110.1,60.6],[110.1,60.7],[109.7,60.7],[109.7,60.8],[108.9,60.8],[108.9,60.9],[108.1,60.9],[108.1,61.0],[107.7,61.0],[107.7,61.1],[107.5,61.1],[107.5,61.2],[106.5,61.2],[106.5,61.3]],[[109.7,55.8],[109.7,55.9],[109.8,55.9],[109.8,55.5],[109.7,55.5],[109.7,55.4],[109.8,55.4],[109.8,55.0],[109.7,55.0],[109.7,54.8],[109.6,54.8],[109.6,54.4],[109.5,54.4],[109.5,54.2],[109.4,54.2],[109.4,54.1],[109.3,54.1],[109.3,53.9],[109.2,53.9],[109.2,53.6],[109.1,53.6],[109.1,53.5],[109.0,53.5],[109.0,53.4],[108.8,53.4],[108.8,53.3],[108.6,53.3],[108.6,53.2],[108.4,53.2],[108.4,53.1],[108.3,53.1],[108.3,53.0],[108.2,53.0],[108.2,52.9],[107.9,52.9],[107.9,52.8],[107.8,52.8],[107.8,52.9],[107.6,52.9],[107.6,52.8],[107.2,52.8],[107.2,52.7],[107.1,52.7],[107.1,52.6],[107.0,52.6],[107.0,52.5],[106.9,52.5],[106.9,52.4],[106.8,52.4],[106.8,52.3],[106.7,52.3],[106.7,52.2],[106.4,52.2],[106.4,52.1],[106.2,52.1],[106.2,52.0],[105.9,52.0],[105.9,51.9],[105.7,51.9],[105.7,51.8],[105.6,51.8],[105.6,51.7],[105.1,51.7],[105.1,51.6],[104.7,51.6],[104.7,51.5],[104.4,51.5],[104.4,51.6],[104.3,51.6],[104.3,51.7],[104.4,51.7],[104.4,51.8],[105.1,51.8],[105.1,51.9],[105.4,51.9],[105.4,52.0],[105.6,52.0],[105.6,52.1],[105.7,52.1],[105.7,52.2],[105.8,52.2],[105.8,52.3],[105.9,52.3],[105.9,52.4],[106.0,52.4],[106.0,52.5],[106.2,52.5],[106.2,52.6],[106.4,52.6],[106.4,52.7],[106.7,52.7],[106.7,52.8],[106.8,52.8],[106.8,52.9],[106.9,52.9],[106.9,53.1],[107.0,53.1],[107.0,53.2],[107.1,53.2],[107.1,53.3],[107.2,53.3],[107.2,53.4],[107.4,53.4],[107.4,53.5],[107.7,53.5],[107.7,53.6],[107.9,53.6],[107.9,53.7],[108.0,53.7],[108.0,53.8],[108.2,53.8],[108.2,53.9],[108.3,53.9],[108.3,54.1],[108.4,54.1],[108.4,54.2],[108.5,54.2],[108.5,54.3],[108.6,54.3],[108.6,54.5],[108.7,54.5],[108.7,54.6],[108.9,54.6],[108.9,54.8],[109.0,54.8],[109.0,54.9],[109.1,54.9],[109.1,55.1],[109.3,55.1],[109.3,55.5],[109.4,55.5],[109.4,55.6],[109.6,55.6],[109.6,55.8],[109.7,55.8]]]},"properties":{"tile_id":"60","start_year":654,"end_year":682,"source_image":"data/raw/toolbay/t/60/654.png","source_url":"https://www.toolbay.cc/history-map/t/60/654.png","source_color":"#ff9933","polity_id":null,"polity_assignment":"unverified","geometry_origin":"raster_color_trace","pixel_size_degrees":0.1,"source_color_pixels":53160,"simplification_degrees":0}}]}
