{"type":"FeatureCollection","features":[{"type":"Feature","id":"60:682:#999933","bbox":[102.3,47.2,111.2,51.2],"geometry":{"type":"Polygon","coordinates":[[[102.8,51.2],[102.6,51.2],[102.6,51.1],[102.5,51.1],[102.5,51.0],[102.4,51.0],[102.4,50.8],[102.3,50.8],[102.3,50.3],[102.4,50.3],[102.4,50.2],[102.5,50.2],[102.5,50.0],[102.6,50.0],[102.6,49.9],[102.7,49.9],[102.7,49.8],[102.8,49.8],[102.8,49.6],[102.9,49.6],[102.9,49.5],[103.0,49.5],[103.0,49.4],[103.1,49.4],[103.1,49.3],[103.2,49.3],[103.2,49.2],[103.3,49.2],[103.3,49.1],[103.4,49.1],[103.4,49.0],[103.5,49.0],[103.5,48.9],[103.6,48.9],[103.6,48.8],[103.7,48.8],[103.7,48.7],[103.8,48.7],[103.8,48.6],[103.9,48.6],[103.9,48.5],[104.1,48.5],[104.1,48.4],[104.3,48.4],[104.3,48.3],[104.4,48.3],[104.4,48.2],[104.6,48.2],[104.6,48.1],[104.8,48.1],[104.8,48.0],[105.0,48.0],[105.0,47.9],[105.2,47.9],[105.2,47.8],[105.4,47.8],[105.4,47.7],[105.7,47.7],[105.7,47.6],[105.9,47.6],[105.9,47.5],[106.1,47.5],[106.1,47.4],[106.3,47.4],[106.3,47.3],[106.7,47.3],[106.7,47.2],[109.6,47.2],[109.6,47.3],[110.0,47.3],[110.0,47.4],[110.2,47.4],[110.2,47.5],[110.3,47.5],[110.3,47.6],[110.4,47.6],[110.4,47.7],[110.6,47.7],[110.6,47.8],[110.7,47.8],[110.7,47.9],[110.8,47.9],[110.8,48.0],[110.9,48.0],[110.9,48.1],[111.0,48.1],[111.0,48.2],[111.1,48.2],[111.1,48.4],[111.2,48.4],[111.2,48.7],[111.1,48.7],[111.1,48.9],[110.9,48.9],[110.9,49.0],[110.4,49.0],[110.4,48.9],[110.2,48.9],[110.2,48.8],[107.8,48.8],[107.8,48.9],[107.6,48.9],[107.6,49.0],[107.5,49.0],[107.5,49.1],[107.4,49.1],[107.4,49.2],[107.2,49.2],[107.2,49.3],[107.0,49.3],[107.0,49.4],[106.7,49.4],[106.7,49.5],[106.5,49.5],[106.5,49.6],[106.2,49.6],[106.2,49.7],[106.0,49.7],[106.0,49.8],[105.9,49.8],[105.9,49.9],[105.8,49.9],[105.8,50.0],[105.6,50.0],[105.6,50.1],[105.4,50.1],[105.4,50.2],[105.2,50.2],[105.2,50.3],[105.1,50.3],[105.1,50.4],[104.9,50.4],[104.9,50.5],[104.7,50.5],[104.7,50.6],[104.5,50.6],[104.5,50.7],[104.3,50.7],[104.3,50.8],[104.2,50.8],[104.2,50.9],[103.2,50.9],[103.2,51.0],[103.0,51.0],[103.0,51.1],[102.8,51.1],[102.8,51.2]]]},"properties":{"tile_id":"60","start_year":682,"end_year":695,"source_image":"data/raw/toolbay/t/60/682.png","source_url":"https://www.toolbay.cc/history-map/t/60/682.png","source_color":"#999933","polity_id":null,"polity_assignment":"unverified","geometry_origin":"raster_color_trace","pixel_size_degrees":0.1,"source_color_pixels":1617,"simplification_degrees":0}},{"type":"Feature","id":"60:682:#ff9933","bbox":[90.0,45.0,127.2,55.7],"geometry":{"type":"Polygon","coordinates":[[[90.2,55.7],[90.0,55.7],[90.0,45.0],[124.6,45.0],[124.6,45.1],[124.7,45.1],[124.7,45.3],[124.8,45.3],[124.8,45.8],[124.9,45.8],[124.9,46.1],[125.0,46.1],[125.0,46.3],[125.1,46.3],[125.1,46.6],[125.2,46.6],[125.2,47.0],[125.3,47.0],[125.3,47.1],[125.4,47.1],[125.4,47.2],[125.5,47.2],[125.5,47.5],[125.6,47.5],[125.6,47.6],[125.7,47.6],[125.7,47.8],[125.8,47.8],[125.8,48.0],[125.9,48.0],[125.9,48.1],[126.0,48.1],[126.0,48.3],[126.1,48.3],[126.1,48.5],[126.2,48.5],[126.2,48.6],[126.4,48.6],[126.4,48.8],[126.5,48.8],[126.5,49.0],[126.6,49.0],[126.6,49.3],[126.7,49.3],[126.7,49.5],[126.8,49.5],[126.8,49.9],[126.9,49.9],[126.9,50.2],[127.0,50.2],[127.0,50.4],[127.1,50.4],[127.1,50.8],[127.2,50.8],[127.2,51.3],[127.1,51.3],[127.1,51.4],[127.0,51.4],[127.0,51.5],[126.9,51.5],[126.9,51.6],[126.7,51.6],[126.7,51.7],[126.6,51.7],[126.6,51.9],[126.5,51.9],[126.5,52.0],[126.4,52.0],[126.4,52.3],[126.2,52.3],[126.2,52.4],[126.1,52.4],[126.1,52.5],[126.0,52.5],[126.0,52.6],[125.8,52.6],[125.8,52.7],[125.6,52.7],[125.6,52.8],[125.3,52.8],[125.3,52.9],[124.2,52.9],[124.2,53.0],[123.8,53.0],[123.8,53.1],[123.6,53.1],[123.6,53.2],[122.7,53.2],[122.7,53.1],[121.6,53.1],[121.6,53.0],[120.9,53.0],[120.9,52.9],[120.5,52.9],[120.5,52.8],[120.1,52.8],[120.1,52.7],[119.7,52.7],[119.7,52.6],[119.3,52.6],[119.3,52.5],[119.1,52.5],[119.1,52.4],[118.8,52.4],[118.8,52.3],[118.7,52.3],[118.7,52.2],[118.3,52.2],[118.3,52.1],[118.1,52.1],[118.1,52.0],[117.8,52.0],[117.8,51.9],[117.6,51.9],[117.6,51.8],[117.4,51.8],[117.4,51.7],[117.3,51.7],[117.3,51.6],[117.1,51.6],[117.1,51.5],[117.0,51.5],[117.0,51.4],[116.8,51.4],[116.8,51.3],[116.6,51.3],[116.6,51.2],[116.4,51.2],[116.4,51.1],[116.2,51.1],[116.2,51.0],[116.1,51.0],[116.1,50.9],[115.8,50.9],[115.8,50.8],[115.7,50.8],[115.7,50.7],[115.5,50.7],[115.5,50.6],[115.3,50.6],[115.3,50.5],[115.1,50.5],[115.1,50.4],[114.9,50.4],[114.9,50.3],[114.6,50.3],[114.6,50.2],[114.3,50.2],[114.3,50.1],[114.0,50.1],[114.0,50.0],[113.8,50.0],[113.8,49.9],[113.6,49.9],[113.6,49.8],[113.1,49.8],[113.1,49.7],[112.7,49.7],[112.7,49.6],[112.4,49.6],[112.4,49.5],[112.2,49.5],[112.2,49.4],[112.1,49.4],[112.1,49.3],[111.8,49.3],[111.8,49.2],[111.6,49.2],[111.6,49.1],[111.3,49.1],[111.3,49.0],[110.9,49.0],[110.9,48.9],[111.1,48.9],[111.1,48.7],[111.2,48.7],[111.2,48.4],[111.1,48.4],[111.1,48.2],[111.0,48.2],[111.0,48.1],[110.9,48.1],[110.9,48.0],[110.8,48.0],[110.8,47.9],[110.7,47.9],[110.7,47.8],[110.6,47.8],[110.6,47.7],[110.4,47.7],[110.4,47.6],[110.3,47.6],[110.3,47.5],[110.2,47.5],[110.2,47.4],[110.0,47.4],[110.0,47.3],[109.6,47.3],[109.6,47.2],[106.7,47.2],[106.7,47.3],[106.3,47.3],[106.3,47.4],[106.1,47.4],[106.1,47.5],[105.9,47.5],[105.9,47.6],[105.7,47.6],[105.7,47.7],[105.4,47.7],[105.4,47.8],[105.2,47.8],[105.2,47.9],[105.0,47.9],[105.0,48.0],[104.8,48.0],[104.8,48.1],[104.6,48.1],[104.6,48.2],[104.4,48.2],[104.4,48.3],[104.3,48.3],[104.3,48.4],[104.1,48.4],[104.1,48.5],[103.9,48.5],[103.9,48.6],[103.8,48.6],[103.8,48.7],[103.7,48.7],[103.7,48.8],[103.6,48.8],[103.6,48.9],[103.5,48.9],[103.5,49.0],[103.4,49.0],[103.4,49.1],[103.3,49.1],[103.3,49.2],[103.2,49.2],[103.2,49.3],[103.1,49.3],[103.1,49.4],[103.0,49.4],[103.0,49.5],[102.9,49.5],[102.9,49.6],[102.8,49.6],[102.8,49.8],[102.7,49.8],[102.7,49.9],[102.6,49.9],[102.6,50.0],[102.5,50.0],[102.5,50.2],[102.4,50.2],[102.4,50.3],[102.3,50.3],[102.3,50.8],[102.4,50.8],[102.4,51.0],[102.5,51.0],[102.5,51.1],[102.6,51.1],[102.6,51.2],[102.5,51.2],[102.5,51.3],[101.6,51.3],[101.6,51.4],[101.0,51.4],[101.0,51.5],[100.7,51.5],[100.7,51.6],[100.4,51.6],[100.4,51.7],[100.0,51.7],[100.0,51.8],[98.7,51.8],[98.7,51.9],[98.4,51.9],[98.4,52.0],[98.0,52.0],[98.0,52.1],[97.6,52.1],[97.6,52.2],[97.1,52.2],[97.1,52.3],[96.8,52.3],[96.8,52.4],[96.6,52.4],[96.6,52.5],[96.4,52.5],[96.4,52.6],[96.2,52.6],[96.2,52.7],[96.1,52.7],[96.1,52.8],[96.0,52.8],[96.0,52.9],[95.9,52.9],[95.9,53.0],[95.8,53.0],[95.8,53.1],[95.7,53.1],[95.7,53.2],[95.5,53.2],[95.5,53.3],[95.3,53.3],[95.3,53.4],[95.1,53.4],[95.1,53.5],[94.9,53.5],[94.9,53.6],[94.7,53.6],[94.7,53.7],[94.5,53.7],[94.5,53.8],[94.3,53.8],[94.3,53.9],[94.1,53.9],[94.1,54.0],[93.9,54.0],[93.9,54.1],[93.6,54.1],[93.6,54.2],[93.4,54.2],[93.4,54.3],[93.1,54.3],[93.1,54.4],[92.8,54.4],[92.8,54.5],[92.6,54.5],[92.6,54.6],[92.3,54.6],[92.3,54.7],[92.1,54.7],[92.1,54.8],[92.0,54.8],[92.0,54.9],[91.7,54.9],[91.7,55.0],[91.4,55.0],[91.4,55.1],[91.2,55.1],[91.2,55.2],[91.1,55.2],[91.1,55.3],[90.8,55.3],[90.8,55.4],[90.6,55.4],[90.6,55.5],[90.4,55.5],[90.4,55.6],[90.2,55.6],[90.2,55.7]]]},"properties":{"tile_id":"60","start_year":682,"end_year":695,"source_image":"data/raw/toolbay/t/60/682.png","source_url":"https://www.toolbay.cc/history-map/t/60/682.png","source_color":"#ff9933","polity_id":null,"polity_assignment":"unverified","geometry_origin":"raster_color_trace","pixel_size_degrees":0.1,"source_color_pixels":22508,"simplification_degrees":0}}]}
