{"type":"FeatureCollection","features":[{"type":"Feature","id":"60:695:#999933","bbox":[100.4,45.0,117.9,51.4],"geometry":{"type":"Polygon","coordinates":[[[101.6,51.4],[101.2,51.4],[101.2,51.3],[101.1,51.3],[101.1,51.2],[101.0,51.2],[101.0,51.0],[100.9,51.0],[100.9,50.9],[100.8,50.9],[100.8,50.7],[100.7,50.7],[100.7,50.6],[100.6,50.6],[100.6,50.5],[100.5,50.5],[100.5,50.3],[100.4,50.3],[100.4,49.8],[100.5,49.8],[100.5,49.5],[100.6,49.5],[100.6,49.4],[100.7,49.4],[100.7,49.2],[100.8,49.2],[100.8,49.1],[100.9,49.1],[100.9,49.0],[101.0,49.0],[101.0,48.8],[101.1,48.8],[101.1,48.7],[101.2,48.7],[101.2,48.6],[101.3,48.6],[101.3,48.5],[101.4,48.5],[101.4,48.4],[101.6,48.4],[101.6,48.3],[101.8,48.3],[101.8,48.2],[102.1,48.2],[102.1,48.1],[102.3,48.1],[102.3,48.0],[102.5,48.0],[102.5,47.9],[102.8,47.9],[102.8,47.8],[102.9,47.8],[102.9,47.7],[103.2,47.7],[103.2,47.6],[103.4,47.6],[103.4,47.5],[103.7,47.5],[103.7,47.4],[103.9,47.4],[103.9,47.3],[104.0,47.3],[104.0,47.2],[104.2,47.2],[104.2,47.1],[104.4,47.1],[104.4,47.0],[104.5,47.0],[104.5,46.9],[104.7,46.9],[104.7,46.8],[104.8,46.8],[104.8,46.7],[105.1,46.7],[105.1,46.6],[105.3,46.6],[105.3,46.5],[105.5,46.5],[105.5,46.4],[105.9,46.4],[105.9,46.3],[106.1,46.3],[106.1,46.2],[106.2,46.2],[106.2,46.1],[106.4,46.1],[106.4,46.0],[106.5,46.0],[106.5,45.9],[106.6,45.9],[106.6,45.8],[106.8,45.8],[106.8,45.7],[107.0,45.7],[107.0,45.6],[107.1,45.6],[107.1,45.5],[107.4,45.5],[107.4,45.4],[107.7,45.4],[107.7,45.3],[108.0,45.3],[108.0,45.2],[108.2,45.2],[108.2,45.1],[108.4,45.1],[108.4,45.0],[110.4,45.0],[110.4,45.1],[110.7,45.1],[110.7,45.2],[111.1,45.2],[111.1,45.3],[111.6,45.3],[111.6,45.4],[111.8,45.4],[111.8,45.5],[112.2,45.5],[112.2,45.6],[112.6,45.6],[112.6,45.7],[112.7,45.7],[112.7,45.8],[113.5,45.8],[113.5,45.9],[113.8,45.9],[113.8,46.0],[114.1,46.0],[114.1,46.1],[114.4,46.1],[114.4,46.2],[114.8,46.2],[114.8,46.3],[115.1,46.3],[115.1,46.4],[115.5,46.4],[115.5,46.5],[116.0,46.5],[116.0,46.6],[116.5,46.6],[116.5,46.7],[116.9,46.7],[116.9,46.8],[117.2,46.8],[117.2,46.9],[117.4,46.9],[117.4,47.0],[117.7,47.0],[117.7,47.1],[117.8,47.1],[117.8,47.2],[117.9,47.2],[117.9,47.9],[117.8,47.9],[117.8,48.0],[117.7,48.0],[117.7,48.1],[117.6,48.1],[117.6,48.2],[116.6,48.2],[116.6,48.3],[116.2,48.3],[116.2,48.2],[115.7,48.2],[115.7,48.1],[115.3,48.1],[115.3,48.2],[114.9,48.2],[114.9,48.3],[114.7,48.3],[114.7,48.4],[114.4,48.4],[114.4,48.5],[114.2,48.5],[114.2,48.6],[113.9,48.6],[113.9,48.7],[113.7,48.7],[113.7,48.8],[113.5,48.8],[113.5,48.9],[113.3,48.9],[113.3,49.0],[113.2,49.0],[113.2,49.1],[113.0,49.1],[113.0,49.7],[112.7,49.7],[112.7,49.6],[112.4,49.6],[112.4,49.5],[112.2,49.5],[112.2,49.4],[112.1,49.4],[112.1,49.3],[111.8,49.3],[111.8,49.2],[111.6,49.2],[111.6,49.1],[111.3,49.1],[111.3,49.0],[110.4,49.0],[110.4,48.9],[110.2,48.9],[110.2,48.8],[107.8,48.8],[107.8,48.9],[107.6,48.9],[107.6,49.0],[107.5,49.0],[107.5,49.1],[107.4,49.1],[107.4,49.2],[107.2,49.2],[107.2,49.3],[107.0,49.3],[107.0,49.4],[106.7,49.4],[106.7,49.5],[106.5,49.5],[106.5,49.6],[106.2,49.6],[106.2,49.7],[106.0,49.7],[106.0,49.8],[105.9,49.8],[105.9,49.9],[105.8,49.9],[105.8,50.0],[105.6,50.0],[105.6,50.1],[105.4,50.1],[105.4,50.2],[105.2,50.2],[105.2,50.3],[105.1,50.3],[105.1,50.4],[104.9,50.4],[104.9,50.5],[104.7,50.5],[104.7,50.6],[104.5,50.6],[104.5,50.7],[104.3,50.7],[104.3,50.8],[104.2,50.8],[104.2,50.9],[103.2,50.9],[103.2,51.0],[103.0,51.0],[103.0,51.1],[102.8,51.1],[102.8,51.2],[102.5,51.2],[102.5,51.3],[101.6,51.3],[101.6,51.4]]]},"properties":{"tile_id":"60","start_year":695,"end_year":698,"source_image":"data/raw/toolbay/t/60/695.png","source_url":"https://www.toolbay.cc/history-map/t/60/695.png","source_color":"#999933","polity_id":null,"polity_assignment":"unverified","geometry_origin":"raster_color_trace","pixel_size_degrees":0.1,"source_color_pixels":5356,"simplification_degrees":0}},{"type":"Feature","id":"60:695:#ff9933","bbox":[90.0,45.0,127.2,53.2],"geometry":{"type":"MultiPolygon","coordinates":[[[[93.4,52.8],[93.4,52.9],[92.3,52.9],[92.3,52.8],[91.5,52.8],[91.5,52.7],[91.0,52.7],[91.0,52.6],[90.0,52.6],[90.0,45.0],[108.4,45.0],[108.4,45.1],[108.2,45.1],[108.2,45.2],[108.0,45.2],[108.0,45.3],[107.7,45.3],[107.7,45.4],[107.4,45.4],[107.4,45.5],[107.1,45.5],[107.1,45.6],[107.0,45.6],[107.0,45.7],[106.8,45.7],[106.8,45.8],[106.6,45.8],[106.6,45.9],[106.5,45.9],[106.5,46.0],[106.4,46.0],[106.4,46.1],[106.2,46.1],[106.2,46.2],[106.1,46.2],[106.1,46.3],[105.9,46.3],[105.9,46.4],[105.5,46.4],[105.5,46.5],[105.3,46.5],[105.3,46.6],[105.1,46.6],[105.1,46.7],[104.8,46.7],[104.8,46.8],[104.7,46.8],[104.7,46.9],[104.5,46.9],[104.5,47.0],[104.4,47.0],[104.4,47.1],[104.2,47.1],[104.2,47.2],[104.0,47.2],[104.0,47.3],[103.9,47.3],[103.9,47.4],[103.7,47.4],[103.7,47.5],[103.4,47.5],[103.4,47.6],[103.2,47.6],[103.2,47.7],[102.9,47.7],[102.9,47.8],[102.8,47.8],[102.8,47.9],[102.5,47.9],[102.5,48.0],[102.3,48.0],[102.3,48.1],[102.1,48.1],[102.1,48.2],[101.8,48.2],[101.8,48.3],[101.6,48.3],[101.6,48.4],[101.4,48.4],[101.4,48.5],[101.3,48.5],[101.3,48.6],[101.2,48.6],[101.2,48.7],[101.1,48.7],[101.1,48.8],[101.0,48.8],[101.0,49.0],[100.9,49.0],[100.9,49.1],[100.8,49.1],[100.8,49.2],[100.7,49.2],[100.7,49.4],[100.6,49.4],[100.6,49.5],[100.5,49.5],[100.5,49.8],[100.4,49.8],[100.4,50.3],[100.5,50.3],[100.5,50.5],[100.6,50.5],[100.6,50.6],[100.7,50.6],[100.7,50.7],[100.8,50.7],[100.8,50.9],[100.9,50.9],[100.9,51.0],[101.0,51.0],[101.0,51.2],[101.1,51.2],[101.1,51.3],[101.2,51.3],[101.2,51.4],[101.0,51.4],[101.0,51.5],[100.7,51.5],[100.7,51.6],[100.4,51.6],[100.4,51.7],[100.0,51.7],[100.0,51.8],[98.7,51.8],[98.7,51.9],[98.4,51.9],[98.4,52.0],[98.0,52.0],[98.0,52.1],[97.6,52.1],[97.6,52.2],[97.1,52.2],[97.1,52.3],[96.2,52.3],[96.2,52.4],[95.6,52.4],[95.6,52.5],[95.2,52.5],[95.2,52.6],[94.7,52.6],[94.7,52.7],[94.1,52.7],[94.1,52.8],[93.4,52.8]]],[[[123.6,53.1],[123.6,53.2],[122.7,53.2],[122.7,53.1],[121.6,53.1],[121.6,53.0],[120.9,53.0],[120.9,52.9],[120.5,52.9],[120.5,52.8],[120.1,52.8],[120.1,52.7],[119.7,52.7],[119.7,52.6],[119.3,52.6],[119.3,52.5],[119.1,52.5],[119.1,52.4],[118.8,52.4],[118.8,52.3],[118.7,52.3],[118.7,52.2],[118.3,52.2],[118.3,52.1],[118.1,52.1],[118.1,52.0],[117.8,52.0],[117.8,51.9],[117.6,51.9],[117.6,51.8],[117.4,51.8],[117.4,51.7],[117.3,51.7],[117.3,51.6],[117.1,51.6],[117.1,51.5],[117.0,51.5],[117.0,51.4],[116.8,51.4],[116.8,51.3],[116.6,51.3],[116.6,51.2],[116.4,51.2],[116.4,51.1],[116.2,51.1],[116.2,51.0],[116.1,51.0],[116.1,50.9],[115.8,50.9],[115.8,50.8],[115.7,50.8],[115.7,50.7],[115.5,50.7],[115.5,50.6],[115.3,50.6],[115.3,50.5],[115.1,50.5],[115.1,50.4],[114.9,50.4],[114.9,50.3],[114.6,50.3],[114.6,50.2],[114.3,50.2],[114.3,50.1],[114.0,50.1],[114.0,50.0],[113.8,50.0],[113.8,49.9],[113.6,49.9],[113.6,49.8],[113.1,49.8],[113.1,49.7],[113.0,49.7],[113.0,49.1],[113.2,49.1],[113.2,49.0],[113.3,49.0],[113.3,48.9],[113.5,48.9],[113.5,48.8],[113.7,48.8],[113.7,48.7],[113.9,48.7],[113.9,48.6],[114.2,48.6],[114.2,48.5],[114.4,48.5],[114.4,48.4],[114.7,48.4],[114.7,48.3],[114.9,48.3],[114.9,48.2],[115.3,48.2],[115.3,48.1],[115.7,48.1],[115.7,48.2],[116.2,48.2],[116.2,48.3],[116.6,48.3],[116.6,48.2],[117.6,48.2],[117.6,48.1],[117.7,48.1],[117.7,48.0],[117.8,48.0],[117.8,47.9],[117.9,47.9],[117.9,47.2],[117.8,47.2],[117.8,47.1],[117.7,47.1],[117.7,47.0],[117.4,47.0],[117.4,46.9],[117.2,46.9],[117.2,46.8],[116.9,46.8],[116.9,46.7],[116.5,46.7],[116.5,46.6],[116.0,46.6],[116.0,46.5],[115.5,46.5],[115.5,46.4],[115.1,46.4],[115.1,46.3],[114.8,46.3],[114.8,46.2],[114.4,46.2],[114.4,46.1],[114.1,46.1],[114.1,46.0],[113.8,46.0],[113.8,45.9],[113.5,45.9],[113.5,45.8],[112.7,45.8],[112.7,45.7],[112.6,45.7],[112.6,45.6],[112.2,45.6],[112.2,45.5],[111.8,45.5],[111.8,45.4],[111.6,45.4],[111.6,45.3],[111.1,45.3],[111.1,45.2],[110.7,45.2],[110.7,45.1],[110.4,45.1],[110.4,45.0],[124.6,45.0],[124.6,45.1],[124.7,45.1],[124.7,45.3],[124.8,45.3],[124.8,45.8],[124.9,45.8],[124.9,46.1],[125.0,46.1],[125.0,46.3],[125.1,46.3],[125.1,46.6],[125.2,46.6],[125.2,47.0],[125.3,47.0],[125.3,47.1],[125.4,47.1],[125.4,47.2],[125.5,47.2],[125.5,47.5],[125.6,47.5],[125.6,47.6],[125.7,47.6],[125.7,47.8],[125.8,47.8],[125.8,48.0],[125.9,48.0],[125.9,48.1],[126.0,48.1],[126.0,48.3],[126.1,48.3],[126.1,48.5],[126.2,48.5],[126.2,48.6],[126.4,48.6],[126.4,48.8],[126.5,48.8],[126.5,49.0],[126.6,49.0],[126.6,49.3],[126.7,49.3],[126.7,49.5],[126.8,49.5],[126.8,49.9],[126.9,49.9],[126.9,50.2],[127.0,50.2],[127.0,50.4],[127.1,50.4],[127.1,50.8],[127.2,50.8],[127.2,51.3],[127.1,51.3],[127.1,51.4],[127.0,51.4],[127.0,51.5],[126.9,51.5],[126.9,51.6],[126.7,51.6],[126.7,51.7],[126.6,51.7],[126.6,51.9],[126.5,51.9],[126.5,52.0],[126.4,52.0],[126.4,52.3],[126.2,52.3],[126.2,52.4],[126.1,52.4],[126.1,52.5],[126.0,52.5],[126.0,52.6],[125.8,52.6],[125.8,52.7],[125.6,52.7],[125.6,52.8],[125.3,52.8],[125.3,52.9],[124.2,52.9],[124.2,53.0],[123.8,53.0],[123.8,53.1],[123.6,53.1]]]]},"properties":{"tile_id":"60","start_year":695,"end_year":698,"source_image":"data/raw/toolbay/t/60/695.png","source_url":"https://www.toolbay.cc/history-map/t/60/695.png","source_color":"#ff9933","polity_id":null,"polity_assignment":"unverified","geometry_origin":"raster_color_trace","pixel_size_degrees":0.1,"source_color_pixels":17742,"simplification_degrees":0}}]}
