{"type":"FeatureCollection","features":[{"type":"Feature","id":"60:716:#009999","bbox":[90.0,45.0,92.6,48.7],"geometry":{"type":"Polygon","coordinates":[[[90.2,48.7],[90.0,48.7],[90.0,45.0],[90.1,45.0],[90.1,45.2],[90.2,45.2],[90.2,45.3],[90.3,45.3],[90.3,45.4],[90.5,45.4],[90.5,45.6],[90.6,45.6],[90.6,45.7],[90.8,45.7],[90.8,45.8],[91.0,45.8],[91.0,45.9],[91.1,45.9],[91.1,46.0],[91.3,46.0],[91.3,46.1],[91.5,46.1],[91.5,46.2],[91.6,46.2],[91.6,46.3],[91.8,46.3],[91.8,46.4],[91.9,46.4],[91.9,46.5],[92.0,46.5],[92.0,46.6],[92.1,46.6],[92.1,46.7],[92.2,46.7],[92.2,46.8],[92.3,46.8],[92.3,47.1],[92.4,47.1],[92.4,47.4],[92.5,47.4],[92.5,47.6],[92.6,47.6],[92.6,47.7],[92.5,47.7],[92.5,47.8],[92.2,47.8],[92.2,47.9],[91.7,47.9],[91.7,48.0],[91.6,48.0],[91.6,48.1],[91.4,48.1],[91.4,48.2],[91.2,48.2],[91.2,48.3],[91.0,48.3],[91.0,48.4],[90.5,48.4],[90.5,48.5],[90.3,48.5],[90.3,48.6],[90.2,48.6],[90.2,48.7]]]},"properties":{"tile_id":"60","start_year":716,"end_year":720,"source_image":"data/raw/toolbay/t/60/716.png","source_url":"https://www.toolbay.cc/history-map/t/60/716.png","source_color":"#009999","polity_id":null,"polity_assignment":"unverified","geometry_origin":"raster_color_trace","pixel_size_degrees":0.1,"source_color_pixels":539,"simplification_degrees":0}},{"type":"Feature","id":"60:716:#999933","bbox":[90.0,45.0,109.8,52.9],"geometry":{"type":"Polygon","coordinates":[[[93.4,52.9],[92.3,52.9],[92.3,52.8],[91.5,52.8],[91.5,52.7],[91.0,52.7],[91.0,52.6],[90.0,52.6],[90.0,48.7],[90.2,48.7],[90.2,48.6],[90.3,48.6],[90.3,48.5],[90.5,48.5],[90.5,48.4],[91.0,48.4],[91.0,48.3],[91.2,48.3],[91.2,48.2],[91.4,48.2],[91.4,48.1],[91.6,48.1],[91.6,48.0],[91.7,48.0],[91.7,47.9],[92.2,47.9],[92.2,47.8],[92.5,47.8],[92.5,47.7],[92.8,47.7],[92.8,47.6],[93.1,47.6],[93.1,47.5],[93.3,47.5],[93.3,47.4],[93.5,47.4],[93.5,47.3],[93.8,47.3],[93.8,47.2],[94.1,47.2],[94.1,47.1],[94.2,47.1],[94.2,47.0],[94.5,47.0],[94.5,46.9],[94.7,46.9],[94.7,46.8],[94.9,46.8],[94.9,46.7],[95.2,46.7],[95.2,46.6],[95.3,46.6],[95.3,46.5],[95.5,46.5],[95.5,46.4],[95.8,46.4],[95.8,46.3],[95.9,46.3],[95.9,46.2],[96.0,46.2],[96.0,46.1],[96.2,46.1],[96.2,45.9],[96.4,45.9],[96.4,45.8],[96.5,45.8],[96.5,45.7],[96.6,45.7],[96.6,45.6],[96.8,45.6],[96.8,45.5],[96.9,45.5],[96.9,45.4],[97.3,45.4],[97.3,45.3],[97.5,45.3],[97.5,45.2],[97.7,45.2],[97.7,45.1],[97.9,45.1],[97.9,45.0],[109.8,45.0],[109.8,45.1],[109.7,45.1],[109.7,45.2],[109.6,45.2],[109.6,45.4],[109.5,45.4],[109.5,45.5],[109.4,45.5],[109.4,45.7],[109.3,45.7],[109.3,45.9],[109.2,45.9],[109.2,46.0],[109.1,46.0],[109.1,46.1],[109.0,46.1],[109.0,46.3],[108.9,46.3],[108.9,46.6],[108.8,46.6],[108.8,46.9],[108.7,46.9],[108.7,47.2],[108.6,47.2],[108.6,47.6],[108.5,47.6],[108.5,47.8],[108.4,47.8],[108.4,47.9],[108.3,47.9],[108.3,48.0],[108.2,48.0],[108.2,48.8],[107.8,48.8],[107.8,48.9],[107.6,48.9],[107.6,49.0],[107.5,49.0],[107.5,49.1],[107.4,49.1],[107.4,49.2],[107.2,49.2],[107.2,49.3],[107.0,49.3],[107.0,49.4],[106.7,49.4],[106.7,49.5],[106.5,49.5],[106.5,49.6],[106.2,49.6],[106.2,49.7],[106.0,49.7],[106.0,49.8],[105.9,49.8],[105.9,49.9],[105.8,49.9],[105.8,50.0],[105.6,50.0],[105.6,50.1],[105.4,50.1],[105.4,50.2],[105.2,50.2],[105.2,50.3],[105.1,50.3],[105.1,50.4],[104.9,50.4],[104.9,50.5],[104.7,50.5],[104.7,50.6],[104.5,50.6],[104.5,50.7],[104.3,50.7],[104.3,50.8],[104.2,50.8],[104.2,50.9],[103.2,50.9],[103.2,51.0],[103.0,51.0],[103.0,51.1],[102.8,51.1],[102.8,51.2],[102.5,51.2],[102.5,51.3],[101.6,51.3],[101.6,51.4],[101.0,51.4],[101.0,51.5],[100.7,51.5],[100.7,51.6],[100.4,51.6],[100.4,51.7],[100.0,51.7],[100.0,51.8],[98.7,51.8],[98.7,51.9],[98.4,51.9],[98.4,52.0],[98.0,52.0],[98.0,52.1],[97.6,52.1],[97.6,52.2],[97.1,52.2],[97.1,52.3],[96.2,52.3],[96.2,52.4],[95.6,52.4],[95.6,52.5],[95.2,52.5],[95.2,52.6],[94.7,52.6],[94.7,52.7],[94.1,52.7],[94.1,52.8],[93.4,52.8],[93.4,52.9]]]},"properties":{"tile_id":"60","start_year":716,"end_year":720,"source_image":"data/raw/toolbay/t/60/716.png","source_url":"https://www.toolbay.cc/history-map/t/60/716.png","source_color":"#999933","polity_id":null,"polity_assignment":"unverified","geometry_origin":"raster_color_trace","pixel_size_degrees":0.1,"source_color_pixels":10585,"simplification_degrees":0}},{"type":"Feature","id":"60:716:#ff9933","bbox":[90.1,45.0,128.4,53.2],"geometry":{"type":"MultiPolygon","coordinates":[[[[92.8,47.6],[92.8,47.7],[92.6,47.7],[92.6,47.6],[92.5,47.6],[92.5,47.4],[92.4,47.4],[92.4,47.1],[92.3,47.1],[92.3,46.8],[92.2,46.8],[92.2,46.7],[92.1,46.7],[92.1,46.6],[92.0,46.6],[92.0,46.5],[91.9,46.5],[91.9,46.4],[91.8,46.4],[91.8,46.3],[91.6,46.3],[91.6,46.2],[91.5,46.2],[91.5,46.1],[91.3,46.1],[91.3,46.0],[91.1,46.0],[91.1,45.9],[91.0,45.9],[91.0,45.8],[90.8,45.8],[90.8,45.7],[90.6,45.7],[90.6,45.6],[90.5,45.6],[90.5,45.4],[90.3,45.4],[90.3,45.3],[90.2,45.3],[90.2,45.2],[90.1,45.2],[90.1,45.0],[97.9,45.0],[97.9,45.1],[97.7,45.1],[97.7,45.2],[97.5,45.2],[97.5,45.3],[97.3,45.3],[97.3,45.4],[96.9,45.4],[96.9,45.5],[96.8,45.5],[96.8,45.6],[96.6,45.6],[96.6,45.7],[96.5,45.7],[96.5,45.8],[96.4,45.8],[96.4,45.9],[96.2,45.9],[96.2,46.1],[96.0,46.1],[96.0,46.2],[95.9,46.2],[95.9,46.3],[95.8,46.3],[95.8,46.4],[95.5,46.4],[95.5,46.5],[95.3,46.5],[95.3,46.6],[95.2,46.6],[95.2,46.7],[94.9,46.7],[94.9,46.8],[94.7,46.8],[94.7,46.9],[94.5,46.9],[94.5,47.0],[94.2,47.0],[94.2,47.1],[94.1,47.1],[94.1,47.2],[93.8,47.2],[93.8,47.3],[93.5,47.3],[93.5,47.4],[93.3,47.4],[93.3,47.5],[93.1,47.5],[93.1,47.6],[92.8,47.6]]],[[[123.6,53.1],[123.6,53.2],[122.7,53.2],[122.7,53.1],[121.6,53.1],[121.6,53.0],[120.9,53.0],[120.9,52.9],[120.5,52.9],[120.5,52.8],[120.1,52.8],[120.1,52.7],[119.7,52.7],[119.7,52.6],[119.3,52.6],[119.3,52.5],[119.1,52.5],[119.1,52.4],[118.8,52.4],[118.8,52.3],[118.7,52.3],[118.7,52.2],[118.3,52.2],[118.3,52.1],[118.1,52.1],[118.1,52.0],[117.8,52.0],[117.8,51.9],[117.6,51.9],[117.6,51.8],[117.4,51.8],[117.4,51.7],[117.3,51.7],[117.3,51.6],[117.1,51.6],[117.1,51.5],[117.0,51.5],[117.0,51.4],[116.8,51.4],[116.8,51.3],[116.6,51.3],[116.6,51.2],[116.4,51.2],[116.4,51.1],[116.2,51.1],[116.2,51.0],[116.1,51.0],[116.1,50.9],[115.8,50.9],[115.8,50.8],[115.7,50.8],[115.7,50.7],[115.5,50.7],[115.5,50.6],[115.3,50.6],[115.3,50.5],[115.1,50.5],[115.1,50.4],[114.9,50.4],[114.9,50.3],[114.6,50.3],[114.6,50.2],[114.3,50.2],[114.3,50.1],[114.0,50.1],[114.0,50.0],[113.8,50.0],[113.8,49.9],[113.6,49.9],[113.6,49.8],[113.1,49.8],[113.1,49.7],[112.7,49.7],[112.7,49.6],[112.4,49.6],[112.4,49.5],[112.2,49.5],[112.2,49.4],[112.1,49.4],[112.1,49.3],[111.8,49.3],[111.8,49.2],[111.6,49.2],[111.6,49.1],[111.3,49.1],[111.3,49.0],[110.4,49.0],[110.4,48.9],[110.2,48.9],[110.2,48.8],[108.2,48.8],[108.2,48.0],[108.3,48.0],[108.3,47.9],[108.4,47.9],[108.4,47.8],[108.5,47.8],[108.5,47.6],[108.6,47.6],[108.6,47.2],[108.7,47.2],[108.7,46.9],[108.8,46.9],[108.8,46.6],[108.9,46.6],[108.9,46.3],[109.0,46.3],[109.0,46.1],[109.1,46.1],[109.1,46.0],[109.2,46.0],[109.2,45.9],[109.3,45.9],[109.3,45.7],[109.4,45.7],[109.4,45.5],[109.5,45.5],[109.5,45.4],[109.6,45.4],[109.6,45.2],[109.7,45.2],[109.7,45.1],[109.8,45.1],[109.8,45.0],[128.4,45.0],[128.4,45.1],[128.3,45.1],[128.3,45.2],[128.2,45.2],[128.2,45.3],[128.1,45.3],[128.1,45.4],[128.0,45.4],[128.0,45.6],[127.9,45.6],[127.9,45.7],[127.8,45.7],[127.8,45.9],[127.7,45.9],[127.7,46.0],[127.6,46.0],[127.6,46.1],[127.5,46.1],[127.5,46.3],[127.4,46.3],[127.4,46.4],[127.3,46.4],[127.3,46.5],[127.2,46.5],[127.2,46.7],[127.1,46.7],[127.1,46.9],[127.0,46.9],[127.0,47.2],[126.9,47.2],[126.9,47.5],[126.8,47.5],[126.8,48.5],[126.9,48.5],[126.9,49.1],[127.0,49.1],[127.0,50.4],[127.1,50.4],[127.1,50.8],[127.2,50.8],[127.2,51.3],[127.1,51.3],[127.1,51.4],[127.0,51.4],[127.0,51.5],[126.9,51.5],[126.9,51.6],[126.7,51.6],[126.7,51.7],[126.6,51.7],[126.6,51.9],[126.5,51.9],[126.5,52.0],[126.4,52.0],[126.4,52.3],[126.2,52.3],[126.2,52.4],[126.1,52.4],[126.1,52.5],[126.0,52.5],[126.0,52.6],[125.8,52.6],[125.8,52.7],[125.6,52.7],[125.6,52.8],[125.3,52.8],[125.3,52.9],[124.2,52.9],[124.2,53.0],[123.8,53.0],[123.8,53.1],[123.6,53.1]]]]},"properties":{"tile_id":"60","start_year":716,"end_year":720,"source_image":"data/raw/toolbay/t/60/716.png","source_url":"https://www.toolbay.cc/history-map/t/60/716.png","source_color":"#ff9933","polity_id":null,"polity_assignment":"unverified","geometry_origin":"raster_color_trace","pixel_size_degrees":0.1,"source_color_pixels":12738,"simplification_degrees":0}}]}
