{"type":"FeatureCollection","features":[{"type":"Feature","id":"60:726:#999933","bbox":[90.0,45.0,127.2,53.2],"geometry":{"type":"Polygon","coordinates":[[[123.6,53.2],[122.7,53.2],[122.7,53.1],[121.6,53.1],[121.6,53.0],[120.9,53.0],[120.9,52.9],[120.5,52.9],[120.5,52.8],[120.1,52.8],[120.1,52.7],[119.7,52.7],[119.7,52.6],[119.3,52.6],[119.3,52.5],[119.1,52.5],[119.1,52.4],[118.8,52.4],[118.8,52.3],[118.7,52.3],[118.7,52.2],[118.3,52.2],[118.3,52.1],[118.1,52.1],[118.1,52.0],[117.8,52.0],[117.8,51.9],[117.6,51.9],[117.6,51.8],[117.4,51.8],[117.4,51.7],[117.3,51.7],[117.3,51.6],[117.1,51.6],[117.1,51.5],[117.0,51.5],[117.0,51.4],[116.8,51.4],[116.8,51.3],[116.6,51.3],[116.6,51.2],[116.4,51.2],[116.4,51.1],[116.2,51.1],[116.2,51.0],[116.1,51.0],[116.1,50.9],[115.8,50.9],[115.8,50.8],[115.7,50.8],[115.7,50.7],[115.5,50.7],[115.5,50.6],[115.3,50.6],[115.3,50.5],[115.1,50.5],[115.1,50.4],[114.9,50.4],[114.9,50.3],[114.6,50.3],[114.6,50.2],[114.3,50.2],[114.3,50.1],[114.0,50.1],[114.0,50.0],[113.8,50.0],[113.8,49.9],[113.6,49.9],[113.6,49.8],[113.1,49.8],[113.1,49.7],[112.7,49.7],[112.7,49.6],[112.4,49.6],[112.4,49.5],[112.2,49.5],[112.2,49.4],[112.1,49.4],[112.1,49.3],[111.8,49.3],[111.8,49.2],[111.6,49.2],[111.6,49.1],[111.3,49.1],[111.3,49.0],[110.4,49.0],[110.4,48.9],[110.2,48.9],[110.2,48.8],[107.8,48.8],[107.8,48.9],[107.6,48.9],[107.6,49.0],[107.5,49.0],[107.5,49.1],[107.4,49.1],[107.4,49.2],[107.2,49.2],[107.2,49.3],[107.0,49.3],[107.0,49.4],[106.7,49.4],[106.7,49.5],[106.5,49.5],[106.5,49.6],[106.2,49.6],[106.2,49.7],[106.0,49.7],[106.0,49.8],[105.9,49.8],[105.9,49.9],[105.8,49.9],[105.8,50.0],[105.6,50.0],[105.6,50.1],[105.4,50.1],[105.4,50.2],[105.2,50.2],[105.2,50.3],[105.1,50.3],[105.1,50.4],[104.9,50.4],[104.9,50.5],[104.7,50.5],[104.7,50.6],[104.5,50.6],[104.5,50.7],[104.3,50.7],[104.3,50.8],[104.2,50.8],[104.2,50.9],[103.2,50.9],[103.2,51.0],[103.0,51.0],[103.0,51.1],[102.8,51.1],[102.8,51.2],[102.5,51.2],[102.5,51.3],[101.6,51.3],[101.6,51.4],[101.0,51.4],[101.0,51.5],[100.7,51.5],[100.7,51.6],[100.4,51.6],[100.4,51.7],[100.0,51.7],[100.0,51.8],[98.7,51.8],[98.7,51.9],[98.4,51.9],[98.4,52.0],[98.0,52.0],[98.0,52.1],[97.6,52.1],[97.6,52.2],[97.1,52.2],[97.1,52.3],[96.2,52.3],[96.2,52.4],[95.6,52.4],[95.6,52.5],[95.2,52.5],[95.2,52.6],[94.7,52.6],[94.7,52.7],[94.1,52.7],[94.1,52.8],[93.4,52.8],[93.4,52.9],[92.3,52.9],[92.3,52.8],[91.5,52.8],[91.5,52.7],[91.0,52.7],[91.0,52.6],[90.0,52.6],[90.0,45.0],[116.6,45.0],[116.6,45.1],[116.8,45.1],[116.8,45.2],[117.3,45.2],[117.3,45.3],[117.6,45.3],[117.6,45.4],[117.9,45.4],[117.9,45.5],[118.1,45.5],[118.1,45.6],[118.4,45.6],[118.4,45.7],[118.9,45.7],[118.9,45.8],[119.2,45.8],[119.2,45.9],[119.4,45.9],[119.4,45.8],[119.7,45.8],[119.7,45.9],[120.2,45.9],[120.2,46.0],[120.4,46.0],[120.4,46.1],[120.6,46.1],[120.6,46.2],[120.9,46.2],[120.9,46.3],[121.5,46.3],[121.5,46.4],[121.9,46.4],[121.9,46.5],[122.5,46.5],[122.5,46.6],[122.8,46.6],[122.8,46.7],[123.2,46.7],[123.2,46.8],[123.5,46.8],[123.5,46.9],[123.8,46.9],[123.8,47.0],[124.1,47.0],[124.1,47.1],[124.7,47.1],[124.7,47.2],[125.1,47.2],[125.1,47.3],[125.5,47.3],[125.5,47.4],[125.7,47.4],[125.7,47.5],[125.9,47.5],[125.9,47.6],[126.1,47.6],[126.1,47.7],[126.8,47.7],[126.8,48.5],[126.9,48.5],[126.9,49.1],[127.0,49.1],[127.0,50.4],[127.1,50.4],[127.1,50.8],[127.2,50.8],[127.2,51.3],[127.1,51.3],[127.1,51.4],[127.0,51.4],[127.0,51.5],[126.9,51.5],[126.9,51.6],[126.7,51.6],[126.7,51.7],[126.6,51.7],[126.6,51.9],[126.5,51.9],[126.5,52.0],[126.4,52.0],[126.4,52.3],[126.2,52.3],[126.2,52.4],[126.1,52.4],[126.1,52.5],[126.0,52.5],[126.0,52.6],[125.8,52.6],[125.8,52.7],[125.6,52.7],[125.6,52.8],[125.3,52.8],[125.3,52.9],[124.2,52.9],[124.2,53.0],[123.8,53.0],[123.8,53.1],[123.6,53.1],[123.6,53.2]]]},"properties":{"tile_id":"60","start_year":726,"end_year":740,"source_image":"data/raw/toolbay/t/60/726.png","source_url":"https://www.toolbay.cc/history-map/t/60/726.png","source_color":"#999933","polity_id":null,"polity_assignment":"unverified","geometry_origin":"raster_color_trace","pixel_size_degrees":0.1,"source_color_pixels":22243,"simplification_degrees":0}},{"type":"Feature","id":"60:726:#ff9933","bbox":[116.6,45.0,127.8,47.7],"geometry":{"type":"Polygon","coordinates":[[[126.8,47.7],[126.1,47.7],[126.1,47.6],[125.9,47.6],[125.9,47.5],[125.7,47.5],[125.7,47.4],[125.5,47.4],[125.5,47.3],[125.1,47.3],[125.1,47.2],[124.7,47.2],[124.7,47.1],[124.1,47.1],[124.1,47.0],[123.8,47.0],[123.8,46.9],[123.5,46.9],[123.5,46.8],[123.2,46.8],[123.2,46.7],[122.8,46.7],[122.8,46.6],[122.5,46.6],[122.5,46.5],[121.9,46.5],[121.9,46.4],[121.5,46.4],[121.5,46.3],[120.9,46.3],[120.9,46.2],[120.6,46.2],[120.6,46.1],[120.4,46.1],[120.4,46.0],[120.2,46.0],[120.2,45.9],[119.7,45.9],[119.7,45.8],[119.4,45.8],[119.4,45.9],[119.2,45.9],[119.2,45.8],[118.9,45.8],[118.9,45.7],[118.4,45.7],[118.4,45.6],[118.1,45.6],[118.1,45.5],[117.9,45.5],[117.9,45.4],[117.6,45.4],[117.6,45.3],[117.3,45.3],[117.3,45.2],[116.8,45.2],[116.8,45.1],[116.6,45.1],[116.6,45.0],[126.3,45.0],[126.3,45.1],[126.4,45.1],[126.4,45.2],[126.5,45.2],[126.5,45.3],[126.6,45.3],[126.6,45.4],[126.8,45.4],[126.8,45.5],[127.0,45.5],[127.0,45.6],[127.3,45.6],[127.3,45.7],[127.7,45.7],[127.7,45.8],[127.8,45.8],[127.8,45.9],[127.7,45.9],[127.7,46.0],[127.6,46.0],[127.6,46.1],[127.5,46.1],[127.5,46.3],[127.4,46.3],[127.4,46.4],[127.3,46.4],[127.3,46.5],[127.2,46.5],[127.2,46.7],[127.1,46.7],[127.1,46.9],[127.0,46.9],[127.0,47.2],[126.9,47.2],[126.9,47.5],[126.8,47.5],[126.8,47.7]]]},"properties":{"tile_id":"60","start_year":726,"end_year":740,"source_image":"data/raw/toolbay/t/60/726.png","source_url":"https://www.toolbay.cc/history-map/t/60/726.png","source_color":"#ff9933","polity_id":null,"polity_assignment":"unverified","geometry_origin":"raster_color_trace","pixel_size_degrees":0.1,"source_color_pixels":1518,"simplification_degrees":0}},{"type":"Feature","id":"60:726:#ffff00","bbox":[126.3,45.0,134.0,46.7],"geometry":{"type":"Polygon","coordinates":[[[131.4,46.7],[130.5,46.7],[130.5,46.6],[130.0,46.6],[130.0,46.5],[129.7,46.5],[129.7,46.4],[129.5,46.4],[129.5,46.3],[129.0,46.3],[129.0,46.2],[128.7,46.2],[128.7,46.1],[128.4,46.1],[128.4,46.0],[128.3,46.0],[128.3,45.9],[127.8,45.9],[127.8,45.8],[127.7,45.8],[127.7,45.7],[127.3,45.7],[127.3,45.6],[127.0,45.6],[127.0,45.5],[126.8,45.5],[126.8,45.4],[126.6,45.4],[126.6,45.3],[126.5,45.3],[126.5,45.2],[126.4,45.2],[126.4,45.1],[126.3,45.1],[126.3,45.0],[134.0,45.0],[134.0,45.2],[133.9,45.2],[133.9,45.3],[133.7,45.3],[133.7,45.4],[133.5,45.4],[133.5,45.5],[133.4,45.5],[133.4,45.6],[133.3,45.6],[133.3,45.7],[133.1,45.7],[133.1,45.8],[133.0,45.8],[133.0,45.9],[132.9,45.9],[132.9,46.0],[132.8,46.0],[132.8,46.1],[132.6,46.1],[132.6,46.2],[132.4,46.2],[132.4,46.3],[132.2,46.3],[132.2,46.4],[132.1,46.4],[132.1,46.5],[132.0,46.5],[132.0,46.6],[131.4,46.6],[131.4,46.7]]]},"properties":{"tile_id":"60","start_year":726,"end_year":740,"source_image":"data/raw/toolbay/t/60/726.png","source_url":"https://www.toolbay.cc/history-map/t/60/726.png","source_color":"#ffff00","polity_id":null,"polity_assignment":"unverified","geometry_origin":"raster_color_trace","pixel_size_degrees":0.1,"source_color_pixels":838,"simplification_degrees":0}}]}
