{"type":"FeatureCollection","features":[{"type":"Feature","id":"60:744:#00ff00","bbox":[90.0,45.0,121.6,57.0],"geometry":{"type":"Polygon","coordinates":[[[109.0,57.0],[108.5,57.0],[108.5,56.9],[107.8,56.9],[107.8,56.8],[107.2,56.8],[107.2,56.7],[106.7,56.7],[106.7,56.6],[106.3,56.6],[106.3,56.5],[105.7,56.5],[105.7,56.4],[105.2,56.4],[105.2,56.3],[104.9,56.3],[104.9,56.2],[104.5,56.2],[104.5,56.1],[104.2,56.1],[104.2,56.0],[103.8,56.0],[103.8,55.9],[103.6,55.9],[103.6,55.8],[103.2,55.8],[103.2,55.7],[102.7,55.7],[102.7,55.6],[102.0,55.6],[102.0,55.5],[101.3,55.5],[101.3,55.4],[100.9,55.4],[100.9,55.3],[100.7,55.3],[100.7,55.2],[100.4,55.2],[100.4,55.1],[100.1,55.1],[100.1,55.0],[100.0,55.0],[100.0,54.9],[99.9,54.9],[99.9,54.8],[99.7,54.8],[99.7,54.7],[99.5,54.7],[99.5,54.6],[99.1,54.6],[99.1,54.5],[98.7,54.5],[98.7,54.4],[98.4,54.4],[98.4,54.3],[98.1,54.3],[98.1,54.2],[97.9,54.2],[97.9,54.1],[97.1,54.1],[97.1,54.0],[96.8,54.0],[96.8,53.9],[96.6,53.9],[96.6,53.8],[96.4,53.8],[96.4,53.7],[96.0,53.7],[96.0,53.6],[95.7,53.6],[95.7,53.5],[95.3,53.5],[95.3,53.4],[95.0,53.4],[95.0,53.3],[94.5,53.3],[94.5,53.2],[94.2,53.2],[94.2,53.1],[93.9,53.1],[93.9,53.0],[93.4,53.0],[93.4,52.9],[92.3,52.9],[92.3,52.8],[91.5,52.8],[91.5,52.7],[91.0,52.7],[91.0,52.6],[90.0,52.6],[90.0,45.0],[116.6,45.0],[116.6,45.1],[116.8,45.1],[116.8,45.2],[117.3,45.2],[117.3,45.3],[117.6,45.3],[117.6,45.4],[117.9,45.4],[117.9,45.5],[118.1,45.5],[118.1,45.6],[118.4,45.6],[118.4,45.7],[118.9,45.7],[118.9,45.8],[119.2,45.8],[119.2,45.9],[119.4,45.9],[119.4,45.8],[119.7,45.8],[119.7,45.9],[120.2,45.9],[120.2,46.0],[120.4,46.0],[120.4,46.1],[120.6,46.1],[120.6,46.2],[120.9,46.2],[120.9,46.3],[121.5,46.3],[121.5,46.4],[121.6,46.4],[121.6,46.5],[121.5,46.5],[121.5,46.6],[121.4,46.6],[121.4,46.7],[121.3,46.7],[121.3,47.7],[121.4,47.7],[121.4,47.9],[121.5,47.9],[121.5,48.3],[121.6,48.3],[121.6,48.7],[121.5,48.7],[121.5,49.2],[121.4,49.2],[121.4,49.4],[121.3,49.4],[121.3,49.9],[121.2,49.9],[121.2,50.3],[121.1,50.3],[121.1,50.6],[121.0,50.6],[121.0,50.9],[120.9,50.9],[120.9,51.1],[120.8,51.1],[120.8,51.3],[120.7,51.3],[120.7,51.5],[120.5,51.5],[120.5,51.6],[120.4,51.6],[120.4,51.7],[120.2,51.7],[120.2,51.8],[120.1,51.8],[120.1,51.9],[120.0,51.9],[120.0,52.0],[119.9,52.0],[119.9,52.1],[119.8,52.1],[119.8,52.2],[119.7,52.2],[119.7,52.4],[119.6,52.4],[119.6,52.5],[119.4,52.5],[119.4,52.7],[119.3,52.7],[119.3,52.8],[119.2,52.8],[119.2,52.9],[119.0,52.9],[119.0,53.0],[117.5,53.0],[117.5,53.1],[117.1,53.1],[117.1,53.2],[117.0,53.2],[117.0,53.3],[116.8,53.3],[116.8,53.4],[116.3,53.4],[116.3,53.5],[116.2,53.5],[116.2,53.6],[115.9,53.6],[115.9,53.7],[115.5,53.7],[115.5,53.8],[115.3,53.8],[115.3,53.9],[114.9,53.9],[114.9,54.0],[114.6,54.0],[114.6,54.1],[114.4,54.1],[114.4,54.2],[114.3,54.2],[114.3,54.3],[114.1,54.3],[114.1,54.4],[114.0,54.4],[114.0,54.5],[113.9,54.5],[113.9,54.6],[113.8,54.6],[113.8,54.7],[113.6,54.7],[113.6,54.8],[113.5,54.8],[113.5,54.9],[113.3,54.9],[113.3,55.0],[113.2,55.0],[113.2,55.1],[113.1,55.1],[113.1,55.2],[113.0,55.2],[113.0,55.3],[112.9,55.3],[112.9,55.4],[112.7,55.4],[112.7,55.5],[112.6,55.5],[112.6,55.7],[112.5,55.7],[112.5,55.8],[112.3,55.8],[112.3,55.9],[112.1,55.9],[112.1,56.0],[111.9,56.0],[111.9,56.1],[111.6,56.1],[111.6,56.2],[111.5,56.2],[111.5,56.3],[111.1,56.3],[111.1,56.4],[110.8,56.4],[110.8,56.5],[110.6,56.5],[110.6,56.6],[110.4,56.6],[110.4,56.7],[110.1,56.7],[110.1,56.8],[109.6,56.8],[109.6,56.9],[109.0,56.9],[109.0,57.0]],[[109.7,55.8],[109.7,55.9],[109.8,55.9],[109.8,55.5],[109.7,55.5],[109.7,55.4],[109.8,55.4],[109.8,55.0],[109.7,55.0],[109.7,54.8],[109.6,54.8],[109.6,54.4],[109.5,54.4],[109.5,54.2],[109.4,54.2],[109.4,54.1],[109.3,54.1],[109.3,53.9],[109.2,53.9],[109.2,53.6],[109.1,53.6],[109.1,53.5],[109.0,53.5],[109.0,53.4],[108.8,53.4],[108.8,53.3],[108.6,53.3],[108.6,53.2],[108.4,53.2],[108.4,53.1],[108.3,53.1],[108.3,53.0],[108.2,53.0],[108.2,52.9],[107.9,52.9],[107.9,52.8],[107.8,52.8],[107.8,52.9],[107.6,52.9],[107.6,52.8],[107.2,52.8],[107.2,52.7],[107.1,52.7],[107.1,52.6],[107.0,52.6],[107.0,52.5],[106.9,52.5],[106.9,52.4],[106.8,52.4],[106.8,52.3],[106.7,52.3],[106.7,52.2],[106.4,52.2],[106.4,52.1],[106.2,52.1],[106.2,52.0],[105.9,52.0],[105.9,51.9],[105.7,51.9],[105.7,51.8],[105.6,51.8],[105.6,51.7],[105.1,51.7],[105.1,51.6],[104.7,51.6],[104.7,51.5],[104.4,51.5],[104.4,51.6],[104.3,51.6],[104.3,51.7],[104.4,51.7],[104.4,51.8],[105.1,51.8],[105.1,51.9],[105.4,51.9],[105.4,52.0],[105.6,52.0],[105.6,52.1],[105.7,52.1],[105.7,52.2],[105.8,52.2],[105.8,52.3],[105.9,52.3],[105.9,52.4],[106.0,52.4],[106.0,52.5],[106.2,52.5],[106.2,52.6],[106.4,52.6],[106.4,52.7],[106.7,52.7],[106.7,52.8],[106.8,52.8],[106.8,52.9],[106.9,52.9],[106.9,53.1],[107.0,53.1],[107.0,53.2],[107.1,53.2],[107.1,53.3],[107.2,53.3],[107.2,53.4],[107.4,53.4],[107.4,53.5],[107.7,53.5],[107.7,53.6],[107.9,53.6],[107.9,53.7],[108.0,53.7],[108.0,53.8],[108.2,53.8],[108.2,53.9],[108.3,53.9],[108.3,54.1],[108.4,54.1],[108.4,54.2],[108.5,54.2],[108.5,54.3],[108.6,54.3],[108.6,54.5],[108.7,54.5],[108.7,54.6],[108.9,54.6],[108.9,54.8],[109.0,54.8],[109.0,54.9],[109.1,54.9],[109.1,55.1],[109.3,55.1],[109.3,55.5],[109.4,55.5],[109.4,55.6],[109.6,55.6],[109.6,55.8],[109.7,55.8]]]},"properties":{"tile_id":"60","start_year":744,"end_year":756,"source_image":"data/raw/toolbay/t/60/744.png","source_url":"https://www.toolbay.cc/history-map/t/60/744.png","source_color":"#00ff00","polity_id":null,"polity_assignment":"unverified","geometry_origin":"raster_color_trace","pixel_size_degrees":0.1,"source_color_pixels":29142,"simplification_degrees":0}},{"type":"Feature","id":"60:744:#ff9933","bbox":[116.6,45.0,122.3,46.4],"geometry":{"type":"Polygon","coordinates":[[[121.7,46.4],[121.5,46.4],[121.5,46.3],[120.9,46.3],[120.9,46.2],[120.6,46.2],[120.6,46.1],[120.4,46.1],[120.4,46.0],[120.2,46.0],[120.2,45.9],[119.7,45.9],[119.7,45.8],[119.4,45.8],[119.4,45.9],[119.2,45.9],[119.2,45.8],[118.9,45.8],[118.9,45.7],[118.4,45.7],[118.4,45.6],[118.1,45.6],[118.1,45.5],[117.9,45.5],[117.9,45.4],[117.6,45.4],[117.6,45.3],[117.3,45.3],[117.3,45.2],[116.8,45.2],[116.8,45.1],[116.6,45.1],[116.6,45.0],[122.3,45.0],[122.3,45.4],[122.2,45.4],[122.2,45.5],[122.1,45.5],[122.1,45.6],[122.0,45.6],[122.0,45.8],[121.9,45.8],[121.9,46.1],[121.8,46.1],[121.8,46.3],[121.7,46.3],[121.7,46.4]]]},"properties":{"tile_id":"60","start_year":744,"end_year":756,"source_image":"data/raw/toolbay/t/60/744.png","source_url":"https://www.toolbay.cc/history-map/t/60/744.png","source_color":"#ff9933","polity_id":null,"polity_assignment":"unverified","geometry_origin":"raster_color_trace","pixel_size_degrees":0.1,"source_color_pixels":438,"simplification_degrees":0}},{"type":"Feature","id":"60:744:#ffff00","bbox":[126.3,45.0,134.0,46.7],"geometry":{"type":"Polygon","coordinates":[[[131.4,46.7],[130.5,46.7],[130.5,46.6],[130.0,46.6],[130.0,46.5],[129.7,46.5],[129.7,46.4],[129.5,46.4],[129.5,46.3],[129.0,46.3],[129.0,46.2],[128.7,46.2],[128.7,46.1],[128.4,46.1],[128.4,46.0],[128.3,46.0],[128.3,45.9],[127.8,45.9],[127.8,45.8],[127.7,45.8],[127.7,45.7],[127.3,45.7],[127.3,45.6],[127.0,45.6],[127.0,45.5],[126.8,45.5],[126.8,45.4],[126.6,45.4],[126.6,45.3],[126.5,45.3],[126.5,45.2],[126.4,45.2],[126.4,45.1],[126.3,45.1],[126.3,45.0],[134.0,45.0],[134.0,45.2],[133.9,45.2],[133.9,45.3],[133.7,45.3],[133.7,45.4],[133.5,45.4],[133.5,45.5],[133.4,45.5],[133.4,45.6],[133.3,45.6],[133.3,45.7],[133.1,45.7],[133.1,45.8],[133.0,45.8],[133.0,45.9],[132.9,45.9],[132.9,46.0],[132.8,46.0],[132.8,46.1],[132.6,46.1],[132.6,46.2],[132.4,46.2],[132.4,46.3],[132.2,46.3],[132.2,46.4],[132.1,46.4],[132.1,46.5],[132.0,46.5],[132.0,46.6],[131.4,46.6],[131.4,46.7]]]},"properties":{"tile_id":"60","start_year":744,"end_year":756,"source_image":"data/raw/toolbay/t/60/744.png","source_url":"https://www.toolbay.cc/history-map/t/60/744.png","source_color":"#ffff00","polity_id":null,"polity_assignment":"unverified","geometry_origin":"raster_color_trace","pixel_size_degrees":0.1,"source_color_pixels":838,"simplification_degrees":0}}]}
