{"type":"FeatureCollection","features":[{"type":"Feature","id":"60:790:#009999","bbox":[116.6,45.0,122.3,46.4],"geometry":{"type":"Polygon","coordinates":[[[121.7,46.4],[121.5,46.4],[121.5,46.3],[120.9,46.3],[120.9,46.2],[120.6,46.2],[120.6,46.1],[120.4,46.1],[120.4,46.0],[120.2,46.0],[120.2,45.9],[119.7,45.9],[119.7,45.8],[119.4,45.8],[119.4,45.9],[119.2,45.9],[119.2,45.8],[118.9,45.8],[118.9,45.7],[118.4,45.7],[118.4,45.6],[118.1,45.6],[118.1,45.5],[117.9,45.5],[117.9,45.4],[117.6,45.4],[117.6,45.3],[117.3,45.3],[117.3,45.2],[116.8,45.2],[116.8,45.1],[116.6,45.1],[116.6,45.0],[122.3,45.0],[122.3,45.4],[122.2,45.4],[122.2,45.5],[122.1,45.5],[122.1,45.6],[122.0,45.6],[122.0,45.8],[121.9,45.8],[121.9,46.1],[121.8,46.1],[121.8,46.3],[121.7,46.3],[121.7,46.4]]]},"properties":{"tile_id":"60","start_year":790,"end_year":795,"source_image":"data/raw/toolbay/t/60/790.png","source_url":"https://www.toolbay.cc/history-map/t/60/790.png","source_color":"#009999","polity_id":null,"polity_assignment":"unverified","geometry_origin":"raster_color_trace","pixel_size_degrees":0.1,"source_color_pixels":438,"simplification_degrees":0}},{"type":"Feature","id":"60:790:#00ff00","bbox":[94.9,45.0,123.9,59.9],"geometry":{"type":"Polygon","coordinates":[[[107.0,59.9],[106.3,59.9],[106.3,59.8],[106.0,59.8],[106.0,59.7],[104.5,59.7],[104.5,59.6],[104.1,59.6],[104.1,59.5],[102.9,59.5],[102.9,59.4],[102.2,59.4],[102.2,59.3],[101.2,59.3],[101.2,59.2],[101.0,59.2],[101.0,59.1],[100.7,59.1],[100.7,59.0],[100.6,59.0],[100.6,58.9],[100.4,58.9],[100.4,58.8],[100.2,58.8],[100.2,58.7],[100.1,58.7],[100.1,58.6],[100.0,58.6],[100.0,58.5],[99.9,58.5],[99.9,58.4],[99.8,58.4],[99.8,58.3],[99.5,58.3],[99.5,58.2],[99.4,58.2],[99.4,58.1],[99.3,58.1],[99.3,58.0],[99.1,58.0],[99.1,57.9],[99.0,57.9],[99.0,57.8],[98.9,57.8],[98.9,57.7],[98.7,57.7],[98.7,57.6],[98.5,57.6],[98.5,57.5],[98.3,57.5],[98.3,57.4],[98.2,57.4],[98.2,57.3],[98.1,57.3],[98.1,57.2],[98.0,57.2],[98.0,57.1],[97.7,57.1],[97.7,57.0],[97.6,57.0],[97.6,56.9],[97.5,56.9],[97.5,56.8],[97.3,56.8],[97.3,56.7],[97.1,56.7],[97.1,56.6],[96.9,56.6],[96.9,56.5],[96.8,56.5],[96.8,56.4],[96.7,56.4],[96.7,56.3],[96.6,56.3],[96.6,56.2],[96.4,56.2],[96.4,56.1],[96.3,56.1],[96.3,56.0],[96.2,56.0],[96.2,55.9],[96.1,55.9],[96.1,55.8],[96.0,55.8],[96.0,55.7],[95.9,55.7],[95.9,55.6],[95.8,55.6],[95.8,55.5],[95.7,55.5],[95.7,55.4],[95.6,55.4],[95.6,55.3],[95.4,55.3],[95.4,55.2],[95.3,55.2],[95.3,55.1],[95.1,55.1],[95.1,55.0],[94.9,55.0],[94.9,54.7],[95.0,54.7],[95.0,54.4],[95.1,54.4],[95.1,54.2],[95.2,54.2],[95.2,54.1],[95.3,54.1],[95.3,54.0],[95.4,54.0],[95.4,53.9],[95.5,53.9],[95.5,53.8],[95.6,53.8],[95.6,53.7],[95.7,53.7],[95.7,53.4],[95.9,53.4],[95.9,53.3],[96.0,53.3],[96.0,53.2],[96.1,53.2],[96.1,53.1],[96.2,53.1],[96.2,53.0],[96.3,53.0],[96.3,52.9],[96.4,52.9],[96.4,52.8],[96.5,52.8],[96.5,52.7],[96.6,52.7],[96.6,52.6],[96.7,52.6],[96.7,52.5],[96.8,52.5],[96.8,52.4],[96.9,52.4],[96.9,52.1],[97.0,52.1],[97.0,52.0],[97.1,52.0],[97.1,51.8],[97.2,51.8],[97.2,51.7],[97.3,51.7],[97.3,51.6],[97.4,51.6],[97.4,51.3],[97.5,51.3],[97.5,51.1],[97.6,51.1],[97.6,51.0],[97.7,51.0],[97.7,50.8],[97.8,50.8],[97.8,50.7],[97.9,50.7],[97.9,50.3],[98.0,50.3],[98.0,49.7],[98.1,49.7],[98.1,49.3],[98.2,49.3],[98.2,48.9],[98.3,48.9],[98.3,48.4],[98.2,48.4],[98.2,48.1],[98.1,48.1],[98.1,47.9],[98.0,47.9],[98.0,47.5],[97.9,47.5],[97.9,47.2],[97.8,47.2],[97.8,46.8],[97.7,46.8],[97.7,46.7],[97.6,46.7],[97.6,46.5],[97.5,46.5],[97.5,46.3],[97.4,46.3],[97.4,46.2],[97.3,46.2],[97.3,46.1],[97.2,46.1],[97.2,45.9],[97.1,45.9],[97.1,45.8],[97.0,45.8],[97.0,45.7],[96.9,45.7],[96.9,45.6],[96.8,45.6],[96.8,45.5],[96.7,45.5],[96.7,45.4],[96.6,45.4],[96.6,45.3],[96.5,45.3],[96.5,45.1],[96.4,45.1],[96.4,45.0],[116.6,45.0],[116.6,45.1],[116.8,45.1],[116.8,45.2],[117.3,45.2],[117.3,45.3],[117.6,45.3],[117.6,45.4],[117.9,45.4],[117.9,45.5],[118.1,45.5],[118.1,45.6],[118.4,45.6],[118.4,45.7],[118.9,45.7],[118.9,45.8],[119.2,45.8],[119.2,45.9],[119.4,45.9],[119.4,45.8],[119.7,45.8],[119.7,45.9],[120.2,45.9],[120.2,46.0],[120.4,46.0],[120.4,46.1],[120.6,46.1],[120.6,46.2],[120.9,46.2],[120.9,46.3],[121.5,46.3],[121.5,46.4],[121.6,46.4],[121.6,46.6],[121.7,46.6],[121.7,46.8],[121.8,46.8],[121.8,47.0],[121.9,47.0],[121.9,47.2],[122.0,47.2],[122.0,47.4],[122.1,47.4],[122.1,47.6],[122.2,47.6],[122.2,47.9],[122.3,47.9],[122.3,48.1],[122.4,48.1],[122.4,48.4],[122.5,48.4],[122.5,48.6],[122.6,48.6],[122.6,49.0],[122.7,49.0],[122.7,49.1],[122.8,49.1],[122.8,49.3],[122.9,49.3],[122.9,49.5],[123.0,49.5],[123.0,49.6],[123.1,49.6],[123.1,49.7],[123.2,49.7],[123.2,50.0],[123.3,50.0],[123.3,50.2],[123.4,50.2],[123.4,50.5],[123.5,50.5],[123.5,50.8],[123.6,50.8],[123.6,51.0],[123.7,51.0],[123.7,51.4],[123.8,51.4],[123.8,51.8],[123.9,51.8],[123.9,53.2],[123.8,53.2],[123.8,53.6],[123.7,53.6],[123.7,54.0],[123.6,54.0],[123.6,54.3],[123.5,54.3],[123.5,54.4],[123.4,54.4],[123.4,54.5],[123.3,54.5],[123.3,54.6],[123.2,54.6],[123.2,54.8],[123.1,54.8],[123.1,54.9],[123.0,54.9],[123.0,55.0],[122.9,55.0],[122.9,55.1],[122.8,55.1],[122.8,55.2],[122.7,55.2],[122.7,55.4],[122.6,55.4],[122.6,55.5],[122.5,55.5],[122.5,55.6],[122.4,55.6],[122.4,55.7],[122.2,55.7],[122.2,55.8],[122.0,55.8],[122.0,55.9],[121.8,55.9],[121.8,56.0],[121.6,56.0],[121.6,56.1],[121.5,56.1],[121.5,56.2],[121.4,56.2],[121.4,56.3],[121.3,56.3],[121.3,56.4],[121.2,56.4],[121.2,56.5],[121.0,56.5],[121.0,56.6],[120.4,56.6],[120.4,56.7],[120.2,56.7],[120.2,56.8],[119.9,56.8],[119.9,56.9],[119.8,56.9],[119.8,57.0],[119.6,57.0],[119.6,57.1],[119.4,57.1],[119.4,57.2],[119.3,57.2],[119.3,57.3],[119.0,57.3],[119.0,57.4],[118.7,57.4],[118.7,57.5],[118.3,57.5],[118.3,57.6],[118.0,57.6],[118.0,57.7],[117.7,57.7],[117.7,57.8],[117.0,57.8],[117.0,57.9],[116.7,57.9],[116.7,58.0],[116.3,58.0],[116.3,58.1],[116.1,58.1],[116.1,58.2],[115.7,58.2],[115.7,58.4],[115.2,58.4],[115.2,58.5],[115.0,58.5],[115.0,58.6],[114.8,58.6],[114.8,58.7],[114.6,58.7],[114.6,58.8],[114.4,58.8],[114.4,58.9],[114.2,58.9],[114.2,59.0],[114.0,59.0],[114.0,59.2],[113.5,59.2],[113.5,59.3],[113.3,59.3],[113.3,59.4],[112.9,59.4],[112.9,59.5],[111.7,59.5],[111.7,59.6],[111.4,59.6],[111.4,59.7],[111.2,59.7],[111.2,59.8],[110.6,59.8],[110.6,59.9],[108.2,59.9],[108.2,59.8],[107.0,59.8],[107.0,59.9]],[[109.7,55.8],[109.7,55.9],[109.8,55.9],[109.8,55.5],[109.7,55.5],[109.7,55.4],[109.8,55.4],[109.8,55.0],[109.7,55.0],[109.7,54.8],[109.6,54.8],[109.6,54.4],[109.5,54.4],[109.5,54.2],[109.4,54.2],[109.4,54.1],[109.3,54.1],[109.3,53.9],[109.2,53.9],[109.2,53.6],[109.1,53.6],[109.1,53.5],[109.0,53.5],[109.0,53.4],[108.8,53.4],[108.8,53.3],[108.6,53.3],[108.6,53.2],[108.4,53.2],[108.4,53.1],[108.3,53.1],[108.3,53.0],[108.2,53.0],[108.2,52.9],[107.9,52.9],[107.9,52.8],[107.8,52.8],[107.8,52.9],[107.6,52.9],[107.6,52.8],[107.2,52.8],[107.2,52.7],[107.1,52.7],[107.1,52.6],[107.0,52.6],[107.0,52.5],[106.9,52.5],[106.9,52.4],[106.8,52.4],[106.8,52.3],[106.7,52.3],[106.7,52.2],[106.4,52.2],[106.4,52.1],[106.2,52.1],[106.2,52.0],[105.9,52.0],[105.9,51.9],[105.7,51.9],[105.7,51.8],[105.6,51.8],[105.6,51.7],[105.1,51.7],[105.1,51.6],[104.7,51.6],[104.7,51.5],[104.4,51.5],[104.4,51.6],[104.3,51.6],[104.3,51.7],[104.4,51.7],[104.4,51.8],[105.1,51.8],[105.1,51.9],[105.4,51.9],[105.4,52.0],[105.6,52.0],[105.6,52.1],[105.7,52.1],[105.7,52.2],[105.8,52.2],[105.8,52.3],[105.9,52.3],[105.9,52.4],[106.0,52.4],[106.0,52.5],[106.2,52.5],[106.2,52.6],[106.4,52.6],[106.4,52.7],[106.7,52.7],[106.7,52.8],[106.8,52.8],[106.8,52.9],[106.9,52.9],[106.9,53.1],[107.0,53.1],[107.0,53.2],[107.1,53.2],[107.1,53.3],[107.2,53.3],[107.2,53.4],[107.4,53.4],[107.4,53.5],[107.7,53.5],[107.7,53.6],[107.9,53.6],[107.9,53.7],[108.0,53.7],[108.0,53.8],[108.2,53.8],[108.2,53.9],[108.3,53.9],[108.3,54.1],[108.4,54.1],[108.4,54.2],[108.5,54.2],[108.5,54.3],[108.6,54.3],[108.6,54.5],[108.7,54.5],[108.7,54.6],[108.9,54.6],[108.9,54.8],[109.0,54.8],[109.0,54.9],[109.1,54.9],[109.1,55.1],[109.3,55.1],[109.3,55.5],[109.4,55.5],[109.4,55.6],[109.6,55.6],[109.6,55.8],[109.7,55.8]]]},"properties":{"tile_id":"60","start_year":790,"end_year":795,"source_image":"data/raw/toolbay/t/60/790.png","source_url":"https://www.toolbay.cc/history-map/t/60/790.png","source_color":"#00ff00","polity_id":null,"polity_assignment":"unverified","geometry_origin":"raster_color_trace","pixel_size_degrees":0.1,"source_color_pixels":34438,"simplification_degrees":0}},{"type":"Feature","id":"60:790:#00ffff","bbox":[90.0,45.0,98.3,54.9],"geometry":{"type":"Polygon","coordinates":[[[94.9,54.9],[94.6,54.9],[94.6,54.8],[94.4,54.8],[94.4,54.7],[94.2,54.7],[94.2,54.6],[93.9,54.6],[93.9,54.5],[93.7,54.5],[93.7,54.4],[93.6,54.4],[93.6,54.3],[93.4,54.3],[93.4,54.2],[93.3,54.2],[93.3,54.1],[93.0,54.1],[93.0,54.0],[92.8,54.0],[92.8,53.9],[92.7,53.9],[92.7,53.8],[92.5,53.8],[92.5,53.7],[92.3,53.7],[92.3,53.6],[92.2,53.6],[92.2,53.5],[92.0,53.5],[92.0,53.4],[91.9,53.4],[91.9,53.3],[91.8,53.3],[91.8,53.2],[91.7,53.2],[91.7,53.1],[91.5,53.1],[91.5,53.0],[91.3,53.0],[91.3,52.9],[91.1,52.9],[91.1,52.8],[90.8,52.8],[90.8,52.7],[90.2,52.7],[90.2,52.6],[90.0,52.6],[90.0,45.0],[96.4,45.0],[96.4,45.1],[96.5,45.1],[96.5,45.3],[96.6,45.3],[96.6,45.4],[96.7,45.4],[96.7,45.5],[96.8,45.5],[96.8,45.6],[96.9,45.6],[96.9,45.7],[97.0,45.7],[97.0,45.8],[97.1,45.8],[97.1,45.9],[97.2,45.9],[97.2,46.1],[97.3,46.1],[97.3,46.2],[97.4,46.2],[97.4,46.3],[97.5,46.3],[97.5,46.5],[97.6,46.5],[97.6,46.7],[97.7,46.7],[97.7,46.8],[97.8,46.8],[97.8,47.2],[97.9,47.2],[97.9,47.5],[98.0,47.5],[98.0,47.9],[98.1,47.9],[98.1,48.1],[98.2,48.1],[98.2,48.4],[98.3,48.4],[98.3,48.9],[98.2,48.9],[98.2,49.3],[98.1,49.3],[98.1,49.7],[98.0,49.7],[98.0,50.3],[97.9,50.3],[97.9,50.7],[97.8,50.7],[97.8,50.8],[97.7,50.8],[97.7,51.0],[97.6,51.0],[97.6,51.1],[97.5,51.1],[97.5,51.3],[97.4,51.3],[97.4,51.6],[97.3,51.6],[97.3,51.7],[97.2,51.7],[97.2,51.8],[97.1,51.8],[97.1,52.0],[97.0,52.0],[97.0,52.1],[96.9,52.1],[96.9,52.4],[96.8,52.4],[96.8,52.5],[96.7,52.5],[96.7,52.6],[96.6,52.6],[96.6,52.7],[96.5,52.7],[96.5,52.8],[96.4,52.8],[96.4,52.9],[96.3,52.9],[96.3,53.0],[96.2,53.0],[96.2,53.1],[96.1,53.1],[96.1,53.2],[96.0,53.2],[96.0,53.3],[95.9,53.3],[95.9,53.4],[95.7,53.4],[95.7,53.7],[95.6,53.7],[95.6,53.8],[95.5,53.8],[95.5,53.9],[95.4,53.9],[95.4,54.0],[95.3,54.0],[95.3,54.1],[95.2,54.1],[95.2,54.2],[95.1,54.2],[95.1,54.4],[95.0,54.4],[95.0,54.7],[94.9,54.7],[94.9,54.9]]]},"properties":{"tile_id":"60","start_year":790,"end_year":795,"source_image":"data/raw/toolbay/t/60/790.png","source_url":"https://www.toolbay.cc/history-map/t/60/790.png","source_color":"#00ffff","polity_id":null,"polity_assignment":"unverified","geometry_origin":"raster_color_trace","pixel_size_degrees":0.1,"source_color_pixels":6496,"simplification_degrees":0}},{"type":"Feature","id":"60:790:#ffff00","bbox":[126.3,45.0,134.0,46.7],"geometry":{"type":"Polygon","coordinates":[[[131.4,46.7],[130.5,46.7],[130.5,46.6],[130.0,46.6],[130.0,46.5],[129.7,46.5],[129.7,46.4],[129.5,46.4],[129.5,46.3],[129.0,46.3],[129.0,46.2],[128.7,46.2],[128.7,46.1],[128.4,46.1],[128.4,46.0],[128.3,46.0],[128.3,45.9],[127.8,45.9],[127.8,45.8],[127.7,45.8],[127.7,45.7],[127.3,45.7],[127.3,45.6],[127.0,45.6],[127.0,45.5],[126.8,45.5],[126.8,45.4],[126.6,45.4],[126.6,45.3],[126.5,45.3],[126.5,45.2],[126.4,45.2],[126.4,45.1],[126.3,45.1],[126.3,45.0],[134.0,45.0],[134.0,45.2],[133.9,45.2],[133.9,45.3],[133.7,45.3],[133.7,45.4],[133.5,45.4],[133.5,45.5],[133.4,45.5],[133.4,45.6],[133.3,45.6],[133.3,45.7],[133.1,45.7],[133.1,45.8],[133.0,45.8],[133.0,45.9],[132.9,45.9],[132.9,46.0],[132.8,46.0],[132.8,46.1],[132.6,46.1],[132.6,46.2],[132.4,46.2],[132.4,46.3],[132.2,46.3],[132.2,46.4],[132.1,46.4],[132.1,46.5],[132.0,46.5],[132.0,46.6],[131.4,46.6],[131.4,46.7]]]},"properties":{"tile_id":"60","start_year":790,"end_year":795,"source_image":"data/raw/toolbay/t/60/790.png","source_url":"https://www.toolbay.cc/history-map/t/60/790.png","source_color":"#ffff00","polity_id":null,"polity_assignment":"unverified","geometry_origin":"raster_color_trace","pixel_size_degrees":0.1,"source_color_pixels":838,"simplification_degrees":0}}]}
