{"type":"FeatureCollection","features":[{"type":"Feature","id":"60:840:#009999","bbox":[116.6,45.0,122.3,46.4],"geometry":{"type":"Polygon","coordinates":[[[121.7,46.4],[121.5,46.4],[121.5,46.3],[120.9,46.3],[120.9,46.2],[120.6,46.2],[120.6,46.1],[120.4,46.1],[120.4,46.0],[120.2,46.0],[120.2,45.9],[119.7,45.9],[119.7,45.8],[119.4,45.8],[119.4,45.9],[119.2,45.9],[119.2,45.8],[118.9,45.8],[118.9,45.7],[118.4,45.7],[118.4,45.6],[118.1,45.6],[118.1,45.5],[117.9,45.5],[117.9,45.4],[117.6,45.4],[117.6,45.3],[117.3,45.3],[117.3,45.2],[116.8,45.2],[116.8,45.1],[116.6,45.1],[116.6,45.0],[122.3,45.0],[122.3,45.4],[122.2,45.4],[122.2,45.5],[122.1,45.5],[122.1,45.6],[122.0,45.6],[122.0,45.8],[121.9,45.8],[121.9,46.1],[121.8,46.1],[121.8,46.3],[121.7,46.3],[121.7,46.4]]]},"properties":{"tile_id":"60","start_year":840,"end_year":850,"source_image":"data/raw/toolbay/t/60/840.png","source_url":"https://www.toolbay.cc/history-map/t/60/840.png","source_color":"#009999","polity_id":null,"polity_assignment":"unverified","geometry_origin":"raster_color_trace","pixel_size_degrees":0.1,"source_color_pixels":438,"simplification_degrees":0}},{"type":"Feature","id":"60:840:#00ff00","bbox":[90.0,45.0,116.8,47.8],"geometry":{"type":"Polygon","coordinates":[[[116.0,47.8],[115.0,47.8],[115.0,47.7],[114.8,47.7],[114.8,47.6],[114.6,47.6],[114.6,47.5],[114.4,47.5],[114.4,47.4],[114.3,47.4],[114.3,47.3],[114.2,47.3],[114.2,47.2],[114.0,47.2],[114.0,47.1],[113.8,47.1],[113.8,47.0],[113.6,47.0],[113.6,46.9],[113.5,46.9],[113.5,46.8],[113.3,46.8],[113.3,46.7],[113.1,46.7],[113.1,46.6],[113.0,46.6],[113.0,46.5],[112.9,46.5],[112.9,46.4],[112.7,46.4],[112.7,46.3],[112.5,46.3],[112.5,46.2],[112.2,46.2],[112.2,46.1],[111.9,46.1],[111.9,46.0],[111.6,46.0],[111.6,45.9],[110.6,45.9],[110.6,46.0],[109.4,46.0],[109.4,46.1],[109.0,46.1],[109.0,46.0],[108.2,46.0],[108.2,46.1],[107.8,46.1],[107.8,46.2],[106.4,46.2],[106.4,46.1],[106.0,46.1],[106.0,46.0],[105.6,46.0],[105.6,45.9],[104.9,45.9],[104.9,45.8],[104.4,45.8],[104.4,45.7],[101.6,45.7],[101.6,45.6],[100.5,45.6],[100.5,45.5],[99.9,45.5],[99.9,45.4],[99.3,45.4],[99.3,45.3],[98.5,45.3],[98.5,45.2],[97.8,45.2],[97.8,45.1],[95.1,45.1],[95.1,45.2],[94.5,45.2],[94.5,45.3],[92.8,45.3],[92.8,45.4],[92.4,45.4],[92.4,45.5],[92.0,45.5],[92.0,45.6],[91.8,45.6],[91.8,45.7],[91.5,45.7],[91.5,45.8],[91.3,45.8],[91.3,45.9],[90.5,45.9],[90.5,46.0],[90.3,46.0],[90.3,46.1],[90.2,46.1],[90.2,46.2],[90.0,46.2],[90.0,45.0],[116.6,45.0],[116.6,45.1],[116.8,45.1],[116.8,45.2],[116.7,45.2],[116.7,45.6],[116.6,45.6],[116.6,45.9],[116.5,45.9],[116.5,46.3],[116.4,46.3],[116.4,47.4],[116.3,47.4],[116.3,47.7],[116.0,47.7],[116.0,47.8]]]},"properties":{"tile_id":"60","start_year":840,"end_year":850,"source_image":"data/raw/toolbay/t/60/840.png","source_url":"https://www.toolbay.cc/history-map/t/60/840.png","source_color":"#00ff00","polity_id":null,"polity_assignment":"unverified","geometry_origin":"raster_color_trace","pixel_size_degrees":0.1,"source_color_pixels":2404,"simplification_degrees":0}},{"type":"Feature","id":"60:840:#999900","bbox":[90.0,45.1,112.2,53.6],"geometry":{"type":"Polygon","coordinates":[[[105.1,53.6],[103.9,53.6],[103.9,53.5],[103.1,53.5],[103.1,53.4],[102.6,53.4],[102.6,53.3],[102.3,53.3],[102.3,53.2],[102.0,53.2],[102.0,53.1],[101.8,53.1],[101.8,53.0],[101.6,53.0],[101.6,52.9],[101.3,52.9],[101.3,52.8],[101.0,52.8],[101.0,52.7],[100.7,52.7],[100.7,52.6],[100.4,52.6],[100.4,52.5],[100.2,52.5],[100.2,52.4],[100.0,52.4],[100.0,52.3],[99.8,52.3],[99.8,52.2],[99.6,52.2],[99.6,52.1],[99.4,52.1],[99.4,52.0],[99.3,52.0],[99.3,51.9],[99.2,51.9],[99.2,51.8],[99.0,51.8],[99.0,51.7],[98.8,51.7],[98.8,51.6],[98.7,51.6],[98.7,51.5],[98.5,51.5],[98.5,51.4],[98.3,51.4],[98.3,51.3],[98.0,51.3],[98.0,51.2],[97.9,51.2],[97.9,51.1],[97.8,51.1],[97.8,51.0],[97.5,51.0],[97.5,50.9],[97.4,50.9],[97.4,50.8],[97.3,50.8],[97.3,50.7],[96.9,50.7],[96.9,50.6],[96.7,50.6],[96.7,50.5],[96.6,50.5],[96.6,50.4],[96.3,50.4],[96.3,50.3],[96.0,50.3],[96.0,50.2],[95.8,50.2],[95.8,50.1],[95.6,50.1],[95.6,50.0],[95.4,50.0],[95.4,49.9],[95.2,49.9],[95.2,49.8],[95.0,49.8],[95.0,49.7],[94.9,49.7],[94.9,49.6],[94.7,49.6],[94.7,49.5],[94.6,49.5],[94.6,49.4],[94.3,49.4],[94.3,49.3],[93.9,49.3],[93.9,49.2],[93.6,49.2],[93.6,49.1],[93.2,49.1],[93.2,49.0],[92.9,49.0],[92.9,48.9],[92.7,48.9],[92.7,48.8],[92.5,48.8],[92.5,48.7],[92.3,48.7],[92.3,48.6],[92.2,48.6],[92.2,48.5],[92.0,48.5],[92.0,48.4],[91.8,48.4],[91.8,48.3],[91.5,48.3],[91.5,48.2],[91.4,48.2],[91.4,48.1],[91.0,48.1],[91.0,48.0],[90.5,48.0],[90.5,47.9],[90.0,47.9],[90.0,46.2],[90.2,46.2],[90.2,46.1],[90.3,46.1],[90.3,46.0],[90.5,46.0],[90.5,45.9],[91.3,45.9],[91.3,45.8],[91.5,45.8],[91.5,45.7],[91.8,45.7],[91.8,45.6],[92.0,45.6],[92.0,45.5],[92.4,45.5],[92.4,45.4],[92.8,45.4],[92.8,45.3],[94.5,45.3],[94.5,45.2],[95.1,45.2],[95.1,45.1],[97.8,45.1],[97.8,45.2],[98.5,45.2],[98.5,45.3],[99.3,45.3],[99.3,45.4],[99.9,45.4],[99.9,45.5],[100.5,45.5],[100.5,45.6],[101.6,45.6],[101.6,45.7],[104.4,45.7],[104.4,45.8],[104.9,45.8],[104.9,45.9],[105.6,45.9],[105.6,46.0],[106.0,46.0],[106.0,46.1],[106.4,46.1],[106.4,46.2],[107.8,46.2],[107.8,46.1],[108.2,46.1],[108.2,46.0],[109.0,46.0],[109.0,46.1],[109.4,46.1],[109.4,46.0],[110.6,46.0],[110.6,45.9],[111.6,45.9],[111.6,46.0],[111.9,46.0],[111.9,46.1],[112.2,46.1],[112.2,46.2],[112.1,46.2],[112.1,46.3],[111.9,46.3],[111.9,46.5],[111.8,46.5],[111.8,46.7],[111.7,46.7],[111.7,46.9],[111.6,46.9],[111.6,47.1],[111.5,47.1],[111.5,47.3],[111.4,47.3],[111.4,48.4],[111.5,48.4],[111.5,49.0],[111.6,49.0],[111.6,49.6],[111.7,49.6],[111.7,50.1],[111.8,50.1],[111.8,51.0],[111.7,51.0],[111.7,51.4],[111.6,51.4],[111.6,51.7],[111.5,51.7],[111.5,51.8],[111.4,51.8],[111.4,51.9],[111.3,51.9],[111.3,52.1],[111.1,52.1],[111.1,52.2],[111.0,52.2],[111.0,52.3],[110.8,52.3],[110.8,52.5],[110.7,52.5],[110.7,52.7],[110.6,52.7],[110.6,52.8],[110.5,52.8],[110.5,52.9],[110.3,52.9],[110.3,53.0],[110.1,53.0],[110.1,53.1],[109.9,53.1],[109.9,53.2],[109.2,53.2],[109.2,53.3],[109.0,53.3],[109.0,53.4],[108.8,53.4],[108.8,53.3],[108.6,53.3],[108.6,53.2],[108.4,53.2],[108.4,53.1],[108.3,53.1],[108.3,53.0],[108.2,53.0],[108.2,52.9],[107.9,52.9],[107.9,52.8],[107.8,52.8],[107.8,52.9],[107.6,52.9],[107.6,52.8],[107.2,52.8],[107.2,52.7],[107.1,52.7],[107.1,52.6],[107.0,52.6],[107.0,52.5],[106.9,52.5],[106.9,52.4],[106.8,52.4],[106.8,52.3],[106.7,52.3],[106.7,52.2],[106.4,52.2],[106.4,52.1],[106.2,52.1],[106.2,52.0],[105.9,52.0],[105.9,51.9],[105.7,51.9],[105.7,51.8],[105.6,51.8],[105.6,51.7],[105.1,51.7],[105.1,51.6],[104.7,51.6],[104.7,51.5],[104.4,51.5],[104.4,51.6],[104.3,51.6],[104.3,51.7],[104.4,51.7],[104.4,51.8],[105.1,51.8],[105.1,51.9],[105.4,51.9],[105.4,52.0],[105.6,52.0],[105.6,52.1],[105.7,52.1],[105.7,52.2],[105.8,52.2],[105.8,52.3],[105.9,52.3],[105.9,52.4],[106.0,52.4],[106.0,52.5],[106.2,52.5],[106.2,52.6],[106.4,52.6],[106.4,52.7],[106.5,52.7],[106.5,52.8],[106.4,52.8],[106.4,52.9],[106.3,52.9],[106.3,53.0],[106.2,53.0],[106.2,53.1],[106.0,53.1],[106.0,53.2],[105.9,53.2],[105.9,53.3],[105.7,53.3],[105.7,53.4],[105.5,53.4],[105.5,53.5],[105.1,53.5],[105.1,53.6]]]},"properties":{"tile_id":"60","start_year":840,"end_year":850,"source_image":"data/raw/toolbay/t/60/840.png","source_url":"https://www.toolbay.cc/history-map/t/60/840.png","source_color":"#999900","polity_id":null,"polity_assignment":"unverified","geometry_origin":"raster_color_trace","pixel_size_degrees":0.1,"source_color_pixels":12714,"simplification_degrees":0}},{"type":"Feature","id":"60:840:#ffff00","bbox":[126.3,45.0,134.0,46.7],"geometry":{"type":"Polygon","coordinates":[[[131.4,46.7],[130.5,46.7],[130.5,46.6],[130.0,46.6],[130.0,46.5],[129.7,46.5],[129.7,46.4],[129.5,46.4],[129.5,46.3],[129.0,46.3],[129.0,46.2],[128.7,46.2],[128.7,46.1],[128.4,46.1],[128.4,46.0],[128.3,46.0],[128.3,45.9],[127.8,45.9],[127.8,45.8],[127.7,45.8],[127.7,45.7],[127.3,45.7],[127.3,45.6],[127.0,45.6],[127.0,45.5],[126.8,45.5],[126.8,45.4],[126.6,45.4],[126.6,45.3],[126.5,45.3],[126.5,45.2],[126.4,45.2],[126.4,45.1],[126.3,45.1],[126.3,45.0],[134.0,45.0],[134.0,45.2],[133.9,45.2],[133.9,45.3],[133.7,45.3],[133.7,45.4],[133.5,45.4],[133.5,45.5],[133.4,45.5],[133.4,45.6],[133.3,45.6],[133.3,45.7],[133.1,45.7],[133.1,45.8],[133.0,45.8],[133.0,45.9],[132.9,45.9],[132.9,46.0],[132.8,46.0],[132.8,46.1],[132.6,46.1],[132.6,46.2],[132.4,46.2],[132.4,46.3],[132.2,46.3],[132.2,46.4],[132.1,46.4],[132.1,46.5],[132.0,46.5],[132.0,46.6],[131.4,46.6],[131.4,46.7]]]},"properties":{"tile_id":"60","start_year":840,"end_year":850,"source_image":"data/raw/toolbay/t/60/840.png","source_url":"https://www.toolbay.cc/history-map/t/60/840.png","source_color":"#ffff00","polity_id":null,"polity_assignment":"unverified","geometry_origin":"raster_color_trace","pixel_size_degrees":0.1,"source_color_pixels":838,"simplification_degrees":0}}]}
