{"type":"FeatureCollection","features":[{"type":"Feature","id":"60:918:#009999","bbox":[103.3,45.0,129.2,51.5],"geometry":{"type":"Polygon","coordinates":[[[114.0,51.5],[113.3,51.5],[113.3,51.4],[110.8,51.4],[110.8,51.3],[109.4,51.3],[109.4,51.2],[109.1,51.2],[109.1,51.3],[109.0,51.3],[109.0,51.2],[108.3,51.2],[108.3,51.1],[107.9,51.1],[107.9,51.0],[107.6,51.0],[107.6,50.9],[105.4,50.9],[105.4,50.8],[105.1,50.8],[105.1,50.7],[104.9,50.7],[104.9,50.6],[104.3,50.6],[104.3,50.5],[103.7,50.5],[103.7,50.4],[103.4,50.4],[103.4,50.3],[103.3,50.3],[103.3,48.8],[103.4,48.8],[103.4,48.5],[103.5,48.5],[103.5,48.2],[103.6,48.2],[103.6,48.1],[103.7,48.1],[103.7,47.9],[103.8,47.9],[103.8,47.7],[103.9,47.7],[103.9,47.4],[104.0,47.4],[104.0,47.2],[104.1,47.2],[104.1,46.9],[104.2,46.9],[104.2,46.6],[104.3,46.6],[104.3,46.2],[104.4,46.2],[104.4,45.8],[104.5,45.8],[104.5,45.0],[128.1,45.0],[128.1,45.2],[128.2,45.2],[128.2,45.3],[128.3,45.3],[128.3,45.4],[128.4,45.4],[128.4,45.6],[128.5,45.6],[128.5,45.7],[128.6,45.7],[128.6,45.8],[128.7,45.8],[128.7,45.9],[128.8,45.9],[128.8,46.0],[128.9,46.0],[128.9,46.1],[129.0,46.1],[129.0,46.5],[129.1,46.5],[129.1,46.8],[129.2,46.8],[129.2,47.7],[129.1,47.7],[129.1,47.9],[129.0,47.9],[129.0,48.0],[128.9,48.0],[128.9,48.1],[128.8,48.1],[128.8,48.2],[128.7,48.2],[128.7,48.3],[128.6,48.3],[128.6,48.4],[128.4,48.4],[128.4,48.5],[128.3,48.5],[128.3,48.6],[128.2,48.6],[128.2,48.7],[128.0,48.7],[128.0,48.8],[127.8,48.8],[127.8,48.9],[127.6,48.9],[127.6,49.0],[127.4,49.0],[127.4,49.1],[127.1,49.1],[127.1,49.2],[126.7,49.2],[126.7,49.3],[126.1,49.3],[126.1,49.4],[125.5,49.4],[125.5,49.5],[124.9,49.5],[124.9,49.6],[124.0,49.6],[124.0,49.7],[123.4,49.7],[123.4,49.8],[122.7,49.8],[122.7,49.9],[122.0,49.9],[122.0,50.0],[121.4,50.0],[121.4,50.1],[120.4,50.1],[120.4,50.2],[119.7,50.2],[119.7,50.3],[119.2,50.3],[119.2,50.4],[118.6,50.4],[118.6,50.5],[118.1,50.5],[118.1,50.6],[117.6,50.6],[117.6,50.7],[117.2,50.7],[117.2,50.8],[116.7,50.8],[116.7,50.9],[116.2,50.9],[116.2,51.0],[115.9,51.0],[115.9,51.1],[115.6,51.1],[115.6,51.2],[115.2,51.2],[115.2,51.3],[114.6,51.3],[114.6,51.4],[114.0,51.4],[114.0,51.5]]]},"properties":{"tile_id":"60","start_year":918,"end_year":926,"source_image":"data/raw/toolbay/t/60/918.png","source_url":"https://www.toolbay.cc/history-map/t/60/918.png","source_color":"#009999","polity_id":null,"polity_assignment":"unverified","geometry_origin":"raster_color_trace","pixel_size_degrees":0.1,"source_color_pixels":13716,"simplification_degrees":0}},{"type":"Feature","id":"60:918:#999900","bbox":[90.0,45.0,104.5,50.3],"geometry":{"type":"Polygon","coordinates":[[[103.3,50.3],[102.9,50.3],[102.9,50.2],[102.6,50.2],[102.6,50.1],[102.1,50.1],[102.1,50.0],[101.8,50.0],[101.8,49.9],[101.4,49.9],[101.4,49.8],[101.2,49.8],[101.2,49.7],[101.0,49.7],[101.0,49.6],[100.6,49.6],[100.6,49.5],[100.2,49.5],[100.2,49.4],[99.9,49.4],[99.9,49.3],[99.6,49.3],[99.6,49.2],[98.8,49.2],[98.8,49.1],[98.0,49.1],[98.0,49.0],[97.2,49.0],[97.2,48.9],[96.8,48.9],[96.8,48.8],[96.3,48.8],[96.3,48.7],[95.5,48.7],[95.5,48.6],[95.0,48.6],[95.0,48.5],[94.6,48.5],[94.6,48.4],[93.9,48.4],[93.9,48.3],[93.2,48.3],[93.2,48.2],[92.9,48.2],[92.9,48.1],[91.5,48.1],[91.5,48.0],[90.1,48.0],[90.1,47.9],[90.0,47.9],[90.0,45.0],[104.5,45.0],[104.5,45.8],[104.4,45.8],[104.4,46.2],[104.3,46.2],[104.3,46.6],[104.2,46.6],[104.2,46.9],[104.1,46.9],[104.1,47.2],[104.0,47.2],[104.0,47.4],[103.9,47.4],[103.9,47.7],[103.8,47.7],[103.8,47.9],[103.7,47.9],[103.7,48.1],[103.6,48.1],[103.6,48.2],[103.5,48.2],[103.5,48.5],[103.4,48.5],[103.4,48.8],[103.3,48.8],[103.3,50.3]]]},"properties":{"tile_id":"60","start_year":918,"end_year":926,"source_image":"data/raw/toolbay/t/60/918.png","source_url":"https://www.toolbay.cc/history-map/t/60/918.png","source_color":"#999900","polity_id":null,"polity_assignment":"unverified","geometry_origin":"raster_color_trace","pixel_size_degrees":0.1,"source_color_pixels":5471,"simplification_degrees":0}},{"type":"Feature","id":"60:918:#ffff00","bbox":[128.1,45.0,134.0,46.7],"geometry":{"type":"Polygon","coordinates":[[[131.4,46.7],[130.5,46.7],[130.5,46.6],[130.0,46.6],[130.0,46.5],[129.7,46.5],[129.7,46.4],[129.5,46.4],[129.5,46.3],[129.0,46.3],[129.0,46.1],[128.9,46.1],[128.9,46.0],[128.8,46.0],[128.8,45.9],[128.7,45.9],[128.7,45.8],[128.6,45.8],[128.6,45.7],[128.5,45.7],[128.5,45.6],[128.4,45.6],[128.4,45.4],[128.3,45.4],[128.3,45.3],[128.2,45.3],[128.2,45.2],[128.1,45.2],[128.1,45.0],[134.0,45.0],[134.0,45.2],[133.9,45.2],[133.9,45.3],[133.7,45.3],[133.7,45.4],[133.5,45.4],[133.5,45.5],[133.4,45.5],[133.4,45.6],[133.3,45.6],[133.3,45.7],[133.1,45.7],[133.1,45.8],[133.0,45.8],[133.0,45.9],[132.9,45.9],[132.9,46.0],[132.8,46.0],[132.8,46.1],[132.6,46.1],[132.6,46.2],[132.4,46.2],[132.4,46.3],[132.2,46.3],[132.2,46.4],[132.1,46.4],[132.1,46.5],[132.0,46.5],[132.0,46.6],[131.4,46.6],[131.4,46.7]]]},"properties":{"tile_id":"60","start_year":918,"end_year":926,"source_image":"data/raw/toolbay/t/60/918.png","source_url":"https://www.toolbay.cc/history-map/t/60/918.png","source_color":"#ffff00","polity_id":null,"polity_assignment":"unverified","geometry_origin":"raster_color_trace","pixel_size_degrees":0.1,"source_color_pixels":696,"simplification_degrees":0}}]}
