{"type":"FeatureCollection","features":[{"type":"Feature","id":"60:926:#009999","bbox":[98.7,45.0,134.0,51.5],"geometry":{"type":"Polygon","coordinates":[[[114.0,51.5],[113.3,51.5],[113.3,51.4],[110.8,51.4],[110.8,51.3],[109.4,51.3],[109.4,51.2],[109.1,51.2],[109.1,51.3],[109.0,51.3],[109.0,51.2],[108.3,51.2],[108.3,51.1],[107.9,51.1],[107.9,51.0],[107.6,51.0],[107.6,50.9],[105.4,50.9],[105.4,50.8],[105.1,50.8],[105.1,50.7],[104.9,50.7],[104.9,50.6],[104.3,50.6],[104.3,50.5],[103.7,50.5],[103.7,50.4],[103.4,50.4],[103.4,50.3],[102.9,50.3],[102.9,50.2],[102.6,50.2],[102.6,50.1],[102.1,50.1],[102.1,50.0],[101.8,50.0],[101.8,49.9],[101.4,49.9],[101.4,49.8],[101.2,49.8],[101.2,49.7],[101.0,49.7],[101.0,49.6],[100.9,49.6],[100.9,49.5],[101.0,49.5],[101.0,49.3],[101.1,49.3],[101.1,48.1],[101.0,48.1],[101.0,47.9],[100.9,47.9],[100.9,47.6],[100.8,47.6],[100.8,47.4],[100.7,47.4],[100.7,47.2],[100.6,47.2],[100.6,47.1],[100.5,47.1],[100.5,46.9],[100.4,46.9],[100.4,46.8],[100.3,46.8],[100.3,46.6],[100.2,46.6],[100.2,46.5],[100.1,46.5],[100.1,46.4],[100.0,46.4],[100.0,46.3],[99.9,46.3],[99.9,46.2],[99.8,46.2],[99.8,46.1],[99.7,46.1],[99.7,46.0],[99.5,46.0],[99.5,45.9],[99.4,45.9],[99.4,45.8],[99.3,45.8],[99.3,45.7],[99.2,45.7],[99.2,45.6],[99.1,45.6],[99.1,45.5],[99.0,45.5],[99.0,45.4],[98.9,45.4],[98.9,45.2],[98.8,45.2],[98.8,45.1],[98.7,45.1],[98.7,45.0],[131.4,45.0],[131.4,45.1],[131.5,45.1],[131.5,45.2],[131.6,45.2],[131.6,45.6],[131.7,45.6],[131.7,45.7],[131.8,45.7],[131.8,45.8],[131.9,45.8],[131.9,45.9],[132.0,45.9],[132.0,46.0],[132.2,46.0],[132.2,46.1],[132.3,46.1],[132.3,46.2],[132.4,46.2],[132.4,46.4],[132.5,46.4],[132.5,46.5],[132.6,46.5],[132.6,46.6],[132.7,46.6],[132.7,46.7],[132.8,46.7],[132.8,46.8],[132.9,46.8],[132.9,46.9],[133.0,46.9],[133.0,47.0],[133.1,47.0],[133.1,47.2],[133.2,47.2],[133.2,47.3],[133.3,47.3],[133.3,47.4],[133.4,47.4],[133.4,47.6],[133.5,47.6],[133.5,47.7],[133.6,47.7],[133.6,47.8],[133.7,47.8],[133.7,48.0],[133.8,48.0],[133.8,48.1],[133.9,48.1],[133.9,48.3],[134.0,48.3],[134.0,48.9],[133.9,48.9],[133.9,49.1],[133.8,49.1],[133.8,49.2],[133.7,49.2],[133.7,49.3],[133.6,49.3],[133.6,49.4],[133.4,49.4],[133.4,49.5],[133.3,49.5],[133.3,49.6],[133.1,49.6],[133.1,49.7],[133.0,49.7],[133.0,49.8],[132.9,49.8],[132.9,49.9],[132.7,49.9],[132.7,50.0],[132.5,50.0],[132.5,50.1],[132.3,50.1],[132.3,50.2],[132.1,50.2],[132.1,50.3],[131.9,50.3],[131.9,50.4],[131.7,50.4],[131.7,50.5],[131.3,50.5],[131.3,50.6],[130.9,50.6],[130.9,50.7],[130.3,50.7],[130.3,50.8],[129.7,50.8],[129.7,50.9],[129.2,50.9],[129.2,51.0],[128.8,51.0],[128.8,51.1],[128.4,51.1],[128.4,51.2],[127.9,51.2],[127.9,51.3],[127.5,51.3],[127.5,51.4],[127.0,51.4],[127.0,51.5],[123.8,51.5],[123.8,51.4],[121.8,51.4],[121.8,51.3],[120.9,51.3],[120.9,51.2],[120.0,51.2],[120.0,51.1],[119.6,51.1],[119.6,51.0],[119.2,51.0],[119.2,50.9],[118.5,50.9],[118.5,50.8],[116.7,50.8],[116.7,50.9],[116.2,50.9],[116.2,51.0],[115.9,51.0],[115.9,51.1],[115.6,51.1],[115.6,51.2],[115.2,51.2],[115.2,51.3],[114.6,51.3],[114.6,51.4],[114.0,51.4],[114.0,51.5]]]},"properties":{"tile_id":"60","start_year":926,"end_year":940,"source_image":"data/raw/toolbay/t/60/926.png","source_url":"https://www.toolbay.cc/history-map/t/60/926.png","source_color":"#009999","polity_id":null,"polity_assignment":"unverified","geometry_origin":"raster_color_trace","pixel_size_degrees":0.1,"source_color_pixels":19514,"simplification_degrees":0}},{"type":"Feature","id":"60:926:#999900","bbox":[90.0,45.0,101.1,49.6],"geometry":{"type":"Polygon","coordinates":[[[100.9,49.6],[100.6,49.6],[100.6,49.5],[100.2,49.5],[100.2,49.4],[99.9,49.4],[99.9,49.3],[99.6,49.3],[99.6,49.2],[98.8,49.2],[98.8,49.1],[98.0,49.1],[98.0,49.0],[97.2,49.0],[97.2,48.9],[96.8,48.9],[96.8,48.8],[96.3,48.8],[96.3,48.7],[95.5,48.7],[95.5,48.6],[95.0,48.6],[95.0,48.5],[94.6,48.5],[94.6,48.4],[93.9,48.4],[93.9,48.3],[93.2,48.3],[93.2,48.2],[92.9,48.2],[92.9,48.1],[91.5,48.1],[91.5,48.0],[90.1,48.0],[90.1,47.9],[90.0,47.9],[90.0,45.0],[98.7,45.0],[98.7,45.1],[98.8,45.1],[98.8,45.2],[98.9,45.2],[98.9,45.4],[99.0,45.4],[99.0,45.5],[99.1,45.5],[99.1,45.6],[99.2,45.6],[99.2,45.7],[99.3,45.7],[99.3,45.8],[99.4,45.8],[99.4,45.9],[99.5,45.9],[99.5,46.0],[99.7,46.0],[99.7,46.1],[99.8,46.1],[99.8,46.2],[99.9,46.2],[99.9,46.3],[100.0,46.3],[100.0,46.4],[100.1,46.4],[100.1,46.5],[100.2,46.5],[100.2,46.6],[100.3,46.6],[100.3,46.8],[100.4,46.8],[100.4,46.9],[100.5,46.9],[100.5,47.1],[100.6,47.1],[100.6,47.2],[100.7,47.2],[100.7,47.4],[100.8,47.4],[100.8,47.6],[100.9,47.6],[100.9,47.9],[101.0,47.9],[101.0,48.1],[101.1,48.1],[101.1,49.3],[101.0,49.3],[101.0,49.5],[100.9,49.5],[100.9,49.6]]]},"properties":{"tile_id":"60","start_year":926,"end_year":940,"source_image":"data/raw/toolbay/t/60/926.png","source_url":"https://www.toolbay.cc/history-map/t/60/926.png","source_color":"#999900","polity_id":null,"polity_assignment":"unverified","geometry_origin":"raster_color_trace","pixel_size_degrees":0.1,"source_color_pixels":3728,"simplification_degrees":0}}]}
