{"type":"FeatureCollection","features":[{"type":"Feature","id":"60:940:#009999","bbox":[90.2,45.0,134.0,51.5],"geometry":{"type":"Polygon","coordinates":[[[114.0,51.5],[113.3,51.5],[113.3,51.4],[110.8,51.4],[110.8,51.3],[109.4,51.3],[109.4,51.2],[109.1,51.2],[109.1,51.3],[109.0,51.3],[109.0,51.2],[108.3,51.2],[108.3,51.1],[107.9,51.1],[107.9,51.0],[107.6,51.0],[107.6,50.9],[105.4,50.9],[105.4,50.8],[105.1,50.8],[105.1,50.7],[104.9,50.7],[104.9,50.6],[104.3,50.6],[104.3,50.5],[103.7,50.5],[103.7,50.4],[103.4,50.4],[103.4,50.3],[102.9,50.3],[102.9,50.2],[102.2,50.2],[102.2,50.1],[100.3,50.1],[100.3,50.0],[95.1,50.0],[95.1,49.9],[94.7,49.9],[94.7,49.8],[94.5,49.8],[94.5,49.7],[94.4,49.7],[94.4,49.6],[94.1,49.6],[94.1,49.7],[92.2,49.7],[92.2,49.6],[91.6,49.6],[91.6,49.5],[91.3,49.5],[91.3,49.4],[90.7,49.4],[90.7,49.3],[90.6,49.3],[90.6,49.2],[90.5,49.2],[90.5,49.0],[90.4,49.0],[90.4,48.7],[90.3,48.7],[90.3,48.4],[90.2,48.4],[90.2,47.6],[90.3,47.6],[90.3,47.4],[90.4,47.4],[90.4,47.2],[90.5,47.2],[90.5,47.1],[90.6,47.1],[90.6,46.9],[90.7,46.9],[90.7,46.7],[90.8,46.7],[90.8,46.6],[90.9,46.6],[90.9,46.4],[91.0,46.4],[91.0,46.2],[91.1,46.2],[91.1,46.1],[91.2,46.1],[91.2,45.9],[91.3,45.9],[91.3,45.8],[91.4,45.8],[91.4,45.6],[91.5,45.6],[91.5,45.5],[91.6,45.5],[91.6,45.3],[91.8,45.3],[91.8,45.1],[91.9,45.1],[91.9,45.0],[131.4,45.0],[131.4,45.1],[131.5,45.1],[131.5,45.2],[131.6,45.2],[131.6,45.6],[131.7,45.6],[131.7,45.7],[131.8,45.7],[131.8,45.8],[131.9,45.8],[131.9,45.9],[132.0,45.9],[132.0,46.0],[132.2,46.0],[132.2,46.1],[132.3,46.1],[132.3,46.2],[132.4,46.2],[132.4,46.4],[132.5,46.4],[132.5,46.5],[132.6,46.5],[132.6,46.6],[132.7,46.6],[132.7,46.7],[132.8,46.7],[132.8,46.8],[132.9,46.8],[132.9,46.9],[133.0,46.9],[133.0,47.0],[133.1,47.0],[133.1,47.2],[133.2,47.2],[133.2,47.3],[133.3,47.3],[133.3,47.4],[133.4,47.4],[133.4,47.6],[133.5,47.6],[133.5,47.7],[133.6,47.7],[133.6,47.8],[133.7,47.8],[133.7,48.0],[133.8,48.0],[133.8,48.1],[133.9,48.1],[133.9,48.3],[134.0,48.3],[134.0,48.9],[133.9,48.9],[133.9,49.1],[133.8,49.1],[133.8,49.2],[133.7,49.2],[133.7,49.3],[133.6,49.3],[133.6,49.4],[133.4,49.4],[133.4,49.5],[133.3,49.5],[133.3,49.6],[133.1,49.6],[133.1,49.7],[133.0,49.7],[133.0,49.8],[132.9,49.8],[132.9,49.9],[132.7,49.9],[132.7,50.0],[132.5,50.0],[132.5,50.1],[132.3,50.1],[132.3,50.2],[132.1,50.2],[132.1,50.3],[131.9,50.3],[131.9,50.4],[131.7,50.4],[131.7,50.5],[131.3,50.5],[131.3,50.6],[130.9,50.6],[130.9,50.7],[130.3,50.7],[130.3,50.8],[129.7,50.8],[129.7,50.9],[129.2,50.9],[129.2,51.0],[128.8,51.0],[128.8,51.1],[128.4,51.1],[128.4,51.2],[127.9,51.2],[127.9,51.3],[127.5,51.3],[127.5,51.4],[127.0,51.4],[127.0,51.5],[123.8,51.5],[123.8,51.4],[121.8,51.4],[121.8,51.3],[120.9,51.3],[120.9,51.2],[120.0,51.2],[120.0,51.1],[119.6,51.1],[119.6,51.0],[119.2,51.0],[119.2,50.9],[118.5,50.9],[118.5,50.8],[116.7,50.8],[116.7,50.9],[116.2,50.9],[116.2,51.0],[115.9,51.0],[115.9,51.1],[115.6,51.1],[115.6,51.2],[115.2,51.2],[115.2,51.3],[114.6,51.3],[114.6,51.4],[114.0,51.4],[114.0,51.5]]]},"properties":{"tile_id":"60","start_year":940,"end_year":1100,"source_image":"data/raw/toolbay/t/60/940.png","source_url":"https://www.toolbay.cc/history-map/t/60/940.png","source_color":"#009999","polity_id":null,"polity_assignment":"unverified","geometry_origin":"raster_color_trace","pixel_size_degrees":0.1,"source_color_pixels":24233,"simplification_degrees":0}}]}
