{"type":"FeatureCollection","features":[{"type":"Feature","geometry":{"type":"Polygon","coordinates":[[[78.5,43.6],[90.0,43.6],[90.0,39.2],[90.0,39.1],[89.9,39.1],[89.9,39.0],[89.6,39.0],[89.6,38.9],[89.1,38.9],[89.1,38.8],[88.7,38.8],[88.7,38.7],[88.2,38.7],[88.2,38.6],[86.7,38.6],[86.7,38.5],[86.1,38.5],[86.1,38.4],[85.8,38.4],[85.8,38.3],[85.3,38.3],[85.3,38.2],[84.8,38.2],[84.8,38.3],[84.6,38.3],[84.6,38.2],[84.1,38.2],[84.1,38.1],[83.8,38.1],[83.8,38.0],[83.6,38.0],[83.6,37.9],[83.4,37.9],[83.4,37.8],[83.3,37.8],[83.3,37.7],[82.9,37.7],[82.9,37.6],[82.7,37.6],[82.7,37.5],[82.4,37.5],[82.4,37.4],[82.2,37.4],[82.2,37.3],[82.1,37.3],[82.1,37.2],[81.9,37.2],[81.9,37.1],[81.7,37.1],[81.7,37.0],[81.6,37.0],[81.6,36.9],[81.3,36.9],[81.3,36.8],[80.5,36.8],[80.5,36.7],[80.3,36.7],[80.3,36.6],[80.0,36.6],[80.0,36.5],[79.7,36.5],[79.7,36.6],[79.2,36.6],[79.2,36.7],[78.8,36.7],[78.8,36.8],[78.4,36.8],[78.4,36.9],[78.2,36.9],[78.2,37.0],[77.9,37.0],[77.9,37.1],[77.8,37.1],[77.8,37.2],[77.7,37.2],[77.7,37.1],[77.4,37.1],[77.4,37.2],[76.8,37.2],[76.8,37.3],[76.2,37.3],[76.2,37.5],[76.1,37.5],[76.1,37.9],[76.0,37.9],[76.0,38.1],[75.9,38.1],[75.9,38.3],[75.8,38.3],[75.8,38.4],[75.6,38.4],[75.6,38.5],[75.5,38.5],[75.5,38.6],[75.4,38.6],[75.4,38.7],[75.3,38.7],[75.3,38.8],[75.2,38.8],[75.2,38.9],[75.1,38.9],[75.1,39.0],[74.9,39.0],[74.9,39.1],[74.7,39.1],[74.7,39.2],[74.5,39.2],[74.5,39.4],[74.4,39.4],[74.4,39.5],[74.3,39.5],[74.3,39.7],[74.2,39.7],[74.2,39.8],[74.1,39.8],[74.1,41.1],[74.2,41.1],[74.2,41.2],[74.3,41.2],[74.3,41.5],[74.4,41.5],[74.4,41.6],[74.5,41.6],[74.5,41.7],[74.9,41.7],[74.9,41.8],[75.1,41.8],[75.1,41.9],[75.9,41.9],[75.9,42.0],[76.4,42.0],[76.4,42.1],[76.7,42.1],[76.7,42.2],[76.8,42.2],[76.8,42.3],[77.0,42.3],[77.0,42.4],[77.2,42.4],[77.2,42.5],[77.3,42.5],[77.3,42.6],[77.5,42.6],[77.5,42.7],[77.6,42.7],[77.6,42.8],[77.7,42.8],[77.7,42.9],[77.8,42.9],[77.8,43.0],[77.9,43.0],[77.9,43.1],[78.0,43.1],[78.0,43.2],[78.1,43.2],[78.1,43.3],[78.2,43.3],[78.2,43.4],[78.3,43.4],[78.3,43.5],[78.4,43.5],[78.4,43.6],[78.5,43.6]]]},"properties":{"name_zh":"南疆修正范围","geometry_reference_year":1884,"source_path":"data/derived/merged/1884.geojson","method":"Later Qing Xinjiang footprint clipped to the southern/western Xinjiang correction window; only intersected with the erroneous Kokand-colored component."}}]}
