{"type":"FeatureCollection","features":[{"type":"Feature","id":"50:-176:#009900","bbox":[60.0,45.0,76.2,54.8],"geometry":{"type":"Polygon","coordinates":[[[60.1,50.2],[60.0,50.2],[60.0,50.1],[60.0,46.2],[60.5,46.2],[60.5,46.3],[60.6,46.3],[60.6,46.4],[60.5,46.4],[60.5,46.6],[60.6,46.6],[60.6,46.7],[60.8,46.7],[60.8,46.6],[60.9,46.6],[60.9,46.5],[61.2,46.5],[61.2,46.6],[61.3,46.6],[61.3,46.4],[61.2,46.4],[61.2,46.2],[61.1,46.2],[61.1,46.1],[61.0,46.1],[61.0,46.0],[60.9,46.0],[60.9,45.6],[61.0,45.6],[61.0,45.5],[61.1,45.5],[61.1,45.4],[61.2,45.4],[61.2,45.2],[61.3,45.2],[61.3,45.1],[61.4,45.1],[61.4,45.0],[73.9,45.0],[73.9,45.1],[73.7,45.1],[73.7,45.3],[73.5,45.3],[73.5,45.4],[73.4,45.4],[73.4,45.5],[73.3,45.5],[73.3,46.1],[73.4,46.1],[73.4,46.2],[73.5,46.2],[73.5,46.4],[73.7,46.4],[73.7,46.5],[73.9,46.5],[73.9,46.6],[74.1,46.6],[74.1,46.7],[74.4,46.7],[74.4,46.8],[74.5,46.8],[74.5,46.9],[75.6,46.9],[75.6,47.0],[75.5,47.0],[75.5,47.6],[75.6,47.6],[75.6,47.8],[75.7,47.8],[75.7,47.9],[75.8,47.9],[75.8,48.0],[75.9,48.0],[75.9,48.1],[76.0,48.1],[76.0,48.2],[76.1,48.2],[76.1,48.3],[76.2,48.3],[76.2,49.4],[76.1,49.4],[76.1,49.7],[76.0,49.7],[76.0,50.1],[75.9,50.1],[75.9,50.6],[76.0,50.6],[76.0,50.8],[76.1,50.8],[76.1,51.0],[76.2,51.0],[76.2,51.2],[76.0,51.2],[76.0,51.3],[75.8,51.3],[75.8,51.4],[75.5,51.4],[75.5,51.5],[75.1,51.5],[75.1,51.6],[72.3,51.6],[72.3,51.5],[69.4,51.5],[69.4,51.6],[69.1,51.6],[69.1,51.7],[68.7,51.7],[68.7,51.8],[68.5,51.8],[68.5,51.9],[68.2,51.9],[68.2,52.0],[68.0,52.0],[68.0,52.1],[67.6,52.1],[67.6,52.2],[67.3,52.2],[67.3,52.3],[67.0,52.3],[67.0,52.4],[66.7,52.4],[66.7,52.5],[66.4,52.5],[66.4,52.6],[66.1,52.6],[66.1,52.8],[66.0,52.8],[66.0,52.9],[65.9,52.9],[65.9,53.1],[65.8,53.1],[65.8,53.3],[65.7,53.3],[65.7,53.4],[65.6,53.4],[65.6,53.5],[65.5,53.5],[65.5,53.6],[65.4,53.6],[65.4,53.7],[65.3,53.7],[65.3,53.8],[65.2,53.8],[65.2,54.0],[65.0,54.0],[65.0,54.1],[64.9,54.1],[64.9,54.3],[64.8,54.3],[64.8,54.4],[64.7,54.4],[64.7,54.5],[64.5,54.5],[64.5,54.6],[64.4,54.6],[64.4,54.7],[64.1,54.7],[64.1,54.8],[63.4,54.8],[63.4,54.7],[63.2,54.7],[63.2,54.6],[63.0,54.6],[63.0,54.5],[62.9,54.5],[62.9,54.4],[62.8,54.4],[62.8,54.3],[62.7,54.3],[62.7,54.2],[62.6,54.2],[62.6,54.1],[62.5,54.1],[62.5,54.0],[62.4,54.0],[62.4,53.8],[62.3,53.8],[62.3,53.7],[62.2,53.7],[62.2,53.6],[62.1,53.6],[62.1,53.4],[62.0,53.4],[62.0,53.1],[61.9,53.1],[61.9,52.9],[61.8,52.9],[61.8,52.8],[61.7,52.8],[61.7,52.6],[61.6,52.6],[61.6,52.5],[61.5,52.5],[61.5,52.3],[61.4,52.3],[61.4,52.1],[61.3,52.1],[61.3,52.0],[61.2,52.0],[61.2,51.8],[61.1,51.8],[61.1,51.6],[61.0,51.6],[61.0,51.4],[60.9,51.4],[60.9,51.3],[60.8,51.3],[60.8,51.2],[60.7,51.2],[60.7,51.0],[60.6,51.0],[60.6,50.9],[60.5,50.9],[60.5,50.6],[60.4,50.6],[60.4,50.5],[60.3,50.5],[60.3,50.4],[60.2,50.4],[60.2,50.3],[60.1,50.3],[60.1,50.2]]]},"properties":{"tile_id":"50","start_year":-176,"end_year":-102,"source_image":"data/raw/toolbay/t/50/-176.png","source_url":"https://www.toolbay.cc/history-map/t/50/-176.png","source_color":"#009900","polity_id":null,"polity_assignment":"unverified","geometry_origin":"raster_color_trace","pixel_size_degrees":0.1,"source_color_pixels":11591,"simplification_degrees":0}},{"type":"Feature","id":"50:-176:#00ff00","bbox":[73.7,45.0,76.9,46.8],"geometry":{"type":"Polygon","coordinates":[[[76.8,46.8],[75.9,46.8],[75.9,46.7],[75.8,46.7],[75.8,46.6],[75.6,46.6],[75.6,46.5],[75.1,46.5],[75.1,46.6],[74.9,46.6],[74.9,46.5],[74.7,46.5],[74.7,46.3],[74.4,46.3],[74.4,46.2],[74.3,46.2],[74.3,46.1],[74.2,46.1],[74.2,46.0],[74.1,46.0],[74.1,45.7],[74.0,45.7],[74.0,45.5],[73.9,45.5],[73.9,45.3],[73.7,45.3],[73.7,45.1],[73.9,45.1],[73.9,45.0],[75.7,45.0],[75.7,45.1],[75.9,45.1],[75.9,45.2],[76.1,45.2],[76.1,45.3],[76.2,45.3],[76.2,45.4],[76.3,45.4],[76.3,45.5],[76.4,45.5],[76.4,45.6],[76.5,45.6],[76.5,45.8],[76.6,45.8],[76.6,45.9],[76.7,45.9],[76.7,46.0],[76.8,46.0],[76.8,46.2],[76.9,46.2],[76.9,46.6],[76.8,46.6],[76.8,46.8]]]},"properties":{"tile_id":"50","start_year":-176,"end_year":-102,"source_image":"data/raw/toolbay/t/50/-176.png","source_url":"https://www.toolbay.cc/history-map/t/50/-176.png","source_color":"#00ff00","polity_id":null,"polity_assignment":"unverified","geometry_origin":"raster_color_trace","pixel_size_degrees":0.1,"source_color_pixels":389,"simplification_degrees":0}},{"type":"Feature","id":"50:-176:#6666ff","bbox":[75.5,45.0,90.0,51.5],"geometry":{"type":"Polygon","coordinates":[[[84.3,51.5],[82.5,51.5],[82.5,51.4],[81.7,51.4],[81.7,51.3],[80.7,51.3],[80.7,51.2],[80.2,51.2],[80.2,51.1],[79.6,51.1],[79.6,51.0],[79.1,51.0],[79.1,50.9],[78.4,50.9],[78.4,51.0],[78.0,51.0],[78.0,51.1],[77.4,51.1],[77.4,51.2],[76.2,51.2],[76.2,51.0],[76.1,51.0],[76.1,50.8],[76.0,50.8],[76.0,50.6],[75.9,50.6],[75.9,50.1],[76.0,50.1],[76.0,49.7],[76.1,49.7],[76.1,49.4],[76.2,49.4],[76.2,48.3],[76.1,48.3],[76.1,48.2],[76.0,48.2],[76.0,48.1],[75.9,48.1],[75.9,48.0],[75.8,48.0],[75.8,47.9],[75.7,47.9],[75.7,47.8],[75.6,47.8],[75.6,47.6],[75.5,47.6],[75.5,47.0],[75.6,47.0],[75.6,46.9],[75.8,46.9],[75.8,46.8],[77.0,46.8],[77.0,46.9],[78.4,46.9],[78.4,46.8],[78.7,46.8],[78.7,46.7],[78.8,46.7],[78.8,45.4],[78.7,45.4],[78.7,45.2],[78.6,45.2],[78.6,45.0],[90.0,45.0],[90.0,50.5],[89.5,50.5],[89.5,50.4],[88.6,50.4],[88.6,50.5],[88.2,50.5],[88.2,50.6],[87.8,50.6],[87.8,50.7],[87.7,50.7],[87.7,50.8],[86.9,50.8],[86.9,50.9],[86.4,50.9],[86.4,51.0],[86.0,51.0],[86.0,51.1],[85.6,51.1],[85.6,51.2],[85.1,51.2],[85.1,51.3],[84.8,51.3],[84.8,51.4],[84.3,51.4],[84.3,51.5]]]},"properties":{"tile_id":"50","start_year":-176,"end_year":-102,"source_image":"data/raw/toolbay/t/50/-176.png","source_url":"https://www.toolbay.cc/history-map/t/50/-176.png","source_color":"#6666ff","polity_id":null,"polity_assignment":"unverified","geometry_origin":"raster_color_trace","pixel_size_degrees":0.1,"source_color_pixels":8011,"simplification_degrees":0}},{"type":"Feature","id":"50:-176:#ff00ff","bbox":[75.7,45.0,78.8,46.9],"geometry":{"type":"Polygon","coordinates":[[[78.4,46.9],[77.0,46.9],[77.0,46.8],[76.8,46.8],[76.8,46.6],[76.9,46.6],[76.9,46.2],[76.8,46.2],[76.8,46.0],[76.7,46.0],[76.7,45.9],[76.6,45.9],[76.6,45.8],[76.5,45.8],[76.5,45.6],[76.4,45.6],[76.4,45.5],[76.3,45.5],[76.3,45.4],[76.2,45.4],[76.2,45.3],[76.1,45.3],[76.1,45.2],[75.9,45.2],[75.9,45.1],[75.7,45.1],[75.7,45.0],[78.6,45.0],[78.6,45.2],[78.7,45.2],[78.7,45.4],[78.8,45.4],[78.8,46.7],[78.7,46.7],[78.7,46.8],[78.4,46.8],[78.4,46.9]]]},"properties":{"tile_id":"50","start_year":-176,"end_year":-102,"source_image":"data/raw/toolbay/t/50/-176.png","source_url":"https://www.toolbay.cc/history-map/t/50/-176.png","source_color":"#ff00ff","polity_id":null,"polity_assignment":"unverified","geometry_origin":"raster_color_trace","pixel_size_degrees":0.1,"source_color_pixels":4294,"simplification_degrees":0}}]}
