{"type":"FeatureCollection","features":[{"type":"Feature","id":"50:-210:#00ff00","bbox":[73.7,45.0,76.9,46.8],"geometry":{"type":"Polygon","coordinates":[[[76.8,46.8],[75.9,46.8],[75.9,46.7],[75.8,46.7],[75.8,46.6],[75.6,46.6],[75.6,46.5],[75.1,46.5],[75.1,46.6],[74.9,46.6],[74.9,46.5],[74.7,46.5],[74.7,46.3],[74.4,46.3],[74.4,46.2],[74.3,46.2],[74.3,46.1],[74.2,46.1],[74.2,46.0],[74.1,46.0],[74.1,45.7],[74.0,45.7],[74.0,45.5],[73.9,45.5],[73.9,45.3],[73.7,45.3],[73.7,45.1],[73.9,45.1],[73.9,45.0],[75.7,45.0],[75.7,45.1],[75.9,45.1],[75.9,45.2],[76.1,45.2],[76.1,45.3],[76.2,45.3],[76.2,45.4],[76.3,45.4],[76.3,45.5],[76.4,45.5],[76.4,45.6],[76.5,45.6],[76.5,45.8],[76.6,45.8],[76.6,45.9],[76.7,45.9],[76.7,46.0],[76.8,46.0],[76.8,46.2],[76.9,46.2],[76.9,46.6],[76.8,46.6],[76.8,46.8]]]},"properties":{"tile_id":"50","start_year":-210,"end_year":-176,"source_image":"data/raw/toolbay/t/50/-210.png","source_url":"https://www.toolbay.cc/history-map/t/50/-210.png","source_color":"#00ff00","polity_id":null,"polity_assignment":"unverified","geometry_origin":"raster_color_trace","pixel_size_degrees":0.1,"source_color_pixels":389,"simplification_degrees":0}},{"type":"Feature","id":"50:-210:#ff00ff","bbox":[75.7,45.0,78.8,46.9],"geometry":{"type":"Polygon","coordinates":[[[78.4,46.9],[77.0,46.9],[77.0,46.8],[76.8,46.8],[76.8,46.6],[76.9,46.6],[76.9,46.2],[76.8,46.2],[76.8,46.0],[76.7,46.0],[76.7,45.9],[76.6,45.9],[76.6,45.8],[76.5,45.8],[76.5,45.6],[76.4,45.6],[76.4,45.5],[76.3,45.5],[76.3,45.4],[76.2,45.4],[76.2,45.3],[76.1,45.3],[76.1,45.2],[75.9,45.2],[75.9,45.1],[75.7,45.1],[75.7,45.0],[78.6,45.0],[78.6,45.2],[78.7,45.2],[78.7,45.4],[78.8,45.4],[78.8,46.7],[78.7,46.7],[78.7,46.8],[78.4,46.8],[78.4,46.9]]]},"properties":{"tile_id":"50","start_year":-210,"end_year":-176,"source_image":"data/raw/toolbay/t/50/-210.png","source_url":"https://www.toolbay.cc/history-map/t/50/-210.png","source_color":"#ff00ff","polity_id":null,"polity_assignment":"unverified","geometry_origin":"raster_color_trace","pixel_size_degrees":0.1,"source_color_pixels":414,"simplification_degrees":0}}]}
