{"type":"FeatureCollection","features":[{"type":"Feature","id":"50:100:#009900","bbox":[60.8,45.0,80.4,52.1],"geometry":{"type":"Polygon","coordinates":[[[66.0,52.1],[64.5,52.1],[64.5,52.0],[64.0,52.0],[64.0,51.9],[63.3,51.9],[63.3,51.8],[62.9,51.8],[62.9,51.7],[62.5,51.7],[62.5,51.6],[61.6,51.6],[61.6,51.5],[61.4,51.5],[61.4,51.4],[61.0,51.4],[61.0,51.3],[60.8,51.3],[60.8,51.2],[61.0,51.2],[61.0,51.1],[61.1,51.1],[61.1,51.0],[61.2,51.0],[61.2,50.9],[61.3,50.9],[61.3,50.8],[61.5,50.8],[61.5,50.7],[61.6,50.7],[61.6,50.6],[61.7,50.6],[61.7,50.5],[61.8,50.5],[61.8,50.4],[61.9,50.4],[61.9,50.3],[62.0,50.3],[62.0,50.2],[62.1,50.2],[62.1,50.1],[62.2,50.1],[62.2,50.0],[62.3,50.0],[62.3,49.8],[62.4,49.8],[62.4,49.6],[62.5,49.6],[62.5,49.5],[62.6,49.5],[62.6,49.3],[62.7,49.3],[62.7,49.1],[62.8,49.1],[62.8,48.9],[62.9,48.9],[62.9,48.7],[63.0,48.7],[63.0,48.3],[63.1,48.3],[63.1,47.9],[63.2,47.9],[63.2,47.2],[63.1,47.2],[63.1,46.5],[63.2,46.5],[63.2,45.6],[63.1,45.6],[63.1,45.5],[62.9,45.5],[62.9,45.4],[62.8,45.4],[62.8,45.3],[62.3,45.3],[62.3,45.4],[61.4,45.4],[61.4,45.3],[61.2,45.3],[61.2,45.2],[61.3,45.2],[61.3,45.1],[61.4,45.1],[61.4,45.0],[73.9,45.0],[73.9,45.1],[73.7,45.1],[73.7,45.3],[73.5,45.3],[73.5,45.4],[73.4,45.4],[73.4,45.5],[73.3,45.5],[73.3,46.1],[73.4,46.1],[73.4,46.2],[73.5,46.2],[73.5,46.4],[73.7,46.4],[73.7,46.5],[73.9,46.5],[73.9,46.6],[74.1,46.6],[74.1,46.7],[74.4,46.7],[74.4,46.8],[74.5,46.8],[74.5,46.9],[75.8,46.9],[75.8,46.8],[77.0,46.8],[77.0,46.9],[77.8,46.9],[77.8,47.0],[78.0,47.0],[78.0,47.1],[78.2,47.1],[78.2,47.2],[80.0,47.2],[80.0,47.3],[80.1,47.3],[80.1,47.6],[80.2,47.6],[80.2,48.0],[80.3,48.0],[80.3,48.6],[80.4,48.6],[80.4,49.0],[80.3,49.0],[80.3,49.7],[80.2,49.7],[80.2,50.4],[80.1,50.4],[80.1,50.7],[80.0,50.7],[80.0,50.9],[79.9,50.9],[79.9,51.0],[79.8,51.0],[79.8,51.1],[79.6,51.1],[79.6,51.0],[79.1,51.0],[79.1,50.9],[78.4,50.9],[78.4,51.0],[78.0,51.0],[78.0,51.1],[77.4,51.1],[77.4,51.2],[76.0,51.2],[76.0,51.3],[75.8,51.3],[75.8,51.4],[75.5,51.4],[75.5,51.5],[75.1,51.5],[75.1,51.6],[72.3,51.6],[72.3,51.5],[68.9,51.5],[68.9,51.6],[68.6,51.6],[68.6,51.7],[68.0,51.7],[68.0,51.8],[67.6,51.8],[67.6,51.9],[66.7,51.9],[66.7,52.0],[66.0,52.0],[66.0,52.1]]]},"properties":{"tile_id":"50","start_year":100,"end_year":160,"source_image":"data/raw/toolbay/t/50/100.png","source_url":"https://www.toolbay.cc/history-map/t/50/100.png","source_color":"#009900","polity_id":null,"polity_assignment":"unverified","geometry_origin":"raster_color_trace","pixel_size_degrees":0.1,"source_color_pixels":10288,"simplification_degrees":0}},{"type":"Feature","id":"50:100:#00ff00","bbox":[73.7,45.0,90.0,51.2],"geometry":{"type":"MultiPolygon","coordinates":[[[[76.8,46.6],[76.8,46.8],[75.9,46.8],[75.9,46.7],[75.8,46.7],[75.8,46.6],[75.6,46.6],[75.6,46.5],[75.1,46.5],[75.1,46.6],[74.9,46.6],[74.9,46.5],[74.7,46.5],[74.7,46.3],[74.4,46.3],[74.4,46.2],[74.3,46.2],[74.3,46.1],[74.2,46.1],[74.2,46.0],[74.1,46.0],[74.1,45.7],[74.0,45.7],[74.0,45.5],[73.9,45.5],[73.9,45.3],[73.7,45.3],[73.7,45.1],[73.9,45.1],[73.9,45.0],[75.7,45.0],[75.7,45.1],[75.9,45.1],[75.9,45.2],[76.1,45.2],[76.1,45.3],[76.2,45.3],[76.2,45.4],[76.3,45.4],[76.3,45.5],[76.4,45.5],[76.4,45.6],[76.5,45.6],[76.5,45.8],[76.6,45.8],[76.6,45.9],[76.7,45.9],[76.7,46.0],[76.8,46.0],[76.8,46.2],[76.9,46.2],[76.9,46.6],[76.8,46.6]]],[[[86.2,51.1],[86.2,51.2],[85.7,51.2],[85.7,50.6],[85.6,50.6],[85.6,50.4],[85.5,50.4],[85.5,50.3],[85.4,50.3],[85.4,50.1],[85.3,50.1],[85.3,50.0],[85.2,50.0],[85.2,49.8],[85.1,49.8],[85.1,49.7],[85.0,49.7],[85.0,49.6],[84.9,49.6],[84.9,49.5],[84.8,49.5],[84.8,49.4],[84.7,49.4],[84.7,49.3],[84.5,49.3],[84.5,49.2],[84.4,49.2],[84.4,49.1],[84.3,49.1],[84.3,49.0],[84.2,49.0],[84.2,48.9],[84.0,48.9],[84.0,48.7],[83.8,48.7],[83.8,48.6],[83.7,48.6],[83.7,48.5],[83.6,48.5],[83.6,48.4],[83.4,48.4],[83.4,48.3],[83.3,48.3],[83.3,48.2],[83.2,48.2],[83.2,48.1],[83.1,48.1],[83.1,48.0],[83.0,48.0],[83.0,47.9],[82.9,47.9],[82.9,47.8],[82.8,47.8],[82.8,47.6],[82.7,47.6],[82.7,47.5],[82.6,47.5],[82.6,47.4],[82.5,47.4],[82.5,47.3],[82.4,47.3],[82.4,47.2],[82.3,47.2],[82.3,47.1],[82.2,47.1],[82.2,47.0],[82.1,47.0],[82.1,46.9],[81.9,46.9],[81.9,46.8],[81.6,46.8],[81.6,46.7],[81.1,46.7],[81.1,46.6],[81.0,46.6],[81.0,46.5],[82.2,46.5],[82.2,46.4],[82.6,46.4],[82.6,46.3],[83.1,46.3],[83.1,46.2],[83.6,46.2],[83.6,46.1],[85.9,46.1],[85.9,46.0],[86.4,46.0],[86.4,45.9],[86.7,45.9],[86.7,45.8],[87.3,45.8],[87.3,45.7],[87.6,45.7],[87.6,45.6],[87.9,45.6],[87.9,45.5],[89.2,45.5],[89.2,45.4],[89.6,45.4],[89.6,45.3],[89.8,45.3],[89.8,45.2],[89.9,45.2],[89.9,45.0],[90.0,45.0],[90.0,50.5],[89.4,50.5],[89.4,50.6],[89.2,50.6],[89.2,50.7],[89.0,50.7],[89.0,50.8],[88.8,50.8],[88.8,50.9],[88.2,50.9],[88.2,51.0],[87.3,51.0],[87.3,51.1],[86.2,51.1]]]]},"properties":{"tile_id":"50","start_year":100,"end_year":160,"source_image":"data/raw/toolbay/t/50/100.png","source_url":"https://www.toolbay.cc/history-map/t/50/100.png","source_color":"#00ff00","polity_id":null,"polity_assignment":"unverified","geometry_origin":"raster_color_trace","pixel_size_degrees":0.1,"source_color_pixels":3600,"simplification_degrees":0}},{"type":"Feature","id":"50:100:#6666ff","bbox":[79.8,46.5,85.7,51.4],"geometry":{"type":"Polygon","coordinates":[[[82.9,51.4],[81.3,51.4],[81.3,51.3],[80.2,51.3],[80.2,51.2],[79.8,51.2],[79.8,51.0],[79.9,51.0],[79.9,50.9],[80.0,50.9],[80.0,50.7],[80.1,50.7],[80.1,50.4],[80.2,50.4],[80.2,49.7],[80.3,49.7],[80.3,49.0],[80.4,49.0],[80.4,48.6],[80.3,48.6],[80.3,48.0],[80.2,48.0],[80.2,47.6],[80.1,47.6],[80.1,47.3],[80.0,47.3],[80.0,47.2],[80.1,47.2],[80.1,47.1],[80.3,47.1],[80.3,47.0],[80.5,47.0],[80.5,46.9],[80.6,46.9],[80.6,46.8],[80.7,46.8],[80.7,46.7],[80.8,46.7],[80.8,46.6],[80.9,46.6],[80.9,46.5],[81.0,46.5],[81.0,46.6],[81.1,46.6],[81.1,46.7],[81.6,46.7],[81.6,46.8],[81.9,46.8],[81.9,46.9],[82.1,46.9],[82.1,47.0],[82.2,47.0],[82.2,47.1],[82.3,47.1],[82.3,47.2],[82.4,47.2],[82.4,47.3],[82.5,47.3],[82.5,47.4],[82.6,47.4],[82.6,47.5],[82.7,47.5],[82.7,47.6],[82.8,47.6],[82.8,47.8],[82.9,47.8],[82.9,47.9],[83.0,47.9],[83.0,48.0],[83.1,48.0],[83.1,48.1],[83.2,48.1],[83.2,48.2],[83.3,48.2],[83.3,48.3],[83.4,48.3],[83.4,48.4],[83.6,48.4],[83.6,48.5],[83.7,48.5],[83.7,48.6],[83.8,48.6],[83.8,48.7],[84.0,48.7],[84.0,48.9],[84.2,48.9],[84.2,49.0],[84.3,49.0],[84.3,49.1],[84.4,49.1],[84.4,49.2],[84.5,49.2],[84.5,49.3],[84.7,49.3],[84.7,49.4],[84.8,49.4],[84.8,49.5],[84.9,49.5],[84.9,49.6],[85.0,49.6],[85.0,49.7],[85.1,49.7],[85.1,49.8],[85.2,49.8],[85.2,50.0],[85.3,50.0],[85.3,50.1],[85.4,50.1],[85.4,50.3],[85.5,50.3],[85.5,50.4],[85.6,50.4],[85.6,50.6],[85.7,50.6],[85.7,51.2],[85.3,51.2],[85.3,51.3],[82.9,51.3],[82.9,51.4]]]},"properties":{"tile_id":"50","start_year":100,"end_year":160,"source_image":"data/raw/toolbay/t/50/100.png","source_url":"https://www.toolbay.cc/history-map/t/50/100.png","source_color":"#6666ff","polity_id":null,"polity_assignment":"unverified","geometry_origin":"raster_color_trace","pixel_size_degrees":0.1,"source_color_pixels":1803,"simplification_degrees":0}},{"type":"Feature","id":"50:100:#ff00ff","bbox":[60.0,45.0,80.9,51.3],"geometry":{"type":"MultiPolygon","coordinates":[[[[80.1,47.1],[80.1,47.2],[78.2,47.2],[78.2,47.1],[78.0,47.1],[78.0,47.0],[77.8,47.0],[77.8,46.9],[77.0,46.9],[77.0,46.8],[76.8,46.8],[76.8,46.6],[76.9,46.6],[76.9,46.2],[76.8,46.2],[76.8,46.0],[76.7,46.0],[76.7,45.9],[76.6,45.9],[76.6,45.8],[76.5,45.8],[76.5,45.6],[76.4,45.6],[76.4,45.5],[76.3,45.5],[76.3,45.4],[76.2,45.4],[76.2,45.3],[76.1,45.3],[76.1,45.2],[75.9,45.2],[75.9,45.1],[75.7,45.1],[75.7,45.0],[80.4,45.0],[80.4,45.1],[80.5,45.1],[80.5,45.3],[80.6,45.3],[80.6,45.7],[80.7,45.7],[80.7,46.0],[80.8,46.0],[80.8,46.4],[80.9,46.4],[80.9,46.6],[80.8,46.6],[80.8,46.7],[80.7,46.7],[80.7,46.8],[80.6,46.8],[80.6,46.9],[80.5,46.9],[80.5,47.0],[80.3,47.0],[80.3,47.1],[80.1,47.1]]],[[[60.5,51.2],[60.5,51.3],[60.0,51.3],[60.0,46.2],[60.5,46.2],[60.5,46.3],[60.6,46.3],[60.6,46.4],[60.5,46.4],[60.5,46.6],[60.6,46.6],[60.6,46.7],[60.8,46.7],[60.8,46.6],[60.9,46.6],[60.9,46.5],[61.2,46.5],[61.2,46.6],[61.3,46.6],[61.3,46.4],[61.2,46.4],[61.2,46.2],[61.1,46.2],[61.1,46.1],[61.0,46.1],[61.0,46.0],[60.9,46.0],[60.9,45.6],[61.0,45.6],[61.0,45.5],[61.1,45.5],[61.1,45.4],[61.2,45.4],[61.2,45.3],[61.4,45.3],[61.4,45.4],[62.3,45.4],[62.3,45.3],[62.8,45.3],[62.8,45.4],[62.9,45.4],[62.9,45.5],[63.1,45.5],[63.1,45.6],[63.2,45.6],[63.2,46.5],[63.1,46.5],[63.1,47.2],[63.2,47.2],[63.2,47.9],[63.1,47.9],[63.1,48.3],[63.0,48.3],[63.0,48.7],[62.9,48.7],[62.9,48.9],[62.8,48.9],[62.8,49.1],[62.7,49.1],[62.7,49.3],[62.6,49.3],[62.6,49.5],[62.5,49.5],[62.5,49.6],[62.4,49.6],[62.4,49.8],[62.3,49.8],[62.3,50.0],[62.2,50.0],[62.2,50.1],[62.1,50.1],[62.1,50.2],[62.0,50.2],[62.0,50.3],[61.9,50.3],[61.9,50.4],[61.8,50.4],[61.8,50.5],[61.7,50.5],[61.7,50.6],[61.6,50.6],[61.6,50.7],[61.5,50.7],[61.5,50.8],[61.3,50.8],[61.3,50.9],[61.2,50.9],[61.2,51.0],[61.1,51.0],[61.1,51.1],[61.0,51.1],[61.0,51.2],[60.5,51.2]]]]},"properties":{"tile_id":"50","start_year":100,"end_year":160,"source_image":"data/raw/toolbay/t/50/100.png","source_url":"https://www.toolbay.cc/history-map/t/50/100.png","source_color":"#ff00ff","polity_id":null,"polity_assignment":"unverified","geometry_origin":"raster_color_trace","pixel_size_degrees":0.1,"source_color_pixels":10485,"simplification_degrees":0}},{"type":"Feature","id":"50:100:#ff9999","bbox":[80.4,45.0,89.9,46.5],"geometry":{"type":"Polygon","coordinates":[[[82.2,46.5],[80.9,46.5],[80.9,46.4],[80.8,46.4],[80.8,46.0],[80.7,46.0],[80.7,45.7],[80.6,45.7],[80.6,45.3],[80.5,45.3],[80.5,45.1],[80.4,45.1],[80.4,45.0],[89.9,45.0],[89.9,45.2],[89.8,45.2],[89.8,45.3],[89.6,45.3],[89.6,45.4],[89.2,45.4],[89.2,45.5],[87.9,45.5],[87.9,45.6],[87.6,45.6],[87.6,45.7],[87.3,45.7],[87.3,45.8],[86.7,45.8],[86.7,45.9],[86.4,45.9],[86.4,46.0],[85.9,46.0],[85.9,46.1],[83.6,46.1],[83.6,46.2],[83.1,46.2],[83.1,46.3],[82.6,46.3],[82.6,46.4],[82.2,46.4],[82.2,46.5]]]},"properties":{"tile_id":"50","start_year":100,"end_year":160,"source_image":"data/raw/toolbay/t/50/100.png","source_url":"https://www.toolbay.cc/history-map/t/50/100.png","source_color":"#ff9999","polity_id":null,"polity_assignment":"unverified","geometry_origin":"raster_color_trace","pixel_size_degrees":0.1,"source_color_pixels":917,"simplification_degrees":0}}]}
