{"type":"FeatureCollection","features":[{"type":"Feature","id":"50:1204:#00ffff","bbox":[68.8,45.0,84.9,46.8],"geometry":{"type":"Polygon","coordinates":[[[76.2,46.8],[75.9,46.8],[75.9,46.7],[75.8,46.7],[75.8,46.6],[75.6,46.6],[75.6,46.5],[75.1,46.5],[75.1,46.6],[74.9,46.6],[74.9,46.5],[74.7,46.5],[74.7,46.3],[74.4,46.3],[74.4,46.2],[74.3,46.2],[74.3,46.1],[74.2,46.1],[74.2,46.0],[74.1,46.0],[74.1,45.7],[74.0,45.7],[74.0,45.5],[73.9,45.5],[73.9,45.3],[73.5,45.3],[73.5,45.4],[73.4,45.4],[73.4,45.5],[73.3,45.5],[73.3,46.0],[73.2,46.0],[73.2,46.1],[71.4,46.1],[71.4,46.0],[71.0,46.0],[71.0,45.9],[70.6,45.9],[70.6,45.8],[70.2,45.8],[70.2,45.7],[69.8,45.7],[69.8,45.6],[69.7,45.6],[69.7,45.5],[69.4,45.5],[69.4,45.4],[69.2,45.4],[69.2,45.3],[69.1,45.3],[69.1,45.2],[68.9,45.2],[68.9,45.1],[68.8,45.1],[68.8,45.0],[84.9,45.0],[84.9,45.1],[84.4,45.1],[84.4,45.2],[83.4,45.2],[83.4,45.3],[82.7,45.3],[82.7,45.4],[82.1,45.4],[82.1,45.5],[81.6,45.5],[81.6,45.6],[81.2,45.6],[81.2,45.7],[80.6,45.7],[80.6,45.8],[80.2,45.8],[80.2,45.9],[79.6,45.9],[79.6,46.0],[79.3,46.0],[79.3,46.1],[78.6,46.1],[78.6,46.2],[78.2,46.2],[78.2,46.3],[77.8,46.3],[77.8,46.4],[77.4,46.4],[77.4,46.5],[77.0,46.5],[77.0,46.6],[76.5,46.6],[76.5,46.7],[76.2,46.7],[76.2,46.8]]]},"properties":{"tile_id":"50","start_year":1204,"end_year":1211,"source_image":"data/raw/toolbay/t/50/1204.png","source_url":"https://www.toolbay.cc/history-map/t/50/1204.png","source_color":"#00ffff","polity_id":null,"polity_assignment":"unverified","geometry_origin":"raster_color_trace","pixel_size_degrees":0.1,"source_color_pixels":1427,"simplification_degrees":0}},{"type":"Feature","id":"50:1204:#993300","bbox":[84.1,45.0,90.0,48.9],"geometry":{"type":"Polygon","coordinates":[[[90.0,48.9],[89.7,48.9],[89.7,48.8],[89.1,48.8],[89.1,48.7],[88.7,48.7],[88.7,48.6],[88.2,48.6],[88.2,48.5],[88.0,48.5],[88.0,48.4],[87.8,48.4],[87.8,48.3],[87.5,48.3],[87.5,48.2],[87.2,48.2],[87.2,48.1],[86.8,48.1],[86.8,48.0],[86.5,48.0],[86.5,47.9],[86.3,47.9],[86.3,47.8],[86.2,47.8],[86.2,47.7],[86.0,47.7],[86.0,47.6],[85.8,47.6],[85.8,47.5],[85.7,47.5],[85.7,47.4],[85.5,47.4],[85.5,47.3],[85.4,47.3],[85.4,47.2],[85.2,47.2],[85.2,47.1],[85.1,47.1],[85.1,47.0],[85.0,47.0],[85.0,46.9],[84.9,46.9],[84.9,46.8],[84.8,46.8],[84.8,46.6],[84.7,46.6],[84.7,46.5],[84.6,46.5],[84.6,46.3],[84.5,46.3],[84.5,45.9],[84.4,45.9],[84.4,45.8],[84.3,45.8],[84.3,45.7],[84.2,45.7],[84.2,45.4],[84.1,45.4],[84.1,45.2],[84.4,45.2],[84.4,45.1],[84.9,45.1],[84.9,45.0],[90.0,45.0],[90.0,48.9]]]},"properties":{"tile_id":"50","start_year":1204,"end_year":1211,"source_image":"data/raw/toolbay/t/50/1204.png","source_url":"https://www.toolbay.cc/history-map/t/50/1204.png","source_color":"#993300","polity_id":null,"polity_assignment":"unverified","geometry_origin":"raster_color_trace","pixel_size_degrees":0.1,"source_color_pixels":1691,"simplification_degrees":0}}]}
