{"type":"FeatureCollection","features":[{"type":"Feature","id":"50:1211:#993300","bbox":[73.8,45.0,90.0,54.8],"geometry":{"type":"Polygon","coordinates":[[[90.0,54.8],[89.9,54.8],[89.9,54.7],[89.7,54.7],[89.7,54.6],[89.3,54.6],[89.3,54.5],[88.7,54.5],[88.7,54.4],[87.8,54.4],[87.8,54.3],[87.3,54.3],[87.3,54.2],[86.8,54.2],[86.8,54.1],[86.2,54.1],[86.2,54.0],[85.7,54.0],[85.7,53.9],[84.5,53.9],[84.5,53.8],[83.2,53.8],[83.2,53.7],[82.7,53.7],[82.7,53.6],[81.5,53.6],[81.5,53.5],[80.5,53.5],[80.5,53.4],[80.0,53.4],[80.0,53.3],[79.7,53.3],[79.7,53.2],[79.3,53.2],[79.3,53.1],[78.9,53.1],[78.9,53.0],[78.6,53.0],[78.6,52.9],[78.1,52.9],[78.1,52.8],[77.5,52.8],[77.5,52.7],[77.0,52.7],[77.0,52.6],[76.5,52.6],[76.5,52.5],[76.1,52.5],[76.1,52.4],[75.9,52.4],[75.9,52.3],[75.7,52.3],[75.7,52.2],[75.6,52.2],[75.6,52.1],[75.4,52.1],[75.4,52.0],[75.2,52.0],[75.2,51.9],[75.1,51.9],[75.1,51.8],[75.0,51.8],[75.0,51.7],[74.9,51.7],[74.9,51.6],[74.7,51.6],[74.7,51.5],[74.6,51.5],[74.6,51.3],[74.5,51.3],[74.5,51.2],[74.4,51.2],[74.4,51.1],[74.3,51.1],[74.3,50.9],[74.2,50.9],[74.2,50.8],[74.1,50.8],[74.1,50.6],[74.0,50.6],[74.0,50.5],[73.9,50.5],[73.9,50.2],[73.8,50.2],[73.8,49.5],[73.9,49.5],[73.9,49.2],[74.0,49.2],[74.0,49.0],[74.1,49.0],[74.1,48.7],[74.2,48.7],[74.2,48.5],[74.3,48.5],[74.3,48.3],[74.4,48.3],[74.4,48.0],[74.5,48.0],[74.5,47.9],[74.6,47.9],[74.6,47.7],[74.7,47.7],[74.7,47.6],[74.8,47.6],[74.8,47.3],[74.9,47.3],[74.9,47.2],[75.0,47.2],[75.0,47.1],[75.2,47.1],[75.2,46.9],[75.8,46.9],[75.8,46.6],[75.9,46.6],[75.9,46.0],[76.0,46.0],[76.0,45.7],[76.1,45.7],[76.1,45.4],[76.2,45.4],[76.2,45.0],[90.0,45.0],[90.0,54.8]]]},"properties":{"tile_id":"50","start_year":1211,"end_year":1223,"source_image":"data/raw/toolbay/t/50/1211.png","source_url":"https://www.toolbay.cc/history-map/t/50/1211.png","source_color":"#993300","polity_id":null,"polity_assignment":"unverified","geometry_origin":"raster_color_trace","pixel_size_degrees":0.1,"source_color_pixels":12964,"simplification_degrees":0}}]}
