{"type":"FeatureCollection","features":[{"type":"Feature","id":"50:1227:#009900","bbox":[60.9,45.0,81.6,46.7],"geometry":{"type":"Polygon","coordinates":[[[76.2,46.7],[75.8,46.7],[75.8,46.6],[75.6,46.6],[75.6,46.5],[75.1,46.5],[75.1,46.6],[74.9,46.6],[74.9,46.5],[74.7,46.5],[74.7,46.3],[74.4,46.3],[74.4,46.2],[74.3,46.2],[74.3,46.1],[74.2,46.1],[74.2,46.0],[74.1,46.0],[74.1,45.7],[74.0,45.7],[74.0,45.5],[73.9,45.5],[73.9,45.3],[73.5,45.3],[73.5,45.4],[73.4,45.4],[73.4,45.5],[73.3,45.5],[73.3,45.8],[72.8,45.8],[72.8,45.7],[71.7,45.7],[71.7,45.8],[71.4,45.8],[71.4,45.9],[71.0,45.9],[71.0,46.0],[70.4,46.0],[70.4,45.9],[67.8,45.9],[67.8,45.8],[65.9,45.8],[65.9,45.7],[65.1,45.7],[65.1,45.8],[63.9,45.8],[63.9,45.9],[62.6,45.9],[62.6,46.0],[62.2,46.0],[62.2,46.1],[61.8,46.1],[61.8,46.2],[61.4,46.2],[61.4,46.3],[61.2,46.3],[61.2,46.2],[61.1,46.2],[61.1,46.1],[61.0,46.1],[61.0,46.0],[60.9,46.0],[60.9,45.6],[61.0,45.6],[61.0,45.5],[61.1,45.5],[61.1,45.4],[61.2,45.4],[61.2,45.2],[61.3,45.2],[61.3,45.1],[61.4,45.1],[61.4,45.0],[81.6,45.0],[81.6,45.1],[81.5,45.1],[81.5,45.2],[81.3,45.2],[81.3,45.3],[81.2,45.3],[81.2,45.4],[81.0,45.4],[81.0,45.5],[80.8,45.5],[80.8,45.6],[80.6,45.6],[80.6,45.7],[80.2,45.7],[80.2,45.8],[79.7,45.8],[79.7,45.9],[79.4,45.9],[79.4,46.0],[79.1,46.0],[79.1,46.1],[78.7,46.1],[78.7,46.2],[78.4,46.2],[78.4,46.3],[78.1,46.3],[78.1,46.4],[77.7,46.4],[77.7,46.5],[77.5,46.5],[77.5,46.6],[76.2,46.6],[76.2,46.7]]]},"properties":{"tile_id":"50","start_year":1227,"end_year":1236,"source_image":"data/raw/toolbay/t/50/1227.png","source_url":"https://www.toolbay.cc/history-map/t/50/1227.png","source_color":"#009900","polity_id":null,"polity_assignment":"unverified","geometry_origin":"raster_color_trace","pixel_size_degrees":0.1,"source_color_pixels":1983,"simplification_degrees":0}},{"type":"Feature","id":"50:1227:#993300","bbox":[60.0,45.0,90.0,54.8],"geometry":{"type":"Polygon","coordinates":[[[62.4,53.4],[60.0,53.4],[60.0,46.2],[60.5,46.2],[60.5,46.3],[60.6,46.3],[60.6,46.4],[60.5,46.4],[60.5,46.6],[60.6,46.6],[60.6,46.7],[60.8,46.7],[60.8,46.6],[60.9,46.6],[60.9,46.5],[61.2,46.5],[61.2,46.6],[61.3,46.6],[61.3,46.4],[61.2,46.4],[61.2,46.3],[61.4,46.3],[61.4,46.2],[61.8,46.2],[61.8,46.1],[62.2,46.1],[62.2,46.0],[62.6,46.0],[62.6,45.9],[63.9,45.9],[63.9,45.8],[65.1,45.8],[65.1,45.7],[65.9,45.7],[65.9,45.8],[67.8,45.8],[67.8,45.9],[70.4,45.9],[70.4,46.0],[71.0,46.0],[71.0,45.9],[71.4,45.9],[71.4,45.8],[71.7,45.8],[71.7,45.7],[72.8,45.7],[72.8,45.8],[73.3,45.8],[73.3,46.1],[73.4,46.1],[73.4,46.2],[73.5,46.2],[73.5,46.4],[73.7,46.4],[73.7,46.5],[73.9,46.5],[73.9,46.6],[74.1,46.6],[74.1,46.7],[74.4,46.7],[74.4,46.8],[74.5,46.8],[74.5,46.9],[75.8,46.9],[75.8,46.7],[76.2,46.7],[76.2,46.6],[77.5,46.6],[77.5,46.5],[77.7,46.5],[77.7,46.4],[78.1,46.4],[78.1,46.3],[78.4,46.3],[78.4,46.2],[78.7,46.2],[78.7,46.1],[79.1,46.1],[79.1,46.0],[79.4,46.0],[79.4,45.9],[79.7,45.9],[79.7,45.8],[80.2,45.8],[80.2,45.7],[80.6,45.7],[80.6,45.6],[80.8,45.6],[80.8,45.5],[81.0,45.5],[81.0,45.4],[81.2,45.4],[81.2,45.3],[81.3,45.3],[81.3,45.2],[81.5,45.2],[81.5,45.1],[81.6,45.1],[81.6,45.0],[90.0,45.0],[90.0,54.8],[89.9,54.8],[89.9,54.7],[89.7,54.7],[89.7,54.6],[89.3,54.6],[89.3,54.5],[88.7,54.5],[88.7,54.4],[87.8,54.4],[87.8,54.3],[87.3,54.3],[87.3,54.2],[86.8,54.2],[86.8,54.1],[86.2,54.1],[86.2,54.0],[85.7,54.0],[85.7,53.9],[84.5,53.9],[84.5,53.8],[83.2,53.8],[83.2,53.7],[82.7,53.7],[82.7,53.6],[81.5,53.6],[81.5,53.5],[80.5,53.5],[80.5,53.4],[80.0,53.4],[80.0,53.3],[79.7,53.3],[79.7,53.2],[77.9,53.2],[77.9,53.1],[77.4,53.1],[77.4,53.0],[76.8,53.0],[76.8,52.9],[76.4,52.9],[76.4,52.8],[75.0,52.8],[75.0,52.7],[68.3,52.7],[68.3,52.8],[67.1,52.8],[67.1,52.9],[66.1,52.9],[66.1,53.0],[65.3,53.0],[65.3,53.1],[64.4,53.1],[64.4,53.2],[63.4,53.2],[63.4,53.3],[62.4,53.3],[62.4,53.4]]]},"properties":{"tile_id":"50","start_year":1227,"end_year":1236,"source_image":"data/raw/toolbay/t/50/1227.png","source_url":"https://www.toolbay.cc/history-map/t/50/1227.png","source_color":"#993300","polity_id":null,"polity_assignment":"unverified","geometry_origin":"raster_color_trace","pixel_size_degrees":0.1,"source_color_pixels":30176,"simplification_degrees":0}}]}
