{"type":"FeatureCollection","features":[{"type":"Feature","id":"50:1360:#009900","bbox":[60.9,45.0,81.6,46.7],"geometry":{"type":"Polygon","coordinates":[[[76.2,46.7],[75.8,46.7],[75.8,46.6],[75.6,46.6],[75.6,46.5],[75.1,46.5],[75.1,46.6],[74.9,46.6],[74.9,46.5],[74.7,46.5],[74.7,46.3],[74.4,46.3],[74.4,46.2],[74.3,46.2],[74.3,46.1],[74.2,46.1],[74.2,46.0],[74.1,46.0],[74.1,45.7],[74.0,45.7],[74.0,45.5],[73.9,45.5],[73.9,45.3],[73.5,45.3],[73.5,45.4],[73.4,45.4],[73.4,45.5],[73.3,45.5],[73.3,45.8],[72.8,45.8],[72.8,45.7],[71.7,45.7],[71.7,45.8],[71.4,45.8],[71.4,45.9],[71.0,45.9],[71.0,46.0],[70.4,46.0],[70.4,45.9],[67.8,45.9],[67.8,45.8],[65.9,45.8],[65.9,45.7],[65.1,45.7],[65.1,45.8],[63.9,45.8],[63.9,45.9],[62.6,45.9],[62.6,46.0],[62.2,46.0],[62.2,46.1],[61.8,46.1],[61.8,46.2],[61.4,46.2],[61.4,46.3],[61.2,46.3],[61.2,46.2],[61.1,46.2],[61.1,46.1],[61.0,46.1],[61.0,46.0],[60.9,46.0],[60.9,45.6],[61.0,45.6],[61.0,45.5],[61.1,45.5],[61.1,45.4],[61.2,45.4],[61.2,45.2],[61.3,45.2],[61.3,45.1],[61.4,45.1],[61.4,45.0],[81.6,45.0],[81.6,45.1],[81.5,45.1],[81.5,45.2],[81.3,45.2],[81.3,45.3],[81.2,45.3],[81.2,45.4],[81.0,45.4],[81.0,45.5],[80.8,45.5],[80.8,45.6],[80.6,45.6],[80.6,45.7],[80.2,45.7],[80.2,45.8],[79.7,45.8],[79.7,45.9],[79.4,45.9],[79.4,46.0],[79.1,46.0],[79.1,46.1],[78.7,46.1],[78.7,46.2],[78.4,46.2],[78.4,46.3],[78.1,46.3],[78.1,46.4],[77.7,46.4],[77.7,46.5],[77.5,46.5],[77.5,46.6],[76.2,46.6],[76.2,46.7]]]},"properties":{"tile_id":"50","start_year":1360,"end_year":1387,"source_image":"data/raw/toolbay/t/50/1360.png","source_url":"https://www.toolbay.cc/history-map/t/50/1360.png","source_color":"#009900","polity_id":null,"polity_assignment":"unverified","geometry_origin":"raster_color_trace","pixel_size_degrees":0.1,"source_color_pixels":1983,"simplification_degrees":0}},{"type":"Feature","id":"50:1360:#993300","bbox":[75.8,45.0,90.0,55.1],"geometry":{"type":"Polygon","coordinates":[[[78.5,55.1],[78.3,55.1],[78.3,53.7],[78.2,53.7],[78.2,53.3],[78.1,53.3],[78.1,52.9],[78.0,52.9],[78.0,52.7],[77.9,52.7],[77.9,52.5],[77.8,52.5],[77.8,52.4],[77.7,52.4],[77.7,52.2],[77.6,52.2],[77.6,51.6],[77.5,51.6],[77.5,50.7],[77.4,50.7],[77.4,49.0],[77.3,49.0],[77.3,48.3],[77.2,48.3],[77.2,47.6],[77.1,47.6],[77.1,47.4],[76.9,47.4],[76.9,47.3],[76.6,47.3],[76.6,47.2],[76.4,47.2],[76.4,47.1],[76.2,47.1],[76.2,47.0],[76.0,47.0],[76.0,46.9],[75.8,46.9],[75.8,46.7],[76.2,46.7],[76.2,46.6],[77.5,46.6],[77.5,46.5],[77.7,46.5],[77.7,46.4],[78.1,46.4],[78.1,46.3],[78.4,46.3],[78.4,46.2],[78.7,46.2],[78.7,46.1],[79.1,46.1],[79.1,46.0],[79.4,46.0],[79.4,45.9],[79.7,45.9],[79.7,45.8],[80.2,45.8],[80.2,45.7],[80.6,45.7],[80.6,45.6],[80.8,45.6],[80.8,45.5],[81.0,45.5],[81.0,45.4],[81.2,45.4],[81.2,45.3],[81.3,45.3],[81.3,45.2],[81.5,45.2],[81.5,45.1],[81.6,45.1],[81.6,45.0],[90.0,45.0],[90.0,54.8],[89.9,54.8],[89.9,54.7],[89.7,54.7],[89.7,54.6],[89.3,54.6],[89.3,54.5],[88.7,54.5],[88.7,54.4],[88.6,54.4],[88.6,54.5],[86.6,54.5],[86.6,54.6],[85.1,54.6],[85.1,54.7],[84.3,54.7],[84.3,54.8],[84.1,54.8],[84.1,54.9],[82.7,54.9],[82.7,55.0],[82.4,55.0],[82.4,55.1],[80.3,55.1],[80.3,55.0],[78.5,55.0],[78.5,55.1]]]},"properties":{"tile_id":"50","start_year":1360,"end_year":1387,"source_image":"data/raw/toolbay/t/50/1360.png","source_url":"https://www.toolbay.cc/history-map/t/50/1360.png","source_color":"#993300","polity_id":null,"polity_assignment":"unverified","geometry_origin":"raster_color_trace","pixel_size_degrees":0.1,"source_color_pixels":11867,"simplification_degrees":0}},{"type":"Feature","id":"50:1360:#999900","bbox":[60.0,45.7,78.3,58.2],"geometry":{"type":"Polygon","coordinates":[[[60.4,58.0],[60.0,58.0],[60.0,46.2],[60.5,46.2],[60.5,46.3],[60.6,46.3],[60.6,46.4],[60.5,46.4],[60.5,46.6],[60.6,46.6],[60.6,46.7],[60.8,46.7],[60.8,46.6],[60.9,46.6],[60.9,46.5],[61.2,46.5],[61.2,46.6],[61.3,46.6],[61.3,46.4],[61.2,46.4],[61.2,46.3],[61.4,46.3],[61.4,46.2],[61.8,46.2],[61.8,46.1],[62.2,46.1],[62.2,46.0],[62.6,46.0],[62.6,45.9],[63.9,45.9],[63.9,45.8],[65.1,45.8],[65.1,45.7],[65.9,45.7],[65.9,45.8],[67.8,45.8],[67.8,45.9],[70.4,45.9],[70.4,46.0],[71.0,46.0],[71.0,45.9],[71.4,45.9],[71.4,45.8],[71.7,45.8],[71.7,45.7],[72.8,45.7],[72.8,45.8],[73.3,45.8],[73.3,46.1],[73.4,46.1],[73.4,46.2],[73.5,46.2],[73.5,46.4],[73.7,46.4],[73.7,46.5],[73.9,46.5],[73.9,46.6],[74.1,46.6],[74.1,46.7],[74.4,46.7],[74.4,46.8],[74.5,46.8],[74.5,46.9],[76.0,46.9],[76.0,47.0],[76.2,47.0],[76.2,47.1],[76.4,47.1],[76.4,47.2],[76.6,47.2],[76.6,47.3],[76.9,47.3],[76.9,47.4],[77.1,47.4],[77.1,47.6],[77.2,47.6],[77.2,48.3],[77.3,48.3],[77.3,49.0],[77.4,49.0],[77.4,50.7],[77.5,50.7],[77.5,51.6],[77.6,51.6],[77.6,52.2],[77.7,52.2],[77.7,52.4],[77.8,52.4],[77.8,52.5],[77.9,52.5],[77.9,52.7],[78.0,52.7],[78.0,52.9],[78.1,52.9],[78.1,53.3],[78.2,53.3],[78.2,53.7],[78.3,53.7],[78.3,55.1],[78.2,55.1],[78.2,55.2],[77.8,55.2],[77.8,55.3],[77.2,55.3],[77.2,55.4],[76.6,55.4],[76.6,55.5],[75.9,55.5],[75.9,55.6],[75.5,55.6],[75.5,55.7],[75.1,55.7],[75.1,55.8],[74.7,55.8],[74.7,55.9],[74.3,55.9],[74.3,56.0],[74.0,56.0],[74.0,56.1],[73.5,56.1],[73.5,56.2],[73.1,56.2],[73.1,56.3],[72.6,56.3],[72.6,56.4],[71.4,56.4],[71.4,56.5],[71.1,56.5],[71.1,56.4],[70.7,56.4],[70.7,56.5],[70.2,56.5],[70.2,56.6],[69.5,56.6],[69.5,56.7],[69.0,56.7],[69.0,56.8],[68.5,56.8],[68.5,56.9],[68.1,56.9],[68.1,57.0],[67.9,57.0],[67.9,57.1],[67.5,57.1],[67.5,57.2],[66.8,57.2],[66.8,57.3],[66.7,57.3],[66.7,57.4],[66.3,57.4],[66.3,57.5],[66.2,57.5],[66.2,57.6],[65.3,57.6],[65.3,57.5],[64.8,57.5],[64.8,57.6],[64.4,57.6],[64.4,57.7],[63.6,57.7],[63.6,57.8],[63.2,57.8],[63.2,57.9],[62.6,57.9],[62.6,58.0],[62.3,58.0],[62.3,58.1],[61.1,58.1],[61.1,58.2],[60.7,58.2],[60.7,58.1],[60.4,58.1],[60.4,58.0]]]},"properties":{"tile_id":"50","start_year":1360,"end_year":1387,"source_image":"data/raw/toolbay/t/50/1360.png","source_url":"https://www.toolbay.cc/history-map/t/50/1360.png","source_color":"#999900","polity_id":null,"polity_assignment":"unverified","geometry_origin":"raster_color_trace","pixel_size_degrees":0.1,"source_color_pixels":39530,"simplification_degrees":0}}]}
