{"type":"FeatureCollection","features":[{"type":"Feature","id":"50:1387:#009900","bbox":[60.9,45.0,73.7,46.3],"geometry":{"type":"Polygon","coordinates":[[[61.4,46.3],[61.2,46.3],[61.2,46.2],[61.1,46.2],[61.1,46.1],[61.0,46.1],[61.0,46.0],[60.9,46.0],[60.9,45.6],[61.0,45.6],[61.0,45.5],[61.1,45.5],[61.1,45.4],[61.2,45.4],[61.2,45.2],[61.3,45.2],[61.3,45.1],[61.4,45.1],[61.4,45.0],[73.7,45.0],[73.7,45.3],[73.5,45.3],[73.5,45.4],[73.4,45.4],[73.4,45.5],[73.3,45.5],[73.3,45.8],[72.8,45.8],[72.8,45.7],[71.7,45.7],[71.7,45.8],[71.4,45.8],[71.4,45.9],[71.0,45.9],[71.0,46.0],[70.4,46.0],[70.4,45.9],[67.8,45.9],[67.8,45.8],[65.9,45.8],[65.9,45.7],[65.1,45.7],[65.1,45.8],[63.9,45.8],[63.9,45.9],[62.6,45.9],[62.6,46.0],[62.2,46.0],[62.2,46.1],[61.8,46.1],[61.8,46.2],[61.4,46.2],[61.4,46.3]]]},"properties":{"tile_id":"50","start_year":1387,"end_year":1403,"source_image":"data/raw/toolbay/t/50/1387.png","source_url":"https://www.toolbay.cc/history-map/t/50/1387.png","source_color":"#009900","polity_id":null,"polity_assignment":"unverified","geometry_origin":"raster_color_trace","pixel_size_degrees":0.1,"source_color_pixels":1080,"simplification_degrees":0}},{"type":"Feature","id":"50:1387:#993300","bbox":[73.7,45.0,90.0,51.1],"geometry":{"type":"Polygon","coordinates":[[[81.9,51.1],[81.7,51.1],[81.7,51.0],[79.8,51.0],[79.8,50.9],[79.4,50.9],[79.4,51.0],[78.4,51.0],[78.4,50.9],[77.9,50.9],[77.9,50.8],[76.9,50.8],[76.9,50.7],[76.7,50.7],[76.7,50.6],[76.5,50.6],[76.5,50.5],[76.4,50.5],[76.4,50.2],[76.3,50.2],[76.3,49.8],[76.2,49.8],[76.2,49.4],[76.1,49.4],[76.1,49.1],[76.0,49.1],[76.0,48.2],[75.9,48.2],[75.9,47.2],[75.8,47.2],[75.8,47.0],[75.7,47.0],[75.7,46.9],[75.8,46.9],[75.8,46.6],[75.6,46.6],[75.6,46.5],[75.1,46.5],[75.1,46.6],[74.9,46.6],[74.9,46.5],[74.7,46.5],[74.7,46.3],[74.4,46.3],[74.4,46.2],[74.3,46.2],[74.3,46.1],[74.2,46.1],[74.2,46.0],[74.1,46.0],[74.1,45.7],[74.0,45.7],[74.0,45.5],[73.9,45.5],[73.9,45.3],[73.7,45.3],[73.7,45.0],[90.0,45.0],[90.0,50.4],[89.8,50.4],[89.8,50.3],[87.8,50.3],[87.8,50.2],[87.0,50.2],[87.0,50.1],[86.5,50.1],[86.5,50.2],[86.3,50.2],[86.3,50.3],[85.8,50.3],[85.8,50.4],[85.2,50.4],[85.2,50.5],[84.9,50.5],[84.9,50.6],[84.3,50.6],[84.3,50.7],[83.7,50.7],[83.7,50.8],[83.1,50.8],[83.1,50.9],[82.7,50.9],[82.7,51.0],[81.9,51.0],[81.9,51.1]]]},"properties":{"tile_id":"50","start_year":1387,"end_year":1403,"source_image":"data/raw/toolbay/t/50/1387.png","source_url":"https://www.toolbay.cc/history-map/t/50/1387.png","source_color":"#993300","polity_id":null,"polity_assignment":"unverified","geometry_origin":"raster_color_trace","pixel_size_degrees":0.1,"source_color_pixels":8192,"simplification_degrees":0}},{"type":"Feature","id":"50:1387:#999900","bbox":[60.0,45.7,76.5,52.0],"geometry":{"type":"Polygon","coordinates":[[[60.3,52.0],[60.0,52.0],[60.0,46.2],[60.5,46.2],[60.5,46.3],[60.6,46.3],[60.6,46.4],[60.5,46.4],[60.5,46.6],[60.6,46.6],[60.6,46.7],[60.8,46.7],[60.8,46.6],[60.9,46.6],[60.9,46.5],[61.2,46.5],[61.2,46.6],[61.3,46.6],[61.3,46.4],[61.2,46.4],[61.2,46.3],[61.4,46.3],[61.4,46.2],[61.8,46.2],[61.8,46.1],[62.2,46.1],[62.2,46.0],[62.6,46.0],[62.6,45.9],[63.9,45.9],[63.9,45.8],[65.1,45.8],[65.1,45.7],[65.9,45.7],[65.9,45.8],[67.8,45.8],[67.8,45.9],[70.4,45.9],[70.4,46.0],[71.0,46.0],[71.0,45.9],[71.4,45.9],[71.4,45.8],[71.7,45.8],[71.7,45.7],[72.8,45.7],[72.8,45.8],[73.3,45.8],[73.3,46.1],[73.4,46.1],[73.4,46.2],[73.5,46.2],[73.5,46.4],[73.7,46.4],[73.7,46.5],[73.9,46.5],[73.9,46.6],[74.1,46.6],[74.1,46.7],[74.4,46.7],[74.4,46.8],[74.5,46.8],[74.5,46.9],[75.7,46.9],[75.7,47.0],[75.8,47.0],[75.8,47.2],[75.9,47.2],[75.9,48.2],[76.0,48.2],[76.0,49.1],[76.1,49.1],[76.1,49.4],[76.2,49.4],[76.2,49.8],[76.3,49.8],[76.3,50.2],[76.4,50.2],[76.4,50.5],[76.5,50.5],[76.5,50.8],[76.4,50.8],[76.4,51.0],[76.3,51.0],[76.3,51.1],[76.2,51.1],[76.2,51.3],[76.1,51.3],[76.1,51.4],[75.8,51.4],[75.8,51.5],[75.3,51.5],[75.3,51.6],[74.4,51.6],[74.4,51.7],[73.7,51.7],[73.7,51.8],[72.2,51.8],[72.2,51.7],[70.8,51.7],[70.8,51.6],[70.2,51.6],[70.2,51.5],[69.9,51.5],[69.9,51.4],[69.6,51.4],[69.6,51.3],[69.3,51.3],[69.3,51.2],[69.0,51.2],[69.0,51.1],[68.7,51.1],[68.7,51.0],[68.4,51.0],[68.4,50.9],[68.0,50.9],[68.0,50.8],[67.5,50.8],[67.5,50.7],[66.9,50.7],[66.9,50.6],[66.3,50.6],[66.3,50.5],[64.0,50.5],[64.0,50.6],[63.2,50.6],[63.2,50.7],[62.9,50.7],[62.9,50.9],[62.5,50.9],[62.5,51.0],[62.3,51.0],[62.3,51.1],[62.0,51.1],[62.0,51.2],[61.8,51.2],[61.8,51.3],[61.5,51.3],[61.5,51.4],[61.2,51.4],[61.2,51.5],[61.1,51.5],[61.1,51.6],[60.8,51.6],[60.8,51.7],[60.6,51.7],[60.6,51.8],[60.3,51.8],[60.3,52.0]]]},"properties":{"tile_id":"50","start_year":1387,"end_year":1403,"source_image":"data/raw/toolbay/t/50/1387.png","source_url":"https://www.toolbay.cc/history-map/t/50/1387.png","source_color":"#999900","polity_id":null,"polity_assignment":"unverified","geometry_origin":"raster_color_trace","pixel_size_degrees":0.1,"source_color_pixels":26414,"simplification_degrees":0}}]}
