{"type":"FeatureCollection","features":[{"type":"Feature","id":"50:1428:#009900","bbox":[60.9,45.0,73.7,46.3],"geometry":{"type":"Polygon","coordinates":[[[61.4,46.3],[61.2,46.3],[61.2,46.2],[61.1,46.2],[61.1,46.1],[61.0,46.1],[61.0,46.0],[60.9,46.0],[60.9,45.6],[61.0,45.6],[61.0,45.5],[61.1,45.5],[61.1,45.4],[61.2,45.4],[61.2,45.2],[61.3,45.2],[61.3,45.1],[61.4,45.1],[61.4,45.0],[73.7,45.0],[73.7,45.3],[73.5,45.3],[73.5,45.4],[73.4,45.4],[73.4,45.5],[73.3,45.5],[73.3,45.8],[72.8,45.8],[72.8,45.7],[71.7,45.7],[71.7,45.8],[71.4,45.8],[71.4,45.9],[71.0,45.9],[71.0,46.0],[70.4,46.0],[70.4,45.9],[67.8,45.9],[67.8,45.8],[65.9,45.8],[65.9,45.7],[65.1,45.7],[65.1,45.8],[63.9,45.8],[63.9,45.9],[62.6,45.9],[62.6,46.0],[62.2,46.0],[62.2,46.1],[61.8,46.1],[61.8,46.2],[61.4,46.2],[61.4,46.3]]]},"properties":{"tile_id":"50","start_year":1428,"end_year":1437,"source_image":"data/raw/toolbay/t/50/1428.png","source_url":"https://www.toolbay.cc/history-map/t/50/1428.png","source_color":"#009900","polity_id":null,"polity_assignment":"unverified","geometry_origin":"raster_color_trace","pixel_size_degrees":0.1,"source_color_pixels":1080,"simplification_degrees":0}},{"type":"Feature","id":"50:1428:#993300","bbox":[89.4,45.1,90.0,50.4],"geometry":{"type":"Polygon","coordinates":[[[90.0,50.4],[89.9,50.4],[89.9,49.8],[89.8,49.8],[89.8,49.0],[89.7,49.0],[89.7,48.6],[89.6,48.6],[89.6,48.3],[89.5,48.3],[89.5,47.8],[89.4,47.8],[89.4,46.7],[89.5,46.7],[89.5,46.4],[89.6,46.4],[89.6,46.2],[89.7,46.2],[89.7,46.0],[89.8,46.0],[89.8,45.7],[89.9,45.7],[89.9,45.1],[90.0,45.1],[90.0,50.4]]]},"properties":{"tile_id":"50","start_year":1428,"end_year":1437,"source_image":"data/raw/toolbay/t/50/1428.png","source_url":"https://www.toolbay.cc/history-map/t/50/1428.png","source_color":"#993300","polity_id":null,"polity_assignment":"unverified","geometry_origin":"raster_color_trace","pixel_size_degrees":0.1,"source_color_pixels":178,"simplification_degrees":0}},{"type":"Feature","id":"50:1428:#999900","bbox":[60.0,46.2,62.2,52.0],"geometry":{"type":"Polygon","coordinates":[[[60.3,52.0],[60.0,52.0],[60.0,46.2],[60.5,46.2],[60.5,46.3],[60.6,46.3],[60.6,46.4],[60.5,46.4],[60.5,46.6],[60.6,46.6],[60.6,46.7],[60.7,46.7],[60.7,46.9],[60.8,46.9],[60.8,47.0],[60.9,47.0],[60.9,47.2],[61.0,47.2],[61.0,47.4],[61.1,47.4],[61.1,47.6],[61.2,47.6],[61.2,47.8],[61.3,47.8],[61.3,48.1],[61.4,48.1],[61.4,48.4],[61.5,48.4],[61.5,48.6],[61.6,48.6],[61.6,48.7],[61.7,48.7],[61.7,48.9],[61.8,48.9],[61.8,49.0],[61.9,49.0],[61.9,49.5],[62.0,49.5],[62.0,49.9],[62.1,49.9],[62.1,50.9],[62.2,50.9],[62.2,51.1],[62.0,51.1],[62.0,51.2],[61.8,51.2],[61.8,51.3],[61.5,51.3],[61.5,51.4],[61.2,51.4],[61.2,51.5],[61.1,51.5],[61.1,51.6],[60.8,51.6],[60.8,51.7],[60.6,51.7],[60.6,51.8],[60.3,51.8],[60.3,52.0]]]},"properties":{"tile_id":"50","start_year":1428,"end_year":1437,"source_image":"data/raw/toolbay/t/50/1428.png","source_url":"https://www.toolbay.cc/history-map/t/50/1428.png","source_color":"#999900","polity_id":null,"polity_assignment":"unverified","geometry_origin":"raster_color_trace","pixel_size_degrees":0.1,"source_color_pixels":18953,"simplification_degrees":0}},{"type":"Feature","id":"50:1428:#ff9933","bbox":[73.7,45.0,90.0,51.1],"geometry":{"type":"Polygon","coordinates":[[[81.9,51.1],[81.7,51.1],[81.7,51.0],[79.8,51.0],[79.8,50.9],[79.4,50.9],[79.4,51.0],[78.4,51.0],[78.4,50.9],[77.9,50.9],[77.9,50.8],[76.9,50.8],[76.9,50.7],[76.7,50.7],[76.7,50.6],[76.5,50.6],[76.5,50.5],[76.4,50.5],[76.4,50.2],[76.3,50.2],[76.3,49.8],[76.2,49.8],[76.2,49.4],[76.1,49.4],[76.1,49.1],[76.0,49.1],[76.0,48.2],[75.9,48.2],[75.9,47.2],[75.8,47.2],[75.8,47.0],[75.7,47.0],[75.7,46.9],[75.8,46.9],[75.8,46.6],[75.6,46.6],[75.6,46.5],[75.1,46.5],[75.1,46.6],[74.9,46.6],[74.9,46.5],[74.7,46.5],[74.7,46.3],[74.4,46.3],[74.4,46.2],[74.3,46.2],[74.3,46.1],[74.2,46.1],[74.2,46.0],[74.1,46.0],[74.1,45.7],[74.0,45.7],[74.0,45.5],[73.9,45.5],[73.9,45.3],[73.7,45.3],[73.7,45.0],[90.0,45.0],[90.0,45.1],[89.9,45.1],[89.9,45.7],[89.8,45.7],[89.8,46.0],[89.7,46.0],[89.7,46.2],[89.6,46.2],[89.6,46.4],[89.5,46.4],[89.5,46.7],[89.4,46.7],[89.4,47.8],[89.5,47.8],[89.5,48.3],[89.6,48.3],[89.6,48.6],[89.7,48.6],[89.7,49.0],[89.8,49.0],[89.8,49.8],[89.9,49.8],[89.9,50.4],[89.8,50.4],[89.8,50.3],[87.8,50.3],[87.8,50.2],[87.0,50.2],[87.0,50.1],[86.5,50.1],[86.5,50.2],[86.3,50.2],[86.3,50.3],[85.8,50.3],[85.8,50.4],[85.2,50.4],[85.2,50.5],[84.9,50.5],[84.9,50.6],[84.3,50.6],[84.3,50.7],[83.7,50.7],[83.7,50.8],[83.1,50.8],[83.1,50.9],[82.7,50.9],[82.7,51.0],[81.9,51.0],[81.9,51.1]]]},"properties":{"tile_id":"50","start_year":1428,"end_year":1437,"source_image":"data/raw/toolbay/t/50/1428.png","source_url":"https://www.toolbay.cc/history-map/t/50/1428.png","source_color":"#ff9933","polity_id":null,"polity_assignment":"unverified","geometry_origin":"raster_color_trace","pixel_size_degrees":0.1,"source_color_pixels":8014,"simplification_degrees":0}},{"type":"Feature","id":"50:1428:#ffff00","bbox":[60.7,45.7,76.5,58.2],"geometry":{"type":"Polygon","coordinates":[[[74.5,58.2],[72.0,58.2],[72.0,58.1],[71.5,58.1],[71.5,58.0],[71.1,58.0],[71.1,57.9],[70.5,57.9],[70.5,57.8],[69.8,57.8],[69.8,57.7],[69.2,57.7],[69.2,57.6],[68.8,57.6],[68.8,57.5],[68.6,57.5],[68.6,57.4],[68.2,57.4],[68.2,57.3],[68.0,57.3],[68.0,57.2],[67.8,57.2],[67.8,57.1],[67.6,57.1],[67.6,57.0],[67.5,57.0],[67.5,56.9],[67.3,56.9],[67.3,56.8],[67.1,56.8],[67.1,56.7],[66.9,56.7],[66.9,56.6],[66.7,56.6],[66.7,56.5],[66.6,56.5],[66.6,56.4],[66.5,56.4],[66.5,56.3],[66.3,56.3],[66.3,56.2],[66.2,56.2],[66.2,56.1],[66.1,56.1],[66.1,56.0],[66.0,56.0],[66.0,55.9],[65.9,55.9],[65.9,55.8],[65.7,55.8],[65.7,55.7],[65.6,55.7],[65.6,55.6],[65.5,55.6],[65.5,55.5],[65.4,55.5],[65.4,55.4],[65.3,55.4],[65.3,55.3],[65.2,55.3],[65.2,55.1],[65.0,55.1],[65.0,55.0],[64.9,55.0],[64.9,54.8],[64.8,54.8],[64.8,54.7],[64.7,54.7],[64.7,54.6],[64.6,54.6],[64.6,54.4],[64.5,54.4],[64.5,54.3],[64.4,54.3],[64.4,54.1],[64.3,54.1],[64.3,54.0],[64.2,54.0],[64.2,53.9],[64.1,53.9],[64.1,53.6],[64.0,53.6],[64.0,53.5],[63.9,53.5],[63.9,53.4],[63.8,53.4],[63.8,53.2],[63.7,53.2],[63.7,53.1],[63.6,53.1],[63.6,53.0],[63.5,53.0],[63.5,52.8],[63.4,52.8],[63.4,52.6],[63.3,52.6],[63.3,52.5],[63.2,52.5],[63.2,52.3],[63.1,52.3],[63.1,52.2],[63.0,52.2],[63.0,52.1],[62.9,52.1],[62.9,52.0],[62.8,52.0],[62.8,51.9],[62.7,51.9],[62.7,51.7],[62.6,51.7],[62.6,51.6],[62.5,51.6],[62.5,51.4],[62.3,51.4],[62.3,51.3],[62.2,51.3],[62.2,50.9],[62.1,50.9],[62.1,49.9],[62.0,49.9],[62.0,49.5],[61.9,49.5],[61.9,49.0],[61.8,49.0],[61.8,48.9],[61.7,48.9],[61.7,48.7],[61.6,48.7],[61.6,48.6],[61.5,48.6],[61.5,48.4],[61.4,48.4],[61.4,48.1],[61.3,48.1],[61.3,47.8],[61.2,47.8],[61.2,47.6],[61.1,47.6],[61.1,47.4],[61.0,47.4],[61.0,47.2],[60.9,47.2],[60.9,47.0],[60.8,47.0],[60.8,46.9],[60.7,46.9],[60.7,46.7],[60.8,46.7],[60.8,46.6],[60.9,46.6],[60.9,46.5],[61.2,46.5],[61.2,46.6],[61.3,46.6],[61.3,46.4],[61.2,46.4],[61.2,46.3],[61.4,46.3],[61.4,46.2],[61.8,46.2],[61.8,46.1],[62.2,46.1],[62.2,46.0],[62.6,46.0],[62.6,45.9],[63.9,45.9],[63.9,45.8],[65.1,45.8],[65.1,45.7],[65.9,45.7],[65.9,45.8],[67.8,45.8],[67.8,45.9],[70.4,45.9],[70.4,46.0],[71.0,46.0],[71.0,45.9],[71.4,45.9],[71.4,45.8],[71.7,45.8],[71.7,45.7],[72.8,45.7],[72.8,45.8],[73.3,45.8],[73.3,46.1],[73.4,46.1],[73.4,46.2],[73.5,46.2],[73.5,46.4],[73.7,46.4],[73.7,46.5],[73.9,46.5],[73.9,46.6],[74.1,46.6],[74.1,46.7],[74.4,46.7],[74.4,46.8],[74.5,46.8],[74.5,46.9],[75.7,46.9],[75.7,47.0],[75.8,47.0],[75.8,47.2],[75.9,47.2],[75.9,48.2],[76.0,48.2],[76.0,49.1],[76.1,49.1],[76.1,49.4],[76.2,49.4],[76.2,49.8],[76.3,49.8],[76.3,50.2],[76.4,50.2],[76.4,50.5],[76.5,50.5],[76.5,52.0],[76.4,52.0],[76.4,53.7],[76.3,53.7],[76.3,54.4],[76.2,54.4],[76.2,55.3],[76.1,55.3],[76.1,55.8],[76.0,55.8],[76.0,56.1],[75.9,56.1],[75.9,56.3],[75.8,56.3],[75.8,56.5],[75.7,56.5],[75.7,56.7],[75.6,56.7],[75.6,56.9],[75.5,56.9],[75.5,57.1],[75.4,57.1],[75.4,57.2],[75.3,57.2],[75.3,57.4],[75.2,57.4],[75.2,57.5],[75.1,57.5],[75.1,57.6],[75.0,57.6],[75.0,57.7],[74.9,57.7],[74.9,57.8],[74.8,57.8],[74.8,58.0],[74.7,58.0],[74.7,58.1],[74.5,58.1],[74.5,58.2]]]},"properties":{"tile_id":"50","start_year":1428,"end_year":1437,"source_image":"data/raw/toolbay/t/50/1428.png","source_url":"https://www.toolbay.cc/history-map/t/50/1428.png","source_color":"#ffff00","polity_id":null,"polity_assignment":"unverified","geometry_origin":"raster_color_trace","pixel_size_degrees":0.1,"source_color_pixels":15000,"simplification_degrees":0}}]}
