{"type":"FeatureCollection","features":[{"type":"Feature","id":"50:1440:#009900","bbox":[60.9,45.0,73.7,46.3],"geometry":{"type":"Polygon","coordinates":[[[61.4,46.3],[61.2,46.3],[61.2,46.2],[61.1,46.2],[61.1,46.1],[61.0,46.1],[61.0,46.0],[60.9,46.0],[60.9,45.6],[61.0,45.6],[61.0,45.5],[61.1,45.5],[61.1,45.4],[61.2,45.4],[61.2,45.2],[61.3,45.2],[61.3,45.1],[61.4,45.1],[61.4,45.0],[73.7,45.0],[73.7,45.3],[73.5,45.3],[73.5,45.4],[73.4,45.4],[73.4,45.5],[73.3,45.5],[73.3,45.8],[72.8,45.8],[72.8,45.7],[71.7,45.7],[71.7,45.8],[71.4,45.8],[71.4,45.9],[71.0,45.9],[71.0,46.0],[70.4,46.0],[70.4,45.9],[67.8,45.9],[67.8,45.8],[65.9,45.8],[65.9,45.7],[65.1,45.7],[65.1,45.8],[63.9,45.8],[63.9,45.9],[62.6,45.9],[62.6,46.0],[62.2,46.0],[62.2,46.1],[61.8,46.1],[61.8,46.2],[61.4,46.2],[61.4,46.3]]]},"properties":{"tile_id":"50","start_year":1440,"end_year":1450,"source_image":"data/raw/toolbay/t/50/1440.png","source_url":"https://www.toolbay.cc/history-map/t/50/1440.png","source_color":"#009900","polity_id":null,"polity_assignment":"unverified","geometry_origin":"raster_color_trace","pixel_size_degrees":0.1,"source_color_pixels":1080,"simplification_degrees":0}},{"type":"Feature","id":"50:1440:#009999","bbox":[60.0,56.4,67.1,62.6],"geometry":{"type":"Polygon","coordinates":[[[62.0,62.5],[60.0,62.5],[60.0,56.4],[60.1,56.4],[60.1,56.5],[60.4,56.5],[60.4,56.6],[60.8,56.6],[60.8,56.7],[61.0,56.7],[61.0,56.8],[61.3,56.8],[61.3,56.9],[61.5,56.9],[61.5,57.0],[61.7,57.0],[61.7,57.1],[61.8,57.1],[61.8,57.2],[61.9,57.2],[61.9,57.3],[62.1,57.3],[62.1,57.4],[62.2,57.4],[62.2,57.5],[62.3,57.5],[62.3,57.6],[62.4,57.6],[62.4,57.7],[62.6,57.7],[62.6,57.9],[62.9,57.9],[62.9,58.0],[63.1,58.0],[63.1,58.1],[63.3,58.1],[63.3,58.2],[63.5,58.2],[63.5,58.3],[63.7,58.3],[63.7,58.4],[63.9,58.4],[63.9,58.5],[64.0,58.5],[64.0,58.6],[64.1,58.6],[64.1,58.7],[64.3,58.7],[64.3,58.8],[64.4,58.8],[64.4,58.9],[64.5,58.9],[64.5,59.0],[64.7,59.0],[64.7,59.1],[64.8,59.1],[64.8,59.2],[64.9,59.2],[64.9,59.3],[65.0,59.3],[65.0,59.4],[65.1,59.4],[65.1,59.5],[65.2,59.5],[65.2,59.6],[65.3,59.6],[65.3,59.7],[65.5,59.7],[65.5,59.8],[65.6,59.8],[65.6,59.9],[65.7,59.9],[65.7,60.0],[65.8,60.0],[65.8,60.1],[65.9,60.1],[65.9,60.2],[66.1,60.2],[66.1,60.3],[66.2,60.3],[66.2,60.4],[66.3,60.4],[66.3,60.5],[66.4,60.5],[66.4,60.6],[66.5,60.6],[66.5,60.7],[66.7,60.7],[66.7,60.8],[66.8,60.8],[66.8,60.9],[66.9,60.9],[66.9,61.1],[67.0,61.1],[67.0,61.2],[67.1,61.2],[67.1,61.6],[67.0,61.6],[67.0,61.7],[66.8,61.7],[66.8,61.8],[66.7,61.8],[66.7,61.9],[66.0,61.9],[66.0,62.0],[65.6,62.0],[65.6,62.1],[64.9,62.1],[64.9,62.2],[64.2,62.2],[64.2,62.3],[63.9,62.3],[63.9,62.4],[63.5,62.4],[63.5,62.5],[63.0,62.5],[63.0,62.6],[62.8,62.6],[62.8,62.5],[62.7,62.5],[62.7,62.6],[62.0,62.6],[62.0,62.5]]]},"properties":{"tile_id":"50","start_year":1440,"end_year":1450,"source_image":"data/raw/toolbay/t/50/1440.png","source_url":"https://www.toolbay.cc/history-map/t/50/1440.png","source_color":"#009999","polity_id":null,"polity_assignment":"unverified","geometry_origin":"raster_color_trace","pixel_size_degrees":0.1,"source_color_pixels":7827,"simplification_degrees":0}},{"type":"Feature","id":"50:1440:#993300","bbox":[89.4,45.1,90.0,50.4],"geometry":{"type":"Polygon","coordinates":[[[90.0,50.4],[89.9,50.4],[89.9,49.8],[89.8,49.8],[89.8,49.0],[89.7,49.0],[89.7,48.6],[89.6,48.6],[89.6,48.3],[89.5,48.3],[89.5,47.8],[89.4,47.8],[89.4,46.7],[89.5,46.7],[89.5,46.4],[89.6,46.4],[89.6,46.2],[89.7,46.2],[89.7,46.0],[89.8,46.0],[89.8,45.7],[89.9,45.7],[89.9,45.1],[90.0,45.1],[90.0,50.4]]]},"properties":{"tile_id":"50","start_year":1440,"end_year":1450,"source_image":"data/raw/toolbay/t/50/1440.png","source_url":"https://www.toolbay.cc/history-map/t/50/1440.png","source_color":"#993300","polity_id":null,"polity_assignment":"unverified","geometry_origin":"raster_color_trace","pixel_size_degrees":0.1,"source_color_pixels":178,"simplification_degrees":0}},{"type":"Feature","id":"50:1440:#999900","bbox":[60.0,46.2,61.7,52.0],"geometry":{"type":"Polygon","coordinates":[[[60.3,52.0],[60.0,52.0],[60.0,46.2],[60.5,46.2],[60.5,46.3],[60.6,46.3],[60.6,46.4],[60.5,46.4],[60.5,46.6],[60.6,46.6],[60.6,46.7],[60.7,46.7],[60.7,46.9],[60.8,46.9],[60.8,47.0],[60.9,47.0],[60.9,47.2],[61.0,47.2],[61.0,47.4],[61.1,47.4],[61.1,47.6],[61.2,47.6],[61.2,47.8],[61.3,47.8],[61.3,48.1],[61.4,48.1],[61.4,48.4],[61.5,48.4],[61.5,48.6],[61.6,48.6],[61.6,48.7],[61.7,48.7],[61.7,48.8],[61.6,48.8],[61.6,49.2],[61.5,49.2],[61.5,49.5],[61.4,49.5],[61.4,49.9],[61.3,49.9],[61.3,50.5],[61.2,50.5],[61.2,50.8],[61.1,50.8],[61.1,51.1],[61.0,51.1],[61.0,51.4],[60.9,51.4],[60.9,51.6],[60.8,51.6],[60.8,51.7],[60.6,51.7],[60.6,51.8],[60.3,51.8],[60.3,52.0]]]},"properties":{"tile_id":"50","start_year":1440,"end_year":1450,"source_image":"data/raw/toolbay/t/50/1440.png","source_url":"https://www.toolbay.cc/history-map/t/50/1440.png","source_color":"#999900","polity_id":null,"polity_assignment":"unverified","geometry_origin":"raster_color_trace","pixel_size_degrees":0.1,"source_color_pixels":18773,"simplification_degrees":0}},{"type":"Feature","id":"50:1440:#ff00ff","bbox":[70.2,58.3,80.6,65.0],"geometry":{"type":"Polygon","coordinates":[[[80.6,64.4],[80.6,65.0],[70.2,65.0],[70.2,64.8],[70.3,64.8],[70.3,64.6],[70.4,64.6],[70.4,64.3],[70.5,64.3],[70.5,64.0],[70.6,64.0],[70.6,63.9],[70.7,63.9],[70.7,62.9],[70.8,62.9],[70.8,62.4],[70.9,62.4],[70.9,62.1],[70.8,62.1],[70.8,60.5],[70.9,60.5],[70.9,60.1],[71.0,60.1],[71.0,59.8],[71.1,59.8],[71.1,59.6],[71.2,59.6],[71.2,59.2],[71.4,59.2],[71.4,59.1],[71.6,59.1],[71.6,59.0],[72.1,59.0],[72.1,58.9],[72.5,58.9],[72.5,58.8],[72.9,58.8],[72.9,58.7],[73.5,58.7],[73.5,58.6],[73.7,58.6],[73.7,58.5],[74.0,58.5],[74.0,58.4],[74.2,58.4],[74.2,58.3],[75.2,58.3],[75.2,58.4],[75.5,58.4],[75.5,58.5],[75.7,58.5],[75.7,58.6],[75.9,58.6],[75.9,58.7],[76.1,58.7],[76.1,58.8],[76.3,58.8],[76.3,58.9],[76.7,58.9],[76.7,59.0],[77.0,59.0],[77.0,59.1],[77.4,59.1],[77.4,59.2],[77.8,59.2],[77.8,59.3],[78.0,59.3],[78.0,59.4],[78.1,59.4],[78.1,59.5],[78.2,59.5],[78.2,59.6],[78.3,59.6],[78.3,59.7],[78.4,59.7],[78.4,59.8],[78.5,59.8],[78.5,59.9],[78.6,59.9],[78.6,60.0],[78.7,60.0],[78.7,60.3],[79.0,60.3],[79.0,60.4],[79.2,60.4],[79.2,60.5],[79.3,60.5],[79.3,60.7],[79.4,60.7],[79.4,60.9],[79.5,60.9],[79.5,61.0],[79.6,61.0],[79.6,61.2],[79.7,61.2],[79.7,61.6],[79.8,61.6],[79.8,61.8],[79.9,61.8],[79.9,62.1],[80.0,62.1],[80.0,62.3],[80.1,62.3],[80.1,62.5],[80.2,62.5],[80.2,62.9],[80.3,62.9],[80.3,63.2],[80.4,63.2],[80.4,63.6],[80.5,63.6],[80.5,64.4],[80.6,64.4]]]},"properties":{"tile_id":"50","start_year":1440,"end_year":1450,"source_image":"data/raw/toolbay/t/50/1440.png","source_url":"https://www.toolbay.cc/history-map/t/50/1440.png","source_color":"#ff00ff","polity_id":null,"polity_assignment":"unverified","geometry_origin":"raster_color_trace","pixel_size_degrees":0.1,"source_color_pixels":12455,"simplification_degrees":0}},{"type":"Feature","id":"50:1440:#ff9933","bbox":[73.7,45.0,90.0,51.1],"geometry":{"type":"Polygon","coordinates":[[[81.9,51.1],[81.7,51.1],[81.7,51.0],[79.8,51.0],[79.8,50.9],[79.4,50.9],[79.4,51.0],[78.4,51.0],[78.4,50.9],[77.9,50.9],[77.9,50.8],[76.9,50.8],[76.9,50.7],[76.7,50.7],[76.7,50.6],[76.5,50.6],[76.5,50.5],[76.4,50.5],[76.4,50.2],[76.3,50.2],[76.3,49.8],[76.2,49.8],[76.2,49.4],[76.1,49.4],[76.1,49.1],[76.0,49.1],[76.0,48.2],[75.9,48.2],[75.9,47.2],[75.8,47.2],[75.8,47.0],[75.7,47.0],[75.7,46.9],[75.8,46.9],[75.8,46.6],[75.6,46.6],[75.6,46.5],[75.1,46.5],[75.1,46.6],[74.9,46.6],[74.9,46.5],[74.7,46.5],[74.7,46.3],[74.4,46.3],[74.4,46.2],[74.3,46.2],[74.3,46.1],[74.2,46.1],[74.2,46.0],[74.1,46.0],[74.1,45.7],[74.0,45.7],[74.0,45.5],[73.9,45.5],[73.9,45.3],[73.7,45.3],[73.7,45.0],[90.0,45.0],[90.0,45.1],[89.9,45.1],[89.9,45.7],[89.8,45.7],[89.8,46.0],[89.7,46.0],[89.7,46.2],[89.6,46.2],[89.6,46.4],[89.5,46.4],[89.5,46.7],[89.4,46.7],[89.4,47.8],[89.5,47.8],[89.5,48.3],[89.6,48.3],[89.6,48.6],[89.7,48.6],[89.7,49.0],[89.8,49.0],[89.8,49.8],[89.9,49.8],[89.9,50.4],[89.8,50.4],[89.8,50.3],[87.8,50.3],[87.8,50.2],[87.0,50.2],[87.0,50.1],[86.5,50.1],[86.5,50.2],[86.3,50.2],[86.3,50.3],[85.8,50.3],[85.8,50.4],[85.2,50.4],[85.2,50.5],[84.9,50.5],[84.9,50.6],[84.3,50.6],[84.3,50.7],[83.7,50.7],[83.7,50.8],[83.1,50.8],[83.1,50.9],[82.7,50.9],[82.7,51.0],[81.9,51.0],[81.9,51.1]]]},"properties":{"tile_id":"50","start_year":1440,"end_year":1450,"source_image":"data/raw/toolbay/t/50/1440.png","source_url":"https://www.toolbay.cc/history-map/t/50/1440.png","source_color":"#ff9933","polity_id":null,"polity_assignment":"unverified","geometry_origin":"raster_color_trace","pixel_size_degrees":0.1,"source_color_pixels":8014,"simplification_degrees":0}},{"type":"Feature","id":"50:1440:#ffff00","bbox":[60.0,45.7,76.5,61.2],"geometry":{"type":"Polygon","coordinates":[[[60.1,56.4],[60.0,56.4],[60.0,52.1],[60.0,52.0],[60.3,52.0],[60.3,51.8],[60.6,51.8],[60.6,51.7],[60.8,51.7],[60.8,51.6],[60.9,51.6],[60.9,51.4],[61.0,51.4],[61.0,51.1],[61.1,51.1],[61.1,50.8],[61.2,50.8],[61.2,50.5],[61.3,50.5],[61.3,49.9],[61.4,49.9],[61.4,49.5],[61.5,49.5],[61.5,49.2],[61.6,49.2],[61.6,48.8],[61.7,48.8],[61.7,48.7],[61.6,48.7],[61.6,48.6],[61.5,48.6],[61.5,48.4],[61.4,48.4],[61.4,48.1],[61.3,48.1],[61.3,47.8],[61.2,47.8],[61.2,47.6],[61.1,47.6],[61.1,47.4],[61.0,47.4],[61.0,47.2],[60.9,47.2],[60.9,47.0],[60.8,47.0],[60.8,46.9],[60.7,46.9],[60.7,46.7],[60.8,46.7],[60.8,46.6],[60.9,46.6],[60.9,46.5],[61.2,46.5],[61.2,46.6],[61.3,46.6],[61.3,46.4],[61.2,46.4],[61.2,46.3],[61.4,46.3],[61.4,46.2],[61.8,46.2],[61.8,46.1],[62.2,46.1],[62.2,46.0],[62.6,46.0],[62.6,45.9],[63.9,45.9],[63.9,45.8],[65.1,45.8],[65.1,45.7],[65.9,45.7],[65.9,45.8],[67.8,45.8],[67.8,45.9],[70.4,45.9],[70.4,46.0],[71.0,46.0],[71.0,45.9],[71.4,45.9],[71.4,45.8],[71.7,45.8],[71.7,45.7],[72.8,45.7],[72.8,45.8],[73.3,45.8],[73.3,46.1],[73.4,46.1],[73.4,46.2],[73.5,46.2],[73.5,46.4],[73.7,46.4],[73.7,46.5],[73.9,46.5],[73.9,46.6],[74.1,46.6],[74.1,46.7],[74.4,46.7],[74.4,46.8],[74.5,46.8],[74.5,46.9],[75.7,46.9],[75.7,47.0],[75.8,47.0],[75.8,47.2],[75.9,47.2],[75.9,48.2],[76.0,48.2],[76.0,49.1],[76.1,49.1],[76.1,49.4],[76.2,49.4],[76.2,49.8],[76.3,49.8],[76.3,50.2],[76.4,50.2],[76.4,50.5],[76.5,50.5],[76.5,52.0],[76.4,52.0],[76.4,53.7],[76.3,53.7],[76.3,54.4],[76.2,54.4],[76.2,55.3],[76.1,55.3],[76.1,55.8],[76.0,55.8],[76.0,56.1],[75.9,56.1],[75.9,56.3],[75.8,56.3],[75.8,56.5],[75.7,56.5],[75.7,56.7],[75.6,56.7],[75.6,56.9],[75.5,56.9],[75.5,57.1],[75.4,57.1],[75.4,57.2],[75.3,57.2],[75.3,57.4],[75.2,57.4],[75.2,57.5],[75.1,57.5],[75.1,57.6],[75.0,57.6],[75.0,57.7],[74.9,57.7],[74.9,57.8],[74.8,57.8],[74.8,58.0],[74.7,58.0],[74.7,58.1],[74.5,58.1],[74.5,58.2],[74.3,58.2],[74.3,58.3],[74.2,58.3],[74.2,58.4],[74.0,58.4],[74.0,58.5],[73.7,58.5],[73.7,58.6],[73.5,58.6],[73.5,58.7],[72.9,58.7],[72.9,58.8],[72.5,58.8],[72.5,58.9],[72.1,58.9],[72.1,59.0],[71.6,59.0],[71.6,59.1],[71.4,59.1],[71.4,59.2],[71.1,59.2],[71.1,59.3],[70.8,59.3],[70.8,59.4],[70.5,59.4],[70.5,59.5],[70.3,59.5],[70.3,59.6],[70.0,59.6],[70.0,59.7],[69.8,59.7],[69.8,59.8],[69.6,59.8],[69.6,59.9],[69.4,59.9],[69.4,60.0],[69.1,60.0],[69.1,60.2],[68.8,60.2],[68.8,60.3],[68.6,60.3],[68.6,60.4],[68.5,60.4],[68.5,60.5],[68.3,60.5],[68.3,60.6],[68.1,60.6],[68.1,60.7],[68.0,60.7],[68.0,60.8],[67.8,60.8],[67.8,60.9],[67.7,60.9],[67.7,61.0],[67.5,61.0],[67.5,61.1],[67.4,61.1],[67.4,61.2],[67.0,61.2],[67.0,61.1],[66.9,61.1],[66.9,60.9],[66.8,60.9],[66.8,60.8],[66.7,60.8],[66.7,60.7],[66.5,60.7],[66.5,60.6],[66.4,60.6],[66.4,60.5],[66.3,60.5],[66.3,60.4],[66.2,60.4],[66.2,60.3],[66.1,60.3],[66.1,60.2],[65.9,60.2],[65.9,60.1],[65.8,60.1],[65.8,60.0],[65.7,60.0],[65.7,59.9],[65.6,59.9],[65.6,59.8],[65.5,59.8],[65.5,59.7],[65.3,59.7],[65.3,59.6],[65.2,59.6],[65.2,59.5],[65.1,59.5],[65.1,59.4],[65.0,59.4],[65.0,59.3],[64.9,59.3],[64.9,59.2],[64.8,59.2],[64.8,59.1],[64.7,59.1],[64.7,59.0],[64.5,59.0],[64.5,58.9],[64.4,58.9],[64.4,58.8],[64.3,58.8],[64.3,58.7],[64.1,58.7],[64.1,58.6],[64.0,58.6],[64.0,58.5],[63.9,58.5],[63.9,58.4],[63.7,58.4],[63.7,58.3],[63.5,58.3],[63.5,58.2],[63.3,58.2],[63.3,58.1],[63.1,58.1],[63.1,58.0],[62.9,58.0],[62.9,57.9],[62.6,57.9],[62.6,57.7],[62.4,57.7],[62.4,57.6],[62.3,57.6],[62.3,57.5],[62.2,57.5],[62.2,57.4],[62.1,57.4],[62.1,57.3],[61.9,57.3],[61.9,57.2],[61.8,57.2],[61.8,57.1],[61.7,57.1],[61.7,57.0],[61.5,57.0],[61.5,56.9],[61.3,56.9],[61.3,56.8],[61.0,56.8],[61.0,56.7],[60.8,56.7],[60.8,56.6],[60.4,56.6],[60.4,56.5],[60.1,56.5],[60.1,56.4]]]},"properties":{"tile_id":"50","start_year":1440,"end_year":1450,"source_image":"data/raw/toolbay/t/50/1440.png","source_url":"https://www.toolbay.cc/history-map/t/50/1440.png","source_color":"#ffff00","polity_id":null,"polity_assignment":"unverified","geometry_origin":"raster_color_trace","pixel_size_degrees":0.1,"source_color_pixels":20872,"simplification_degrees":0}}]}
