{"type":"FeatureCollection","features":[{"type":"Feature","id":"50:1552:#00ff00","bbox":[60.9,45.0,63.9,46.3],"geometry":{"type":"Polygon","coordinates":[[[61.4,46.3],[61.2,46.3],[61.2,46.2],[61.1,46.2],[61.1,46.1],[61.0,46.1],[61.0,46.0],[60.9,46.0],[60.9,45.6],[61.0,45.6],[61.0,45.5],[61.1,45.5],[61.1,45.4],[61.2,45.4],[61.2,45.2],[61.3,45.2],[61.3,45.1],[61.4,45.1],[61.4,45.0],[63.7,45.0],[63.7,45.6],[63.8,45.6],[63.8,45.8],[63.9,45.8],[63.9,45.9],[62.6,45.9],[62.6,46.0],[62.2,46.0],[62.2,46.1],[61.8,46.1],[61.8,46.2],[61.4,46.2],[61.4,46.3]]]},"properties":{"tile_id":"50","start_year":1552,"end_year":1556,"source_image":"data/raw/toolbay/t/50/1552.png","source_url":"https://www.toolbay.cc/history-map/t/50/1552.png","source_color":"#00ff00","polity_id":null,"polity_assignment":"unverified","geometry_origin":"raster_color_trace","pixel_size_degrees":0.1,"source_color_pixels":276,"simplification_degrees":0}},{"type":"Feature","id":"50:1552:#993300","bbox":[81.9,45.0,90.0,50.4],"geometry":{"type":"Polygon","coordinates":[[[90.0,50.4],[89.8,50.4],[89.8,50.3],[87.8,50.3],[87.8,50.2],[87.0,50.2],[87.0,50.1],[86.5,50.1],[86.5,50.0],[86.3,50.0],[86.3,49.9],[86.1,49.9],[86.1,49.8],[86.0,49.8],[86.0,49.7],[85.9,49.7],[85.9,49.6],[85.8,49.6],[85.8,49.5],[85.6,49.5],[85.6,49.4],[85.5,49.4],[85.5,49.3],[85.4,49.3],[85.4,49.2],[85.3,49.2],[85.3,49.1],[85.1,49.1],[85.1,49.0],[85.0,49.0],[85.0,48.9],[84.8,48.9],[84.8,48.8],[84.6,48.8],[84.6,48.6],[84.5,48.6],[84.5,48.5],[84.3,48.5],[84.3,48.4],[84.2,48.4],[84.2,48.3],[84.1,48.3],[84.1,48.2],[84.0,48.2],[84.0,48.0],[83.9,48.0],[83.9,47.9],[83.8,47.9],[83.8,47.8],[83.7,47.8],[83.7,47.7],[83.6,47.7],[83.6,47.6],[83.5,47.6],[83.5,47.5],[83.4,47.5],[83.4,47.4],[83.3,47.4],[83.3,47.3],[83.2,47.3],[83.2,47.2],[83.1,47.2],[83.1,47.0],[83.0,47.0],[83.0,46.9],[82.9,46.9],[82.9,46.8],[82.8,46.8],[82.8,46.6],[82.6,46.6],[82.6,46.4],[82.5,46.4],[82.5,46.3],[82.4,46.3],[82.4,46.1],[82.3,46.1],[82.3,46.0],[82.2,46.0],[82.2,45.7],[82.1,45.7],[82.1,45.5],[82.0,45.5],[82.0,45.2],[81.9,45.2],[81.9,45.0],[90.0,45.0],[90.0,50.4]]]},"properties":{"tile_id":"50","start_year":1552,"end_year":1556,"source_image":"data/raw/toolbay/t/50/1552.png","source_url":"https://www.toolbay.cc/history-map/t/50/1552.png","source_color":"#993300","polity_id":null,"polity_assignment":"unverified","geometry_origin":"raster_color_trace","pixel_size_degrees":0.1,"source_color_pixels":3263,"simplification_degrees":0}},{"type":"Feature","id":"50:1552:#ff0000","bbox":[63.7,45.0,73.7,46.8],"geometry":{"type":"Polygon","coordinates":[[[71.6,46.8],[67.8,46.8],[67.8,46.7],[67.3,46.7],[67.3,46.6],[66.7,46.6],[66.7,46.5],[66.6,46.5],[66.6,46.4],[66.1,46.4],[66.1,46.3],[64.7,46.3],[64.7,46.2],[64.6,46.2],[64.6,46.1],[64.4,46.1],[64.4,46.0],[64.0,46.0],[64.0,45.9],[63.9,45.9],[63.9,45.8],[63.8,45.8],[63.8,45.6],[63.7,45.6],[63.7,45.0],[73.7,45.0],[73.7,45.3],[73.5,45.3],[73.5,45.4],[73.4,45.4],[73.4,45.5],[73.3,45.5],[73.3,46.0],[73.2,46.0],[73.2,46.2],[73.1,46.2],[73.1,46.3],[72.9,46.3],[72.9,46.4],[72.6,46.4],[72.6,46.5],[72.3,46.5],[72.3,46.6],[72.1,46.6],[72.1,46.7],[71.6,46.7],[71.6,46.8]]]},"properties":{"tile_id":"50","start_year":1552,"end_year":1556,"source_image":"data/raw/toolbay/t/50/1552.png","source_url":"https://www.toolbay.cc/history-map/t/50/1552.png","source_color":"#ff0000","polity_id":null,"polity_assignment":"unverified","geometry_origin":"raster_color_trace","pixel_size_degrees":0.1,"source_color_pixels":1496,"simplification_degrees":0}},{"type":"Feature","id":"50:1552:#ff00ff","bbox":[70.2,58.3,80.6,65.0],"geometry":{"type":"Polygon","coordinates":[[[80.6,64.4],[80.6,65.0],[70.2,65.0],[70.2,64.8],[70.3,64.8],[70.3,64.6],[70.4,64.6],[70.4,64.3],[70.5,64.3],[70.5,64.0],[70.6,64.0],[70.6,63.9],[70.7,63.9],[70.7,62.9],[70.8,62.9],[70.8,62.4],[70.9,62.4],[70.9,62.1],[70.8,62.1],[70.8,60.5],[70.9,60.5],[70.9,60.1],[71.0,60.1],[71.0,59.8],[71.1,59.8],[71.1,59.6],[71.2,59.6],[71.2,59.2],[71.4,59.2],[71.4,59.1],[71.6,59.1],[71.6,59.0],[72.1,59.0],[72.1,58.9],[72.5,58.9],[72.5,58.8],[72.9,58.8],[72.9,58.7],[73.5,58.7],[73.5,58.6],[73.7,58.6],[73.7,58.5],[74.0,58.5],[74.0,58.4],[74.2,58.4],[74.2,58.3],[75.2,58.3],[75.2,58.4],[75.5,58.4],[75.5,58.5],[75.7,58.5],[75.7,58.6],[75.9,58.6],[75.9,58.7],[76.1,58.7],[76.1,58.8],[76.3,58.8],[76.3,58.9],[76.7,58.9],[76.7,59.0],[77.0,59.0],[77.0,59.1],[77.4,59.1],[77.4,59.2],[77.8,59.2],[77.8,59.3],[78.0,59.3],[78.0,59.4],[78.1,59.4],[78.1,59.5],[78.2,59.5],[78.2,59.6],[78.3,59.6],[78.3,59.7],[78.4,59.7],[78.4,59.8],[78.5,59.8],[78.5,59.9],[78.6,59.9],[78.6,60.0],[78.7,60.0],[78.7,60.3],[79.0,60.3],[79.0,60.4],[79.2,60.4],[79.2,60.5],[79.3,60.5],[79.3,60.7],[79.4,60.7],[79.4,60.9],[79.5,60.9],[79.5,61.0],[79.6,61.0],[79.6,61.2],[79.7,61.2],[79.7,61.6],[79.8,61.6],[79.8,61.8],[79.9,61.8],[79.9,62.1],[80.0,62.1],[80.0,62.3],[80.1,62.3],[80.1,62.5],[80.2,62.5],[80.2,62.9],[80.3,62.9],[80.3,63.2],[80.4,63.2],[80.4,63.6],[80.5,63.6],[80.5,64.4],[80.6,64.4]]]},"properties":{"tile_id":"50","start_year":1552,"end_year":1556,"source_image":"data/raw/toolbay/t/50/1552.png","source_url":"https://www.toolbay.cc/history-map/t/50/1552.png","source_color":"#ff00ff","polity_id":null,"polity_assignment":"unverified","geometry_origin":"raster_color_trace","pixel_size_degrees":0.1,"source_color_pixels":12455,"simplification_degrees":0}},{"type":"Feature","id":"50:1552:#ff66ff","bbox":[60.0,55.9,71.2,65.0],"geometry":{"type":"Polygon","coordinates":[[[70.2,64.8],[70.2,65.0],[70.1,65.0],[60.0,65.0],[60.0,55.9],[60.1,55.9],[60.1,56.0],[60.2,56.0],[60.2,56.1],[60.5,56.1],[60.5,56.2],[60.6,56.2],[60.6,56.3],[60.8,56.3],[60.8,56.4],[61.0,56.4],[61.0,56.5],[61.1,56.5],[61.1,56.6],[61.4,56.6],[61.4,56.8],[61.7,56.8],[61.7,56.9],[62.0,56.9],[62.0,57.0],[62.7,57.0],[62.7,57.1],[63.0,57.1],[63.0,57.2],[63.2,57.2],[63.2,57.4],[63.7,57.4],[63.7,57.5],[64.1,57.5],[64.1,57.6],[64.4,57.6],[64.4,57.7],[64.7,57.7],[64.7,57.8],[65.1,57.8],[65.1,57.9],[65.5,57.9],[65.5,58.0],[66.0,58.0],[66.0,58.1],[66.5,58.1],[66.5,58.2],[67.1,58.2],[67.1,58.3],[67.5,58.3],[67.5,58.4],[67.7,58.4],[67.7,58.5],[68.1,58.5],[68.1,58.6],[68.5,58.6],[68.5,58.7],[69.0,58.7],[69.0,58.8],[69.3,58.8],[69.3,58.9],[70.1,58.9],[70.1,59.0],[70.5,59.0],[70.5,59.1],[71.1,59.1],[71.1,59.2],[71.2,59.2],[71.2,59.6],[71.1,59.6],[71.1,59.8],[71.0,59.8],[71.0,60.1],[70.9,60.1],[70.9,60.5],[70.8,60.5],[70.8,62.1],[70.9,62.1],[70.9,62.4],[70.8,62.4],[70.8,62.9],[70.7,62.9],[70.7,63.9],[70.6,63.9],[70.6,64.0],[70.5,64.0],[70.5,64.3],[70.4,64.3],[70.4,64.6],[70.3,64.6],[70.3,64.8],[70.2,64.8]]]},"properties":{"tile_id":"50","start_year":1552,"end_year":1556,"source_image":"data/raw/toolbay/t/50/1552.png","source_url":"https://www.toolbay.cc/history-map/t/50/1552.png","source_color":"#ff66ff","polity_id":null,"polity_assignment":"unverified","geometry_origin":"raster_color_trace","pixel_size_degrees":0.1,"source_color_pixels":35955,"simplification_degrees":0}},{"type":"Feature","id":"50:1552:#ffff00","bbox":[60.0,45.9,76.5,59.2],"geometry":{"type":"Polygon","coordinates":[[[60.1,55.9],[60.0,55.9],[60.0,55.8],[60.0,52.1],[60.0,52.0],[60.3,52.0],[60.3,51.8],[60.6,51.8],[60.6,51.7],[60.8,51.7],[60.8,51.6],[60.9,51.6],[60.9,51.4],[61.0,51.4],[61.0,51.1],[61.1,51.1],[61.1,50.8],[61.2,50.8],[61.2,50.5],[61.3,50.5],[61.3,49.9],[61.4,49.9],[61.4,49.5],[61.5,49.5],[61.5,49.2],[61.6,49.2],[61.6,48.8],[61.7,48.8],[61.7,48.7],[61.6,48.7],[61.6,48.6],[61.5,48.6],[61.5,48.4],[61.4,48.4],[61.4,48.1],[61.3,48.1],[61.3,47.8],[61.2,47.8],[61.2,47.6],[61.1,47.6],[61.1,47.4],[61.0,47.4],[61.0,47.2],[60.9,47.2],[60.9,47.0],[60.8,47.0],[60.8,46.9],[60.7,46.9],[60.7,46.7],[60.8,46.7],[60.8,46.6],[60.9,46.6],[60.9,46.5],[61.2,46.5],[61.2,46.6],[61.3,46.6],[61.3,46.4],[61.2,46.4],[61.2,46.3],[61.4,46.3],[61.4,46.2],[61.8,46.2],[61.8,46.1],[62.2,46.1],[62.2,46.0],[62.6,46.0],[62.6,45.9],[64.0,45.9],[64.0,46.0],[64.4,46.0],[64.4,46.1],[64.6,46.1],[64.6,46.2],[64.7,46.2],[64.7,46.3],[66.1,46.3],[66.1,46.4],[66.6,46.4],[66.6,46.5],[66.7,46.5],[66.7,46.6],[67.3,46.6],[67.3,46.7],[67.8,46.7],[67.8,46.8],[71.6,46.8],[71.6,46.7],[72.1,46.7],[72.1,46.6],[72.3,46.6],[72.3,46.5],[72.6,46.5],[72.6,46.4],[72.9,46.4],[72.9,46.3],[73.1,46.3],[73.1,46.2],[73.2,46.2],[73.2,46.0],[73.3,46.0],[73.3,46.1],[73.4,46.1],[73.4,46.2],[73.5,46.2],[73.5,46.4],[73.7,46.4],[73.7,46.5],[73.9,46.5],[73.9,46.6],[74.1,46.6],[74.1,46.7],[74.4,46.7],[74.4,46.8],[74.5,46.8],[74.5,46.9],[75.7,46.9],[75.7,47.0],[75.8,47.0],[75.8,47.2],[75.9,47.2],[75.9,48.2],[76.0,48.2],[76.0,49.1],[76.1,49.1],[76.1,49.4],[76.2,49.4],[76.2,49.8],[76.3,49.8],[76.3,50.2],[76.4,50.2],[76.4,50.5],[76.5,50.5],[76.5,52.0],[76.4,52.0],[76.4,53.7],[76.3,53.7],[76.3,54.4],[76.2,54.4],[76.2,55.3],[76.1,55.3],[76.1,55.8],[76.0,55.8],[76.0,56.1],[75.9,56.1],[75.9,56.3],[75.8,56.3],[75.8,56.5],[75.7,56.5],[75.7,56.7],[75.6,56.7],[75.6,56.9],[75.5,56.9],[75.5,57.1],[75.4,57.1],[75.4,57.2],[75.3,57.2],[75.3,57.4],[75.2,57.4],[75.2,57.5],[75.1,57.5],[75.1,57.6],[75.0,57.6],[75.0,57.7],[74.9,57.7],[74.9,57.8],[74.8,57.8],[74.8,58.0],[74.7,58.0],[74.7,58.1],[74.5,58.1],[74.5,58.2],[74.3,58.2],[74.3,58.3],[74.2,58.3],[74.2,58.4],[74.0,58.4],[74.0,58.5],[73.7,58.5],[73.7,58.6],[73.5,58.6],[73.5,58.7],[72.9,58.7],[72.9,58.8],[72.5,58.8],[72.5,58.9],[72.1,58.9],[72.1,59.0],[71.6,59.0],[71.6,59.1],[71.4,59.1],[71.4,59.2],[71.1,59.2],[71.1,59.1],[70.5,59.1],[70.5,59.0],[70.1,59.0],[70.1,58.9],[69.3,58.9],[69.3,58.8],[69.0,58.8],[69.0,58.7],[68.5,58.7],[68.5,58.6],[68.1,58.6],[68.1,58.5],[67.7,58.5],[67.7,58.4],[67.5,58.4],[67.5,58.3],[67.1,58.3],[67.1,58.2],[66.5,58.2],[66.5,58.1],[66.0,58.1],[66.0,58.0],[65.5,58.0],[65.5,57.9],[65.1,57.9],[65.1,57.8],[64.7,57.8],[64.7,57.7],[64.4,57.7],[64.4,57.6],[64.1,57.6],[64.1,57.5],[63.7,57.5],[63.7,57.4],[63.2,57.4],[63.2,57.2],[63.0,57.2],[63.0,57.1],[62.7,57.1],[62.7,57.0],[62.0,57.0],[62.0,56.9],[61.7,56.9],[61.7,56.8],[61.4,56.8],[61.4,56.6],[61.1,56.6],[61.1,56.5],[61.0,56.5],[61.0,56.4],[60.8,56.4],[60.8,56.3],[60.6,56.3],[60.6,56.2],[60.5,56.2],[60.5,56.1],[60.2,56.1],[60.2,56.0],[60.1,56.0],[60.1,55.9]]]},"properties":{"tile_id":"50","start_year":1552,"end_year":1556,"source_image":"data/raw/toolbay/t/50/1552.png","source_url":"https://www.toolbay.cc/history-map/t/50/1552.png","source_color":"#ffff00","polity_id":null,"polity_assignment":"unverified","geometry_origin":"raster_color_trace","pixel_size_degrees":0.1,"source_color_pixels":18426,"simplification_degrees":0}}]}
