{"type":"FeatureCollection","features":[{"type":"Feature","id":"50:1598:#00ff00","bbox":[60.9,45.0,63.9,46.3],"geometry":{"type":"Polygon","coordinates":[[[61.4,46.3],[61.2,46.3],[61.2,46.2],[61.1,46.2],[61.1,46.1],[61.0,46.1],[61.0,46.0],[60.9,46.0],[60.9,45.6],[61.0,45.6],[61.0,45.5],[61.1,45.5],[61.1,45.4],[61.2,45.4],[61.2,45.2],[61.3,45.2],[61.3,45.1],[61.4,45.1],[61.4,45.0],[63.7,45.0],[63.7,45.6],[63.8,45.6],[63.8,45.8],[63.9,45.8],[63.9,45.9],[62.6,45.9],[62.6,46.0],[62.2,46.0],[62.2,46.1],[61.8,46.1],[61.8,46.2],[61.4,46.2],[61.4,46.3]]]},"properties":{"tile_id":"50","start_year":1598,"end_year":1599,"source_image":"data/raw/toolbay/t/50/1598.png","source_url":"https://www.toolbay.cc/history-map/t/50/1598.png","source_color":"#00ff00","polity_id":null,"polity_assignment":"unverified","geometry_origin":"raster_color_trace","pixel_size_degrees":0.1,"source_color_pixels":276,"simplification_degrees":0}},{"type":"Feature","id":"50:1598:#993300","bbox":[81.9,45.0,90.0,50.4],"geometry":{"type":"Polygon","coordinates":[[[90.0,50.4],[89.8,50.4],[89.8,50.3],[87.8,50.3],[87.8,50.2],[87.0,50.2],[87.0,50.1],[86.5,50.1],[86.5,50.0],[86.3,50.0],[86.3,49.9],[86.1,49.9],[86.1,49.8],[86.0,49.8],[86.0,49.7],[85.9,49.7],[85.9,49.6],[85.8,49.6],[85.8,49.5],[85.6,49.5],[85.6,49.4],[85.5,49.4],[85.5,49.3],[85.4,49.3],[85.4,49.2],[85.3,49.2],[85.3,49.1],[85.1,49.1],[85.1,49.0],[85.0,49.0],[85.0,48.9],[84.8,48.9],[84.8,48.8],[84.6,48.8],[84.6,48.6],[84.5,48.6],[84.5,48.5],[84.3,48.5],[84.3,48.4],[84.2,48.4],[84.2,48.3],[84.1,48.3],[84.1,48.2],[84.0,48.2],[84.0,48.0],[83.9,48.0],[83.9,47.9],[83.8,47.9],[83.8,47.8],[83.7,47.8],[83.7,47.7],[83.6,47.7],[83.6,47.6],[83.5,47.6],[83.5,47.5],[83.4,47.5],[83.4,47.4],[83.3,47.4],[83.3,47.3],[83.2,47.3],[83.2,47.2],[83.1,47.2],[83.1,47.0],[83.0,47.0],[83.0,46.9],[82.9,46.9],[82.9,46.8],[82.8,46.8],[82.8,46.6],[82.6,46.6],[82.6,46.4],[82.5,46.4],[82.5,46.3],[82.4,46.3],[82.4,46.1],[82.3,46.1],[82.3,46.0],[82.2,46.0],[82.2,45.7],[82.1,45.7],[82.1,45.5],[82.0,45.5],[82.0,45.2],[81.9,45.2],[81.9,45.0],[90.0,45.0],[90.0,50.4]]]},"properties":{"tile_id":"50","start_year":1598,"end_year":1599,"source_image":"data/raw/toolbay/t/50/1598.png","source_url":"https://www.toolbay.cc/history-map/t/50/1598.png","source_color":"#993300","polity_id":null,"polity_assignment":"unverified","geometry_origin":"raster_color_trace","pixel_size_degrees":0.1,"source_color_pixels":3263,"simplification_degrees":0}},{"type":"Feature","id":"50:1598:#ff0000","bbox":[63.7,45.0,73.7,46.8],"geometry":{"type":"Polygon","coordinates":[[[71.6,46.8],[67.8,46.8],[67.8,46.7],[67.3,46.7],[67.3,46.6],[66.7,46.6],[66.7,46.5],[66.6,46.5],[66.6,46.4],[66.1,46.4],[66.1,46.3],[64.7,46.3],[64.7,46.2],[64.6,46.2],[64.6,46.1],[64.4,46.1],[64.4,46.0],[64.0,46.0],[64.0,45.9],[63.9,45.9],[63.9,45.8],[63.8,45.8],[63.8,45.6],[63.7,45.6],[63.7,45.0],[73.7,45.0],[73.7,45.3],[73.5,45.3],[73.5,45.4],[73.4,45.4],[73.4,45.5],[73.3,45.5],[73.3,46.0],[73.2,46.0],[73.2,46.2],[73.1,46.2],[73.1,46.3],[72.9,46.3],[72.9,46.4],[72.6,46.4],[72.6,46.5],[72.3,46.5],[72.3,46.6],[72.1,46.6],[72.1,46.7],[71.6,46.7],[71.6,46.8]]]},"properties":{"tile_id":"50","start_year":1598,"end_year":1599,"source_image":"data/raw/toolbay/t/50/1598.png","source_url":"https://www.toolbay.cc/history-map/t/50/1598.png","source_color":"#ff0000","polity_id":null,"polity_assignment":"unverified","geometry_origin":"raster_color_trace","pixel_size_degrees":0.1,"source_color_pixels":1496,"simplification_degrees":0}},{"type":"Feature","id":"50:1598:#ff66ff","bbox":[60.0,46.2,82.8,65.0],"geometry":{"type":"Polygon","coordinates":[[[82.8,64.9],[82.8,65.0],[60.0,65.0],[60.0,46.2],[60.5,46.2],[60.5,46.3],[60.6,46.3],[60.6,46.4],[60.5,46.4],[60.5,46.6],[60.6,46.6],[60.6,46.7],[60.7,46.7],[60.7,46.9],[60.8,46.9],[60.8,47.0],[60.9,47.0],[60.9,47.2],[61.0,47.2],[61.0,47.4],[61.1,47.4],[61.1,47.6],[61.2,47.6],[61.2,47.8],[61.3,47.8],[61.3,48.1],[61.4,48.1],[61.4,48.4],[61.5,48.4],[61.5,48.6],[61.6,48.6],[61.6,48.7],[61.7,48.7],[61.7,48.8],[61.8,48.8],[61.8,48.9],[61.9,48.9],[61.9,49.0],[62.0,49.0],[62.0,49.1],[62.1,49.1],[62.1,49.3],[62.2,49.3],[62.2,49.4],[62.3,49.4],[62.3,49.6],[62.4,49.6],[62.4,49.8],[62.5,49.8],[62.5,50.0],[62.6,50.0],[62.6,50.1],[62.7,50.1],[62.7,50.2],[62.8,50.2],[62.8,50.3],[62.9,50.3],[62.9,50.4],[63.0,50.4],[63.0,50.5],[63.1,50.5],[63.1,50.6],[63.2,50.6],[63.2,50.7],[63.3,50.7],[63.3,50.8],[63.4,50.8],[63.4,50.9],[63.6,50.9],[63.6,51.0],[63.7,51.0],[63.7,51.1],[63.8,51.1],[63.8,51.2],[63.9,51.2],[63.9,51.3],[64.0,51.3],[64.0,51.4],[64.1,51.4],[64.1,51.5],[64.2,51.5],[64.2,51.6],[64.4,51.6],[64.4,51.7],[64.5,51.7],[64.5,51.8],[64.6,51.8],[64.6,51.9],[64.7,51.9],[64.7,52.0],[64.9,52.0],[64.9,52.2],[65.2,52.2],[65.2,52.3],[65.4,52.3],[65.4,52.5],[65.6,52.5],[65.6,52.6],[65.7,52.6],[65.7,52.7],[65.8,52.7],[65.8,52.8],[66.0,52.8],[66.0,52.9],[66.1,52.9],[66.1,53.0],[66.2,53.0],[66.2,53.1],[66.3,53.1],[66.3,53.2],[66.4,53.2],[66.4,53.3],[66.6,53.3],[66.6,53.4],[66.7,53.4],[66.7,53.5],[67.0,53.5],[67.0,53.6],[67.2,53.6],[67.2,53.7],[67.4,53.7],[67.4,53.8],[67.5,53.8],[67.5,53.9],[67.7,53.9],[67.7,54.0],[68.0,54.0],[68.0,54.1],[68.1,54.1],[68.1,54.2],[68.3,54.2],[68.3,54.3],[68.6,54.3],[68.6,54.4],[68.8,54.4],[68.8,54.5],[69.0,54.5],[69.0,54.6],[69.2,54.6],[69.2,54.7],[69.4,54.7],[69.4,54.8],[69.6,54.8],[69.6,54.9],[69.8,54.9],[69.8,55.0],[70.1,55.0],[70.1,55.1],[70.3,55.1],[70.3,55.2],[70.5,55.2],[70.5,55.3],[70.7,55.3],[70.7,55.4],[70.9,55.4],[70.9,55.5],[71.1,55.5],[71.1,55.6],[71.3,55.6],[71.3,55.7],[71.5,55.7],[71.5,55.8],[71.7,55.8],[71.7,55.9],[71.8,55.9],[71.8,56.0],[72.1,56.0],[72.1,56.2],[72.4,56.2],[72.4,56.3],[72.5,56.3],[72.5,56.4],[72.7,56.4],[72.7,56.5],[72.9,56.5],[72.9,56.6],[73.1,56.6],[73.1,56.7],[73.2,56.7],[73.2,56.8],[73.5,56.8],[73.5,56.9],[73.6,56.9],[73.6,57.0],[73.7,57.0],[73.7,57.1],[74.0,57.1],[74.0,57.2],[74.1,57.2],[74.1,57.3],[74.3,57.3],[74.3,57.4],[74.5,57.4],[74.5,57.5],[74.6,57.5],[74.6,57.6],[74.8,57.6],[74.8,57.7],[75.0,57.7],[75.0,57.8],[75.2,57.8],[75.2,57.9],[76.3,57.9],[76.3,58.0],[76.7,58.0],[76.7,58.1],[76.8,58.1],[76.8,58.2],[77.0,58.2],[77.0,58.3],[77.1,58.3],[77.1,58.4],[77.3,58.4],[77.3,58.5],[77.5,58.5],[77.5,58.6],[77.8,58.6],[77.8,58.7],[78.1,58.7],[78.1,58.8],[78.4,58.8],[78.4,58.9],[78.6,58.9],[78.6,59.0],[78.7,59.0],[78.7,59.1],[78.8,59.1],[78.8,59.2],[78.9,59.2],[78.9,59.3],[79.0,59.3],[79.0,59.4],[79.2,59.4],[79.2,59.5],[79.4,59.5],[79.4,59.6],[79.5,59.6],[79.5,59.7],[79.6,59.7],[79.6,59.8],[79.7,59.8],[79.7,59.9],[79.8,59.9],[79.8,60.0],[79.9,60.0],[79.9,60.1],[80.0,60.1],[80.0,60.3],[80.1,60.3],[80.1,60.4],[80.2,60.4],[80.2,60.6],[80.3,60.6],[80.3,60.7],[80.4,60.7],[80.4,60.9],[80.5,60.9],[80.5,61.1],[80.6,61.1],[80.6,61.4],[80.7,61.4],[80.7,61.7],[80.8,61.7],[80.8,61.9],[80.9,61.9],[80.9,62.2],[81.0,62.2],[81.0,62.3],[81.1,62.3],[81.1,62.5],[81.2,62.5],[81.2,62.6],[81.3,62.6],[81.3,62.7],[81.4,62.7],[81.4,62.8],[81.5,62.8],[81.5,63.0],[81.6,63.0],[81.6,63.1],[81.7,63.1],[81.7,63.4],[81.8,63.4],[81.8,63.6],[81.9,63.6],[81.9,63.8],[82.0,63.8],[82.0,63.9],[82.1,63.9],[82.1,64.1],[82.2,64.1],[82.2,64.2],[82.3,64.2],[82.3,64.3],[82.4,64.3],[82.4,64.5],[82.5,64.5],[82.5,64.6],[82.6,64.6],[82.6,64.7],[82.7,64.7],[82.7,64.9],[82.8,64.9]]]},"properties":{"tile_id":"50","start_year":1598,"end_year":1599,"source_image":"data/raw/toolbay/t/50/1598.png","source_url":"https://www.toolbay.cc/history-map/t/50/1598.png","source_color":"#ff66ff","polity_id":null,"polity_assignment":"unverified","geometry_origin":"raster_color_trace","pixel_size_degrees":0.1,"source_color_pixels":71333,"simplification_degrees":0}},{"type":"Feature","id":"50:1598:#ffff00","bbox":[60.7,45.9,76.5,57.7],"geometry":{"type":"Polygon","coordinates":[[[75.0,57.7],[74.8,57.7],[74.8,57.6],[74.6,57.6],[74.6,57.5],[74.5,57.5],[74.5,57.4],[74.3,57.4],[74.3,57.3],[74.1,57.3],[74.1,57.2],[74.0,57.2],[74.0,57.1],[73.7,57.1],[73.7,57.0],[73.6,57.0],[73.6,56.9],[73.5,56.9],[73.5,56.8],[73.2,56.8],[73.2,56.7],[73.1,56.7],[73.1,56.6],[72.9,56.6],[72.9,56.5],[72.7,56.5],[72.7,56.4],[72.5,56.4],[72.5,56.3],[72.4,56.3],[72.4,56.2],[72.1,56.2],[72.1,56.0],[71.8,56.0],[71.8,55.9],[71.7,55.9],[71.7,55.8],[71.5,55.8],[71.5,55.7],[71.3,55.7],[71.3,55.6],[71.1,55.6],[71.1,55.5],[70.9,55.5],[70.9,55.4],[70.7,55.4],[70.7,55.3],[70.5,55.3],[70.5,55.2],[70.3,55.2],[70.3,55.1],[70.1,55.1],[70.1,55.0],[69.8,55.0],[69.8,54.9],[69.6,54.9],[69.6,54.8],[69.4,54.8],[69.4,54.7],[69.2,54.7],[69.2,54.6],[69.0,54.6],[69.0,54.5],[68.8,54.5],[68.8,54.4],[68.6,54.4],[68.6,54.3],[68.3,54.3],[68.3,54.2],[68.1,54.2],[68.1,54.1],[68.0,54.1],[68.0,54.0],[67.7,54.0],[67.7,53.9],[67.5,53.9],[67.5,53.8],[67.4,53.8],[67.4,53.7],[67.2,53.7],[67.2,53.6],[67.0,53.6],[67.0,53.5],[66.7,53.5],[66.7,53.4],[66.6,53.4],[66.6,53.3],[66.4,53.3],[66.4,53.2],[66.3,53.2],[66.3,53.1],[66.2,53.1],[66.2,53.0],[66.1,53.0],[66.1,52.9],[66.0,52.9],[66.0,52.8],[65.8,52.8],[65.8,52.7],[65.7,52.7],[65.7,52.6],[65.6,52.6],[65.6,52.5],[65.4,52.5],[65.4,52.3],[65.2,52.3],[65.2,52.2],[64.9,52.2],[64.9,52.0],[64.7,52.0],[64.7,51.9],[64.6,51.9],[64.6,51.8],[64.5,51.8],[64.5,51.7],[64.4,51.7],[64.4,51.6],[64.2,51.6],[64.2,51.5],[64.1,51.5],[64.1,51.4],[64.0,51.4],[64.0,51.3],[63.9,51.3],[63.9,51.2],[63.8,51.2],[63.8,51.1],[63.7,51.1],[63.7,51.0],[63.6,51.0],[63.6,50.9],[63.4,50.9],[63.4,50.8],[63.3,50.8],[63.3,50.7],[63.2,50.7],[63.2,50.6],[63.1,50.6],[63.1,50.5],[63.0,50.5],[63.0,50.4],[62.9,50.4],[62.9,50.3],[62.8,50.3],[62.8,50.2],[62.7,50.2],[62.7,50.1],[62.6,50.1],[62.6,50.0],[62.5,50.0],[62.5,49.8],[62.4,49.8],[62.4,49.6],[62.3,49.6],[62.3,49.4],[62.2,49.4],[62.2,49.3],[62.1,49.3],[62.1,49.1],[62.0,49.1],[62.0,49.0],[61.9,49.0],[61.9,48.9],[61.8,48.9],[61.8,48.8],[61.7,48.8],[61.7,48.7],[61.6,48.7],[61.6,48.6],[61.5,48.6],[61.5,48.4],[61.4,48.4],[61.4,48.1],[61.3,48.1],[61.3,47.8],[61.2,47.8],[61.2,47.6],[61.1,47.6],[61.1,47.4],[61.0,47.4],[61.0,47.2],[60.9,47.2],[60.9,47.0],[60.8,47.0],[60.8,46.9],[60.7,46.9],[60.7,46.7],[60.8,46.7],[60.8,46.6],[60.9,46.6],[60.9,46.5],[61.2,46.5],[61.2,46.6],[61.3,46.6],[61.3,46.4],[61.2,46.4],[61.2,46.3],[61.4,46.3],[61.4,46.2],[61.8,46.2],[61.8,46.1],[62.2,46.1],[62.2,46.0],[62.6,46.0],[62.6,45.9],[64.0,45.9],[64.0,46.0],[64.4,46.0],[64.4,46.1],[64.6,46.1],[64.6,46.2],[64.7,46.2],[64.7,46.3],[66.1,46.3],[66.1,46.4],[66.6,46.4],[66.6,46.5],[66.7,46.5],[66.7,46.6],[67.3,46.6],[67.3,46.7],[67.8,46.7],[67.8,46.8],[71.6,46.8],[71.6,46.7],[72.1,46.7],[72.1,46.6],[72.3,46.6],[72.3,46.5],[72.6,46.5],[72.6,46.4],[72.9,46.4],[72.9,46.3],[73.1,46.3],[73.1,46.2],[73.2,46.2],[73.2,46.0],[73.3,46.0],[73.3,46.1],[73.4,46.1],[73.4,46.2],[73.5,46.2],[73.5,46.4],[73.7,46.4],[73.7,46.5],[73.9,46.5],[73.9,46.6],[74.1,46.6],[74.1,46.7],[74.4,46.7],[74.4,46.8],[74.5,46.8],[74.5,46.9],[75.7,46.9],[75.7,47.0],[75.8,47.0],[75.8,47.2],[75.9,47.2],[75.9,48.2],[76.0,48.2],[76.0,49.1],[76.1,49.1],[76.1,49.4],[76.2,49.4],[76.2,49.8],[76.3,49.8],[76.3,50.2],[76.4,50.2],[76.4,50.5],[76.5,50.5],[76.5,52.0],[76.4,52.0],[76.4,53.7],[76.3,53.7],[76.3,54.4],[76.2,54.4],[76.2,55.3],[76.1,55.3],[76.1,55.8],[76.0,55.8],[76.0,56.1],[75.9,56.1],[75.9,56.3],[75.8,56.3],[75.8,56.5],[75.7,56.5],[75.7,56.7],[75.6,56.7],[75.6,56.9],[75.5,56.9],[75.5,57.1],[75.4,57.1],[75.4,57.2],[75.3,57.2],[75.3,57.4],[75.2,57.4],[75.2,57.5],[75.1,57.5],[75.1,57.6],[75.0,57.6],[75.0,57.7]]]},"properties":{"tile_id":"50","start_year":1598,"end_year":1599,"source_image":"data/raw/toolbay/t/50/1598.png","source_url":"https://www.toolbay.cc/history-map/t/50/1598.png","source_color":"#ffff00","polity_id":null,"polity_assignment":"unverified","geometry_origin":"raster_color_trace","pixel_size_degrees":0.1,"source_color_pixels":11292,"simplification_degrees":0}}]}
