{"type":"FeatureCollection","features":[{"type":"Feature","id":"50:1599:#00ff00","bbox":[60.9,45.0,63.7,47.9],"geometry":{"type":"Polygon","coordinates":[[[62.9,47.9],[62.7,47.9],[62.7,47.8],[62.6,47.8],[62.6,47.7],[62.4,47.7],[62.4,47.6],[62.3,47.6],[62.3,47.5],[62.2,47.5],[62.2,47.4],[62.1,47.4],[62.1,47.3],[62.0,47.3],[62.0,47.2],[61.8,47.2],[61.8,47.1],[61.7,47.1],[61.7,47.0],[61.6,47.0],[61.6,46.9],[61.5,46.9],[61.5,46.8],[61.3,46.8],[61.3,46.4],[61.2,46.4],[61.2,46.2],[61.1,46.2],[61.1,46.1],[61.0,46.1],[61.0,46.0],[60.9,46.0],[60.9,45.6],[61.0,45.6],[61.0,45.5],[61.1,45.5],[61.1,45.4],[61.2,45.4],[61.2,45.2],[61.3,45.2],[61.3,45.1],[61.4,45.1],[61.4,45.0],[63.7,45.0],[63.7,46.1],[63.6,46.1],[63.6,46.6],[63.5,46.6],[63.5,46.7],[63.4,46.7],[63.4,46.9],[63.3,46.9],[63.3,47.0],[63.2,47.0],[63.2,47.2],[63.1,47.2],[63.1,47.4],[63.0,47.4],[63.0,47.6],[62.9,47.6],[62.9,47.9]]]},"properties":{"tile_id":"50","start_year":1599,"end_year":1634,"source_image":"data/raw/toolbay/t/50/1599.png","source_url":"https://www.toolbay.cc/history-map/t/50/1599.png","source_color":"#00ff00","polity_id":null,"polity_assignment":"unverified","geometry_origin":"raster_color_trace","pixel_size_degrees":0.1,"source_color_pixels":562,"simplification_degrees":0}},{"type":"Feature","id":"50:1599:#993300","bbox":[81.9,45.0,90.0,50.4],"geometry":{"type":"Polygon","coordinates":[[[90.0,50.4],[89.8,50.4],[89.8,50.3],[87.8,50.3],[87.8,50.2],[87.0,50.2],[87.0,50.1],[86.5,50.1],[86.5,50.0],[86.3,50.0],[86.3,49.9],[86.1,49.9],[86.1,49.8],[86.0,49.8],[86.0,49.7],[85.9,49.7],[85.9,49.6],[85.8,49.6],[85.8,49.5],[85.6,49.5],[85.6,49.4],[85.5,49.4],[85.5,49.3],[85.4,49.3],[85.4,49.2],[85.3,49.2],[85.3,49.1],[85.1,49.1],[85.1,49.0],[85.0,49.0],[85.0,48.9],[84.8,48.9],[84.8,48.8],[84.6,48.8],[84.6,48.6],[84.5,48.6],[84.5,48.5],[84.3,48.5],[84.3,48.4],[84.2,48.4],[84.2,48.3],[84.1,48.3],[84.1,48.2],[84.0,48.2],[84.0,48.0],[83.9,48.0],[83.9,47.9],[83.8,47.9],[83.8,47.8],[83.7,47.8],[83.7,47.7],[83.6,47.7],[83.6,47.6],[83.5,47.6],[83.5,47.5],[83.4,47.5],[83.4,47.4],[83.3,47.4],[83.3,47.3],[83.2,47.3],[83.2,47.2],[83.1,47.2],[83.1,47.0],[83.0,47.0],[83.0,46.9],[82.9,46.9],[82.9,46.8],[82.8,46.8],[82.8,46.6],[82.6,46.6],[82.6,46.4],[82.5,46.4],[82.5,46.3],[82.4,46.3],[82.4,46.1],[82.3,46.1],[82.3,46.0],[82.2,46.0],[82.2,45.7],[82.1,45.7],[82.1,45.5],[82.0,45.5],[82.0,45.2],[81.9,45.2],[81.9,45.0],[90.0,45.0],[90.0,50.4]]]},"properties":{"tile_id":"50","start_year":1599,"end_year":1634,"source_image":"data/raw/toolbay/t/50/1599.png","source_url":"https://www.toolbay.cc/history-map/t/50/1599.png","source_color":"#993300","polity_id":null,"polity_assignment":"unverified","geometry_origin":"raster_color_trace","pixel_size_degrees":0.1,"source_color_pixels":3263,"simplification_degrees":0}},{"type":"Feature","id":"50:1599:#ff0000","bbox":[62.9,45.0,76.9,51.9],"geometry":{"type":"Polygon","coordinates":[[[72.6,51.9],[71.3,51.9],[71.3,51.8],[70.6,51.8],[70.6,51.7],[70.1,51.7],[70.1,51.6],[69.6,51.6],[69.6,51.5],[69.0,51.5],[69.0,51.4],[68.7,51.4],[68.7,51.3],[68.3,51.3],[68.3,51.2],[68.0,51.2],[68.0,51.1],[67.8,51.1],[67.8,51.0],[67.4,51.0],[67.4,50.9],[67.2,50.9],[67.2,50.8],[67.0,50.8],[67.0,50.7],[66.8,50.7],[66.8,50.6],[66.6,50.6],[66.6,50.5],[66.4,50.5],[66.4,50.4],[66.3,50.4],[66.3,50.3],[66.1,50.3],[66.1,50.2],[66.0,50.2],[66.0,50.1],[65.7,50.1],[65.7,50.0],[65.6,50.0],[65.6,49.9],[65.4,49.9],[65.4,49.8],[65.1,49.8],[65.1,49.7],[65.0,49.7],[65.0,49.6],[64.8,49.6],[64.8,49.5],[64.7,49.5],[64.7,49.4],[64.5,49.4],[64.5,49.3],[64.3,49.3],[64.3,49.2],[64.2,49.2],[64.2,49.1],[64.1,49.1],[64.1,49.0],[63.9,49.0],[63.9,48.9],[63.8,48.9],[63.8,48.8],[63.7,48.8],[63.7,48.7],[63.5,48.7],[63.5,48.6],[63.4,48.6],[63.4,48.5],[63.3,48.5],[63.3,48.4],[63.2,48.4],[63.2,48.3],[63.1,48.3],[63.1,48.2],[63.0,48.2],[63.0,48.1],[62.9,48.1],[62.9,47.6],[63.0,47.6],[63.0,47.4],[63.1,47.4],[63.1,47.2],[63.2,47.2],[63.2,47.0],[63.3,47.0],[63.3,46.9],[63.4,46.9],[63.4,46.7],[63.5,46.7],[63.5,46.6],[63.6,46.6],[63.6,46.1],[63.7,46.1],[63.7,45.0],[73.7,45.0],[73.7,45.3],[73.5,45.3],[73.5,45.4],[73.4,45.4],[73.4,45.5],[73.3,45.5],[73.3,46.1],[73.4,46.1],[73.4,46.2],[73.5,46.2],[73.5,46.4],[73.7,46.4],[73.7,46.5],[73.9,46.5],[73.9,46.6],[74.1,46.6],[74.1,46.7],[74.4,46.7],[74.4,46.8],[74.5,46.8],[74.5,46.9],[75.8,46.9],[75.8,47.1],[75.9,47.1],[75.9,47.3],[76.0,47.3],[76.0,47.6],[76.1,47.6],[76.1,47.8],[76.2,47.8],[76.2,48.1],[76.3,48.1],[76.3,48.3],[76.4,48.3],[76.4,48.5],[76.5,48.5],[76.5,48.7],[76.6,48.7],[76.6,49.0],[76.7,49.0],[76.7,49.3],[76.8,49.3],[76.8,49.6],[76.9,49.6],[76.9,50.6],[76.8,50.6],[76.8,50.9],[76.7,50.9],[76.7,51.2],[76.6,51.2],[76.6,51.3],[76.5,51.3],[76.5,51.4],[75.6,51.4],[75.6,51.5],[75.0,51.5],[75.0,51.6],[74.3,51.6],[74.3,51.7],[73.7,51.7],[73.7,51.8],[72.6,51.8],[72.6,51.9]]]},"properties":{"tile_id":"50","start_year":1599,"end_year":1634,"source_image":"data/raw/toolbay/t/50/1599.png","source_url":"https://www.toolbay.cc/history-map/t/50/1599.png","source_color":"#ff0000","polity_id":null,"polity_assignment":"unverified","geometry_origin":"raster_color_trace","pixel_size_degrees":0.1,"source_color_pixels":7406,"simplification_degrees":0}},{"type":"Feature","id":"50:1599:#ff66ff","bbox":[60.0,46.2,82.8,65.0],"geometry":{"type":"Polygon","coordinates":[[[82.8,64.9],[82.8,65.0],[60.0,65.0],[60.0,46.2],[60.5,46.2],[60.5,46.3],[60.6,46.3],[60.6,46.4],[60.5,46.4],[60.5,46.6],[60.6,46.6],[60.6,46.7],[60.8,46.7],[60.8,46.6],[60.9,46.6],[60.9,46.5],[61.2,46.5],[61.2,46.6],[61.3,46.6],[61.3,46.8],[61.5,46.8],[61.5,46.9],[61.6,46.9],[61.6,47.0],[61.7,47.0],[61.7,47.1],[61.8,47.1],[61.8,47.2],[62.0,47.2],[62.0,47.3],[62.1,47.3],[62.1,47.4],[62.2,47.4],[62.2,47.5],[62.3,47.5],[62.3,47.6],[62.4,47.6],[62.4,47.7],[62.6,47.7],[62.6,47.8],[62.7,47.8],[62.7,47.9],[62.9,47.9],[62.9,48.1],[63.0,48.1],[63.0,48.2],[63.1,48.2],[63.1,48.3],[63.2,48.3],[63.2,48.4],[63.3,48.4],[63.3,48.5],[63.4,48.5],[63.4,48.6],[63.5,48.6],[63.5,48.7],[63.7,48.7],[63.7,48.8],[63.8,48.8],[63.8,48.9],[63.9,48.9],[63.9,49.0],[64.1,49.0],[64.1,49.1],[64.2,49.1],[64.2,49.2],[64.3,49.2],[64.3,49.3],[64.5,49.3],[64.5,49.4],[64.7,49.4],[64.7,49.5],[64.8,49.5],[64.8,49.6],[65.0,49.6],[65.0,49.7],[65.1,49.7],[65.1,49.8],[65.4,49.8],[65.4,49.9],[65.6,49.9],[65.6,50.0],[65.7,50.0],[65.7,50.1],[66.0,50.1],[66.0,50.2],[66.1,50.2],[66.1,50.3],[66.3,50.3],[66.3,50.4],[66.4,50.4],[66.4,50.5],[66.6,50.5],[66.6,50.6],[66.8,50.6],[66.8,50.7],[67.0,50.7],[67.0,50.8],[67.2,50.8],[67.2,50.9],[67.4,50.9],[67.4,51.0],[67.8,51.0],[67.8,51.1],[68.0,51.1],[68.0,51.2],[68.3,51.2],[68.3,51.3],[68.7,51.3],[68.7,51.4],[69.0,51.4],[69.0,51.5],[69.6,51.5],[69.6,51.6],[70.1,51.6],[70.1,51.7],[70.6,51.7],[70.6,51.8],[71.3,51.8],[71.3,51.9],[72.6,51.9],[72.6,51.8],[73.7,51.8],[73.7,51.7],[74.3,51.7],[74.3,51.6],[75.0,51.6],[75.0,51.5],[75.6,51.5],[75.6,51.4],[76.5,51.4],[76.5,52.0],[76.4,52.0],[76.4,53.8],[76.5,53.8],[76.5,54.1],[76.6,54.1],[76.6,54.8],[76.7,54.8],[76.7,55.1],[76.8,55.1],[76.8,55.6],[76.9,55.6],[76.9,56.0],[77.0,56.0],[77.0,56.1],[77.1,56.1],[77.1,56.4],[77.2,56.4],[77.2,56.7],[77.3,56.7],[77.3,56.9],[77.4,56.9],[77.4,57.2],[77.5,57.2],[77.5,57.4],[77.6,57.4],[77.6,57.5],[77.7,57.5],[77.7,57.7],[77.8,57.7],[77.8,57.8],[77.9,57.8],[77.9,57.9],[78.0,57.9],[78.0,58.0],[78.1,58.0],[78.1,58.1],[78.2,58.1],[78.2,58.2],[78.3,58.2],[78.3,58.3],[78.4,58.3],[78.4,58.5],[78.6,58.5],[78.6,58.7],[78.7,58.7],[78.7,58.8],[78.8,58.8],[78.8,59.0],[78.9,59.0],[78.9,59.2],[79.0,59.2],[79.0,59.4],[79.2,59.4],[79.2,59.5],[79.4,59.5],[79.4,59.6],[79.5,59.6],[79.5,59.7],[79.6,59.7],[79.6,59.8],[79.7,59.8],[79.7,59.9],[79.8,59.9],[79.8,60.0],[79.9,60.0],[79.9,60.1],[80.0,60.1],[80.0,60.3],[80.1,60.3],[80.1,60.4],[80.2,60.4],[80.2,60.6],[80.3,60.6],[80.3,60.7],[80.4,60.7],[80.4,60.9],[80.5,60.9],[80.5,61.1],[80.6,61.1],[80.6,61.4],[80.7,61.4],[80.7,61.7],[80.8,61.7],[80.8,61.9],[80.9,61.9],[80.9,62.2],[81.0,62.2],[81.0,62.3],[81.1,62.3],[81.1,62.5],[81.2,62.5],[81.2,62.6],[81.3,62.6],[81.3,62.7],[81.4,62.7],[81.4,62.8],[81.5,62.8],[81.5,63.0],[81.6,63.0],[81.6,63.1],[81.7,63.1],[81.7,63.4],[81.8,63.4],[81.8,63.6],[81.9,63.6],[81.9,63.8],[82.0,63.8],[82.0,63.9],[82.1,63.9],[82.1,64.1],[82.2,64.1],[82.2,64.2],[82.3,64.2],[82.3,64.3],[82.4,64.3],[82.4,64.5],[82.5,64.5],[82.5,64.6],[82.6,64.6],[82.6,64.7],[82.7,64.7],[82.7,64.9],[82.8,64.9]]]},"properties":{"tile_id":"50","start_year":1599,"end_year":1634,"source_image":"data/raw/toolbay/t/50/1599.png","source_url":"https://www.toolbay.cc/history-map/t/50/1599.png","source_color":"#ff66ff","polity_id":null,"polity_assignment":"unverified","geometry_origin":"raster_color_trace","pixel_size_degrees":0.1,"source_color_pixels":77191,"simplification_degrees":0}}]}
