{"type":"FeatureCollection","features":[{"type":"Feature","id":"50:1644:#00ff00","bbox":[60.9,45.0,63.7,47.9],"geometry":{"type":"Polygon","coordinates":[[[62.9,47.9],[62.7,47.9],[62.7,47.8],[62.6,47.8],[62.6,47.7],[62.4,47.7],[62.4,47.6],[62.3,47.6],[62.3,47.5],[62.2,47.5],[62.2,47.4],[62.1,47.4],[62.1,47.3],[62.0,47.3],[62.0,47.2],[61.8,47.2],[61.8,47.1],[61.7,47.1],[61.7,47.0],[61.6,47.0],[61.6,46.9],[61.5,46.9],[61.5,46.8],[61.3,46.8],[61.3,46.4],[61.2,46.4],[61.2,46.2],[61.1,46.2],[61.1,46.1],[61.0,46.1],[61.0,46.0],[60.9,46.0],[60.9,45.6],[61.0,45.6],[61.0,45.5],[61.1,45.5],[61.1,45.4],[61.2,45.4],[61.2,45.2],[61.3,45.2],[61.3,45.1],[61.4,45.1],[61.4,45.0],[63.7,45.0],[63.7,46.1],[63.6,46.1],[63.6,46.6],[63.5,46.6],[63.5,46.7],[63.4,46.7],[63.4,46.9],[63.3,46.9],[63.3,47.0],[63.2,47.0],[63.2,47.2],[63.1,47.2],[63.1,47.4],[63.0,47.4],[63.0,47.6],[62.9,47.6],[62.9,47.9]]]},"properties":{"tile_id":"50","start_year":1644,"end_year":1697,"source_image":"data/raw/toolbay/t/50/1644.png","source_url":"https://www.toolbay.cc/history-map/t/50/1644.png","source_color":"#00ff00","polity_id":null,"polity_assignment":"unverified","geometry_origin":"raster_color_trace","pixel_size_degrees":0.1,"source_color_pixels":562,"simplification_degrees":0}},{"type":"Feature","id":"50:1644:#00ff99","bbox":[79.6,45.0,89.9,46.3],"geometry":{"type":"Polygon","coordinates":[[[84.8,46.3],[83.5,46.3],[83.5,46.2],[83.0,46.2],[83.0,46.1],[82.6,46.1],[82.6,46.0],[82.3,46.0],[82.3,45.9],[82.0,45.9],[82.0,45.8],[81.5,45.8],[81.5,45.7],[80.9,45.7],[80.9,45.6],[80.7,45.6],[80.7,45.5],[80.5,45.5],[80.5,45.4],[80.4,45.4],[80.4,45.3],[80.1,45.3],[80.1,45.2],[79.8,45.2],[79.8,45.1],[79.6,45.1],[79.6,45.0],[89.9,45.0],[89.9,45.1],[89.7,45.1],[89.7,45.2],[89.2,45.2],[89.2,45.3],[89.0,45.3],[89.0,45.4],[88.8,45.4],[88.8,45.5],[88.5,45.5],[88.5,45.6],[87.9,45.6],[87.9,45.7],[87.7,45.7],[87.7,45.8],[87.3,45.8],[87.3,45.9],[86.4,45.9],[86.4,46.0],[85.8,46.0],[85.8,46.1],[85.3,46.1],[85.3,46.2],[84.8,46.2],[84.8,46.3]]]},"properties":{"tile_id":"50","start_year":1644,"end_year":1697,"source_image":"data/raw/toolbay/t/50/1644.png","source_url":"https://www.toolbay.cc/history-map/t/50/1644.png","source_color":"#00ff99","polity_id":null,"polity_assignment":"unverified","geometry_origin":"raster_color_trace","pixel_size_degrees":0.1,"source_color_pixels":834,"simplification_degrees":0}},{"type":"Feature","id":"50:1644:#ff0000","bbox":[62.9,45.0,76.9,51.9],"geometry":{"type":"Polygon","coordinates":[[[72.6,51.9],[71.3,51.9],[71.3,51.8],[70.6,51.8],[70.6,51.7],[70.1,51.7],[70.1,51.6],[69.6,51.6],[69.6,51.5],[69.0,51.5],[69.0,51.4],[68.7,51.4],[68.7,51.3],[68.3,51.3],[68.3,51.2],[68.0,51.2],[68.0,51.1],[67.8,51.1],[67.8,51.0],[67.4,51.0],[67.4,50.9],[67.2,50.9],[67.2,50.8],[67.0,50.8],[67.0,50.7],[66.8,50.7],[66.8,50.6],[66.6,50.6],[66.6,50.5],[66.4,50.5],[66.4,50.4],[66.3,50.4],[66.3,50.3],[66.1,50.3],[66.1,50.2],[66.0,50.2],[66.0,50.1],[65.7,50.1],[65.7,50.0],[65.6,50.0],[65.6,49.9],[65.4,49.9],[65.4,49.8],[65.1,49.8],[65.1,49.7],[65.0,49.7],[65.0,49.6],[64.8,49.6],[64.8,49.5],[64.7,49.5],[64.7,49.4],[64.5,49.4],[64.5,49.3],[64.3,49.3],[64.3,49.2],[64.2,49.2],[64.2,49.1],[64.1,49.1],[64.1,49.0],[63.9,49.0],[63.9,48.9],[63.8,48.9],[63.8,48.8],[63.7,48.8],[63.7,48.7],[63.5,48.7],[63.5,48.6],[63.4,48.6],[63.4,48.5],[63.3,48.5],[63.3,48.4],[63.2,48.4],[63.2,48.3],[63.1,48.3],[63.1,48.2],[63.0,48.2],[63.0,48.1],[62.9,48.1],[62.9,47.6],[63.0,47.6],[63.0,47.4],[63.1,47.4],[63.1,47.2],[63.2,47.2],[63.2,47.0],[63.3,47.0],[63.3,46.9],[63.4,46.9],[63.4,46.7],[63.5,46.7],[63.5,46.6],[63.6,46.6],[63.6,46.1],[63.7,46.1],[63.7,45.0],[73.7,45.0],[73.7,45.3],[73.5,45.3],[73.5,45.4],[73.4,45.4],[73.4,45.5],[73.3,45.5],[73.3,46.1],[73.4,46.1],[73.4,46.2],[73.5,46.2],[73.5,46.4],[73.7,46.4],[73.7,46.5],[73.9,46.5],[73.9,46.6],[74.1,46.6],[74.1,46.7],[74.4,46.7],[74.4,46.8],[74.5,46.8],[74.5,46.9],[75.8,46.9],[75.8,47.1],[75.9,47.1],[75.9,47.3],[76.0,47.3],[76.0,47.6],[76.1,47.6],[76.1,47.8],[76.2,47.8],[76.2,48.1],[76.3,48.1],[76.3,48.3],[76.4,48.3],[76.4,48.5],[76.5,48.5],[76.5,48.7],[76.6,48.7],[76.6,49.0],[76.7,49.0],[76.7,49.3],[76.8,49.3],[76.8,49.6],[76.9,49.6],[76.9,50.6],[76.8,50.6],[76.8,50.9],[76.7,50.9],[76.7,51.2],[76.6,51.2],[76.6,51.3],[76.5,51.3],[76.5,51.4],[75.6,51.4],[75.6,51.5],[75.0,51.5],[75.0,51.6],[74.3,51.6],[74.3,51.7],[73.7,51.7],[73.7,51.8],[72.6,51.8],[72.6,51.9]]]},"properties":{"tile_id":"50","start_year":1644,"end_year":1697,"source_image":"data/raw/toolbay/t/50/1644.png","source_url":"https://www.toolbay.cc/history-map/t/50/1644.png","source_color":"#ff0000","polity_id":null,"polity_assignment":"unverified","geometry_origin":"raster_color_trace","pixel_size_degrees":0.1,"source_color_pixels":7406,"simplification_degrees":0}},{"type":"Feature","id":"50:1644:#ff66ff","bbox":[60.0,46.2,90.0,65.0],"geometry":{"type":"Polygon","coordinates":[[[90.0,53.1],[90.0,65.0],[60.0,65.0],[60.0,46.2],[60.5,46.2],[60.5,46.3],[60.6,46.3],[60.6,46.4],[60.5,46.4],[60.5,46.6],[60.6,46.6],[60.6,46.7],[60.8,46.7],[60.8,46.6],[60.9,46.6],[60.9,46.5],[61.2,46.5],[61.2,46.6],[61.3,46.6],[61.3,46.8],[61.5,46.8],[61.5,46.9],[61.6,46.9],[61.6,47.0],[61.7,47.0],[61.7,47.1],[61.8,47.1],[61.8,47.2],[62.0,47.2],[62.0,47.3],[62.1,47.3],[62.1,47.4],[62.2,47.4],[62.2,47.5],[62.3,47.5],[62.3,47.6],[62.4,47.6],[62.4,47.7],[62.6,47.7],[62.6,47.8],[62.7,47.8],[62.7,47.9],[62.9,47.9],[62.9,48.1],[63.0,48.1],[63.0,48.2],[63.1,48.2],[63.1,48.3],[63.2,48.3],[63.2,48.4],[63.3,48.4],[63.3,48.5],[63.4,48.5],[63.4,48.6],[63.5,48.6],[63.5,48.7],[63.7,48.7],[63.7,48.8],[63.8,48.8],[63.8,48.9],[63.9,48.9],[63.9,49.0],[64.1,49.0],[64.1,49.1],[64.2,49.1],[64.2,49.2],[64.3,49.2],[64.3,49.3],[64.5,49.3],[64.5,49.4],[64.7,49.4],[64.7,49.5],[64.8,49.5],[64.8,49.6],[65.0,49.6],[65.0,49.7],[65.1,49.7],[65.1,49.8],[65.4,49.8],[65.4,49.9],[65.6,49.9],[65.6,50.0],[65.7,50.0],[65.7,50.1],[66.0,50.1],[66.0,50.2],[66.1,50.2],[66.1,50.3],[66.3,50.3],[66.3,50.4],[66.4,50.4],[66.4,50.5],[66.6,50.5],[66.6,50.6],[66.8,50.6],[66.8,50.7],[67.0,50.7],[67.0,50.8],[67.2,50.8],[67.2,50.9],[67.4,50.9],[67.4,51.0],[67.8,51.0],[67.8,51.1],[68.0,51.1],[68.0,51.2],[68.3,51.2],[68.3,51.3],[68.7,51.3],[68.7,51.4],[69.0,51.4],[69.0,51.5],[69.6,51.5],[69.6,51.6],[70.1,51.6],[70.1,51.7],[70.6,51.7],[70.6,51.8],[71.3,51.8],[71.3,51.9],[72.6,51.9],[72.6,51.8],[73.7,51.8],[73.7,51.7],[74.3,51.7],[74.3,51.6],[75.0,51.6],[75.0,51.5],[75.6,51.5],[75.6,51.4],[77.6,51.4],[77.6,51.5],[77.9,51.5],[77.9,51.4],[78.2,51.4],[78.2,51.3],[78.5,51.3],[78.5,51.2],[78.8,51.2],[78.8,51.1],[79.0,51.1],[79.0,51.0],[80.4,51.0],[80.4,50.9],[81.3,50.9],[81.3,51.0],[82.5,51.0],[82.5,51.1],[82.9,51.1],[82.9,51.2],[83.4,51.2],[83.4,51.3],[83.9,51.3],[83.9,51.4],[84.5,51.4],[84.5,51.5],[84.9,51.5],[84.9,51.6],[85.3,51.6],[85.3,51.7],[85.7,51.7],[85.7,51.8],[86.3,51.8],[86.3,51.9],[86.9,51.9],[86.9,52.0],[87.1,52.0],[87.1,52.1],[87.2,52.1],[87.2,52.2],[87.4,52.2],[87.4,52.3],[87.7,52.3],[87.7,52.4],[88.1,52.4],[88.1,52.5],[88.2,52.5],[88.2,52.6],[88.4,52.6],[88.4,52.7],[88.6,52.7],[88.6,52.8],[88.9,52.8],[88.9,52.9],[89.2,52.9],[89.2,53.0],[89.8,53.0],[89.8,53.1],[90.0,53.1]]]},"properties":{"tile_id":"50","start_year":1644,"end_year":1697,"source_image":"data/raw/toolbay/t/50/1644.png","source_url":"https://www.toolbay.cc/history-map/t/50/1644.png","source_color":"#ff66ff","polity_id":null,"polity_assignment":"unverified","geometry_origin":"raster_color_trace","pixel_size_degrees":0.1,"source_color_pixels":100121,"simplification_degrees":0}}]}
