{"type":"FeatureCollection","features":[{"type":"Feature","id":"50:1697:#00ff00","bbox":[60.9,45.0,63.7,47.9],"geometry":{"type":"Polygon","coordinates":[[[62.9,47.9],[62.7,47.9],[62.7,47.8],[62.6,47.8],[62.6,47.7],[62.4,47.7],[62.4,47.6],[62.3,47.6],[62.3,47.5],[62.2,47.5],[62.2,47.4],[62.1,47.4],[62.1,47.3],[62.0,47.3],[62.0,47.2],[61.8,47.2],[61.8,47.1],[61.7,47.1],[61.7,47.0],[61.6,47.0],[61.6,46.9],[61.5,46.9],[61.5,46.8],[61.3,46.8],[61.3,46.4],[61.2,46.4],[61.2,46.2],[61.1,46.2],[61.1,46.1],[61.0,46.1],[61.0,46.0],[60.9,46.0],[60.9,45.6],[61.0,45.6],[61.0,45.5],[61.1,45.5],[61.1,45.4],[61.2,45.4],[61.2,45.2],[61.3,45.2],[61.3,45.1],[61.4,45.1],[61.4,45.0],[63.7,45.0],[63.7,46.1],[63.6,46.1],[63.6,46.6],[63.5,46.6],[63.5,46.7],[63.4,46.7],[63.4,46.9],[63.3,46.9],[63.3,47.0],[63.2,47.0],[63.2,47.2],[63.1,47.2],[63.1,47.4],[63.0,47.4],[63.0,47.6],[62.9,47.6],[62.9,47.9]]]},"properties":{"tile_id":"50","start_year":1697,"end_year":1756,"source_image":"data/raw/toolbay/t/50/1697.png","source_url":"https://www.toolbay.cc/history-map/t/50/1697.png","source_color":"#00ff00","polity_id":null,"polity_assignment":"unverified","geometry_origin":"raster_color_trace","pixel_size_degrees":0.1,"source_color_pixels":562,"simplification_degrees":0}},{"type":"Feature","id":"50:1697:#00ff99","bbox":[73.7,45.0,89.9,51.0],"geometry":{"type":"Polygon","coordinates":[[[87.0,51.0],[86.6,51.0],[86.6,50.9],[86.2,50.9],[86.2,50.8],[86.0,50.8],[86.0,50.7],[85.6,50.7],[85.6,50.6],[85.2,50.6],[85.2,50.5],[84.7,50.5],[84.7,50.4],[84.4,50.4],[84.4,50.3],[83.8,50.3],[83.8,50.2],[83.6,50.2],[83.6,50.1],[83.4,50.1],[83.4,50.0],[83.1,50.0],[83.1,49.9],[83.0,49.9],[83.0,49.8],[82.8,49.8],[82.8,49.7],[82.7,49.7],[82.7,49.6],[82.5,49.6],[82.5,49.5],[82.4,49.5],[82.4,49.4],[82.3,49.4],[82.3,49.3],[82.1,49.3],[82.1,49.2],[82.0,49.2],[82.0,49.1],[81.8,49.1],[81.8,49.0],[81.7,49.0],[81.7,48.9],[81.3,48.9],[81.3,48.8],[81.0,48.8],[81.0,48.7],[80.8,48.7],[80.8,48.6],[80.5,48.6],[80.5,48.5],[80.3,48.5],[80.3,48.4],[80.0,48.4],[80.0,48.3],[79.7,48.3],[79.7,48.2],[79.4,48.2],[79.4,48.1],[79.2,48.1],[79.2,48.0],[79.0,48.0],[79.0,47.9],[78.7,47.9],[78.7,47.8],[78.5,47.8],[78.5,47.7],[78.3,47.7],[78.3,47.6],[78.1,47.6],[78.1,47.5],[77.9,47.5],[77.9,47.4],[77.4,47.4],[77.4,47.3],[76.8,47.3],[76.8,47.2],[75.9,47.2],[75.9,47.1],[75.8,47.1],[75.8,46.6],[75.6,46.6],[75.6,46.5],[75.1,46.5],[75.1,46.6],[74.9,46.6],[74.9,46.5],[74.7,46.5],[74.7,46.3],[74.4,46.3],[74.4,46.2],[74.3,46.2],[74.3,46.1],[74.2,46.1],[74.2,46.0],[74.1,46.0],[74.1,45.7],[74.0,45.7],[74.0,45.5],[73.9,45.5],[73.9,45.3],[73.7,45.3],[73.7,45.0],[89.9,45.0],[89.9,45.1],[89.7,45.1],[89.7,45.2],[89.2,45.2],[89.2,45.3],[89.0,45.3],[89.0,45.4],[88.8,45.4],[88.8,45.5],[88.5,45.5],[88.5,45.7],[88.4,45.7],[88.4,45.9],[88.3,45.9],[88.3,46.1],[88.2,46.1],[88.2,46.4],[88.1,46.4],[88.1,46.6],[88.0,46.6],[88.0,46.9],[87.9,46.9],[87.9,47.5],[87.8,47.5],[87.8,47.6],[87.9,47.6],[87.9,48.3],[88.0,48.3],[88.0,48.5],[87.9,48.5],[87.9,48.8],[87.8,48.8],[87.8,49.3],[87.7,49.3],[87.7,49.7],[87.6,49.7],[87.6,50.0],[87.5,50.0],[87.5,50.2],[87.4,50.2],[87.4,50.4],[87.3,50.4],[87.3,50.7],[87.2,50.7],[87.2,50.8],[87.1,50.8],[87.1,50.9],[87.0,50.9],[87.0,51.0]]]},"properties":{"tile_id":"50","start_year":1697,"end_year":1756,"source_image":"data/raw/toolbay/t/50/1697.png","source_url":"https://www.toolbay.cc/history-map/t/50/1697.png","source_color":"#00ff99","polity_id":null,"polity_assignment":"unverified","geometry_origin":"raster_color_trace","pixel_size_degrees":0.1,"source_color_pixels":5330,"simplification_degrees":0}},{"type":"Feature","id":"50:1697:#ff0000","bbox":[62.9,45.0,75.9,51.7],"geometry":{"type":"Polygon","coordinates":[[[70.7,51.7],[70.1,51.7],[70.1,51.6],[69.6,51.6],[69.6,51.5],[69.0,51.5],[69.0,51.4],[68.7,51.4],[68.7,51.3],[68.3,51.3],[68.3,51.2],[68.0,51.2],[68.0,51.1],[67.8,51.1],[67.8,51.0],[67.4,51.0],[67.4,50.9],[67.2,50.9],[67.2,50.8],[67.0,50.8],[67.0,50.7],[66.8,50.7],[66.8,50.6],[66.6,50.6],[66.6,50.5],[66.4,50.5],[66.4,50.4],[66.3,50.4],[66.3,50.3],[66.1,50.3],[66.1,50.2],[66.0,50.2],[66.0,50.1],[65.7,50.1],[65.7,50.0],[65.6,50.0],[65.6,49.9],[65.4,49.9],[65.4,49.8],[65.1,49.8],[65.1,49.7],[65.0,49.7],[65.0,49.6],[64.8,49.6],[64.8,49.5],[64.7,49.5],[64.7,49.4],[64.5,49.4],[64.5,49.3],[64.3,49.3],[64.3,49.2],[64.2,49.2],[64.2,49.1],[64.1,49.1],[64.1,49.0],[63.9,49.0],[63.9,48.9],[63.8,48.9],[63.8,48.8],[63.7,48.8],[63.7,48.7],[63.5,48.7],[63.5,48.6],[63.4,48.6],[63.4,48.5],[63.3,48.5],[63.3,48.4],[63.2,48.4],[63.2,48.3],[63.1,48.3],[63.1,48.2],[63.0,48.2],[63.0,48.1],[62.9,48.1],[62.9,47.6],[63.0,47.6],[63.0,47.4],[63.1,47.4],[63.1,47.2],[63.2,47.2],[63.2,47.0],[63.3,47.0],[63.3,46.9],[63.4,46.9],[63.4,46.7],[63.5,46.7],[63.5,46.6],[63.6,46.6],[63.6,46.1],[63.7,46.1],[63.7,45.0],[73.7,45.0],[73.7,45.3],[73.5,45.3],[73.5,45.4],[73.4,45.4],[73.4,45.5],[73.3,45.5],[73.3,46.1],[73.4,46.1],[73.4,46.2],[73.5,46.2],[73.5,46.4],[73.7,46.4],[73.7,46.5],[73.9,46.5],[73.9,46.6],[74.1,46.6],[74.1,46.7],[74.4,46.7],[74.4,46.8],[74.5,46.8],[74.5,46.9],[75.8,46.9],[75.8,47.1],[75.9,47.1],[75.9,47.3],[75.8,47.3],[75.8,47.7],[75.7,47.7],[75.7,47.8],[75.6,47.8],[75.6,47.9],[75.5,47.9],[75.5,48.0],[75.4,48.0],[75.4,48.1],[75.3,48.1],[75.3,48.2],[75.2,48.2],[75.2,48.3],[75.1,48.3],[75.1,48.4],[75.0,48.4],[75.0,48.5],[74.9,48.5],[74.9,48.6],[74.8,48.6],[74.8,48.7],[74.7,48.7],[74.7,48.8],[74.6,48.8],[74.6,49.0],[74.4,49.0],[74.4,49.1],[74.3,49.1],[74.3,49.2],[74.1,49.2],[74.1,49.3],[74.0,49.3],[74.0,49.4],[73.9,49.4],[73.9,49.5],[73.8,49.5],[73.8,49.6],[73.6,49.6],[73.6,49.7],[73.5,49.7],[73.5,49.8],[73.4,49.8],[73.4,49.9],[73.3,49.9],[73.3,50.0],[73.2,50.0],[73.2,50.1],[73.0,50.1],[73.0,50.2],[72.9,50.2],[72.9,50.3],[72.7,50.3],[72.7,50.4],[72.5,50.4],[72.5,50.5],[72.4,50.5],[72.4,50.6],[72.3,50.6],[72.3,50.7],[72.2,50.7],[72.2,50.8],[72.1,50.8],[72.1,50.9],[72.0,50.9],[72.0,51.0],[71.8,51.0],[71.8,51.1],[71.7,51.1],[71.7,51.2],[71.6,51.2],[71.6,51.3],[71.4,51.3],[71.4,51.4],[71.3,51.4],[71.3,51.5],[71.0,51.5],[71.0,51.6],[70.7,51.6],[70.7,51.7]]]},"properties":{"tile_id":"50","start_year":1697,"end_year":1756,"source_image":"data/raw/toolbay/t/50/1697.png","source_url":"https://www.toolbay.cc/history-map/t/50/1697.png","source_color":"#ff0000","polity_id":null,"polity_assignment":"unverified","geometry_origin":"raster_color_trace","pixel_size_degrees":0.1,"source_color_pixels":6139,"simplification_degrees":0}},{"type":"Feature","id":"50:1697:#ff66ff","bbox":[60.0,46.2,90.0,65.0],"geometry":{"type":"Polygon","coordinates":[[[90.0,51.7],[90.0,65.0],[60.0,65.0],[60.0,46.2],[60.5,46.2],[60.5,46.3],[60.6,46.3],[60.6,46.4],[60.5,46.4],[60.5,46.6],[60.6,46.6],[60.6,46.7],[60.8,46.7],[60.8,46.6],[60.9,46.6],[60.9,46.5],[61.2,46.5],[61.2,46.6],[61.3,46.6],[61.3,46.8],[61.5,46.8],[61.5,46.9],[61.6,46.9],[61.6,47.0],[61.7,47.0],[61.7,47.1],[61.8,47.1],[61.8,47.2],[62.0,47.2],[62.0,47.3],[62.1,47.3],[62.1,47.4],[62.2,47.4],[62.2,47.5],[62.3,47.5],[62.3,47.6],[62.4,47.6],[62.4,47.7],[62.6,47.7],[62.6,47.8],[62.7,47.8],[62.7,47.9],[62.9,47.9],[62.9,48.1],[63.0,48.1],[63.0,48.2],[63.1,48.2],[63.1,48.3],[63.2,48.3],[63.2,48.4],[63.3,48.4],[63.3,48.5],[63.4,48.5],[63.4,48.6],[63.5,48.6],[63.5,48.7],[63.7,48.7],[63.7,48.8],[63.8,48.8],[63.8,48.9],[63.9,48.9],[63.9,49.0],[64.1,49.0],[64.1,49.1],[64.2,49.1],[64.2,49.2],[64.3,49.2],[64.3,49.3],[64.5,49.3],[64.5,49.4],[64.7,49.4],[64.7,49.5],[64.8,49.5],[64.8,49.6],[65.0,49.6],[65.0,49.7],[65.1,49.7],[65.1,49.8],[65.4,49.8],[65.4,49.9],[65.6,49.9],[65.6,50.0],[65.7,50.0],[65.7,50.1],[66.0,50.1],[66.0,50.2],[66.1,50.2],[66.1,50.3],[66.3,50.3],[66.3,50.4],[66.4,50.4],[66.4,50.5],[66.6,50.5],[66.6,50.6],[66.8,50.6],[66.8,50.7],[67.0,50.7],[67.0,50.8],[67.2,50.8],[67.2,50.9],[67.4,50.9],[67.4,51.0],[67.8,51.0],[67.8,51.1],[68.0,51.1],[68.0,51.2],[68.3,51.2],[68.3,51.3],[68.7,51.3],[68.7,51.4],[69.0,51.4],[69.0,51.5],[69.6,51.5],[69.6,51.6],[70.1,51.6],[70.1,51.7],[70.7,51.7],[70.7,51.6],[71.0,51.6],[71.0,51.5],[71.3,51.5],[71.3,51.4],[71.4,51.4],[71.4,51.3],[71.6,51.3],[71.6,51.2],[71.7,51.2],[71.7,51.1],[71.8,51.1],[71.8,51.0],[72.0,51.0],[72.0,50.9],[72.1,50.9],[72.1,50.8],[72.2,50.8],[72.2,50.7],[72.3,50.7],[72.3,50.6],[72.4,50.6],[72.4,50.5],[72.5,50.5],[72.5,50.4],[72.7,50.4],[72.7,50.3],[72.9,50.3],[72.9,50.2],[73.0,50.2],[73.0,50.1],[73.2,50.1],[73.2,50.0],[73.3,50.0],[73.3,49.9],[73.4,49.9],[73.4,49.8],[73.5,49.8],[73.5,49.7],[73.6,49.7],[73.6,49.6],[73.8,49.6],[73.8,49.5],[73.9,49.5],[73.9,49.4],[74.0,49.4],[74.0,49.3],[74.1,49.3],[74.1,49.2],[74.3,49.2],[74.3,49.1],[74.4,49.1],[74.4,49.0],[74.6,49.0],[74.6,48.8],[74.7,48.8],[74.7,48.7],[74.8,48.7],[74.8,48.6],[74.9,48.6],[74.9,48.5],[75.0,48.5],[75.0,48.4],[75.1,48.4],[75.1,48.3],[75.2,48.3],[75.2,48.2],[75.3,48.2],[75.3,48.1],[75.4,48.1],[75.4,48.0],[75.5,48.0],[75.5,47.9],[75.6,47.9],[75.6,47.8],[75.7,47.8],[75.7,47.7],[75.8,47.7],[75.8,47.3],[75.9,47.3],[75.9,47.2],[76.8,47.2],[76.8,47.3],[77.4,47.3],[77.4,47.4],[77.9,47.4],[77.9,47.5],[78.1,47.5],[78.1,47.6],[78.3,47.6],[78.3,47.7],[78.5,47.7],[78.5,47.8],[78.7,47.8],[78.7,47.9],[79.0,47.9],[79.0,48.0],[79.2,48.0],[79.2,48.1],[79.4,48.1],[79.4,48.2],[79.7,48.2],[79.7,48.3],[80.0,48.3],[80.0,48.4],[80.3,48.4],[80.3,48.5],[80.5,48.5],[80.5,48.6],[80.8,48.6],[80.8,48.7],[81.0,48.7],[81.0,48.8],[81.3,48.8],[81.3,48.9],[81.7,48.9],[81.7,49.0],[81.8,49.0],[81.8,49.1],[82.0,49.1],[82.0,49.2],[82.1,49.2],[82.1,49.3],[82.3,49.3],[82.3,49.4],[82.4,49.4],[82.4,49.5],[82.5,49.5],[82.5,49.6],[82.7,49.6],[82.7,49.7],[82.8,49.7],[82.8,49.8],[83.0,49.8],[83.0,49.9],[83.1,49.9],[83.1,50.0],[83.4,50.0],[83.4,50.1],[83.6,50.1],[83.6,50.2],[83.8,50.2],[83.8,50.3],[84.4,50.3],[84.4,50.4],[84.7,50.4],[84.7,50.5],[85.2,50.5],[85.2,50.6],[85.6,50.6],[85.6,50.7],[86.0,50.7],[86.0,50.8],[86.2,50.8],[86.2,50.9],[86.6,50.9],[86.6,51.0],[86.9,51.0],[86.9,51.1],[87.4,51.1],[87.4,51.2],[87.8,51.2],[87.8,51.3],[88.2,51.3],[88.2,51.4],[88.6,51.4],[88.6,51.5],[89.0,51.5],[89.0,51.6],[89.4,51.6],[89.4,51.7],[90.0,51.7]]]},"properties":{"tile_id":"50","start_year":1697,"end_year":1756,"source_image":"data/raw/toolbay/t/50/1697.png","source_url":"https://www.toolbay.cc/history-map/t/50/1697.png","source_color":"#ff66ff","polity_id":null,"polity_assignment":"unverified","geometry_origin":"raster_color_trace","pixel_size_degrees":0.1,"source_color_pixels":103999,"simplification_degrees":0}},{"type":"Feature","id":"50:1697:#ffff00","bbox":[86.9,45.0,90.0,51.7],"geometry":{"type":"Polygon","coordinates":[[[90.0,51.7],[89.4,51.7],[89.4,51.6],[89.0,51.6],[89.0,51.5],[88.6,51.5],[88.6,51.4],[88.2,51.4],[88.2,51.3],[87.8,51.3],[87.8,51.2],[87.4,51.2],[87.4,51.1],[86.9,51.1],[86.9,51.0],[87.0,51.0],[87.0,50.9],[87.1,50.9],[87.1,50.8],[87.2,50.8],[87.2,50.7],[87.3,50.7],[87.3,50.4],[87.4,50.4],[87.4,50.2],[87.5,50.2],[87.5,50.0],[87.6,50.0],[87.6,49.7],[87.7,49.7],[87.7,49.3],[87.8,49.3],[87.8,48.8],[87.9,48.8],[87.9,48.5],[88.0,48.5],[88.0,48.3],[87.9,48.3],[87.9,47.6],[87.8,47.6],[87.8,47.5],[87.9,47.5],[87.9,46.9],[88.0,46.9],[88.0,46.6],[88.1,46.6],[88.1,46.4],[88.2,46.4],[88.2,46.1],[88.3,46.1],[88.3,45.9],[88.4,45.9],[88.4,45.7],[88.5,45.7],[88.5,45.5],[88.8,45.5],[88.8,45.4],[89.0,45.4],[89.0,45.3],[89.2,45.3],[89.2,45.2],[89.7,45.2],[89.7,45.1],[89.9,45.1],[89.9,45.0],[90.0,45.0],[90.0,51.7]]]},"properties":{"tile_id":"50","start_year":1697,"end_year":1756,"source_image":"data/raw/toolbay/t/50/1697.png","source_url":"https://www.toolbay.cc/history-map/t/50/1697.png","source_color":"#ffff00","polity_id":null,"polity_assignment":"unverified","geometry_origin":"raster_color_trace","pixel_size_degrees":0.1,"source_color_pixels":1351,"simplification_degrees":0}}]}
