{"type":"FeatureCollection","features":[{"type":"Feature","id":"50:1864:#ff0000","bbox":[73.7,45.0,87.3,50.4],"geometry":{"type":"Polygon","coordinates":[[[84.5,50.4],[84.4,50.4],[84.4,50.3],[83.8,50.3],[83.8,50.2],[83.6,50.2],[83.6,50.1],[83.4,50.1],[83.4,50.0],[83.1,50.0],[83.1,49.9],[83.0,49.9],[83.0,49.8],[82.8,49.8],[82.8,49.7],[82.7,49.7],[82.7,49.6],[82.5,49.6],[82.5,49.5],[82.4,49.5],[82.4,49.4],[82.3,49.4],[82.3,49.3],[82.1,49.3],[82.1,49.2],[82.0,49.2],[82.0,49.1],[81.8,49.1],[81.8,49.0],[81.7,49.0],[81.7,48.9],[81.3,48.9],[81.3,48.8],[81.0,48.8],[81.0,48.7],[80.8,48.7],[80.8,48.6],[80.5,48.6],[80.5,48.5],[80.3,48.5],[80.3,48.4],[80.0,48.4],[80.0,48.3],[79.7,48.3],[79.7,48.2],[79.4,48.2],[79.4,48.1],[79.2,48.1],[79.2,48.0],[79.0,48.0],[79.0,47.9],[78.7,47.9],[78.7,47.8],[78.5,47.8],[78.5,47.7],[78.3,47.7],[78.3,47.6],[78.1,47.6],[78.1,47.5],[77.9,47.5],[77.9,47.4],[77.4,47.4],[77.4,47.3],[76.8,47.3],[76.8,47.2],[75.9,47.2],[75.9,47.1],[75.8,47.1],[75.8,46.6],[75.6,46.6],[75.6,46.5],[75.1,46.5],[75.1,46.6],[74.9,46.6],[74.9,46.5],[74.7,46.5],[74.7,46.3],[74.4,46.3],[74.4,46.2],[74.3,46.2],[74.3,46.1],[74.2,46.1],[74.2,46.0],[74.1,46.0],[74.1,45.7],[74.0,45.7],[74.0,45.5],[73.9,45.5],[73.9,45.3],[73.7,45.3],[73.7,45.0],[87.2,45.0],[87.2,45.4],[87.3,45.4],[87.3,46.1],[87.2,46.1],[87.2,46.5],[87.1,46.5],[87.1,46.7],[87.0,46.7],[87.0,47.0],[86.9,47.0],[86.9,47.2],[86.8,47.2],[86.8,47.5],[86.7,47.5],[86.7,47.6],[86.6,47.6],[86.6,47.7],[86.5,47.7],[86.5,47.8],[86.4,47.8],[86.4,48.0],[86.3,48.0],[86.3,48.1],[86.2,48.1],[86.2,48.2],[86.1,48.2],[86.1,48.3],[86.0,48.3],[86.0,48.4],[85.9,48.4],[85.9,48.5],[85.8,48.5],[85.8,48.6],[85.7,48.6],[85.7,48.7],[85.6,48.7],[85.6,48.8],[85.5,48.8],[85.5,49.0],[85.4,49.0],[85.4,49.1],[85.3,49.1],[85.3,49.2],[85.2,49.2],[85.2,49.4],[85.1,49.4],[85.1,49.5],[85.0,49.5],[85.0,49.7],[84.9,49.7],[84.9,49.9],[84.8,49.9],[84.8,50.0],[84.7,50.0],[84.7,50.1],[84.6,50.1],[84.6,50.2],[84.5,50.2],[84.5,50.4]]]},"properties":{"tile_id":"50","start_year":1864,"end_year":1876,"source_image":"data/raw/toolbay/t/50/1864.png","source_url":"https://www.toolbay.cc/history-map/t/50/1864.png","source_color":"#ff0000","polity_id":null,"polity_assignment":"unverified","geometry_origin":"raster_color_trace","pixel_size_degrees":0.1,"source_color_pixels":4281,"simplification_degrees":0}},{"type":"Feature","id":"50:1864:#ff66ff","bbox":[60.0,45.0,90.0,65.0],"geometry":{"type":"Polygon","coordinates":[[[90.0,51.7],[90.0,65.0],[60.0,65.0],[60.0,46.2],[60.5,46.2],[60.5,46.3],[60.6,46.3],[60.6,46.4],[60.5,46.4],[60.5,46.6],[60.6,46.6],[60.6,46.7],[60.8,46.7],[60.8,46.6],[60.9,46.6],[60.9,46.5],[61.2,46.5],[61.2,46.6],[61.3,46.6],[61.3,46.4],[61.2,46.4],[61.2,46.2],[61.1,46.2],[61.1,46.1],[61.0,46.1],[61.0,46.0],[60.9,46.0],[60.9,45.6],[61.0,45.6],[61.0,45.5],[61.1,45.5],[61.1,45.4],[61.2,45.4],[61.2,45.2],[61.3,45.2],[61.3,45.1],[61.4,45.1],[61.4,45.0],[73.7,45.0],[73.7,45.3],[73.5,45.3],[73.5,45.4],[73.4,45.4],[73.4,45.5],[73.3,45.5],[73.3,46.1],[73.4,46.1],[73.4,46.2],[73.5,46.2],[73.5,46.4],[73.7,46.4],[73.7,46.5],[73.9,46.5],[73.9,46.6],[74.1,46.6],[74.1,46.7],[74.4,46.7],[74.4,46.8],[74.5,46.8],[74.5,46.9],[75.8,46.9],[75.8,47.1],[75.9,47.1],[75.9,47.2],[76.8,47.2],[76.8,47.3],[77.4,47.3],[77.4,47.4],[77.9,47.4],[77.9,47.5],[78.1,47.5],[78.1,47.6],[78.3,47.6],[78.3,47.7],[78.5,47.7],[78.5,47.8],[78.7,47.8],[78.7,47.9],[79.0,47.9],[79.0,48.0],[79.2,48.0],[79.2,48.1],[79.4,48.1],[79.4,48.2],[79.7,48.2],[79.7,48.3],[80.0,48.3],[80.0,48.4],[80.3,48.4],[80.3,48.5],[80.5,48.5],[80.5,48.6],[80.8,48.6],[80.8,48.7],[81.0,48.7],[81.0,48.8],[81.3,48.8],[81.3,48.9],[81.7,48.9],[81.7,49.0],[81.8,49.0],[81.8,49.1],[82.0,49.1],[82.0,49.2],[82.1,49.2],[82.1,49.3],[82.3,49.3],[82.3,49.4],[82.4,49.4],[82.4,49.5],[82.5,49.5],[82.5,49.6],[82.7,49.6],[82.7,49.7],[82.8,49.7],[82.8,49.8],[83.0,49.8],[83.0,49.9],[83.1,49.9],[83.1,50.0],[83.4,50.0],[83.4,50.1],[83.6,50.1],[83.6,50.2],[83.8,50.2],[83.8,50.3],[84.4,50.3],[84.4,50.4],[84.7,50.4],[84.7,50.5],[85.2,50.5],[85.2,50.6],[85.6,50.6],[85.6,50.7],[86.0,50.7],[86.0,50.8],[86.2,50.8],[86.2,50.9],[86.6,50.9],[86.6,51.0],[86.9,51.0],[86.9,51.1],[87.4,51.1],[87.4,51.2],[87.8,51.2],[87.8,51.3],[88.2,51.3],[88.2,51.4],[88.6,51.4],[88.6,51.5],[89.0,51.5],[89.0,51.6],[89.4,51.6],[89.4,51.7],[90.0,51.7]]]},"properties":{"tile_id":"50","start_year":1864,"end_year":1876,"source_image":"data/raw/toolbay/t/50/1864.png","source_url":"https://www.toolbay.cc/history-map/t/50/1864.png","source_color":"#ff66ff","polity_id":null,"polity_assignment":"unverified","geometry_origin":"raster_color_trace","pixel_size_degrees":0.1,"source_color_pixels":110964,"simplification_degrees":0}},{"type":"Feature","id":"50:1864:#ffff00","bbox":[84.5,45.0,90.0,51.7],"geometry":{"type":"Polygon","coordinates":[[[90.0,51.7],[89.4,51.7],[89.4,51.6],[89.0,51.6],[89.0,51.5],[88.6,51.5],[88.6,51.4],[88.2,51.4],[88.2,51.3],[87.8,51.3],[87.8,51.2],[87.4,51.2],[87.4,51.1],[86.9,51.1],[86.9,51.0],[86.6,51.0],[86.6,50.9],[86.2,50.9],[86.2,50.8],[86.0,50.8],[86.0,50.7],[85.6,50.7],[85.6,50.6],[85.2,50.6],[85.2,50.5],[84.7,50.5],[84.7,50.4],[84.5,50.4],[84.5,50.2],[84.6,50.2],[84.6,50.1],[84.7,50.1],[84.7,50.0],[84.8,50.0],[84.8,49.9],[84.9,49.9],[84.9,49.7],[85.0,49.7],[85.0,49.5],[85.1,49.5],[85.1,49.4],[85.2,49.4],[85.2,49.2],[85.3,49.2],[85.3,49.1],[85.4,49.1],[85.4,49.0],[85.5,49.0],[85.5,48.8],[85.6,48.8],[85.6,48.7],[85.7,48.7],[85.7,48.6],[85.8,48.6],[85.8,48.5],[85.9,48.5],[85.9,48.4],[86.0,48.4],[86.0,48.3],[86.1,48.3],[86.1,48.2],[86.2,48.2],[86.2,48.1],[86.3,48.1],[86.3,48.0],[86.4,48.0],[86.4,47.8],[86.5,47.8],[86.5,47.7],[86.6,47.7],[86.6,47.6],[86.7,47.6],[86.7,47.5],[86.8,47.5],[86.8,47.2],[86.9,47.2],[86.9,47.0],[87.0,47.0],[87.0,46.7],[87.1,46.7],[87.1,46.5],[87.2,46.5],[87.2,46.1],[87.3,46.1],[87.3,45.4],[87.2,45.4],[87.2,45.0],[90.0,45.0],[90.0,51.7]]]},"properties":{"tile_id":"50","start_year":1864,"end_year":1876,"source_image":"data/raw/toolbay/t/50/1864.png","source_url":"https://www.toolbay.cc/history-map/t/50/1864.png","source_color":"#ffff00","polity_id":null,"polity_assignment":"unverified","geometry_origin":"raster_color_trace","pixel_size_degrees":0.1,"source_color_pixels":2400,"simplification_degrees":0}}]}
