{"type":"FeatureCollection","features":[{"type":"Feature","id":"50:1920:#996600","bbox":[60.0,45.0,85.9,55.0],"geometry":{"type":"Polygon","coordinates":[[[60.1,50.0],[60.0,50.0],[60.0,49.8],[60.0,46.2],[60.5,46.2],[60.5,46.3],[60.6,46.3],[60.6,46.4],[60.5,46.4],[60.5,46.6],[60.6,46.6],[60.6,46.7],[60.8,46.7],[60.8,46.6],[60.9,46.6],[60.9,46.5],[61.2,46.5],[61.2,46.6],[61.3,46.6],[61.3,46.4],[61.2,46.4],[61.2,46.2],[61.1,46.2],[61.1,46.1],[61.0,46.1],[61.0,46.0],[60.9,46.0],[60.9,45.6],[61.0,45.6],[61.0,45.5],[61.1,45.5],[61.1,45.4],[61.2,45.4],[61.2,45.2],[61.3,45.2],[61.3,45.1],[61.4,45.1],[61.4,45.0],[79.1,45.0],[79.1,45.4],[79.0,45.4],[79.0,45.6],[79.1,45.6],[79.1,45.8],[79.3,45.8],[79.3,45.9],[79.6,45.9],[79.6,46.0],[79.9,46.0],[79.9,46.1],[80.4,46.1],[80.4,46.2],[80.7,46.2],[80.7,46.3],[80.8,46.3],[80.8,46.5],[80.9,46.5],[80.9,46.6],[81.0,46.6],[81.0,46.7],[81.1,46.7],[81.1,46.8],[81.2,46.8],[81.2,46.9],[81.3,46.9],[81.3,47.1],[81.5,47.1],[81.5,47.3],[81.6,47.3],[81.6,47.4],[81.8,47.4],[81.8,47.5],[81.9,47.5],[81.9,47.6],[82.0,47.6],[82.0,47.7],[82.2,47.7],[82.2,47.8],[82.3,47.8],[82.3,47.9],[82.5,47.9],[82.5,48.0],[82.6,48.0],[82.6,48.1],[82.7,48.1],[82.7,48.2],[82.9,48.2],[82.9,48.3],[83.0,48.3],[83.0,48.4],[83.2,48.4],[83.2,48.5],[83.3,48.5],[83.3,48.6],[83.4,48.6],[83.4,48.7],[83.5,48.7],[83.5,48.8],[83.6,48.8],[83.6,48.9],[83.8,48.9],[83.8,49.0],[84.0,49.0],[84.0,49.1],[84.1,49.1],[84.1,49.2],[84.2,49.2],[84.2,49.3],[84.3,49.3],[84.3,49.4],[84.5,49.4],[84.5,49.5],[84.6,49.5],[84.6,49.6],[84.7,49.6],[84.7,49.7],[84.8,49.7],[84.8,49.8],[84.9,49.8],[84.9,49.9],[85.1,49.9],[85.1,50.0],[85.2,50.0],[85.2,50.1],[85.3,50.1],[85.3,50.2],[85.5,50.2],[85.5,50.3],[85.6,50.3],[85.6,50.4],[85.7,50.4],[85.7,50.5],[85.8,50.5],[85.8,50.6],[85.9,50.6],[85.9,50.8],[85.8,50.8],[85.8,50.9],[85.7,50.9],[85.7,51.0],[85.5,51.0],[85.5,51.1],[85.4,51.1],[85.4,51.2],[85.2,51.2],[85.2,51.3],[85.1,51.3],[85.1,51.4],[85.0,51.4],[85.0,51.5],[84.9,51.5],[84.9,51.6],[84.7,51.6],[84.7,51.7],[84.5,51.7],[84.5,51.8],[84.3,51.8],[84.3,51.9],[84.1,51.9],[84.1,52.0],[84.0,52.0],[84.0,52.1],[83.1,52.1],[83.1,52.0],[82.5,52.0],[82.5,51.9],[82.3,51.9],[82.3,51.8],[81.9,51.8],[81.9,51.7],[81.8,51.7],[81.8,51.6],[81.3,51.6],[81.3,51.7],[81.0,51.7],[81.0,51.9],[80.9,51.9],[80.9,52.0],[80.8,52.0],[80.8,52.1],[80.7,52.1],[80.7,52.3],[80.5,52.3],[80.5,52.5],[80.3,52.5],[80.3,52.6],[80.2,52.6],[80.2,52.7],[80.1,52.7],[80.1,52.8],[80.0,52.8],[80.0,52.9],[79.9,52.9],[79.9,53.0],[79.7,53.0],[79.7,53.1],[79.6,53.1],[79.6,53.3],[79.4,53.3],[79.4,53.4],[79.3,53.4],[79.3,53.5],[79.2,53.5],[79.2,53.6],[79.1,53.6],[79.1,53.7],[78.9,53.7],[78.9,53.8],[78.7,53.8],[78.7,53.9],[78.5,53.9],[78.5,54.0],[78.4,54.0],[78.4,54.1],[78.1,54.1],[78.1,54.2],[78.0,54.2],[78.0,54.3],[77.8,54.3],[77.8,54.4],[77.7,54.4],[77.7,54.5],[77.5,54.5],[77.5,54.6],[77.3,54.6],[77.3,54.7],[77.1,54.7],[77.1,54.8],[76.8,54.8],[76.8,54.9],[76.5,54.9],[76.5,55.0],[76.0,55.0],[76.0,54.9],[75.7,54.9],[75.7,54.8],[75.5,54.8],[75.5,54.7],[75.3,54.7],[75.3,54.6],[75.2,54.6],[75.2,54.5],[75.0,54.5],[75.0,54.4],[74.9,54.4],[74.9,54.3],[74.6,54.3],[74.6,54.2],[74.2,54.2],[74.2,54.3],[73.7,54.3],[73.7,54.4],[73.2,54.4],[73.2,54.5],[72.6,54.5],[72.6,54.6],[71.1,54.6],[71.1,54.5],[70.1,54.5],[70.1,54.4],[69.2,54.4],[69.2,54.3],[68.8,54.3],[68.8,54.2],[68.4,54.2],[68.4,54.1],[68.1,54.1],[68.1,54.0],[67.8,54.0],[67.8,53.9],[67.5,53.9],[67.5,53.8],[67.3,53.8],[67.3,53.7],[67.1,53.7],[67.1,53.6],[66.9,53.6],[66.9,53.5],[66.7,53.5],[66.7,53.4],[66.5,53.4],[66.5,53.3],[66.3,53.3],[66.3,53.2],[66.1,53.2],[66.1,53.1],[65.9,53.1],[65.9,53.0],[65.7,53.0],[65.7,52.9],[65.5,52.9],[65.5,52.8],[65.3,52.8],[65.3,52.7],[64.3,52.7],[64.3,52.6],[64.0,52.6],[64.0,52.5],[63.8,52.5],[63.8,52.4],[63.7,52.4],[63.7,52.3],[63.3,52.3],[63.3,52.2],[63.0,52.2],[63.0,52.1],[62.7,52.1],[62.7,52.0],[62.4,52.0],[62.4,51.9],[62.2,51.9],[62.2,51.8],[62.1,51.8],[62.1,51.7],[61.9,51.7],[61.9,51.6],[61.7,51.6],[61.7,51.5],[61.6,51.5],[61.6,51.4],[61.4,51.4],[61.4,51.3],[61.2,51.3],[61.2,51.2],[61.1,51.2],[61.1,51.1],[61.0,51.1],[61.0,51.0],[60.8,51.0],[60.8,50.9],[60.7,50.9],[60.7,50.8],[60.6,50.8],[60.6,50.7],[60.4,50.7],[60.4,50.6],[60.3,50.6],[60.3,50.5],[60.2,50.5],[60.2,50.3],[60.1,50.3],[60.1,50.0]],[[74.5,46.8],[74.5,46.9],[75.8,46.9],[75.8,46.6],[75.6,46.6],[75.6,46.5],[75.1,46.5],[75.1,46.6],[74.9,46.6],[74.9,46.5],[74.7,46.5],[74.7,46.3],[74.4,46.3],[74.4,46.2],[74.3,46.2],[74.3,46.1],[74.2,46.1],[74.2,46.0],[74.1,46.0],[74.1,45.7],[74.0,45.7],[74.0,45.5],[73.9,45.5],[73.9,45.3],[73.5,45.3],[73.5,45.4],[73.4,45.4],[73.4,45.5],[73.3,45.5],[73.3,46.1],[73.4,46.1],[73.4,46.2],[73.5,46.2],[73.5,46.4],[73.7,46.4],[73.7,46.5],[73.9,46.5],[73.9,46.6],[74.1,46.6],[74.1,46.7],[74.4,46.7],[74.4,46.8],[74.5,46.8]]]},"properties":{"tile_id":"50","start_year":1920,"end_year":1921,"source_image":"data/raw/toolbay/t/50/1920.png","source_url":"https://www.toolbay.cc/history-map/t/50/1920.png","source_color":"#996600","polity_id":null,"polity_assignment":"unverified","geometry_origin":"raster_color_trace","pixel_size_degrees":0.1,"source_color_pixels":23478,"simplification_degrees":0}},{"type":"Feature","id":"50:1920:#ff66ff","bbox":[60.0,50.0,90.0,65.0],"geometry":{"type":"Polygon","coordinates":[[[90.0,51.7],[90.0,65.0],[60.0,65.0],[60.0,50.0],[60.1,50.0],[60.1,50.3],[60.2,50.3],[60.2,50.5],[60.3,50.5],[60.3,50.6],[60.4,50.6],[60.4,50.7],[60.6,50.7],[60.6,50.8],[60.7,50.8],[60.7,50.9],[60.8,50.9],[60.8,51.0],[61.0,51.0],[61.0,51.1],[61.1,51.1],[61.1,51.2],[61.2,51.2],[61.2,51.3],[61.4,51.3],[61.4,51.4],[61.6,51.4],[61.6,51.5],[61.7,51.5],[61.7,51.6],[61.9,51.6],[61.9,51.7],[62.1,51.7],[62.1,51.8],[62.2,51.8],[62.2,51.9],[62.4,51.9],[62.4,52.0],[62.7,52.0],[62.7,52.1],[63.0,52.1],[63.0,52.2],[63.3,52.2],[63.3,52.3],[63.7,52.3],[63.7,52.4],[63.8,52.4],[63.8,52.5],[64.0,52.5],[64.0,52.6],[64.3,52.6],[64.3,52.7],[65.3,52.7],[65.3,52.8],[65.5,52.8],[65.5,52.9],[65.7,52.9],[65.7,53.0],[65.9,53.0],[65.9,53.1],[66.1,53.1],[66.1,53.2],[66.3,53.2],[66.3,53.3],[66.5,53.3],[66.5,53.4],[66.7,53.4],[66.7,53.5],[66.9,53.5],[66.9,53.6],[67.1,53.6],[67.1,53.7],[67.3,53.7],[67.3,53.8],[67.5,53.8],[67.5,53.9],[67.8,53.9],[67.8,54.0],[68.1,54.0],[68.1,54.1],[68.4,54.1],[68.4,54.2],[68.8,54.2],[68.8,54.3],[69.2,54.3],[69.2,54.4],[70.1,54.4],[70.1,54.5],[71.1,54.5],[71.1,54.6],[72.6,54.6],[72.6,54.5],[73.2,54.5],[73.2,54.4],[73.7,54.4],[73.7,54.3],[74.2,54.3],[74.2,54.2],[74.6,54.2],[74.6,54.3],[74.9,54.3],[74.9,54.4],[75.0,54.4],[75.0,54.5],[75.2,54.5],[75.2,54.6],[75.3,54.6],[75.3,54.7],[75.5,54.7],[75.5,54.8],[75.7,54.8],[75.7,54.9],[76.0,54.9],[76.0,55.0],[76.5,55.0],[76.5,54.9],[76.8,54.9],[76.8,54.8],[77.1,54.8],[77.1,54.7],[77.3,54.7],[77.3,54.6],[77.5,54.6],[77.5,54.5],[77.7,54.5],[77.7,54.4],[77.8,54.4],[77.8,54.3],[78.0,54.3],[78.0,54.2],[78.1,54.2],[78.1,54.1],[78.4,54.1],[78.4,54.0],[78.5,54.0],[78.5,53.9],[78.7,53.9],[78.7,53.8],[78.9,53.8],[78.9,53.7],[79.1,53.7],[79.1,53.6],[79.2,53.6],[79.2,53.5],[79.3,53.5],[79.3,53.4],[79.4,53.4],[79.4,53.3],[79.6,53.3],[79.6,53.1],[79.7,53.1],[79.7,53.0],[79.9,53.0],[79.9,52.9],[80.0,52.9],[80.0,52.8],[80.1,52.8],[80.1,52.7],[80.2,52.7],[80.2,52.6],[80.3,52.6],[80.3,52.5],[80.5,52.5],[80.5,52.3],[80.7,52.3],[80.7,52.1],[80.8,52.1],[80.8,52.0],[80.9,52.0],[80.9,51.9],[81.0,51.9],[81.0,51.7],[81.3,51.7],[81.3,51.6],[81.8,51.6],[81.8,51.7],[81.9,51.7],[81.9,51.8],[82.3,51.8],[82.3,51.9],[82.5,51.9],[82.5,52.0],[83.1,52.0],[83.1,52.1],[84.0,52.1],[84.0,52.0],[84.1,52.0],[84.1,51.9],[84.3,51.9],[84.3,51.8],[84.5,51.8],[84.5,51.7],[84.7,51.7],[84.7,51.6],[84.9,51.6],[84.9,51.5],[85.0,51.5],[85.0,51.4],[85.1,51.4],[85.1,51.3],[85.2,51.3],[85.2,51.2],[85.4,51.2],[85.4,51.1],[85.5,51.1],[85.5,51.0],[85.7,51.0],[85.7,50.9],[85.8,50.9],[85.8,50.8],[85.9,50.8],[85.9,50.7],[86.1,50.7],[86.1,50.8],[86.2,50.8],[86.2,50.9],[86.6,50.9],[86.6,51.0],[86.9,51.0],[86.9,51.1],[87.4,51.1],[87.4,51.2],[87.8,51.2],[87.8,51.3],[88.2,51.3],[88.2,51.4],[88.6,51.4],[88.6,51.5],[89.0,51.5],[89.0,51.6],[89.4,51.6],[89.4,51.7],[90.0,51.7]]]},"properties":{"tile_id":"50","start_year":1920,"end_year":1921,"source_image":"data/raw/toolbay/t/50/1920.png","source_url":"https://www.toolbay.cc/history-map/t/50/1920.png","source_color":"#ff66ff","polity_id":null,"polity_assignment":"unverified","geometry_origin":"raster_color_trace","pixel_size_degrees":0.1,"source_color_pixels":90680,"simplification_degrees":0}},{"type":"Feature","id":"50:1920:#ff9933","bbox":[79.0,45.0,90.0,51.7],"geometry":{"type":"Polygon","coordinates":[[[90.0,51.7],[89.4,51.7],[89.4,51.6],[89.0,51.6],[89.0,51.5],[88.6,51.5],[88.6,51.4],[88.2,51.4],[88.2,51.3],[87.8,51.3],[87.8,51.2],[87.4,51.2],[87.4,51.1],[86.9,51.1],[86.9,51.0],[86.6,51.0],[86.6,50.9],[86.2,50.9],[86.2,50.8],[86.1,50.8],[86.1,50.7],[85.9,50.7],[85.9,50.6],[85.8,50.6],[85.8,50.5],[85.7,50.5],[85.7,50.4],[85.6,50.4],[85.6,50.3],[85.5,50.3],[85.5,50.2],[85.3,50.2],[85.3,50.1],[85.2,50.1],[85.2,50.0],[85.1,50.0],[85.1,49.9],[84.9,49.9],[84.9,49.8],[84.8,49.8],[84.8,49.7],[84.7,49.7],[84.7,49.6],[84.6,49.6],[84.6,49.5],[84.5,49.5],[84.5,49.4],[84.3,49.4],[84.3,49.3],[84.2,49.3],[84.2,49.2],[84.1,49.2],[84.1,49.1],[84.0,49.1],[84.0,49.0],[83.8,49.0],[83.8,48.9],[83.6,48.9],[83.6,48.8],[83.5,48.8],[83.5,48.7],[83.4,48.7],[83.4,48.6],[83.3,48.6],[83.3,48.5],[83.2,48.5],[83.2,48.4],[83.0,48.4],[83.0,48.3],[82.9,48.3],[82.9,48.2],[82.7,48.2],[82.7,48.1],[82.6,48.1],[82.6,48.0],[82.5,48.0],[82.5,47.9],[82.3,47.9],[82.3,47.8],[82.2,47.8],[82.2,47.7],[82.0,47.7],[82.0,47.6],[81.9,47.6],[81.9,47.5],[81.8,47.5],[81.8,47.4],[81.6,47.4],[81.6,47.3],[81.5,47.3],[81.5,47.1],[81.3,47.1],[81.3,46.9],[81.2,46.9],[81.2,46.8],[81.1,46.8],[81.1,46.7],[81.0,46.7],[81.0,46.6],[80.9,46.6],[80.9,46.5],[80.8,46.5],[80.8,46.3],[80.7,46.3],[80.7,46.2],[80.4,46.2],[80.4,46.1],[79.9,46.1],[79.9,46.0],[79.6,46.0],[79.6,45.9],[79.3,45.9],[79.3,45.8],[79.1,45.8],[79.1,45.6],[79.0,45.6],[79.0,45.4],[79.1,45.4],[79.1,45.0],[90.0,45.0],[90.0,51.7]]]},"properties":{"tile_id":"50","start_year":1920,"end_year":1921,"source_image":"data/raw/toolbay/t/50/1920.png","source_url":"https://www.toolbay.cc/history-map/t/50/1920.png","source_color":"#ff9933","polity_id":null,"polity_assignment":"unverified","geometry_origin":"raster_color_trace","pixel_size_degrees":0.1,"source_color_pixels":4594,"simplification_degrees":0}}]}
