{"type":"FeatureCollection","features":[{"type":"Feature","id":"50:1944:#006666","bbox":[86.0,45.0,90.0,51.7],"geometry":{"type":"Polygon","coordinates":[[[90.0,51.7],[89.4,51.7],[89.4,51.6],[89.0,51.6],[89.0,51.5],[88.6,51.5],[88.6,51.4],[88.2,51.4],[88.2,51.3],[87.8,51.3],[87.8,51.2],[87.4,51.2],[87.4,51.1],[86.9,51.1],[86.9,51.0],[86.6,51.0],[86.6,50.9],[86.2,50.9],[86.2,50.8],[86.0,50.8],[86.0,50.7],[86.1,50.7],[86.1,50.5],[86.2,50.5],[86.2,50.4],[86.3,50.4],[86.3,50.3],[86.4,50.3],[86.4,50.2],[86.5,50.2],[86.5,50.1],[86.6,50.1],[86.6,50.0],[86.8,50.0],[86.8,49.9],[87.0,49.9],[87.0,49.8],[87.1,49.8],[87.1,49.7],[87.2,49.7],[87.2,49.6],[87.3,49.6],[87.3,49.5],[87.5,49.5],[87.5,49.4],[87.7,49.4],[87.7,49.3],[88.0,49.3],[88.0,49.2],[88.2,49.2],[88.2,49.1],[88.3,49.1],[88.3,49.0],[88.4,49.0],[88.4,48.8],[88.5,48.8],[88.5,48.7],[88.6,48.7],[88.6,48.4],[88.7,48.4],[88.7,48.3],[88.8,48.3],[88.8,47.9],[88.9,47.9],[88.9,47.7],[89.0,47.7],[89.0,47.1],[88.9,47.1],[88.9,46.7],[88.8,46.7],[88.8,46.2],[88.9,46.2],[88.9,45.9],[89.0,45.9],[89.0,45.8],[89.2,45.8],[89.2,45.7],[89.3,45.7],[89.3,45.6],[89.5,45.6],[89.5,45.5],[89.6,45.5],[89.6,45.4],[89.7,45.4],[89.7,45.3],[89.8,45.3],[89.8,45.1],[89.9,45.1],[89.9,45.0],[90.0,45.0],[90.0,51.7]]]},"properties":{"tile_id":"50","start_year":1944,"end_year":1949,"source_image":"data/raw/toolbay/t/50/1944.png","source_url":"https://www.toolbay.cc/history-map/t/50/1944.png","source_color":"#006666","polity_id":null,"polity_assignment":"unverified","geometry_origin":"raster_color_trace","pixel_size_degrees":0.1,"source_color_pixels":1157,"simplification_degrees":0}},{"type":"Feature","id":"50:1944:#00ff00","bbox":[80.7,46.0,89.0,50.7],"geometry":{"type":"Polygon","coordinates":[[[86.1,50.7],[85.9,50.7],[85.9,50.6],[85.8,50.6],[85.8,50.5],[85.7,50.5],[85.7,50.4],[85.6,50.4],[85.6,50.3],[85.5,50.3],[85.5,50.2],[85.3,50.2],[85.3,50.1],[85.2,50.1],[85.2,50.0],[85.1,50.0],[85.1,49.9],[84.9,49.9],[84.9,49.8],[84.8,49.8],[84.8,49.7],[84.7,49.7],[84.7,49.6],[84.6,49.6],[84.6,49.5],[84.5,49.5],[84.5,49.4],[84.3,49.4],[84.3,49.3],[84.2,49.3],[84.2,49.2],[84.1,49.2],[84.1,49.1],[84.0,49.1],[84.0,49.0],[83.8,49.0],[83.8,48.9],[83.6,48.9],[83.6,48.8],[83.5,48.8],[83.5,48.7],[83.4,48.7],[83.4,48.6],[83.3,48.6],[83.3,48.5],[83.2,48.5],[83.2,48.4],[83.0,48.4],[83.0,48.3],[82.9,48.3],[82.9,48.2],[82.7,48.2],[82.7,48.1],[82.6,48.1],[82.6,48.0],[82.5,48.0],[82.5,47.9],[82.3,47.9],[82.3,47.8],[82.2,47.8],[82.2,47.7],[82.0,47.7],[82.0,47.6],[81.9,47.6],[81.9,47.5],[81.8,47.5],[81.8,47.4],[81.6,47.4],[81.6,47.3],[81.5,47.3],[81.5,47.1],[81.3,47.1],[81.3,46.9],[81.2,46.9],[81.2,46.8],[81.1,46.8],[81.1,46.7],[81.0,46.7],[81.0,46.6],[80.9,46.6],[80.9,46.5],[80.8,46.5],[80.8,46.3],[80.7,46.3],[80.7,46.1],[80.8,46.1],[80.8,46.0],[81.1,46.0],[81.1,46.1],[81.7,46.1],[81.7,46.0],[82.2,46.0],[82.2,46.1],[82.7,46.1],[82.7,46.2],[83.3,46.2],[83.3,46.1],[83.7,46.1],[83.7,46.2],[84.1,46.2],[84.1,46.3],[84.2,46.3],[84.2,46.4],[84.3,46.4],[84.3,46.5],[84.4,46.5],[84.4,46.8],[84.5,46.8],[84.5,46.9],[84.7,46.9],[84.7,47.0],[84.9,47.0],[84.9,47.1],[86.2,47.1],[86.2,47.0],[86.6,47.0],[86.6,46.9],[87.0,46.9],[87.0,46.8],[87.4,46.8],[87.4,46.7],[87.7,46.7],[87.7,46.6],[87.9,46.6],[87.9,46.5],[88.5,46.5],[88.5,46.4],[88.8,46.4],[88.8,46.7],[88.9,46.7],[88.9,47.1],[89.0,47.1],[89.0,47.7],[88.9,47.7],[88.9,47.9],[88.8,47.9],[88.8,48.3],[88.7,48.3],[88.7,48.4],[88.6,48.4],[88.6,48.7],[88.5,48.7],[88.5,48.8],[88.4,48.8],[88.4,49.0],[88.3,49.0],[88.3,49.1],[88.2,49.1],[88.2,49.2],[88.0,49.2],[88.0,49.3],[87.7,49.3],[87.7,49.4],[87.5,49.4],[87.5,49.5],[87.3,49.5],[87.3,49.6],[87.2,49.6],[87.2,49.7],[87.1,49.7],[87.1,49.8],[87.0,49.8],[87.0,49.9],[86.8,49.9],[86.8,50.0],[86.6,50.0],[86.6,50.1],[86.5,50.1],[86.5,50.2],[86.4,50.2],[86.4,50.3],[86.3,50.3],[86.3,50.4],[86.2,50.4],[86.2,50.5],[86.1,50.5],[86.1,50.7]]]},"properties":{"tile_id":"50","start_year":1944,"end_year":1949,"source_image":"data/raw/toolbay/t/50/1944.png","source_url":"https://www.toolbay.cc/history-map/t/50/1944.png","source_color":"#00ff00","polity_id":null,"polity_assignment":"unverified","geometry_origin":"raster_color_trace","pixel_size_degrees":0.1,"source_color_pixels":1973,"simplification_degrees":0}},{"type":"Feature","id":"50:1944:#ff66ff","bbox":[60.0,45.0,90.0,65.0],"geometry":{"type":"Polygon","coordinates":[[[90.0,51.7],[90.0,65.0],[60.0,65.0],[60.0,46.2],[60.5,46.2],[60.5,46.3],[60.6,46.3],[60.6,46.4],[60.5,46.4],[60.5,46.6],[60.6,46.6],[60.6,46.7],[60.8,46.7],[60.8,46.6],[60.9,46.6],[60.9,46.5],[61.2,46.5],[61.2,46.6],[61.3,46.6],[61.3,46.4],[61.2,46.4],[61.2,46.2],[61.1,46.2],[61.1,46.1],[61.0,46.1],[61.0,46.0],[60.9,46.0],[60.9,45.6],[61.0,45.6],[61.0,45.5],[61.1,45.5],[61.1,45.4],[61.2,45.4],[61.2,45.2],[61.3,45.2],[61.3,45.1],[61.4,45.1],[61.4,45.0],[79.1,45.0],[79.1,45.4],[79.0,45.4],[79.0,45.6],[79.1,45.6],[79.1,45.8],[79.3,45.8],[79.3,45.9],[79.6,45.9],[79.6,46.0],[79.9,46.0],[79.9,46.1],[80.4,46.1],[80.4,46.2],[80.7,46.2],[80.7,46.3],[80.8,46.3],[80.8,46.5],[80.9,46.5],[80.9,46.6],[81.0,46.6],[81.0,46.7],[81.1,46.7],[81.1,46.8],[81.2,46.8],[81.2,46.9],[81.3,46.9],[81.3,47.1],[81.5,47.1],[81.5,47.3],[81.6,47.3],[81.6,47.4],[81.8,47.4],[81.8,47.5],[81.9,47.5],[81.9,47.6],[82.0,47.6],[82.0,47.7],[82.2,47.7],[82.2,47.8],[82.3,47.8],[82.3,47.9],[82.5,47.9],[82.5,48.0],[82.6,48.0],[82.6,48.1],[82.7,48.1],[82.7,48.2],[82.9,48.2],[82.9,48.3],[83.0,48.3],[83.0,48.4],[83.2,48.4],[83.2,48.5],[83.3,48.5],[83.3,48.6],[83.4,48.6],[83.4,48.7],[83.5,48.7],[83.5,48.8],[83.6,48.8],[83.6,48.9],[83.8,48.9],[83.8,49.0],[84.0,49.0],[84.0,49.1],[84.1,49.1],[84.1,49.2],[84.2,49.2],[84.2,49.3],[84.3,49.3],[84.3,49.4],[84.5,49.4],[84.5,49.5],[84.6,49.5],[84.6,49.6],[84.7,49.6],[84.7,49.7],[84.8,49.7],[84.8,49.8],[84.9,49.8],[84.9,49.9],[85.1,49.9],[85.1,50.0],[85.2,50.0],[85.2,50.1],[85.3,50.1],[85.3,50.2],[85.5,50.2],[85.5,50.3],[85.6,50.3],[85.6,50.4],[85.7,50.4],[85.7,50.5],[85.8,50.5],[85.8,50.6],[85.9,50.6],[85.9,50.7],[86.0,50.7],[86.0,50.8],[86.2,50.8],[86.2,50.9],[86.6,50.9],[86.6,51.0],[86.9,51.0],[86.9,51.1],[87.4,51.1],[87.4,51.2],[87.8,51.2],[87.8,51.3],[88.2,51.3],[88.2,51.4],[88.6,51.4],[88.6,51.5],[89.0,51.5],[89.0,51.6],[89.4,51.6],[89.4,51.7],[90.0,51.7]],[[74.5,46.8],[74.5,46.9],[75.8,46.9],[75.8,46.6],[75.6,46.6],[75.6,46.5],[75.1,46.5],[75.1,46.6],[74.9,46.6],[74.9,46.5],[74.7,46.5],[74.7,46.3],[74.4,46.3],[74.4,46.2],[74.3,46.2],[74.3,46.1],[74.2,46.1],[74.2,46.0],[74.1,46.0],[74.1,45.7],[74.0,45.7],[74.0,45.5],[73.9,45.5],[73.9,45.3],[73.5,45.3],[73.5,45.4],[73.4,45.4],[73.4,45.5],[73.3,45.5],[73.3,46.1],[73.4,46.1],[73.4,46.2],[73.5,46.2],[73.5,46.4],[73.7,46.4],[73.7,46.5],[73.9,46.5],[73.9,46.6],[74.1,46.6],[74.1,46.7],[74.4,46.7],[74.4,46.8],[74.5,46.8]]]},"properties":{"tile_id":"50","start_year":1944,"end_year":1949,"source_image":"data/raw/toolbay/t/50/1944.png","source_url":"https://www.toolbay.cc/history-map/t/50/1944.png","source_color":"#ff66ff","polity_id":null,"polity_assignment":"unverified","geometry_origin":"raster_color_trace","pixel_size_degrees":0.1,"source_color_pixels":114158,"simplification_degrees":0}},{"type":"Feature","id":"50:1944:#ff9933","bbox":[79.0,45.0,89.9,47.1],"geometry":{"type":"Polygon","coordinates":[[[86.2,47.1],[84.9,47.1],[84.9,47.0],[84.7,47.0],[84.7,46.9],[84.5,46.9],[84.5,46.8],[84.4,46.8],[84.4,46.5],[84.3,46.5],[84.3,46.4],[84.2,46.4],[84.2,46.3],[84.1,46.3],[84.1,46.2],[83.7,46.2],[83.7,46.1],[83.3,46.1],[83.3,46.2],[82.7,46.2],[82.7,46.1],[82.2,46.1],[82.2,46.0],[81.7,46.0],[81.7,46.1],[81.1,46.1],[81.1,46.0],[80.8,46.0],[80.8,46.1],[80.7,46.1],[80.7,46.2],[80.4,46.2],[80.4,46.1],[79.9,46.1],[79.9,46.0],[79.6,46.0],[79.6,45.9],[79.3,45.9],[79.3,45.8],[79.1,45.8],[79.1,45.6],[79.0,45.6],[79.0,45.4],[79.1,45.4],[79.1,45.0],[89.9,45.0],[89.9,45.1],[89.8,45.1],[89.8,45.3],[89.7,45.3],[89.7,45.4],[89.6,45.4],[89.6,45.5],[89.5,45.5],[89.5,45.6],[89.3,45.6],[89.3,45.7],[89.2,45.7],[89.2,45.8],[89.0,45.8],[89.0,45.9],[88.9,45.9],[88.9,46.2],[88.8,46.2],[88.8,46.4],[88.5,46.4],[88.5,46.5],[87.9,46.5],[87.9,46.6],[87.7,46.6],[87.7,46.7],[87.4,46.7],[87.4,46.8],[87.0,46.8],[87.0,46.9],[86.6,46.9],[86.6,47.0],[86.2,47.0],[86.2,47.1]]]},"properties":{"tile_id":"50","start_year":1944,"end_year":1949,"source_image":"data/raw/toolbay/t/50/1944.png","source_url":"https://www.toolbay.cc/history-map/t/50/1944.png","source_color":"#ff9933","polity_id":null,"polity_assignment":"unverified","geometry_origin":"raster_color_trace","pixel_size_degrees":0.1,"source_color_pixels":1465,"simplification_degrees":0}}]}
