{"type":"FeatureCollection","features":[{"type":"Feature","id":"50:410:#009900","bbox":[60.0,45.0,80.2,52.1],"geometry":{"type":"Polygon","coordinates":[[[60.1,50.1],[60.0,50.1],[60.0,50.0],[60.0,46.2],[60.5,46.2],[60.5,46.3],[60.6,46.3],[60.6,46.4],[60.5,46.4],[60.5,46.6],[60.6,46.6],[60.6,46.7],[60.8,46.7],[60.8,46.6],[60.9,46.6],[60.9,46.5],[61.2,46.5],[61.2,46.6],[61.3,46.6],[61.3,46.4],[61.2,46.4],[61.2,46.2],[61.1,46.2],[61.1,46.1],[61.0,46.1],[61.0,46.0],[60.9,46.0],[60.9,45.6],[61.0,45.6],[61.0,45.5],[61.1,45.5],[61.1,45.4],[61.2,45.4],[61.2,45.2],[61.3,45.2],[61.3,45.1],[61.4,45.1],[61.4,45.0],[73.9,45.0],[73.9,45.1],[73.7,45.1],[73.7,45.3],[73.5,45.3],[73.5,45.4],[73.4,45.4],[73.4,45.5],[73.3,45.5],[73.3,46.1],[73.4,46.1],[73.4,46.2],[73.5,46.2],[73.5,46.4],[73.7,46.4],[73.7,46.5],[73.9,46.5],[73.9,46.6],[74.1,46.6],[74.1,46.7],[74.4,46.7],[74.4,46.8],[74.5,46.8],[74.5,46.9],[75.8,46.9],[75.8,46.8],[77.0,46.8],[77.0,46.9],[77.8,46.9],[77.8,47.0],[78.0,47.0],[78.0,47.1],[78.2,47.1],[78.2,47.2],[78.5,47.2],[78.5,47.3],[78.6,47.3],[78.6,47.4],[78.9,47.4],[78.9,47.5],[79.1,47.5],[79.1,47.6],[79.2,47.6],[79.2,47.8],[79.3,47.8],[79.3,47.9],[79.4,47.9],[79.4,48.0],[79.5,48.0],[79.5,48.1],[79.6,48.1],[79.6,48.3],[79.7,48.3],[79.7,48.4],[79.8,48.4],[79.8,48.5],[79.9,48.5],[79.9,48.7],[80.0,48.7],[80.0,48.8],[80.1,48.8],[80.1,49.6],[80.2,49.6],[80.2,50.4],[80.1,50.4],[80.1,50.7],[80.0,50.7],[80.0,50.9],[79.9,50.9],[79.9,51.0],[79.8,51.0],[79.8,51.1],[79.6,51.1],[79.6,51.0],[79.1,51.0],[79.1,50.9],[78.4,50.9],[78.4,51.0],[78.0,51.0],[78.0,51.1],[77.4,51.1],[77.4,51.2],[76.0,51.2],[76.0,51.3],[75.8,51.3],[75.8,51.4],[75.5,51.4],[75.5,51.5],[75.1,51.5],[75.1,51.6],[72.3,51.6],[72.3,51.5],[68.9,51.5],[68.9,51.6],[68.6,51.6],[68.6,51.7],[68.0,51.7],[68.0,51.8],[67.6,51.8],[67.6,51.9],[66.7,51.9],[66.7,52.0],[66.0,52.0],[66.0,52.1],[64.5,52.1],[64.5,52.0],[64.0,52.0],[64.0,51.9],[63.3,51.9],[63.3,51.8],[62.9,51.8],[62.9,51.7],[62.5,51.7],[62.5,51.6],[61.6,51.6],[61.6,51.5],[61.4,51.5],[61.4,51.4],[61.0,51.4],[61.0,51.3],[60.7,51.3],[60.7,51.1],[60.6,51.1],[60.6,51.0],[60.5,51.0],[60.5,50.8],[60.4,50.8],[60.4,50.6],[60.3,50.6],[60.3,50.4],[60.2,50.4],[60.2,50.2],[60.1,50.2],[60.1,50.1]]]},"properties":{"tile_id":"50","start_year":410,"end_year":449,"source_image":"data/raw/toolbay/t/50/410.png","source_url":"https://www.toolbay.cc/history-map/t/50/410.png","source_color":"#009900","polity_id":null,"polity_assignment":"unverified","geometry_origin":"raster_color_trace","pixel_size_degrees":0.1,"source_color_pixels":11941,"simplification_degrees":0}},{"type":"Feature","id":"50:410:#00ff00","bbox":[73.7,45.0,90.0,52.4],"geometry":{"type":"MultiPolygon","coordinates":[[[[76.8,46.6],[76.8,46.8],[75.9,46.8],[75.9,46.7],[75.8,46.7],[75.8,46.6],[75.6,46.6],[75.6,46.5],[75.1,46.5],[75.1,46.6],[74.9,46.6],[74.9,46.5],[74.7,46.5],[74.7,46.3],[74.4,46.3],[74.4,46.2],[74.3,46.2],[74.3,46.1],[74.2,46.1],[74.2,46.0],[74.1,46.0],[74.1,45.7],[74.0,45.7],[74.0,45.5],[73.9,45.5],[73.9,45.3],[73.7,45.3],[73.7,45.1],[73.9,45.1],[73.9,45.0],[75.7,45.0],[75.7,45.1],[75.9,45.1],[75.9,45.2],[76.1,45.2],[76.1,45.3],[76.2,45.3],[76.2,45.4],[76.3,45.4],[76.3,45.5],[76.4,45.5],[76.4,45.6],[76.5,45.6],[76.5,45.8],[76.6,45.8],[76.6,45.9],[76.7,45.9],[76.7,46.0],[76.8,46.0],[76.8,46.2],[76.9,46.2],[76.9,46.6],[76.8,46.6]]],[[[90.0,45.0],[90.0,52.4],[88.4,52.4],[88.4,52.3],[87.8,52.3],[87.8,52.2],[87.4,52.2],[87.4,52.1],[87.0,52.1],[87.0,52.0],[86.4,52.0],[86.4,51.9],[86.0,51.9],[86.0,51.8],[85.5,51.8],[85.5,51.7],[85.2,51.7],[85.2,51.6],[84.8,51.6],[84.8,51.5],[84.2,51.5],[84.2,51.4],[83.7,51.4],[83.7,51.3],[83.1,51.3],[83.1,51.2],[82.7,51.2],[82.7,51.1],[82.2,51.1],[82.2,51.0],[82.0,51.0],[82.0,50.9],[81.2,50.9],[81.2,51.0],[80.0,51.0],[80.0,50.7],[80.1,50.7],[80.1,50.4],[80.2,50.4],[80.2,49.7],[80.3,49.7],[80.3,49.8],[80.5,49.8],[80.5,49.7],[80.7,49.7],[80.7,49.6],[80.9,49.6],[80.9,49.5],[81.1,49.5],[81.1,49.4],[81.3,49.4],[81.3,49.3],[81.4,49.3],[81.4,49.1],[81.5,49.1],[81.5,49.0],[81.6,49.0],[81.6,48.9],[81.7,48.9],[81.7,48.7],[81.9,48.7],[81.9,48.6],[82.0,48.6],[82.0,48.5],[82.1,48.5],[82.1,48.3],[82.2,48.3],[82.2,48.1],[82.3,48.1],[82.3,47.7],[82.4,47.7],[82.4,47.5],[82.5,47.5],[82.5,46.7],[82.4,46.7],[82.4,46.6],[82.3,46.6],[82.3,46.5],[82.2,46.5],[82.2,46.4],[82.1,46.4],[82.1,46.3],[82.0,46.3],[82.0,46.2],[81.8,46.2],[81.8,46.1],[81.6,46.1],[81.6,46.0],[81.5,46.0],[81.5,45.9],[81.3,45.9],[81.3,45.8],[81.2,45.8],[81.2,45.7],[81.1,45.7],[81.1,45.6],[80.9,45.6],[80.9,45.5],[80.8,45.5],[80.8,45.4],[80.6,45.4],[80.6,45.3],[80.5,45.3],[80.5,45.1],[80.4,45.1],[80.4,45.0],[90.0,45.0]]]]},"properties":{"tile_id":"50","start_year":410,"end_year":449,"source_image":"data/raw/toolbay/t/50/410.png","source_url":"https://www.toolbay.cc/history-map/t/50/410.png","source_color":"#00ff00","polity_id":null,"polity_assignment":"unverified","geometry_origin":"raster_color_trace","pixel_size_degrees":0.1,"source_color_pixels":6188,"simplification_degrees":0}},{"type":"Feature","id":"50:410:#ff00ff","bbox":[75.7,45.0,82.5,49.8],"geometry":{"type":"Polygon","coordinates":[[[80.5,49.8],[80.3,49.8],[80.3,49.7],[80.2,49.7],[80.2,49.6],[80.1,49.6],[80.1,48.8],[80.0,48.8],[80.0,48.7],[79.9,48.7],[79.9,48.5],[79.8,48.5],[79.8,48.4],[79.7,48.4],[79.7,48.3],[79.6,48.3],[79.6,48.1],[79.5,48.1],[79.5,48.0],[79.4,48.0],[79.4,47.9],[79.3,47.9],[79.3,47.8],[79.2,47.8],[79.2,47.6],[79.1,47.6],[79.1,47.5],[78.9,47.5],[78.9,47.4],[78.6,47.4],[78.6,47.3],[78.5,47.3],[78.5,47.2],[78.2,47.2],[78.2,47.1],[78.0,47.1],[78.0,47.0],[77.8,47.0],[77.8,46.9],[77.0,46.9],[77.0,46.8],[76.8,46.8],[76.8,46.6],[76.9,46.6],[76.9,46.2],[76.8,46.2],[76.8,46.0],[76.7,46.0],[76.7,45.9],[76.6,45.9],[76.6,45.8],[76.5,45.8],[76.5,45.6],[76.4,45.6],[76.4,45.5],[76.3,45.5],[76.3,45.4],[76.2,45.4],[76.2,45.3],[76.1,45.3],[76.1,45.2],[75.9,45.2],[75.9,45.1],[75.7,45.1],[75.7,45.0],[80.4,45.0],[80.4,45.1],[80.5,45.1],[80.5,45.3],[80.6,45.3],[80.6,45.4],[80.8,45.4],[80.8,45.5],[80.9,45.5],[80.9,45.6],[81.1,45.6],[81.1,45.7],[81.2,45.7],[81.2,45.8],[81.3,45.8],[81.3,45.9],[81.5,45.9],[81.5,46.0],[81.6,46.0],[81.6,46.1],[81.8,46.1],[81.8,46.2],[82.0,46.2],[82.0,46.3],[82.1,46.3],[82.1,46.4],[82.2,46.4],[82.2,46.5],[82.3,46.5],[82.3,46.6],[82.4,46.6],[82.4,46.7],[82.5,46.7],[82.5,47.5],[82.4,47.5],[82.4,47.7],[82.3,47.7],[82.3,48.1],[82.2,48.1],[82.2,48.3],[82.1,48.3],[82.1,48.5],[82.0,48.5],[82.0,48.6],[81.9,48.6],[81.9,48.7],[81.7,48.7],[81.7,48.9],[81.6,48.9],[81.6,49.0],[81.5,49.0],[81.5,49.1],[81.4,49.1],[81.4,49.3],[81.3,49.3],[81.3,49.4],[81.1,49.4],[81.1,49.5],[80.9,49.5],[80.9,49.6],[80.7,49.6],[80.7,49.7],[80.5,49.7],[80.5,49.8]]]},"properties":{"tile_id":"50","start_year":410,"end_year":449,"source_image":"data/raw/toolbay/t/50/410.png","source_url":"https://www.toolbay.cc/history-map/t/50/410.png","source_color":"#ff00ff","polity_id":null,"polity_assignment":"unverified","geometry_origin":"raster_color_trace","pixel_size_degrees":0.1,"source_color_pixels":12941,"simplification_degrees":0}}]}
