{"type":"FeatureCollection","features":[{"type":"Feature","id":"50:487:#00ff00","bbox":[80.2,45.0,90.0,52.4],"geometry":{"type":"Polygon","coordinates":[[[90.0,52.4],[88.4,52.4],[88.4,52.3],[87.8,52.3],[87.8,52.2],[87.4,52.2],[87.4,52.1],[87.0,52.1],[87.0,52.0],[86.4,52.0],[86.4,51.9],[86.0,51.9],[86.0,51.8],[85.5,51.8],[85.5,51.7],[85.2,51.7],[85.2,51.6],[84.8,51.6],[84.8,51.5],[84.2,51.5],[84.2,51.4],[83.7,51.4],[83.7,51.3],[83.1,51.3],[83.1,51.2],[82.7,51.2],[82.7,51.1],[82.2,51.1],[82.2,51.0],[82.0,51.0],[82.0,50.9],[81.2,50.9],[81.2,51.0],[80.8,51.0],[80.8,50.9],[80.2,50.9],[80.2,50.8],[80.3,50.8],[80.3,50.7],[80.4,50.7],[80.4,50.6],[80.6,50.6],[80.6,50.5],[80.8,50.5],[80.8,50.4],[81.0,50.4],[81.0,50.3],[81.1,50.3],[81.1,50.2],[81.2,50.2],[81.2,50.1],[81.4,50.1],[81.4,50.0],[81.5,50.0],[81.5,49.9],[81.7,49.9],[81.7,49.8],[82.0,49.8],[82.0,49.7],[82.1,49.7],[82.1,49.6],[82.2,49.6],[82.2,49.5],[82.3,49.5],[82.3,49.4],[82.4,49.4],[82.4,49.2],[82.5,49.2],[82.5,49.1],[82.6,49.1],[82.6,49.0],[82.7,49.0],[82.7,48.9],[82.8,48.9],[82.8,48.7],[82.9,48.7],[82.9,48.6],[83.0,48.6],[83.0,48.5],[83.1,48.5],[83.1,48.4],[83.2,48.4],[83.2,48.3],[83.3,48.3],[83.3,48.1],[83.4,48.1],[83.4,48.0],[83.5,48.0],[83.5,47.9],[83.6,47.9],[83.6,47.8],[83.7,47.8],[83.7,47.7],[83.8,47.7],[83.8,47.6],[83.9,47.6],[83.9,47.5],[84.0,47.5],[84.0,47.3],[84.1,47.3],[84.1,47.0],[84.2,47.0],[84.2,46.9],[84.3,46.9],[84.3,46.7],[84.4,46.7],[84.4,46.6],[84.5,46.6],[84.5,46.5],[84.6,46.5],[84.6,46.4],[84.7,46.4],[84.7,46.3],[84.9,46.3],[84.9,46.2],[85.0,46.2],[85.0,46.1],[85.1,46.1],[85.1,46.0],[85.3,46.0],[85.3,45.9],[85.6,45.9],[85.6,45.8],[85.7,45.8],[85.7,45.7],[86.0,45.7],[86.0,45.6],[86.1,45.6],[86.1,45.5],[86.3,45.5],[86.3,45.4],[87.0,45.4],[87.0,45.3],[87.3,45.3],[87.3,45.2],[88.0,45.2],[88.0,45.1],[88.2,45.1],[88.2,45.0],[90.0,45.0],[90.0,52.4]]]},"properties":{"tile_id":"50","start_year":487,"end_year":516,"source_image":"data/raw/toolbay/t/50/487.png","source_url":"https://www.toolbay.cc/history-map/t/50/487.png","source_color":"#00ff00","polity_id":null,"polity_assignment":"unverified","geometry_origin":"raster_color_trace","pixel_size_degrees":0.1,"source_color_pixels":4545,"simplification_degrees":0}},{"type":"Feature","id":"50:487:#00ffff","bbox":[60.9,45.0,72.5,47.5],"geometry":{"type":"Polygon","coordinates":[[[66.9,47.5],[65.3,47.5],[65.3,47.4],[64.9,47.4],[64.9,47.3],[64.6,47.3],[64.6,47.2],[64.2,47.2],[64.2,47.1],[63.9,47.1],[63.9,47.0],[63.5,47.0],[63.5,46.9],[62.9,46.9],[62.9,46.8],[62.4,46.8],[62.4,46.7],[62.3,46.7],[62.3,46.6],[62.1,46.6],[62.1,46.5],[61.6,46.5],[61.6,46.6],[61.3,46.6],[61.3,46.4],[61.2,46.4],[61.2,46.2],[61.1,46.2],[61.1,46.1],[61.0,46.1],[61.0,46.0],[60.9,46.0],[60.9,45.6],[61.0,45.6],[61.0,45.5],[61.1,45.5],[61.1,45.4],[61.2,45.4],[61.2,45.2],[61.3,45.2],[61.3,45.1],[61.4,45.1],[61.4,45.0],[72.5,45.0],[72.5,45.1],[72.4,45.1],[72.4,45.3],[72.3,45.3],[72.3,45.5],[72.2,45.5],[72.2,45.7],[72.1,45.7],[72.1,45.8],[72.0,45.8],[72.0,45.9],[71.9,45.9],[71.9,46.0],[71.8,46.0],[71.8,46.1],[71.7,46.1],[71.7,46.2],[71.6,46.2],[71.6,46.3],[71.4,46.3],[71.4,46.4],[71.3,46.4],[71.3,46.5],[71.2,46.5],[71.2,46.6],[71.1,46.6],[71.1,46.7],[70.8,46.7],[70.8,46.8],[70.6,46.8],[70.6,46.9],[70.4,46.9],[70.4,47.0],[70.1,47.0],[70.1,47.1],[69.9,47.1],[69.9,47.2],[69.4,47.2],[69.4,47.3],[69.0,47.3],[69.0,47.4],[68.0,47.4],[68.0,47.3],[67.8,47.3],[67.8,47.4],[66.9,47.4],[66.9,47.5]]]},"properties":{"tile_id":"50","start_year":487,"end_year":516,"source_image":"data/raw/toolbay/t/50/487.png","source_url":"https://www.toolbay.cc/history-map/t/50/487.png","source_color":"#00ffff","polity_id":null,"polity_assignment":"unverified","geometry_origin":"raster_color_trace","pixel_size_degrees":0.1,"source_color_pixels":2269,"simplification_degrees":0}},{"type":"Feature","id":"50:487:#ff9933","bbox":[73.7,45.0,88.2,50.8],"geometry":{"type":"Polygon","coordinates":[[[80.3,50.8],[79.7,50.8],[79.7,50.7],[79.6,50.7],[79.6,50.6],[79.5,50.6],[79.5,50.5],[79.4,50.5],[79.4,50.4],[79.3,50.4],[79.3,50.3],[79.2,50.3],[79.2,50.1],[79.1,50.1],[79.1,50.0],[79.0,50.0],[79.0,49.9],[78.9,49.9],[78.9,49.8],[78.8,49.8],[78.8,49.6],[78.7,49.6],[78.7,49.5],[78.6,49.5],[78.6,49.4],[78.5,49.4],[78.5,49.3],[78.4,49.3],[78.4,49.2],[78.3,49.2],[78.3,49.0],[78.2,49.0],[78.2,48.9],[78.1,48.9],[78.1,48.8],[78.0,48.8],[78.0,48.7],[77.9,48.7],[77.9,48.6],[77.8,48.6],[77.8,48.5],[77.7,48.5],[77.7,48.3],[77.6,48.3],[77.6,48.2],[77.5,48.2],[77.5,48.1],[77.4,48.1],[77.4,48.0],[77.2,48.0],[77.2,47.9],[77.1,47.9],[77.1,47.7],[77.0,47.7],[77.0,47.6],[76.9,47.6],[76.9,47.5],[76.8,47.5],[76.8,47.4],[76.7,47.4],[76.7,47.3],[76.5,47.3],[76.5,47.2],[76.4,47.2],[76.4,47.1],[76.3,47.1],[76.3,47.0],[75.9,47.0],[75.9,46.9],[75.8,46.9],[75.8,46.8],[75.9,46.8],[75.9,46.7],[75.8,46.7],[75.8,46.6],[75.6,46.6],[75.6,46.5],[75.1,46.5],[75.1,46.6],[74.9,46.6],[74.9,46.5],[74.7,46.5],[74.7,46.3],[74.4,46.3],[74.4,46.2],[74.3,46.2],[74.3,46.1],[74.2,46.1],[74.2,46.0],[74.1,46.0],[74.1,45.7],[74.0,45.7],[74.0,45.5],[73.9,45.5],[73.9,45.3],[73.7,45.3],[73.7,45.1],[73.9,45.1],[73.9,45.0],[88.2,45.0],[88.2,45.1],[88.0,45.1],[88.0,45.2],[87.3,45.2],[87.3,45.3],[87.0,45.3],[87.0,45.4],[86.3,45.4],[86.3,45.5],[86.1,45.5],[86.1,45.6],[86.0,45.6],[86.0,45.7],[85.7,45.7],[85.7,45.8],[85.6,45.8],[85.6,45.9],[85.3,45.9],[85.3,46.0],[85.1,46.0],[85.1,46.1],[85.0,46.1],[85.0,46.2],[84.9,46.2],[84.9,46.3],[84.7,46.3],[84.7,46.4],[84.6,46.4],[84.6,46.5],[84.5,46.5],[84.5,46.6],[84.4,46.6],[84.4,46.7],[84.3,46.7],[84.3,46.9],[84.2,46.9],[84.2,47.0],[84.1,47.0],[84.1,47.3],[84.0,47.3],[84.0,47.5],[83.9,47.5],[83.9,47.6],[83.8,47.6],[83.8,47.7],[83.7,47.7],[83.7,47.8],[83.6,47.8],[83.6,47.9],[83.5,47.9],[83.5,48.0],[83.4,48.0],[83.4,48.1],[83.3,48.1],[83.3,48.3],[83.2,48.3],[83.2,48.4],[83.1,48.4],[83.1,48.5],[83.0,48.5],[83.0,48.6],[82.9,48.6],[82.9,48.7],[82.8,48.7],[82.8,48.9],[82.7,48.9],[82.7,49.0],[82.6,49.0],[82.6,49.1],[82.5,49.1],[82.5,49.2],[82.4,49.2],[82.4,49.4],[82.3,49.4],[82.3,49.5],[82.2,49.5],[82.2,49.6],[82.1,49.6],[82.1,49.7],[82.0,49.7],[82.0,49.8],[81.7,49.8],[81.7,49.9],[81.5,49.9],[81.5,50.0],[81.4,50.0],[81.4,50.1],[81.2,50.1],[81.2,50.2],[81.1,50.2],[81.1,50.3],[81.0,50.3],[81.0,50.4],[80.8,50.4],[80.8,50.5],[80.6,50.5],[80.6,50.6],[80.4,50.6],[80.4,50.7],[80.3,50.7],[80.3,50.8]]]},"properties":{"tile_id":"50","start_year":487,"end_year":516,"source_image":"data/raw/toolbay/t/50/487.png","source_url":"https://www.toolbay.cc/history-map/t/50/487.png","source_color":"#ff9933","polity_id":null,"polity_assignment":"unverified","geometry_origin":"raster_color_trace","pixel_size_degrees":0.1,"source_color_pixels":3916,"simplification_degrees":0}}]}
