{"type":"FeatureCollection","features":[{"type":"Feature","id":"50:560:#999900","bbox":[60.0,45.0,90.0,54.5],"geometry":{"type":"Polygon","coordinates":[[[60.6,53.6],[60.0,53.6],[60.0,46.2],[60.5,46.2],[60.5,46.3],[60.6,46.3],[60.6,46.4],[60.5,46.4],[60.5,46.6],[60.6,46.6],[60.6,46.7],[60.8,46.7],[60.8,46.6],[60.9,46.6],[60.9,46.5],[61.2,46.5],[61.2,46.6],[61.3,46.6],[61.3,46.4],[61.2,46.4],[61.2,46.2],[61.1,46.2],[61.1,46.1],[61.0,46.1],[61.0,46.0],[60.9,46.0],[60.9,45.6],[61.0,45.6],[61.0,45.5],[61.1,45.5],[61.1,45.4],[61.2,45.4],[61.2,45.2],[61.3,45.2],[61.3,45.1],[61.4,45.1],[61.4,45.0],[90.0,45.0],[90.0,52.4],[88.4,52.4],[88.4,52.3],[87.8,52.3],[87.8,52.2],[87.4,52.2],[87.4,52.1],[87.0,52.1],[87.0,52.0],[86.4,52.0],[86.4,51.9],[86.0,51.9],[86.0,51.8],[85.5,51.8],[85.5,51.7],[85.2,51.7],[85.2,51.6],[84.8,51.6],[84.8,51.5],[84.2,51.5],[84.2,51.4],[84.1,51.4],[84.1,51.5],[83.7,51.5],[83.7,51.6],[83.3,51.6],[83.3,51.7],[82.9,51.7],[82.9,51.8],[82.7,51.8],[82.7,51.9],[82.6,51.9],[82.6,52.0],[82.3,52.0],[82.3,52.1],[82.0,52.1],[82.0,52.2],[81.6,52.2],[81.6,52.3],[81.2,52.3],[81.2,52.4],[80.8,52.4],[80.8,52.5],[80.3,52.5],[80.3,52.6],[79.8,52.6],[79.8,52.7],[79.2,52.7],[79.2,52.8],[78.9,52.8],[78.9,52.9],[78.5,52.9],[78.5,53.0],[78.2,53.0],[78.2,53.1],[77.8,53.1],[77.8,53.2],[77.5,53.2],[77.5,53.3],[77.2,53.3],[77.2,53.4],[75.9,53.4],[75.9,53.5],[74.6,53.5],[74.6,53.6],[73.9,53.6],[73.9,53.7],[73.2,53.7],[73.2,53.8],[72.3,53.8],[72.3,53.9],[71.2,53.9],[71.2,54.0],[70.5,54.0],[70.5,54.1],[69.9,54.1],[69.9,54.2],[69.3,54.2],[69.3,54.3],[68.9,54.3],[68.9,54.4],[67.7,54.4],[67.7,54.5],[64.4,54.5],[64.4,54.4],[63.1,54.4],[63.1,54.3],[62.4,54.3],[62.4,54.2],[62.1,54.2],[62.1,54.1],[61.6,54.1],[61.6,54.0],[61.4,54.0],[61.4,53.9],[61.0,53.9],[61.0,53.8],[60.8,53.8],[60.8,53.7],[60.6,53.7],[60.6,53.6]],[[74.5,46.8],[74.5,46.9],[75.8,46.9],[75.8,46.8],[75.9,46.8],[75.9,46.7],[75.8,46.7],[75.8,46.6],[75.6,46.6],[75.6,46.5],[75.1,46.5],[75.1,46.6],[74.9,46.6],[74.9,46.5],[74.7,46.5],[74.7,46.3],[74.4,46.3],[74.4,46.2],[74.3,46.2],[74.3,46.1],[74.2,46.1],[74.2,46.0],[74.1,46.0],[74.1,45.7],[74.0,45.7],[74.0,45.5],[73.9,45.5],[73.9,45.3],[73.5,45.3],[73.5,45.4],[73.4,45.4],[73.4,45.5],[73.3,45.5],[73.3,46.1],[73.4,46.1],[73.4,46.2],[73.5,46.2],[73.5,46.4],[73.7,46.4],[73.7,46.5],[73.9,46.5],[73.9,46.6],[74.1,46.6],[74.1,46.7],[74.4,46.7],[74.4,46.8],[74.5,46.8]]]},"properties":{"tile_id":"50","start_year":560,"end_year":565,"source_image":"data/raw/toolbay/t/50/560.png","source_url":"https://www.toolbay.cc/history-map/t/50/560.png","source_color":"#999900","polity_id":null,"polity_assignment":"unverified","geometry_origin":"raster_color_trace","pixel_size_degrees":0.1,"source_color_pixels":31148,"simplification_degrees":0}}]}
