{"type":"FeatureCollection","features":[{"type":"Feature","id":"50:586:#009999","bbox":[60.0,45.0,89.9,54.5],"geometry":{"type":"Polygon","coordinates":[[[60.6,53.6],[60.0,53.6],[60.0,46.2],[60.5,46.2],[60.5,46.3],[60.6,46.3],[60.6,46.4],[60.5,46.4],[60.5,46.6],[60.6,46.6],[60.6,46.7],[60.8,46.7],[60.8,46.6],[60.9,46.6],[60.9,46.5],[61.2,46.5],[61.2,46.6],[61.3,46.6],[61.3,46.4],[61.2,46.4],[61.2,46.2],[61.1,46.2],[61.1,46.1],[61.0,46.1],[61.0,46.0],[60.9,46.0],[60.9,45.6],[61.0,45.6],[61.0,45.5],[61.1,45.5],[61.1,45.4],[61.2,45.4],[61.2,45.2],[61.3,45.2],[61.3,45.1],[61.4,45.1],[61.4,45.0],[89.9,45.0],[89.9,45.1],[89.8,45.1],[89.8,45.2],[89.6,45.2],[89.6,45.3],[89.2,45.3],[89.2,45.4],[89.1,45.4],[89.1,45.5],[89.0,45.5],[89.0,45.6],[88.9,45.6],[88.9,45.8],[88.8,45.8],[88.8,46.0],[88.7,46.0],[88.7,46.1],[88.6,46.1],[88.6,46.4],[88.5,46.4],[88.5,46.5],[88.4,46.5],[88.4,46.6],[88.3,46.6],[88.3,46.7],[88.2,46.7],[88.2,46.9],[88.1,46.9],[88.1,47.0],[88.0,47.0],[88.0,47.1],[87.9,47.1],[87.9,47.3],[87.8,47.3],[87.8,47.4],[87.7,47.4],[87.7,47.6],[87.6,47.6],[87.6,47.7],[87.5,47.7],[87.5,47.9],[87.4,47.9],[87.4,48.0],[87.3,48.0],[87.3,48.1],[87.2,48.1],[87.2,48.2],[87.1,48.2],[87.1,48.3],[87.0,48.3],[87.0,48.5],[86.9,48.5],[86.9,48.6],[86.7,48.6],[86.7,48.7],[86.6,48.7],[86.6,48.8],[86.5,48.8],[86.5,48.9],[86.4,48.9],[86.4,49.0],[86.3,49.0],[86.3,49.1],[86.2,49.1],[86.2,49.3],[86.1,49.3],[86.1,49.4],[86.0,49.4],[86.0,49.5],[85.8,49.5],[85.8,49.6],[85.7,49.6],[85.7,49.7],[85.5,49.7],[85.5,49.8],[85.4,49.8],[85.4,49.9],[85.3,49.9],[85.3,50.0],[85.2,50.0],[85.2,50.1],[85.1,50.1],[85.1,50.2],[84.9,50.2],[84.9,50.3],[84.8,50.3],[84.8,50.4],[84.6,50.4],[84.6,50.5],[84.5,50.5],[84.5,50.6],[84.4,50.6],[84.4,50.7],[84.3,50.7],[84.3,50.8],[84.2,50.8],[84.2,50.9],[84.1,50.9],[84.1,51.0],[84.0,51.0],[84.0,51.2],[83.9,51.2],[83.9,51.3],[83.8,51.3],[83.8,51.5],[83.7,51.5],[83.7,51.6],[83.3,51.6],[83.3,51.7],[82.9,51.7],[82.9,51.8],[82.7,51.8],[82.7,51.9],[82.6,51.9],[82.6,52.0],[82.3,52.0],[82.3,52.1],[82.0,52.1],[82.0,52.2],[81.6,52.2],[81.6,52.3],[81.2,52.3],[81.2,52.4],[80.8,52.4],[80.8,52.5],[80.3,52.5],[80.3,52.6],[79.8,52.6],[79.8,52.7],[79.2,52.7],[79.2,52.8],[78.9,52.8],[78.9,52.9],[78.5,52.9],[78.5,53.0],[78.2,53.0],[78.2,53.1],[77.8,53.1],[77.8,53.2],[77.5,53.2],[77.5,53.3],[77.2,53.3],[77.2,53.4],[75.9,53.4],[75.9,53.5],[74.6,53.5],[74.6,53.6],[73.9,53.6],[73.9,53.7],[73.2,53.7],[73.2,53.8],[72.3,53.8],[72.3,53.9],[71.2,53.9],[71.2,54.0],[70.5,54.0],[70.5,54.1],[69.9,54.1],[69.9,54.2],[69.3,54.2],[69.3,54.3],[68.9,54.3],[68.9,54.4],[67.7,54.4],[67.7,54.5],[64.4,54.5],[64.4,54.4],[63.1,54.4],[63.1,54.3],[62.4,54.3],[62.4,54.2],[62.1,54.2],[62.1,54.1],[61.6,54.1],[61.6,54.0],[61.4,54.0],[61.4,53.9],[61.0,53.9],[61.0,53.8],[60.8,53.8],[60.8,53.7],[60.6,53.7],[60.6,53.6]],[[74.5,46.8],[74.5,46.9],[75.8,46.9],[75.8,46.8],[75.9,46.8],[75.9,46.7],[75.8,46.7],[75.8,46.6],[75.6,46.6],[75.6,46.5],[75.1,46.5],[75.1,46.6],[74.9,46.6],[74.9,46.5],[74.7,46.5],[74.7,46.3],[74.4,46.3],[74.4,46.2],[74.3,46.2],[74.3,46.1],[74.2,46.1],[74.2,46.0],[74.1,46.0],[74.1,45.7],[74.0,45.7],[74.0,45.5],[73.9,45.5],[73.9,45.3],[73.5,45.3],[73.5,45.4],[73.4,45.4],[73.4,45.5],[73.3,45.5],[73.3,46.1],[73.4,46.1],[73.4,46.2],[73.5,46.2],[73.5,46.4],[73.7,46.4],[73.7,46.5],[73.9,46.5],[73.9,46.6],[74.1,46.6],[74.1,46.7],[74.4,46.7],[74.4,46.8],[74.5,46.8]]]},"properties":{"tile_id":"50","start_year":586,"end_year":602,"source_image":"data/raw/toolbay/t/50/586.png","source_url":"https://www.toolbay.cc/history-map/t/50/586.png","source_color":"#009999","polity_id":null,"polity_assignment":"unverified","geometry_origin":"raster_color_trace","pixel_size_degrees":0.1,"source_color_pixels":30956,"simplification_degrees":0}},{"type":"Feature","id":"50:586:#999900","bbox":[83.8,45.0,90.0,52.4],"geometry":{"type":"Polygon","coordinates":[[[90.0,52.4],[88.4,52.4],[88.4,52.3],[87.8,52.3],[87.8,52.2],[87.4,52.2],[87.4,52.1],[87.0,52.1],[87.0,52.0],[86.4,52.0],[86.4,51.9],[86.0,51.9],[86.0,51.8],[85.5,51.8],[85.5,51.7],[85.2,51.7],[85.2,51.6],[84.8,51.6],[84.8,51.5],[84.2,51.5],[84.2,51.4],[84.1,51.4],[84.1,51.5],[83.8,51.5],[83.8,51.3],[83.9,51.3],[83.9,51.2],[84.0,51.2],[84.0,51.0],[84.1,51.0],[84.1,50.9],[84.2,50.9],[84.2,50.8],[84.3,50.8],[84.3,50.7],[84.4,50.7],[84.4,50.6],[84.5,50.6],[84.5,50.5],[84.6,50.5],[84.6,50.4],[84.8,50.4],[84.8,50.3],[84.9,50.3],[84.9,50.2],[85.1,50.2],[85.1,50.1],[85.2,50.1],[85.2,50.0],[85.3,50.0],[85.3,49.9],[85.4,49.9],[85.4,49.8],[85.5,49.8],[85.5,49.7],[85.7,49.7],[85.7,49.6],[85.8,49.6],[85.8,49.5],[86.0,49.5],[86.0,49.4],[86.1,49.4],[86.1,49.3],[86.2,49.3],[86.2,49.1],[86.3,49.1],[86.3,49.0],[86.4,49.0],[86.4,48.9],[86.5,48.9],[86.5,48.8],[86.6,48.8],[86.6,48.7],[86.7,48.7],[86.7,48.6],[86.9,48.6],[86.9,48.5],[87.0,48.5],[87.0,48.3],[87.1,48.3],[87.1,48.2],[87.2,48.2],[87.2,48.1],[87.3,48.1],[87.3,48.0],[87.4,48.0],[87.4,47.9],[87.5,47.9],[87.5,47.7],[87.6,47.7],[87.6,47.6],[87.7,47.6],[87.7,47.4],[87.8,47.4],[87.8,47.3],[87.9,47.3],[87.9,47.1],[88.0,47.1],[88.0,47.0],[88.1,47.0],[88.1,46.9],[88.2,46.9],[88.2,46.7],[88.3,46.7],[88.3,46.6],[88.4,46.6],[88.4,46.5],[88.5,46.5],[88.5,46.4],[88.6,46.4],[88.6,46.1],[88.7,46.1],[88.7,46.0],[88.8,46.0],[88.8,45.8],[88.9,45.8],[88.9,45.6],[89.0,45.6],[89.0,45.5],[89.1,45.5],[89.1,45.4],[89.2,45.4],[89.2,45.3],[89.6,45.3],[89.6,45.2],[89.8,45.2],[89.8,45.1],[89.9,45.1],[89.9,45.0],[90.0,45.0],[90.0,52.4]]]},"properties":{"tile_id":"50","start_year":586,"end_year":602,"source_image":"data/raw/toolbay/t/50/586.png","source_url":"https://www.toolbay.cc/history-map/t/50/586.png","source_color":"#999900","polity_id":null,"polity_assignment":"unverified","geometry_origin":"raster_color_trace","pixel_size_degrees":0.1,"source_color_pixels":2354,"simplification_degrees":0}}]}
