{"type":"FeatureCollection","features":[{"type":"Feature","id":"50:602:#009999","bbox":[60.0,45.0,85.0,54.5],"geometry":{"type":"Polygon","coordinates":[[[60.6,53.6],[60.0,53.6],[60.0,46.2],[60.5,46.2],[60.5,46.3],[60.6,46.3],[60.6,46.4],[60.5,46.4],[60.5,46.6],[60.6,46.6],[60.6,46.7],[60.8,46.7],[60.8,46.6],[60.9,46.6],[60.9,46.5],[61.2,46.5],[61.2,46.6],[61.3,46.6],[61.3,46.4],[61.2,46.4],[61.2,46.2],[61.1,46.2],[61.1,46.1],[61.0,46.1],[61.0,46.0],[60.9,46.0],[60.9,45.6],[61.0,45.6],[61.0,45.5],[61.1,45.5],[61.1,45.4],[61.2,45.4],[61.2,45.2],[61.3,45.2],[61.3,45.1],[61.4,45.1],[61.4,45.0],[85.0,45.0],[85.0,45.1],[84.6,45.1],[84.6,45.2],[84.2,45.2],[84.2,45.3],[83.5,45.3],[83.5,45.4],[82.9,45.4],[82.9,45.5],[82.6,45.5],[82.6,45.6],[82.4,45.6],[82.4,45.7],[81.9,45.7],[81.9,45.8],[81.7,45.8],[81.7,45.9],[81.5,45.9],[81.5,46.0],[81.3,46.0],[81.3,46.1],[81.1,46.1],[81.1,46.2],[80.9,46.2],[80.9,46.3],[80.6,46.3],[80.6,46.4],[80.3,46.4],[80.3,46.5],[80.1,46.5],[80.1,46.6],[79.9,46.6],[79.9,46.7],[79.7,46.7],[79.7,46.8],[79.5,46.8],[79.5,46.9],[79.2,46.9],[79.2,47.0],[77.4,47.0],[77.4,46.9],[76.9,46.9],[76.9,46.8],[76.1,46.8],[76.1,46.7],[75.8,46.7],[75.8,46.6],[75.6,46.6],[75.6,46.5],[75.1,46.5],[75.1,46.6],[74.9,46.6],[74.9,46.5],[74.7,46.5],[74.7,46.3],[74.4,46.3],[74.4,46.2],[74.3,46.2],[74.3,46.1],[74.2,46.1],[74.2,46.0],[74.1,46.0],[74.1,45.7],[74.0,45.7],[74.0,45.5],[73.9,45.5],[73.9,45.3],[73.5,45.3],[73.5,45.4],[73.4,45.4],[73.4,45.5],[73.3,45.5],[73.3,46.1],[73.4,46.1],[73.4,46.2],[73.5,46.2],[73.5,46.4],[73.7,46.4],[73.7,46.5],[73.9,46.5],[73.9,46.6],[74.1,46.6],[74.1,46.7],[74.4,46.7],[74.4,46.8],[74.5,46.8],[74.5,46.9],[75.4,46.9],[75.4,47.0],[75.3,47.0],[75.3,47.1],[75.2,47.1],[75.2,47.2],[75.0,47.2],[75.0,47.3],[74.9,47.3],[74.9,47.4],[74.8,47.4],[74.8,47.5],[74.7,47.5],[74.7,47.6],[74.6,47.6],[74.6,47.8],[74.5,47.8],[74.5,47.9],[74.4,47.9],[74.4,48.1],[74.3,48.1],[74.3,48.3],[74.2,48.3],[74.2,48.8],[74.1,48.8],[74.1,49.4],[74.0,49.4],[74.0,50.1],[73.9,50.1],[73.9,50.7],[73.8,50.7],[73.8,50.9],[73.7,50.9],[73.7,51.1],[73.6,51.1],[73.6,51.2],[73.5,51.2],[73.5,51.4],[73.4,51.4],[73.4,51.5],[73.3,51.5],[73.3,51.6],[73.2,51.6],[73.2,51.7],[73.1,51.7],[73.1,51.9],[73.0,51.9],[73.0,52.0],[72.9,52.0],[72.9,52.2],[72.8,52.2],[72.8,52.3],[72.7,52.3],[72.7,52.4],[72.6,52.4],[72.6,52.7],[72.5,52.7],[72.5,52.9],[72.4,52.9],[72.4,53.2],[72.3,53.2],[72.3,53.3],[72.2,53.3],[72.2,53.5],[72.1,53.5],[72.1,53.7],[72.0,53.7],[72.0,53.9],[71.2,53.9],[71.2,54.0],[70.5,54.0],[70.5,54.1],[69.9,54.1],[69.9,54.2],[69.3,54.2],[69.3,54.3],[68.9,54.3],[68.9,54.4],[67.7,54.4],[67.7,54.5],[64.4,54.5],[64.4,54.4],[63.1,54.4],[63.1,54.3],[62.4,54.3],[62.4,54.2],[62.1,54.2],[62.1,54.1],[61.6,54.1],[61.6,54.0],[61.4,54.0],[61.4,53.9],[61.0,53.9],[61.0,53.8],[60.8,53.8],[60.8,53.7],[60.6,53.7],[60.6,53.6]]]},"properties":{"tile_id":"50","start_year":602,"end_year":630,"source_image":"data/raw/toolbay/t/50/602.png","source_url":"https://www.toolbay.cc/history-map/t/50/602.png","source_color":"#009999","polity_id":null,"polity_assignment":"unverified","geometry_origin":"raster_color_trace","pixel_size_degrees":0.1,"source_color_pixels":22577,"simplification_degrees":0}},{"type":"Feature","id":"50:602:#ffff00","bbox":[72.0,45.0,90.0,55.8],"geometry":{"type":"Polygon","coordinates":[[[84.3,55.8],[83.5,55.8],[83.5,55.7],[83.0,55.7],[83.0,55.6],[82.6,55.6],[82.6,55.5],[82.4,55.5],[82.4,55.4],[82.2,55.4],[82.2,55.3],[82.0,55.3],[82.0,55.2],[81.8,55.2],[81.8,55.1],[81.6,55.1],[81.6,55.0],[81.3,55.0],[81.3,54.9],[81.1,54.9],[81.1,54.8],[80.8,54.8],[80.8,54.7],[80.4,54.7],[80.4,54.6],[80.1,54.6],[80.1,54.5],[79.7,54.5],[79.7,54.4],[79.3,54.4],[79.3,54.3],[79.1,54.3],[79.1,54.2],[78.9,54.2],[78.9,54.1],[78.4,54.1],[78.4,54.0],[78.2,54.0],[78.2,53.9],[77.8,53.9],[77.8,53.8],[77.6,53.8],[77.6,53.7],[76.9,53.7],[76.9,53.6],[76.3,53.6],[76.3,53.5],[74.7,53.5],[74.7,53.6],[74.2,53.6],[74.2,53.7],[73.5,53.7],[73.5,53.8],[72.3,53.8],[72.3,53.9],[72.0,53.9],[72.0,53.7],[72.1,53.7],[72.1,53.5],[72.2,53.5],[72.2,53.3],[72.3,53.3],[72.3,53.2],[72.4,53.2],[72.4,52.9],[72.5,52.9],[72.5,52.7],[72.6,52.7],[72.6,52.4],[72.7,52.4],[72.7,52.3],[72.8,52.3],[72.8,52.2],[72.9,52.2],[72.9,52.0],[73.0,52.0],[73.0,51.9],[73.1,51.9],[73.1,51.7],[73.2,51.7],[73.2,51.6],[73.3,51.6],[73.3,51.5],[73.4,51.5],[73.4,51.4],[73.5,51.4],[73.5,51.2],[73.6,51.2],[73.6,51.1],[73.7,51.1],[73.7,50.9],[73.8,50.9],[73.8,50.7],[73.9,50.7],[73.9,50.1],[74.0,50.1],[74.0,49.4],[74.1,49.4],[74.1,48.8],[74.2,48.8],[74.2,48.3],[74.3,48.3],[74.3,48.1],[74.4,48.1],[74.4,47.9],[74.5,47.9],[74.5,47.8],[74.6,47.8],[74.6,47.6],[74.7,47.6],[74.7,47.5],[74.8,47.5],[74.8,47.4],[74.9,47.4],[74.9,47.3],[75.0,47.3],[75.0,47.2],[75.2,47.2],[75.2,47.1],[75.3,47.1],[75.3,47.0],[75.4,47.0],[75.4,46.9],[75.8,46.9],[75.8,46.8],[75.9,46.8],[75.9,46.7],[76.1,46.7],[76.1,46.8],[76.9,46.8],[76.9,46.9],[77.4,46.9],[77.4,47.0],[79.2,47.0],[79.2,46.9],[79.5,46.9],[79.5,46.8],[79.7,46.8],[79.7,46.7],[79.9,46.7],[79.9,46.6],[80.1,46.6],[80.1,46.5],[80.3,46.5],[80.3,46.4],[80.6,46.4],[80.6,46.3],[80.9,46.3],[80.9,46.2],[81.1,46.2],[81.1,46.1],[81.3,46.1],[81.3,46.0],[81.5,46.0],[81.5,45.9],[81.7,45.9],[81.7,45.8],[81.9,45.8],[81.9,45.7],[82.4,45.7],[82.4,45.6],[82.6,45.6],[82.6,45.5],[82.9,45.5],[82.9,45.4],[83.5,45.4],[83.5,45.3],[84.2,45.3],[84.2,45.2],[84.6,45.2],[84.6,45.1],[85.0,45.1],[85.0,45.0],[90.0,45.0],[90.0,55.1],[89.1,55.1],[89.1,55.2],[88.6,55.2],[88.6,55.1],[88.1,55.1],[88.1,55.0],[87.5,55.0],[87.5,55.1],[87.2,55.1],[87.2,55.2],[87.0,55.2],[87.0,55.3],[86.6,55.3],[86.6,55.4],[86.3,55.4],[86.3,55.5],[85.9,55.5],[85.9,55.6],[85.4,55.6],[85.4,55.7],[84.3,55.7],[84.3,55.8]]]},"properties":{"tile_id":"50","start_year":602,"end_year":630,"source_image":"data/raw/toolbay/t/50/602.png","source_url":"https://www.toolbay.cc/history-map/t/50/602.png","source_color":"#ffff00","polity_id":null,"polity_assignment":"unverified","geometry_origin":"raster_color_trace","pixel_size_degrees":0.1,"source_color_pixels":14338,"simplification_degrees":0}}]}
