{"type":"FeatureCollection","features":[{"type":"Feature","id":"50:646:#009999","bbox":[60.0,45.0,85.0,54.5],"geometry":{"type":"Polygon","coordinates":[[[60.6,53.6],[60.0,53.6],[60.0,46.2],[60.5,46.2],[60.5,46.3],[60.6,46.3],[60.6,46.4],[60.5,46.4],[60.5,46.6],[60.6,46.6],[60.6,46.7],[60.8,46.7],[60.8,46.6],[60.9,46.6],[60.9,46.5],[61.2,46.5],[61.2,46.6],[61.3,46.6],[61.3,46.4],[61.2,46.4],[61.2,46.2],[61.1,46.2],[61.1,46.1],[61.0,46.1],[61.0,46.0],[60.9,46.0],[60.9,45.6],[61.0,45.6],[61.0,45.5],[61.1,45.5],[61.1,45.4],[61.2,45.4],[61.2,45.2],[61.3,45.2],[61.3,45.1],[61.4,45.1],[61.4,45.0],[85.0,45.0],[85.0,45.1],[84.6,45.1],[84.6,45.2],[84.2,45.2],[84.2,45.3],[83.5,45.3],[83.5,45.4],[82.9,45.4],[82.9,45.5],[82.6,45.5],[82.6,45.6],[82.4,45.6],[82.4,45.7],[81.9,45.7],[81.9,45.8],[81.7,45.8],[81.7,45.9],[81.5,45.9],[81.5,46.0],[81.3,46.0],[81.3,46.1],[81.1,46.1],[81.1,46.2],[80.9,46.2],[80.9,46.3],[80.6,46.3],[80.6,46.4],[80.3,46.4],[80.3,46.5],[80.1,46.5],[80.1,46.6],[79.9,46.6],[79.9,46.7],[79.7,46.7],[79.7,46.8],[79.5,46.8],[79.5,46.9],[79.3,46.9],[79.3,47.0],[79.2,47.0],[79.2,47.2],[79.1,47.2],[79.1,47.3],[79.0,47.3],[79.0,47.6],[78.9,47.6],[78.9,48.0],[78.8,48.0],[78.8,48.2],[78.7,48.2],[78.7,48.6],[78.6,48.6],[78.6,48.8],[78.5,48.8],[78.5,49.0],[78.4,49.0],[78.4,49.3],[78.3,49.3],[78.3,49.6],[78.2,49.6],[78.2,49.8],[78.1,49.8],[78.1,50.0],[78.0,50.0],[78.0,50.3],[77.9,50.3],[77.9,50.6],[77.8,50.6],[77.8,51.0],[77.7,51.0],[77.7,51.2],[77.6,51.2],[77.6,51.6],[77.5,51.6],[77.5,52.2],[77.4,52.2],[77.4,52.6],[77.3,52.6],[77.3,53.0],[77.2,53.0],[77.2,53.2],[77.1,53.2],[77.1,53.4],[77.0,53.4],[77.0,53.6],[76.3,53.6],[76.3,53.5],[74.7,53.5],[74.7,53.6],[74.2,53.6],[74.2,53.7],[73.5,53.7],[73.5,53.8],[72.3,53.8],[72.3,53.9],[71.2,53.9],[71.2,54.0],[70.5,54.0],[70.5,54.1],[69.9,54.1],[69.9,54.2],[69.3,54.2],[69.3,54.3],[68.9,54.3],[68.9,54.4],[67.7,54.4],[67.7,54.5],[64.4,54.5],[64.4,54.4],[63.1,54.4],[63.1,54.3],[62.4,54.3],[62.4,54.2],[62.1,54.2],[62.1,54.1],[61.6,54.1],[61.6,54.0],[61.4,54.0],[61.4,53.9],[61.0,53.9],[61.0,53.8],[60.8,53.8],[60.8,53.7],[60.6,53.7],[60.6,53.6]],[[74.5,46.8],[74.5,46.9],[75.8,46.9],[75.8,46.8],[75.9,46.8],[75.9,46.7],[75.8,46.7],[75.8,46.6],[75.6,46.6],[75.6,46.5],[75.1,46.5],[75.1,46.6],[74.9,46.6],[74.9,46.5],[74.7,46.5],[74.7,46.3],[74.4,46.3],[74.4,46.2],[74.3,46.2],[74.3,46.1],[74.2,46.1],[74.2,46.0],[74.1,46.0],[74.1,45.7],[74.0,45.7],[74.0,45.5],[73.9,45.5],[73.9,45.3],[73.5,45.3],[73.5,45.4],[73.4,45.4],[73.4,45.5],[73.3,45.5],[73.3,46.1],[73.4,46.1],[73.4,46.2],[73.5,46.2],[73.5,46.4],[73.7,46.4],[73.7,46.5],[73.9,46.5],[73.9,46.6],[74.1,46.6],[74.1,46.7],[74.4,46.7],[74.4,46.8],[74.5,46.8]]]},"properties":{"tile_id":"50","start_year":646,"end_year":650,"source_image":"data/raw/toolbay/t/50/646.png","source_url":"https://www.toolbay.cc/history-map/t/50/646.png","source_color":"#009999","polity_id":null,"polity_assignment":"unverified","geometry_origin":"raster_color_trace","pixel_size_degrees":0.1,"source_color_pixels":22565,"simplification_degrees":0}},{"type":"Feature","id":"50:646:#00ff00","bbox":[71.7,53.5,90.0,58.1],"geometry":{"type":"Polygon","coordinates":[[[90.0,58.1],[88.0,58.1],[88.0,58.0],[87.7,58.0],[87.7,57.9],[87.2,57.9],[87.2,57.8],[86.6,57.8],[86.6,57.7],[86.2,57.7],[86.2,57.6],[85.8,57.6],[85.8,57.5],[85.5,57.5],[85.5,57.4],[85.1,57.4],[85.1,57.3],[84.7,57.3],[84.7,57.2],[83.5,57.2],[83.5,57.1],[81.6,57.1],[81.6,57.2],[77.2,57.2],[77.2,57.1],[76.9,57.1],[76.9,57.0],[76.8,57.0],[76.8,56.9],[76.5,56.9],[76.5,56.8],[76.2,56.8],[76.2,56.7],[75.9,56.7],[75.9,56.6],[75.8,56.6],[75.8,56.5],[75.6,56.5],[75.6,56.4],[75.4,56.4],[75.4,56.3],[75.2,56.3],[75.2,56.2],[74.9,56.2],[74.9,56.1],[74.7,56.1],[74.7,56.0],[74.5,56.0],[74.5,55.9],[74.3,55.9],[74.3,55.8],[74.1,55.8],[74.1,55.7],[73.8,55.7],[73.8,55.6],[73.6,55.6],[73.6,55.5],[73.5,55.5],[73.5,55.4],[73.3,55.4],[73.3,55.3],[73.2,55.3],[73.2,55.2],[73.0,55.2],[73.0,55.1],[72.9,55.1],[72.9,55.0],[72.8,55.0],[72.8,54.9],[72.6,54.9],[72.6,54.8],[72.5,54.8],[72.5,54.7],[72.4,54.7],[72.4,54.6],[72.3,54.6],[72.3,54.5],[72.2,54.5],[72.2,54.4],[72.1,54.4],[72.1,54.3],[71.9,54.3],[71.9,54.2],[71.8,54.2],[71.8,54.0],[71.7,54.0],[71.7,53.9],[72.3,53.9],[72.3,53.8],[73.5,53.8],[73.5,53.7],[74.2,53.7],[74.2,53.6],[74.7,53.6],[74.7,53.5],[76.3,53.5],[76.3,53.6],[76.9,53.6],[76.9,53.7],[77.6,53.7],[77.6,53.8],[77.8,53.8],[77.8,53.9],[78.2,53.9],[78.2,54.0],[78.4,54.0],[78.4,54.1],[78.9,54.1],[78.9,54.2],[79.1,54.2],[79.1,54.3],[79.3,54.3],[79.3,54.4],[79.7,54.4],[79.7,54.5],[80.1,54.5],[80.1,54.6],[80.4,54.6],[80.4,54.7],[80.8,54.7],[80.8,54.8],[81.1,54.8],[81.1,54.9],[81.3,54.9],[81.3,55.0],[81.6,55.0],[81.6,55.1],[81.8,55.1],[81.8,55.2],[82.0,55.2],[82.0,55.3],[82.2,55.3],[82.2,55.4],[82.4,55.4],[82.4,55.5],[82.6,55.5],[82.6,55.6],[83.0,55.6],[83.0,55.7],[83.5,55.7],[83.5,55.8],[84.3,55.8],[84.3,55.7],[85.4,55.7],[85.4,55.6],[85.9,55.6],[85.9,55.5],[86.3,55.5],[86.3,55.4],[86.6,55.4],[86.6,55.3],[87.0,55.3],[87.0,55.2],[87.2,55.2],[87.2,55.1],[87.5,55.1],[87.5,55.0],[88.1,55.0],[88.1,55.1],[88.6,55.1],[88.6,55.2],[89.1,55.2],[89.1,55.1],[90.0,55.1],[90.0,58.1]]]},"properties":{"tile_id":"50","start_year":646,"end_year":650,"source_image":"data/raw/toolbay/t/50/646.png","source_url":"https://www.toolbay.cc/history-map/t/50/646.png","source_color":"#00ff00","polity_id":null,"polity_assignment":"unverified","geometry_origin":"raster_color_trace","pixel_size_degrees":0.1,"source_color_pixels":4276,"simplification_degrees":0}},{"type":"Feature","id":"50:646:#ff9933","bbox":[76.9,45.0,90.0,55.8],"geometry":{"type":"Polygon","coordinates":[[[84.3,55.8],[83.5,55.8],[83.5,55.7],[83.0,55.7],[83.0,55.6],[82.6,55.6],[82.6,55.5],[82.4,55.5],[82.4,55.4],[82.2,55.4],[82.2,55.3],[82.0,55.3],[82.0,55.2],[81.8,55.2],[81.8,55.1],[81.6,55.1],[81.6,55.0],[81.3,55.0],[81.3,54.9],[81.1,54.9],[81.1,54.8],[80.8,54.8],[80.8,54.7],[80.4,54.7],[80.4,54.6],[80.1,54.6],[80.1,54.5],[79.7,54.5],[79.7,54.4],[79.3,54.4],[79.3,54.3],[79.1,54.3],[79.1,54.2],[78.9,54.2],[78.9,54.1],[78.4,54.1],[78.4,54.0],[78.2,54.0],[78.2,53.9],[77.8,53.9],[77.8,53.8],[77.6,53.8],[77.6,53.7],[76.9,53.7],[76.9,53.6],[77.0,53.6],[77.0,53.4],[77.1,53.4],[77.1,53.2],[77.2,53.2],[77.2,53.0],[77.3,53.0],[77.3,52.6],[77.4,52.6],[77.4,52.2],[77.5,52.2],[77.5,51.6],[77.6,51.6],[77.6,51.2],[77.7,51.2],[77.7,51.0],[77.8,51.0],[77.8,50.6],[77.9,50.6],[77.9,50.3],[78.0,50.3],[78.0,50.0],[78.1,50.0],[78.1,49.8],[78.2,49.8],[78.2,49.6],[78.3,49.6],[78.3,49.3],[78.4,49.3],[78.4,49.0],[78.5,49.0],[78.5,48.8],[78.6,48.8],[78.6,48.6],[78.7,48.6],[78.7,48.2],[78.8,48.2],[78.8,48.0],[78.9,48.0],[78.9,47.6],[79.0,47.6],[79.0,47.3],[79.1,47.3],[79.1,47.2],[79.2,47.2],[79.2,47.0],[79.3,47.0],[79.3,46.9],[79.5,46.9],[79.5,46.8],[79.7,46.8],[79.7,46.7],[79.9,46.7],[79.9,46.6],[80.1,46.6],[80.1,46.5],[80.3,46.5],[80.3,46.4],[80.6,46.4],[80.6,46.3],[80.9,46.3],[80.9,46.2],[81.1,46.2],[81.1,46.1],[81.3,46.1],[81.3,46.0],[81.5,46.0],[81.5,45.9],[81.7,45.9],[81.7,45.8],[81.9,45.8],[81.9,45.7],[82.4,45.7],[82.4,45.6],[82.6,45.6],[82.6,45.5],[82.9,45.5],[82.9,45.4],[83.5,45.4],[83.5,45.3],[84.2,45.3],[84.2,45.2],[84.6,45.2],[84.6,45.1],[85.0,45.1],[85.0,45.0],[90.0,45.0],[90.0,55.1],[89.1,55.1],[89.1,55.2],[88.6,55.2],[88.6,55.1],[88.1,55.1],[88.1,55.0],[87.5,55.0],[87.5,55.1],[87.2,55.1],[87.2,55.2],[87.0,55.2],[87.0,55.3],[86.6,55.3],[86.6,55.4],[86.3,55.4],[86.3,55.5],[85.9,55.5],[85.9,55.6],[85.4,55.6],[85.4,55.7],[84.3,55.7],[84.3,55.8]]]},"properties":{"tile_id":"50","start_year":646,"end_year":650,"source_image":"data/raw/toolbay/t/50/646.png","source_url":"https://www.toolbay.cc/history-map/t/50/646.png","source_color":"#ff9933","polity_id":null,"polity_assignment":"unverified","geometry_origin":"raster_color_trace","pixel_size_degrees":0.1,"source_color_pixels":11404,"simplification_degrees":0}}]}
