{"type":"FeatureCollection","features":[{"type":"Feature","id":"50:655:#009999","bbox":[60.0,45.0,80.9,51.0],"geometry":{"type":"Polygon","coordinates":[[[60.1,48.8],[60.0,48.8],[60.0,46.2],[60.5,46.2],[60.5,46.3],[60.6,46.3],[60.6,46.4],[60.5,46.4],[60.5,46.6],[60.6,46.6],[60.6,46.7],[60.8,46.7],[60.8,46.6],[60.9,46.6],[60.9,46.5],[61.2,46.5],[61.2,46.6],[61.3,46.6],[61.3,46.4],[61.2,46.4],[61.2,46.2],[61.1,46.2],[61.1,46.1],[61.0,46.1],[61.0,46.0],[60.9,46.0],[60.9,45.6],[61.0,45.6],[61.0,45.5],[61.1,45.5],[61.1,45.4],[61.2,45.4],[61.2,45.2],[61.3,45.2],[61.3,45.1],[61.4,45.1],[61.4,45.0],[80.9,45.0],[80.9,45.2],[80.8,45.2],[80.8,45.3],[80.7,45.3],[80.7,45.4],[80.6,45.4],[80.6,45.5],[80.5,45.5],[80.5,45.6],[80.4,45.6],[80.4,45.7],[80.2,45.7],[80.2,45.8],[80.1,45.8],[80.1,45.9],[80.0,45.9],[80.0,46.0],[79.9,46.0],[79.9,46.1],[79.8,46.1],[79.8,46.2],[79.7,46.2],[79.7,46.3],[79.6,46.3],[79.6,46.5],[79.5,46.5],[79.5,46.7],[79.4,46.7],[79.4,46.9],[79.3,46.9],[79.3,47.0],[79.2,47.0],[79.2,47.2],[79.1,47.2],[79.1,47.3],[79.0,47.3],[79.0,47.6],[78.9,47.6],[78.9,48.0],[78.8,48.0],[78.8,48.2],[78.7,48.2],[78.7,48.6],[78.6,48.6],[78.6,48.8],[78.5,48.8],[78.5,49.0],[78.4,49.0],[78.4,49.3],[78.3,49.3],[78.3,49.6],[78.2,49.6],[78.2,49.8],[78.1,49.8],[78.1,50.0],[78.0,50.0],[78.0,50.3],[77.9,50.3],[77.9,50.6],[77.8,50.6],[77.8,51.0],[77.5,51.0],[77.5,50.9],[77.3,50.9],[77.3,50.8],[77.2,50.8],[77.2,50.7],[77.0,50.7],[77.0,50.6],[76.7,50.6],[76.7,50.5],[76.3,50.5],[76.3,50.4],[75.7,50.4],[75.7,50.3],[75.4,50.3],[75.4,50.2],[75.3,50.2],[75.3,50.1],[75.0,50.1],[75.0,50.0],[74.6,50.0],[74.6,49.9],[74.3,49.9],[74.3,49.8],[74.0,49.8],[74.0,49.7],[73.4,49.7],[73.4,49.6],[73.0,49.6],[73.0,49.5],[72.4,49.5],[72.4,49.4],[72.1,49.4],[72.1,49.3],[71.4,49.3],[71.4,49.2],[70.8,49.2],[70.8,49.1],[70.5,49.1],[70.5,49.0],[69.9,49.0],[69.9,48.9],[69.6,48.9],[69.6,48.8],[69.2,48.8],[69.2,48.7],[68.7,48.7],[68.7,48.6],[68.4,48.6],[68.4,48.5],[68.2,48.5],[68.2,48.4],[67.7,48.4],[67.7,48.3],[67.2,48.3],[67.2,48.2],[66.5,48.2],[66.5,48.1],[64.8,48.1],[64.8,48.2],[64.1,48.2],[64.1,48.3],[62.9,48.3],[62.9,48.4],[61.5,48.4],[61.5,48.5],[61.2,48.5],[61.2,48.6],[60.5,48.6],[60.5,48.7],[60.1,48.7],[60.1,48.8]],[[74.5,46.8],[74.5,46.9],[75.8,46.9],[75.8,46.8],[75.9,46.8],[75.9,46.7],[75.8,46.7],[75.8,46.6],[75.6,46.6],[75.6,46.5],[75.1,46.5],[75.1,46.6],[74.9,46.6],[74.9,46.5],[74.7,46.5],[74.7,46.3],[74.4,46.3],[74.4,46.2],[74.3,46.2],[74.3,46.1],[74.2,46.1],[74.2,46.0],[74.1,46.0],[74.1,45.7],[74.0,45.7],[74.0,45.5],[73.9,45.5],[73.9,45.3],[73.5,45.3],[73.5,45.4],[73.4,45.4],[73.4,45.5],[73.3,45.5],[73.3,46.1],[73.4,46.1],[73.4,46.2],[73.5,46.2],[73.5,46.4],[73.7,46.4],[73.7,46.5],[73.9,46.5],[73.9,46.6],[74.1,46.6],[74.1,46.7],[74.4,46.7],[74.4,46.8],[74.5,46.8]]]},"properties":{"tile_id":"50","start_year":655,"end_year":657,"source_image":"data/raw/toolbay/t/50/655.png","source_url":"https://www.toolbay.cc/history-map/t/50/655.png","source_color":"#009999","polity_id":null,"polity_assignment":"unverified","geometry_origin":"raster_color_trace","pixel_size_degrees":0.1,"source_color_pixels":10870,"simplification_degrees":0}},{"type":"Feature","id":"50:655:#ff9933","bbox":[76.8,45.0,90.0,58.1],"geometry":{"type":"Polygon","coordinates":[[[90.0,58.1],[88.0,58.1],[88.0,58.0],[87.7,58.0],[87.7,57.9],[87.2,57.9],[87.2,57.8],[86.6,57.8],[86.6,57.7],[86.2,57.7],[86.2,57.6],[85.8,57.6],[85.8,57.5],[85.5,57.5],[85.5,57.4],[85.1,57.4],[85.1,57.3],[84.7,57.3],[84.7,57.2],[83.5,57.2],[83.5,57.1],[81.6,57.1],[81.6,57.2],[78.2,57.2],[78.2,57.1],[78.1,57.1],[78.1,56.9],[78.0,56.9],[78.0,56.8],[77.9,56.8],[77.9,56.7],[77.8,56.7],[77.8,56.6],[77.7,56.6],[77.7,56.4],[77.6,56.4],[77.6,56.2],[77.5,56.2],[77.5,56.1],[77.4,56.1],[77.4,55.9],[77.3,55.9],[77.3,55.6],[77.2,55.6],[77.2,55.4],[77.1,55.4],[77.1,55.2],[77.0,55.2],[77.0,54.9],[76.9,54.9],[76.9,54.4],[76.8,54.4],[76.8,53.7],[76.9,53.7],[76.9,53.6],[77.0,53.6],[77.0,53.4],[77.1,53.4],[77.1,53.2],[77.2,53.2],[77.2,53.0],[77.3,53.0],[77.3,52.6],[77.4,52.6],[77.4,52.2],[77.5,52.2],[77.5,51.6],[77.6,51.6],[77.6,51.2],[77.7,51.2],[77.7,51.0],[77.8,51.0],[77.8,50.6],[77.9,50.6],[77.9,50.3],[78.0,50.3],[78.0,50.0],[78.1,50.0],[78.1,49.8],[78.2,49.8],[78.2,49.6],[78.3,49.6],[78.3,49.3],[78.4,49.3],[78.4,49.0],[78.5,49.0],[78.5,48.8],[78.6,48.8],[78.6,48.6],[78.7,48.6],[78.7,48.2],[78.8,48.2],[78.8,48.0],[78.9,48.0],[78.9,47.6],[79.0,47.6],[79.0,47.3],[79.1,47.3],[79.1,47.2],[79.2,47.2],[79.2,47.0],[79.3,47.0],[79.3,46.9],[79.4,46.9],[79.4,46.7],[79.5,46.7],[79.5,46.5],[79.6,46.5],[79.6,46.3],[79.7,46.3],[79.7,46.2],[79.8,46.2],[79.8,46.1],[79.9,46.1],[79.9,46.0],[80.0,46.0],[80.0,45.9],[80.1,45.9],[80.1,45.8],[80.2,45.8],[80.2,45.7],[80.4,45.7],[80.4,45.6],[80.5,45.6],[80.5,45.5],[80.6,45.5],[80.6,45.4],[80.7,45.4],[80.7,45.3],[80.8,45.3],[80.8,45.2],[80.9,45.2],[80.9,45.0],[90.0,45.0],[90.0,58.1]]]},"properties":{"tile_id":"50","start_year":655,"end_year":657,"source_image":"data/raw/toolbay/t/50/655.png","source_url":"https://www.toolbay.cc/history-map/t/50/655.png","source_color":"#ff9933","polity_id":null,"polity_assignment":"unverified","geometry_origin":"raster_color_trace","pixel_size_degrees":0.1,"source_color_pixels":17761,"simplification_degrees":0}}]}
