{"type":"FeatureCollection","features":[{"type":"Feature","id":"50:682:#ff9933","bbox":[60.0,45.0,90.0,56.3],"geometry":{"type":"Polygon","coordinates":[[[60.1,51.7],[60.0,51.7],[60.0,51.6],[60.0,46.2],[60.5,46.2],[60.5,46.3],[60.6,46.3],[60.6,46.4],[60.5,46.4],[60.5,46.6],[60.6,46.6],[60.6,46.7],[60.8,46.7],[60.8,46.6],[60.9,46.6],[60.9,46.5],[61.2,46.5],[61.2,46.6],[61.3,46.6],[61.3,46.4],[61.2,46.4],[61.2,46.2],[61.1,46.2],[61.1,46.1],[61.0,46.1],[61.0,46.0],[60.9,46.0],[60.9,45.6],[61.0,45.6],[61.0,45.5],[61.1,45.5],[61.1,45.4],[61.2,45.4],[61.2,45.2],[61.3,45.2],[61.3,45.1],[61.4,45.1],[61.4,45.0],[90.0,45.0],[90.0,55.7],[89.8,55.7],[89.8,55.8],[89.6,55.8],[89.6,55.9],[88.1,55.9],[88.1,55.8],[84.6,55.8],[84.6,55.9],[82.6,55.9],[82.6,55.8],[81.4,55.8],[81.4,55.7],[81.2,55.7],[81.2,55.6],[80.5,55.6],[80.5,55.7],[79.6,55.7],[79.6,55.8],[78.5,55.8],[78.5,55.9],[77.8,55.9],[77.8,56.0],[76.7,56.0],[76.7,56.1],[75.9,56.1],[75.9,56.0],[74.8,56.0],[74.8,56.1],[74.2,56.1],[74.2,56.2],[73.8,56.2],[73.8,56.3],[72.0,56.3],[72.0,56.2],[71.1,56.2],[71.1,56.1],[70.7,56.1],[70.7,56.0],[70.4,56.0],[70.4,55.9],[70.3,55.9],[70.3,55.8],[70.1,55.8],[70.1,55.7],[70.0,55.7],[70.0,55.6],[69.8,55.6],[69.8,55.5],[69.6,55.5],[69.6,55.4],[69.4,55.4],[69.4,55.3],[69.1,55.3],[69.1,55.2],[68.8,55.2],[68.8,55.1],[68.5,55.1],[68.5,55.0],[68.3,55.0],[68.3,54.9],[68.0,54.9],[68.0,54.8],[67.8,54.8],[67.8,54.7],[67.6,54.7],[67.6,54.6],[67.3,54.6],[67.3,54.5],[67.1,54.5],[67.1,54.4],[66.9,54.4],[66.9,54.3],[66.8,54.3],[66.8,54.2],[66.6,54.2],[66.6,54.1],[66.4,54.1],[66.4,54.0],[66.1,54.0],[66.1,53.9],[65.9,53.9],[65.9,53.8],[65.7,53.8],[65.7,53.7],[65.6,53.7],[65.6,53.6],[65.3,53.6],[65.3,53.5],[65.1,53.5],[65.1,53.4],[64.9,53.4],[64.9,53.3],[64.5,53.3],[64.5,53.2],[64.1,53.2],[64.1,53.1],[63.5,53.1],[63.5,53.0],[62.8,53.0],[62.8,52.9],[62.2,52.9],[62.2,52.8],[61.7,52.8],[61.7,52.7],[61.2,52.7],[61.2,52.6],[61.0,52.6],[61.0,52.5],[60.9,52.5],[60.9,52.4],[60.8,52.4],[60.8,52.3],[60.6,52.3],[60.6,52.2],[60.5,52.2],[60.5,52.0],[60.4,52.0],[60.4,51.9],[60.3,51.9],[60.3,51.8],[60.1,51.8],[60.1,51.7]],[[74.5,46.8],[74.5,46.9],[75.8,46.9],[75.8,46.8],[75.9,46.8],[75.9,46.7],[75.8,46.7],[75.8,46.6],[75.6,46.6],[75.6,46.5],[75.1,46.5],[75.1,46.6],[74.9,46.6],[74.9,46.5],[74.7,46.5],[74.7,46.3],[74.4,46.3],[74.4,46.2],[74.3,46.2],[74.3,46.1],[74.2,46.1],[74.2,46.0],[74.1,46.0],[74.1,45.7],[74.0,45.7],[74.0,45.5],[73.9,45.5],[73.9,45.3],[73.5,45.3],[73.5,45.4],[73.4,45.4],[73.4,45.5],[73.3,45.5],[73.3,46.1],[73.4,46.1],[73.4,46.2],[73.5,46.2],[73.5,46.4],[73.7,46.4],[73.7,46.5],[73.9,46.5],[73.9,46.6],[74.1,46.6],[74.1,46.7],[74.4,46.7],[74.4,46.8],[74.5,46.8]]]},"properties":{"tile_id":"50","start_year":682,"end_year":695,"source_image":"data/raw/toolbay/t/50/682.png","source_url":"https://www.toolbay.cc/history-map/t/50/682.png","source_color":"#ff9933","polity_id":null,"polity_assignment":"unverified","geometry_origin":"raster_color_trace","pixel_size_degrees":0.1,"source_color_pixels":37020,"simplification_degrees":0}}]}
