{"type":"FeatureCollection","features":[{"type":"Feature","id":"50:695:#ff9933","bbox":[60.9,45.0,90.0,52.5],"geometry":{"type":"Polygon","coordinates":[[[90.0,52.5],[88.7,52.5],[88.7,52.4],[88.0,52.4],[88.0,52.3],[87.6,52.3],[87.6,52.2],[87.2,52.2],[87.2,52.1],[86.7,52.1],[86.7,52.0],[86.3,52.0],[86.3,51.9],[85.9,51.9],[85.9,51.8],[85.6,51.8],[85.6,51.7],[85.0,51.7],[85.0,51.6],[84.4,51.6],[84.4,51.5],[83.9,51.5],[83.9,51.4],[83.0,51.4],[83.0,51.3],[82.6,51.3],[82.6,51.2],[81.7,51.2],[81.7,51.1],[81.3,51.1],[81.3,51.0],[80.8,51.0],[80.8,50.9],[80.5,50.9],[80.5,50.8],[80.2,50.8],[80.2,50.7],[79.9,50.7],[79.9,50.6],[79.5,50.6],[79.5,50.5],[79.2,50.5],[79.2,50.4],[79.0,50.4],[79.0,50.3],[78.8,50.3],[78.8,50.2],[78.7,50.2],[78.7,50.1],[78.5,50.1],[78.5,50.0],[78.2,50.0],[78.2,49.9],[77.7,49.9],[77.7,49.7],[77.6,49.7],[77.6,49.6],[77.5,49.6],[77.5,49.5],[77.4,49.5],[77.4,49.4],[77.3,49.4],[77.3,49.3],[77.2,49.3],[77.2,49.2],[75.8,49.2],[75.8,49.1],[75.4,49.1],[75.4,49.0],[75.0,49.0],[75.0,48.9],[74.7,48.9],[74.7,48.8],[73.9,48.8],[73.9,48.7],[73.8,48.7],[73.8,48.6],[73.4,48.6],[73.4,48.5],[72.8,48.5],[72.8,48.4],[72.5,48.4],[72.5,48.3],[72.1,48.3],[72.1,48.2],[71.8,48.2],[71.8,48.1],[71.5,48.1],[71.5,48.0],[71.3,48.0],[71.3,47.9],[70.9,47.9],[70.9,47.8],[70.5,47.8],[70.5,47.7],[69.8,47.7],[69.8,47.6],[69.0,47.6],[69.0,47.5],[67.8,47.5],[67.8,47.4],[67.1,47.4],[67.1,47.5],[65.7,47.5],[65.7,47.4],[65.4,47.4],[65.4,47.3],[63.7,47.3],[63.7,47.2],[63.4,47.2],[63.4,47.1],[63.0,47.1],[63.0,47.0],[62.8,47.0],[62.8,46.9],[62.7,46.9],[62.7,46.8],[62.5,46.8],[62.5,46.7],[62.1,46.7],[62.1,46.6],[61.7,46.6],[61.7,46.5],[61.3,46.5],[61.3,46.4],[61.2,46.4],[61.2,46.2],[61.1,46.2],[61.1,46.1],[61.0,46.1],[61.0,46.0],[60.9,46.0],[60.9,45.6],[61.0,45.6],[61.0,45.5],[61.1,45.5],[61.1,45.4],[61.2,45.4],[61.2,45.2],[61.3,45.2],[61.3,45.1],[61.4,45.1],[61.4,45.0],[90.0,45.0],[90.0,52.5]],[[74.5,46.8],[74.5,46.9],[75.8,46.9],[75.8,46.8],[75.9,46.8],[75.9,46.7],[75.8,46.7],[75.8,46.6],[75.6,46.6],[75.6,46.5],[75.1,46.5],[75.1,46.6],[74.9,46.6],[74.9,46.5],[74.7,46.5],[74.7,46.3],[74.4,46.3],[74.4,46.2],[74.3,46.2],[74.3,46.1],[74.2,46.1],[74.2,46.0],[74.1,46.0],[74.1,45.7],[74.0,45.7],[74.0,45.5],[73.9,45.5],[73.9,45.3],[73.5,45.3],[73.5,45.4],[73.4,45.4],[73.4,45.5],[73.3,45.5],[73.3,46.1],[73.4,46.1],[73.4,46.2],[73.5,46.2],[73.5,46.4],[73.7,46.4],[73.7,46.5],[73.9,46.5],[73.9,46.6],[74.1,46.6],[74.1,46.7],[74.4,46.7],[74.4,46.8],[74.5,46.8]]]},"properties":{"tile_id":"50","start_year":695,"end_year":698,"source_image":"data/raw/toolbay/t/50/695.png","source_url":"https://www.toolbay.cc/history-map/t/50/695.png","source_color":"#ff9933","polity_id":null,"polity_assignment":"unverified","geometry_origin":"raster_color_trace","pixel_size_degrees":0.1,"source_color_pixels":15539,"simplification_degrees":0}}]}
