{"type":"FeatureCollection","features":[{"type":"Feature","id":"50:740:#009999","bbox":[60.9,45.0,72.5,47.7],"geometry":{"type":"Polygon","coordinates":[[[70.1,47.7],[69.8,47.7],[69.8,47.6],[69.0,47.6],[69.0,47.5],[67.8,47.5],[67.8,47.4],[67.1,47.4],[67.1,47.5],[65.7,47.5],[65.7,47.4],[65.4,47.4],[65.4,47.3],[63.7,47.3],[63.7,47.2],[63.4,47.2],[63.4,47.1],[63.0,47.1],[63.0,47.0],[62.8,47.0],[62.8,46.9],[62.7,46.9],[62.7,46.8],[62.5,46.8],[62.5,46.7],[62.1,46.7],[62.1,46.6],[61.7,46.6],[61.7,46.5],[61.3,46.5],[61.3,46.4],[61.2,46.4],[61.2,46.2],[61.1,46.2],[61.1,46.1],[61.0,46.1],[61.0,46.0],[60.9,46.0],[60.9,45.6],[61.0,45.6],[61.0,45.5],[61.1,45.5],[61.1,45.4],[61.2,45.4],[61.2,45.2],[61.3,45.2],[61.3,45.1],[61.4,45.1],[61.4,45.0],[70.4,45.0],[70.4,45.1],[70.5,45.1],[70.5,45.2],[70.6,45.2],[70.6,45.3],[70.8,45.3],[70.8,45.4],[70.9,45.4],[70.9,45.5],[71.1,45.5],[71.1,45.6],[71.3,45.6],[71.3,45.7],[71.5,45.7],[71.5,45.8],[71.6,45.8],[71.6,45.9],[71.7,45.9],[71.7,46.0],[71.8,46.0],[71.8,46.1],[71.9,46.1],[71.9,46.2],[72.0,46.2],[72.0,46.3],[72.1,46.3],[72.1,46.4],[72.2,46.4],[72.2,46.6],[72.3,46.6],[72.3,46.8],[72.4,46.8],[72.4,46.9],[72.5,46.9],[72.5,47.1],[72.2,47.1],[72.2,47.2],[72.0,47.2],[72.0,47.3],[71.6,47.3],[71.6,47.4],[71.4,47.4],[71.4,47.5],[70.8,47.5],[70.8,47.6],[70.1,47.6],[70.1,47.7]]]},"properties":{"tile_id":"50","start_year":740,"end_year":744,"source_image":"data/raw/toolbay/t/50/740.png","source_url":"https://www.toolbay.cc/history-map/t/50/740.png","source_color":"#009999","polity_id":null,"polity_assignment":"unverified","geometry_origin":"raster_color_trace","pixel_size_degrees":0.1,"source_color_pixels":2436,"simplification_degrees":0}},{"type":"Feature","id":"50:740:#00ff00","bbox":[80.7,45.1,90.0,52.5],"geometry":{"type":"Polygon","coordinates":[[[90.0,52.5],[88.7,52.5],[88.7,52.4],[88.0,52.4],[88.0,52.3],[87.6,52.3],[87.6,52.2],[87.2,52.2],[87.2,52.1],[86.7,52.1],[86.7,52.0],[86.3,52.0],[86.3,51.9],[85.9,51.9],[85.9,51.8],[85.6,51.8],[85.6,51.7],[85.0,51.7],[85.0,51.6],[84.4,51.6],[84.4,51.5],[84.2,51.5],[84.2,51.4],[84.1,51.4],[84.1,51.3],[84.0,51.3],[84.0,51.2],[83.8,51.2],[83.8,51.1],[83.6,51.1],[83.6,51.0],[83.5,51.0],[83.5,50.9],[83.3,50.9],[83.3,50.8],[83.1,50.8],[83.1,50.7],[82.9,50.7],[82.9,50.6],[82.6,50.6],[82.6,50.5],[82.4,50.5],[82.4,50.4],[82.1,50.4],[82.1,50.3],[81.9,50.3],[81.9,50.2],[81.6,50.2],[81.6,50.1],[81.4,50.1],[81.4,50.0],[81.3,50.0],[81.3,49.9],[81.2,49.9],[81.2,49.8],[81.0,49.8],[81.0,49.7],[80.9,49.7],[80.9,49.5],[80.8,49.5],[80.8,49.4],[80.7,49.4],[80.7,49.1],[80.8,49.1],[80.8,49.0],[81.6,49.0],[81.6,48.9],[81.9,48.9],[81.9,48.8],[82.0,48.8],[82.0,48.7],[82.1,48.7],[82.1,48.6],[82.2,48.6],[82.2,48.5],[82.4,48.5],[82.4,48.4],[82.6,48.4],[82.6,48.3],[82.8,48.3],[82.8,48.2],[82.9,48.2],[82.9,48.1],[83.1,48.1],[83.1,48.0],[83.2,48.0],[83.2,47.9],[83.4,47.9],[83.4,47.8],[83.7,47.8],[83.7,47.7],[84.0,47.7],[84.0,47.6],[84.2,47.6],[84.2,47.5],[84.3,47.5],[84.3,47.4],[84.5,47.4],[84.5,47.3],[84.8,47.3],[84.8,47.2],[84.9,47.2],[84.9,47.1],[85.2,47.1],[85.2,47.0],[85.5,47.0],[85.5,46.9],[85.7,46.9],[85.7,46.8],[86.1,46.8],[86.1,46.7],[86.2,46.7],[86.2,46.6],[86.6,46.6],[86.6,46.5],[86.7,46.5],[86.7,46.4],[87.0,46.4],[87.0,46.3],[87.2,46.3],[87.2,46.2],[87.5,46.2],[87.5,46.1],[87.8,46.1],[87.8,46.0],[88.0,46.0],[88.0,45.9],[88.3,45.9],[88.3,45.8],[88.4,45.8],[88.4,45.7],[88.6,45.7],[88.6,45.6],[88.8,45.6],[88.8,45.5],[89.0,45.5],[89.0,45.4],[89.2,45.4],[89.2,45.3],[89.5,45.3],[89.5,45.2],[89.7,45.2],[89.7,45.1],[90.0,45.1],[90.0,52.5]]]},"properties":{"tile_id":"50","start_year":740,"end_year":744,"source_image":"data/raw/toolbay/t/50/740.png","source_url":"https://www.toolbay.cc/history-map/t/50/740.png","source_color":"#00ff00","polity_id":null,"polity_assignment":"unverified","geometry_origin":"raster_color_trace","pixel_size_degrees":0.1,"source_color_pixels":4095,"simplification_degrees":0}},{"type":"Feature","id":"50:740:#ff9933","bbox":[70.4,45.0,90.0,49.3],"geometry":{"type":"Polygon","coordinates":[[[80.7,49.3],[80.6,49.3],[80.6,49.2],[80.5,49.2],[80.5,49.1],[80.3,49.1],[80.3,49.0],[80.2,49.0],[80.2,48.9],[80.1,48.9],[80.1,48.8],[80.0,48.8],[80.0,48.7],[79.8,48.7],[79.8,48.6],[79.7,48.6],[79.7,48.5],[79.6,48.5],[79.6,48.4],[79.5,48.4],[79.5,48.3],[79.3,48.3],[79.3,48.2],[79.1,48.2],[79.1,48.1],[78.9,48.1],[78.9,48.0],[78.6,48.0],[78.6,47.9],[78.5,47.9],[78.5,47.8],[78.3,47.8],[78.3,47.7],[78.1,47.7],[78.1,47.6],[77.9,47.6],[77.9,47.5],[77.7,47.5],[77.7,47.4],[77.5,47.4],[77.5,47.3],[77.3,47.3],[77.3,47.2],[77.1,47.2],[77.1,47.1],[76.8,47.1],[76.8,47.0],[76.4,47.0],[76.4,46.9],[76.2,46.9],[76.2,46.8],[75.9,46.8],[75.9,46.7],[75.8,46.7],[75.8,46.6],[75.6,46.6],[75.6,46.5],[75.1,46.5],[75.1,46.6],[74.9,46.6],[74.9,46.5],[74.7,46.5],[74.7,46.3],[74.4,46.3],[74.4,46.2],[74.3,46.2],[74.3,46.1],[74.2,46.1],[74.2,46.0],[74.1,46.0],[74.1,45.7],[74.0,45.7],[74.0,45.5],[73.9,45.5],[73.9,45.3],[73.5,45.3],[73.5,45.4],[73.4,45.4],[73.4,45.5],[73.3,45.5],[73.3,46.1],[73.4,46.1],[73.4,46.2],[73.5,46.2],[73.5,46.4],[73.7,46.4],[73.7,46.6],[73.5,46.6],[73.5,46.7],[73.0,46.7],[73.0,46.8],[72.8,46.8],[72.8,46.9],[72.7,46.9],[72.7,47.0],[72.5,47.0],[72.5,46.9],[72.4,46.9],[72.4,46.8],[72.3,46.8],[72.3,46.6],[72.2,46.6],[72.2,46.4],[72.1,46.4],[72.1,46.3],[72.0,46.3],[72.0,46.2],[71.9,46.2],[71.9,46.1],[71.8,46.1],[71.8,46.0],[71.7,46.0],[71.7,45.9],[71.6,45.9],[71.6,45.8],[71.5,45.8],[71.5,45.7],[71.3,45.7],[71.3,45.6],[71.1,45.6],[71.1,45.5],[70.9,45.5],[70.9,45.4],[70.8,45.4],[70.8,45.3],[70.6,45.3],[70.6,45.2],[70.5,45.2],[70.5,45.1],[70.4,45.1],[70.4,45.0],[90.0,45.0],[90.0,45.1],[89.7,45.1],[89.7,45.2],[89.5,45.2],[89.5,45.3],[89.2,45.3],[89.2,45.4],[89.0,45.4],[89.0,45.5],[88.8,45.5],[88.8,45.6],[88.6,45.6],[88.6,45.7],[88.4,45.7],[88.4,45.8],[88.3,45.8],[88.3,45.9],[88.0,45.9],[88.0,46.0],[87.8,46.0],[87.8,46.1],[87.5,46.1],[87.5,46.2],[87.2,46.2],[87.2,46.3],[87.0,46.3],[87.0,46.4],[86.7,46.4],[86.7,46.5],[86.6,46.5],[86.6,46.6],[86.2,46.6],[86.2,46.7],[86.1,46.7],[86.1,46.8],[85.7,46.8],[85.7,46.9],[85.5,46.9],[85.5,47.0],[85.2,47.0],[85.2,47.1],[84.9,47.1],[84.9,47.2],[84.8,47.2],[84.8,47.3],[84.5,47.3],[84.5,47.4],[84.3,47.4],[84.3,47.5],[84.2,47.5],[84.2,47.6],[84.0,47.6],[84.0,47.7],[83.7,47.7],[83.7,47.8],[83.4,47.8],[83.4,47.9],[83.2,47.9],[83.2,48.0],[83.1,48.0],[83.1,48.1],[82.9,48.1],[82.9,48.2],[82.8,48.2],[82.8,48.3],[82.6,48.3],[82.6,48.4],[82.4,48.4],[82.4,48.5],[82.2,48.5],[82.2,48.6],[82.1,48.6],[82.1,48.7],[82.0,48.7],[82.0,48.8],[81.9,48.8],[81.9,48.9],[81.6,48.9],[81.6,49.0],[80.8,49.0],[80.8,49.1],[80.7,49.1],[80.7,49.3]]]},"properties":{"tile_id":"50","start_year":740,"end_year":744,"source_image":"data/raw/toolbay/t/50/740.png","source_url":"https://www.toolbay.cc/history-map/t/50/740.png","source_color":"#ff9933","polity_id":null,"polity_assignment":"unverified","geometry_origin":"raster_color_trace","pixel_size_degrees":0.1,"source_color_pixels":6903,"simplification_degrees":0}}]}
