{"type":"FeatureCollection","features":[{"type":"Feature","id":"50:790:#00ff00","bbox":[87.2,52.1,87.3,52.2],"geometry":{"type":"Polygon","coordinates":[[[87.3,52.2],[87.2,52.2],[87.2,52.1],[87.3,52.1],[87.3,52.2]]]},"properties":{"tile_id":"50","start_year":790,"end_year":795,"source_image":"data/raw/toolbay/t/50/790.png","source_url":"https://www.toolbay.cc/history-map/t/50/790.png","source_color":"#00ff00","polity_id":null,"polity_assignment":"unverified","geometry_origin":"raster_color_trace","pixel_size_degrees":0.1,"source_color_pixels":1,"simplification_degrees":0}},{"type":"Feature","id":"50:790:#00ffff","bbox":[60.4,45.0,90.0,52.5],"geometry":{"type":"Polygon","coordinates":[[[90.0,52.5],[88.7,52.5],[88.7,52.4],[88.0,52.4],[88.0,52.3],[87.6,52.3],[87.6,52.2],[87.3,52.2],[87.3,52.1],[85.2,52.1],[85.2,52.2],[84.0,52.2],[84.0,52.1],[83.7,52.1],[83.7,52.0],[83.2,52.0],[83.2,51.9],[82.5,51.9],[82.5,51.8],[81.8,51.8],[81.8,51.7],[81.4,51.7],[81.4,51.6],[81.1,51.6],[81.1,51.5],[80.9,51.5],[80.9,51.4],[80.5,51.4],[80.5,51.3],[80.2,51.3],[80.2,51.2],[79.9,51.2],[79.9,51.1],[79.6,51.1],[79.6,51.0],[79.4,51.0],[79.4,50.9],[79.1,50.9],[79.1,50.8],[78.8,50.8],[78.8,50.7],[78.5,50.7],[78.5,50.6],[78.3,50.6],[78.3,50.5],[77.9,50.5],[77.9,50.4],[77.6,50.4],[77.6,50.3],[77.4,50.3],[77.4,50.2],[77.1,50.2],[77.1,50.1],[76.8,50.1],[76.8,50.0],[76.5,50.0],[76.5,49.9],[76.0,49.9],[76.0,49.8],[75.8,49.8],[75.8,49.7],[75.3,49.7],[75.3,49.6],[75.0,49.6],[75.0,49.5],[74.8,49.5],[74.8,49.4],[74.5,49.4],[74.5,49.3],[74.1,49.3],[74.1,49.2],[73.8,49.2],[73.8,49.1],[73.2,49.1],[73.2,49.0],[71.3,49.0],[71.3,49.1],[70.9,49.1],[70.9,49.0],[66.8,49.0],[66.8,48.9],[66.6,48.9],[66.6,48.8],[66.2,48.8],[66.2,48.7],[65.1,48.7],[65.1,48.6],[64.7,48.6],[64.7,48.5],[64.1,48.5],[64.1,48.4],[61.5,48.4],[61.5,48.3],[61.2,48.3],[61.2,48.2],[60.9,48.2],[60.9,48.1],[60.8,48.1],[60.8,48.0],[60.7,48.0],[60.7,47.9],[60.6,47.9],[60.6,47.8],[60.5,47.8],[60.5,47.6],[60.4,47.6],[60.4,47.2],[60.5,47.2],[60.5,46.8],[60.6,46.8],[60.6,46.7],[60.8,46.7],[60.8,46.6],[60.9,46.6],[60.9,46.5],[61.2,46.5],[61.2,46.6],[61.3,46.6],[61.3,46.4],[61.2,46.4],[61.2,46.2],[61.1,46.2],[61.1,46.1],[61.0,46.1],[61.0,46.0],[60.9,46.0],[60.9,45.6],[61.0,45.6],[61.0,45.5],[61.1,45.5],[61.1,45.4],[61.2,45.4],[61.2,45.2],[61.3,45.2],[61.3,45.1],[61.4,45.1],[61.4,45.0],[85.1,45.0],[85.1,45.1],[85.3,45.1],[85.3,45.2],[85.4,45.2],[85.4,45.3],[85.5,45.3],[85.5,45.4],[85.7,45.4],[85.7,45.5],[86.0,45.5],[86.0,45.6],[86.2,45.6],[86.2,45.7],[87.0,45.7],[87.0,45.8],[87.2,45.8],[87.2,45.9],[87.4,45.9],[87.4,46.0],[87.6,46.0],[87.6,46.1],[87.8,46.1],[87.8,46.0],[88.0,46.0],[88.0,45.9],[88.3,45.9],[88.3,45.8],[88.4,45.8],[88.4,45.7],[88.6,45.7],[88.6,45.6],[88.8,45.6],[88.8,45.5],[89.0,45.5],[89.0,45.4],[89.2,45.4],[89.2,45.3],[89.5,45.3],[89.5,45.2],[89.7,45.2],[89.7,45.1],[90.0,45.1],[90.0,52.5]],[[74.5,46.8],[74.5,46.9],[75.8,46.9],[75.8,46.8],[75.9,46.8],[75.9,46.7],[75.8,46.7],[75.8,46.6],[75.6,46.6],[75.6,46.5],[75.1,46.5],[75.1,46.6],[74.9,46.6],[74.9,46.5],[74.7,46.5],[74.7,46.3],[74.4,46.3],[74.4,46.2],[74.3,46.2],[74.3,46.1],[74.2,46.1],[74.2,46.0],[74.1,46.0],[74.1,45.7],[74.0,45.7],[74.0,45.5],[73.9,45.5],[73.9,45.3],[73.5,45.3],[73.5,45.4],[73.4,45.4],[73.4,45.5],[73.3,45.5],[73.3,46.1],[73.4,46.1],[73.4,46.2],[73.5,46.2],[73.5,46.4],[73.7,46.4],[73.7,46.5],[73.9,46.5],[73.9,46.6],[74.1,46.6],[74.1,46.7],[74.4,46.7],[74.4,46.8],[74.5,46.8]]]},"properties":{"tile_id":"50","start_year":790,"end_year":795,"source_image":"data/raw/toolbay/t/50/790.png","source_url":"https://www.toolbay.cc/history-map/t/50/790.png","source_color":"#00ffff","polity_id":null,"polity_assignment":"unverified","geometry_origin":"raster_color_trace","pixel_size_degrees":0.1,"source_color_pixels":14680,"simplification_degrees":0}},{"type":"Feature","id":"50:790:#ff00ff","bbox":[85.1,45.0,90.0,46.1],"geometry":{"type":"Polygon","coordinates":[[[87.8,46.1],[87.6,46.1],[87.6,46.0],[87.4,46.0],[87.4,45.9],[87.2,45.9],[87.2,45.8],[87.0,45.8],[87.0,45.7],[86.2,45.7],[86.2,45.6],[86.0,45.6],[86.0,45.5],[85.7,45.5],[85.7,45.4],[85.5,45.4],[85.5,45.3],[85.4,45.3],[85.4,45.2],[85.3,45.2],[85.3,45.1],[85.1,45.1],[85.1,45.0],[90.0,45.0],[90.0,45.1],[89.7,45.1],[89.7,45.2],[89.5,45.2],[89.5,45.3],[89.2,45.3],[89.2,45.4],[89.0,45.4],[89.0,45.5],[88.8,45.5],[88.8,45.6],[88.6,45.6],[88.6,45.7],[88.4,45.7],[88.4,45.8],[88.3,45.8],[88.3,45.9],[88.0,45.9],[88.0,46.0],[87.8,46.0],[87.8,46.1]]]},"properties":{"tile_id":"50","start_year":790,"end_year":795,"source_image":"data/raw/toolbay/t/50/790.png","source_url":"https://www.toolbay.cc/history-map/t/50/790.png","source_color":"#ff00ff","polity_id":null,"polity_assignment":"unverified","geometry_origin":"raster_color_trace","pixel_size_degrees":0.1,"source_color_pixels":2238,"simplification_degrees":0}}]}
