{"type":"FeatureCollection","features":[{"type":"Feature","id":"50:840:#00ff00","bbox":[73.8,45.0,90.0,46.7],"geometry":{"type":"Polygon","coordinates":[[[76.7,46.7],[75.8,46.7],[75.8,46.6],[75.6,46.6],[75.6,46.5],[75.1,46.5],[75.1,46.6],[74.9,46.6],[74.9,46.5],[74.7,46.5],[74.7,46.3],[74.4,46.3],[74.4,46.2],[74.3,46.2],[74.3,46.1],[74.2,46.1],[74.2,46.0],[74.1,46.0],[74.1,45.7],[74.0,45.7],[74.0,45.5],[73.9,45.5],[73.9,45.1],[73.8,45.1],[73.8,45.0],[90.0,45.0],[90.0,46.2],[87.9,46.2],[87.9,46.1],[85.5,46.1],[85.5,46.2],[83.7,46.2],[83.7,46.3],[82.9,46.3],[82.9,46.2],[82.2,46.2],[82.2,46.3],[81.4,46.3],[81.4,46.4],[79.3,46.4],[79.3,46.3],[78.7,46.3],[78.7,46.2],[78.0,46.2],[78.0,46.3],[77.5,46.3],[77.5,46.4],[77.2,46.4],[77.2,46.5],[77.0,46.5],[77.0,46.6],[76.7,46.6],[76.7,46.7]]]},"properties":{"tile_id":"50","start_year":840,"end_year":860,"source_image":"data/raw/toolbay/t/50/840.png","source_url":"https://www.toolbay.cc/history-map/t/50/840.png","source_color":"#00ff00","polity_id":null,"polity_assignment":"unverified","geometry_origin":"raster_color_trace","pixel_size_degrees":0.1,"source_color_pixels":2072,"simplification_degrees":0}},{"type":"Feature","id":"50:840:#999900","bbox":[86.1,46.1,90.0,47.8],"geometry":{"type":"Polygon","coordinates":[[[90.0,47.8],[88.8,47.8],[88.8,47.7],[88.5,47.7],[88.5,47.6],[88.1,47.6],[88.1,47.5],[87.8,47.5],[87.8,47.4],[87.5,47.4],[87.5,47.3],[87.2,47.3],[87.2,47.2],[87.0,47.2],[87.0,47.1],[86.8,47.1],[86.8,47.0],[86.7,47.0],[86.7,46.9],[86.6,46.9],[86.6,46.8],[86.5,46.8],[86.5,46.6],[86.4,46.6],[86.4,46.5],[86.3,46.5],[86.3,46.4],[86.2,46.4],[86.2,46.3],[86.1,46.3],[86.1,46.1],[87.9,46.1],[87.9,46.2],[90.0,46.2],[90.0,47.8]]]},"properties":{"tile_id":"50","start_year":840,"end_year":860,"source_image":"data/raw/toolbay/t/50/840.png","source_url":"https://www.toolbay.cc/history-map/t/50/840.png","source_color":"#999900","polity_id":null,"polity_assignment":"unverified","geometry_origin":"raster_color_trace","pixel_size_degrees":0.1,"source_color_pixels":488,"simplification_degrees":0}}]}
