{"type":"FeatureCollection","features":[{"type":"Feature","id":"50:888:#999900","bbox":[85.1,45.0,90.0,47.8],"geometry":{"type":"Polygon","coordinates":[[[90.0,47.8],[88.8,47.8],[88.8,47.7],[88.5,47.7],[88.5,47.6],[88.1,47.6],[88.1,47.5],[87.8,47.5],[87.8,47.4],[87.5,47.4],[87.5,47.3],[87.2,47.3],[87.2,47.2],[87.0,47.2],[87.0,47.1],[86.8,47.1],[86.8,47.0],[86.7,47.0],[86.7,46.9],[86.6,46.9],[86.6,46.8],[86.5,46.8],[86.5,46.6],[86.4,46.6],[86.4,46.5],[86.3,46.5],[86.3,46.4],[86.2,46.4],[86.2,46.3],[86.1,46.3],[86.1,46.1],[86.0,46.1],[86.0,46.0],[85.9,46.0],[85.9,45.9],[85.7,45.9],[85.7,45.7],[85.6,45.7],[85.6,45.6],[85.5,45.6],[85.5,45.5],[85.4,45.5],[85.4,45.4],[85.3,45.4],[85.3,45.3],[85.2,45.3],[85.2,45.1],[85.1,45.1],[85.1,45.0],[90.0,45.0],[90.0,47.8]]]},"properties":{"tile_id":"50","start_year":888,"end_year":940,"source_image":"data/raw/toolbay/t/50/888.png","source_url":"https://www.toolbay.cc/history-map/t/50/888.png","source_color":"#999900","polity_id":null,"polity_assignment":"unverified","geometry_origin":"raster_color_trace","pixel_size_degrees":0.1,"source_color_pixels":1003,"simplification_degrees":0}}]}
