{"type":"FeatureCollection","features":[{"type":"Feature","id":"50:940:#00ffff","bbox":[68.8,45.0,84.9,46.8],"geometry":{"type":"Polygon","coordinates":[[[76.2,46.8],[75.9,46.8],[75.9,46.7],[75.8,46.7],[75.8,46.6],[75.6,46.6],[75.6,46.5],[75.1,46.5],[75.1,46.6],[74.9,46.6],[74.9,46.5],[74.7,46.5],[74.7,46.3],[74.4,46.3],[74.4,46.2],[74.3,46.2],[74.3,46.1],[74.2,46.1],[74.2,46.0],[74.1,46.0],[74.1,45.7],[74.0,45.7],[74.0,45.5],[73.9,45.5],[73.9,45.3],[73.5,45.3],[73.5,45.4],[73.4,45.4],[73.4,45.5],[73.3,45.5],[73.3,46.0],[73.2,46.0],[73.2,46.1],[71.4,46.1],[71.4,46.0],[71.0,46.0],[71.0,45.9],[70.6,45.9],[70.6,45.8],[70.2,45.8],[70.2,45.7],[69.8,45.7],[69.8,45.6],[69.7,45.6],[69.7,45.5],[69.4,45.5],[69.4,45.4],[69.2,45.4],[69.2,45.3],[69.1,45.3],[69.1,45.2],[68.9,45.2],[68.9,45.1],[68.8,45.1],[68.8,45.0],[84.9,45.0],[84.9,45.1],[84.4,45.1],[84.4,45.2],[83.4,45.2],[83.4,45.3],[82.7,45.3],[82.7,45.4],[82.1,45.4],[82.1,45.5],[81.6,45.5],[81.6,45.6],[81.2,45.6],[81.2,45.7],[80.6,45.7],[80.6,45.8],[80.2,45.8],[80.2,45.9],[79.6,45.9],[79.6,46.0],[79.3,46.0],[79.3,46.1],[78.6,46.1],[78.6,46.2],[78.2,46.2],[78.2,46.3],[77.8,46.3],[77.8,46.4],[77.4,46.4],[77.4,46.5],[77.0,46.5],[77.0,46.6],[76.5,46.6],[76.5,46.7],[76.2,46.7],[76.2,46.8]]]},"properties":{"tile_id":"50","start_year":940,"end_year":950,"source_image":"data/raw/toolbay/t/50/940.png","source_url":"https://www.toolbay.cc/history-map/t/50/940.png","source_color":"#00ffff","polity_id":null,"polity_assignment":"unverified","geometry_origin":"raster_color_trace","pixel_size_degrees":0.1,"source_color_pixels":1427,"simplification_degrees":0}}]}
