{"type":"FeatureCollection","year":618,"features":[{"type":"Feature","id":"toolbay-region-0081-period-003","geometry":{"type":"Point","coordinates":[80.0,7.0]},"properties":{"id":"toolbay-region-0081-period-003","entity_id":"toolbay-region-0081","start_year":-330,"end_year":1018,"open_ended":false,"names":{"ja":"シンハラ","en":"Simhala","zh":"狮子国"},"abbreviations":{"ja":"シンハラ","en":"Simhala","zh":"狮子国"},"symbol_key":null,"label_position":[80.0,7.0],"source_pixel":[2600,830],"display_level":1,"source":{"file":"js/regions.js","region_index":81,"row_index":3},"position_kind":"source_label_anchor_not_capital"}},{"type":"Feature","id":"toolbay-region-0122-period-004","geometry":{"type":"Point","coordinates":[134.0,35.5]},"properties":{"id":"toolbay-region-0122-period-004","entity_id":"toolbay-region-0122","start_year":600,"end_year":1180,"open_ended":false,"names":{"ja":"日本","en":"Japan","zh":"日本"},"abbreviations":{"ja":"日本","en":"Japan","zh":"日本"},"symbol_key":null,"label_position":[134.0,35.5],"source_pixel":[3140,545],"display_level":0,"source":{"file":"js/regions.js","region_index":122,"row_index":4},"position_kind":"source_label_anchor_not_capital"}},{"type":"Feature","id":"toolbay-region-0125-period-003","geometry":{"type":"Point","coordinates":[140.0,38.8]},"properties":{"id":"toolbay-region-0125-period-003","entity_id":"toolbay-region-0125","start_year":500,"end_year":750,"open_ended":false,"names":{"ja":"虾夷","en":"Emishi","zh":"虾夷"},"abbreviations":{"ja":"虾夷","en":"Emishi","zh":"虾夷"},"symbol_key":null,"label_position":[140.0,38.8],"source_pixel":[3200,512],"display_level":1,"source":{"file":"js/regions.js","region_index":125,"row_index":3},"position_kind":"source_label_anchor_not_capital"}},{"type":"Feature","id":"toolbay-region-0218-period-004","geometry":{"type":"Point","coordinates":[125.0,42.4]},"properties":{"id":"toolbay-region-0218-period-004","entity_id":"toolbay-region-0218","start_year":392,"end_year":668,"open_ended":false,"names":{"ja":"高句丽","en":"Goguryeo","zh":"高句丽"},"abbreviations":{"ja":"高句丽","en":"Goguryeo","zh":"高句丽"},"symbol_key":null,"label_position":[125.0,42.4],"source_pixel":[3050,476],"display_level":0,"source":{"file":"js/regions.js","region_index":218,"row_index":4},"position_kind":"source_label_anchor_not_capital"}},{"type":"Feature","id":"toolbay-region-0237-period-003","geometry":{"type":"Point","coordinates":[95.0,18.0]},"properties":{"id":"toolbay-region-0237-period-003","entity_id":"toolbay-region-0237","start_year":200,"end_year":1044,"open_ended":false,"names":{"ja":"ピュー","en":"Pyu","zh":"骠"},"abbreviations":{"ja":"ピュー","en":"Pyu","zh":"骠"},"symbol_key":null,"label_position":[95.0,18.0],"source_pixel":[2750,720],"display_level":0,"source":{"file":"js/regions.js","region_index":237,"row_index":3},"position_kind":"source_label_anchor_not_capital"}},{"type":"Feature","id":"toolbay-region-0245-period-003","geometry":{"type":"Point","coordinates":[108.0,13.5]},"properties":{"id":"toolbay-region-0245-period-003","entity_id":"toolbay-region-0245","start_year":200,"end_year":757,"open_ended":false,"names":{"ja":"チャンパ（林邑）","en":"Champa","zh":"林邑"},"abbreviations":{"ja":"チャンパ","en":"Champa","zh":"林邑"},"symbol_key":null,"label_position":[108.0,13.5],"source_pixel":[2880,765],"display_level":0,"source":{"file":"js/regions.js","region_index":245,"row_index":3},"position_kind":"source_label_anchor_not_capital"}},{"type":"Feature","id":"toolbay-region-0249-period-003","geometry":{"type":"Point","coordinates":[104.0,10.8]},"properties":{"id":"toolbay-region-0249-period-003","entity_id":"toolbay-region-0249","start_year":246,"end_year":630,"open_ended":false,"names":{"ja":"扶南国","en":"Funan","zh":"扶南国"},"abbreviations":{"ja":"扶南","en":"Funan","zh":"扶南"},"symbol_key":null,"label_position":[104.0,10.8],"source_pixel":[2840,792],"display_level":0,"source":{"file":"js/regions.js","region_index":249,"row_index":3},"position_kind":"source_label_anchor_not_capital"}},{"type":"Feature","id":"toolbay-region-0255-period-003","geometry":{"type":"Point","coordinates":[98.0,9.0]},"properties":{"id":"toolbay-region-0255-period-003","entity_id":"toolbay-region-0255","start_year":300,"end_year":1279,"open_ended":false,"names":{"ja":"ランカスカ王国","en":"Langkasuka kingdom","zh":"狼牙脩王国"},"abbreviations":{"ja":"ランカスカ","en":"Langkasuka","zh":"狼牙脩"},"symbol_key":null,"label_position":[98.0,9.0],"source_pixel":[2780,810],"display_level":1,"source":{"file":"js/regions.js","region_index":255,"row_index":3},"position_kind":"source_label_anchor_not_capital"}},{"type":"Feature","id":"toolbay-region-0257-period-004","geometry":{"type":"Point","coordinates":[79.0,14.0]},"properties":{"id":"toolbay-region-0257-period-004","entity_id":"toolbay-region-0257","start_year":551,"end_year":630,"open_ended":false,"names":{"ja":"パッラヴァ朝","en":"Pallava kingdom","zh":"帕拉瓦王朝"},"abbreviations":{"ja":"パッラヴァ","en":"Pallava","zh":"帕拉瓦"},"symbol_key":null,"label_position":[79.0,14.0],"source_pixel":[2590,760],"display_level":0,"source":{"file":"js/regions.js","region_index":257,"row_index":4},"position_kind":"source_label_anchor_not_capital"}},{"type":"Feature","id":"toolbay-region-0262-period-004","geometry":{"type":"Point","coordinates":[95.0,38.0]},"properties":{"id":"toolbay-region-0262-period-004","entity_id":"toolbay-region-0262","start_year":401,"end_year":635,"open_ended":false,"names":{"ja":"吐谷浑","en":"Toyuhun","zh":"吐谷浑"},"abbreviations":{"ja":"吐谷浑","en":"Toyuhun","zh":"吐谷浑"},"symbol_key":null,"label_position":[95.0,38.0],"source_pixel":[2750,520],"display_level":0,"source":{"file":"js/regions.js","region_index":262,"row_index":4},"position_kind":"source_label_anchor_not_capital"}},{"type":"Feature","id":"toolbay-region-0267-period-003","geometry":{"type":"Point","coordinates":[126.0,36.8]},"properties":{"id":"toolbay-region-0267-period-003","entity_id":"toolbay-region-0267","start_year":346,"end_year":660,"open_ended":false,"names":{"ja":"百济","en":"Beakje","zh":"百济"},"abbreviations":{"ja":"百济","en":"Beakje","zh":"百济"},"symbol_key":null,"label_position":[126.0,36.8],"source_pixel":[3060,532],"display_level":2,"source":{"file":"js/regions.js","region_index":267,"row_index":3},"position_kind":"source_label_anchor_not_capital"}},{"type":"Feature","id":"toolbay-region-0274-period-004","geometry":{"type":"Point","coordinates":[128.5,37.2]},"properties":{"id":"toolbay-region-0274-period-004","entity_id":"toolbay-region-0274","start_year":562,"end_year":663,"open_ended":false,"names":{"ja":"新罗","en":"Silla","zh":"新罗"},"abbreviations":{"ja":"新罗","en":"Silla","zh":"新罗"},"symbol_key":null,"label_position":[128.5,37.2],"source_pixel":[3085,528],"display_level":1,"source":{"file":"js/regions.js","region_index":274,"row_index":4},"position_kind":"source_label_anchor_not_capital"}},{"type":"Feature","id":"toolbay-region-0278-period-003","geometry":{"type":"Point","coordinates":[117.0,43.0]},"properties":{"id":"toolbay-region-0278-period-003","entity_id":"toolbay-region-0278","start_year":586,"end_year":654,"open_ended":false,"names":{"ja":"契丹","en":"Khitan","zh":"契丹"},"abbreviations":{"ja":"契丹","en":"Khitan","zh":"契丹"},"symbol_key":null,"label_position":[117.0,43.0],"source_pixel":[2970,470],"display_level":1,"source":{"file":"js/regions.js","region_index":278,"row_index":3},"position_kind":"source_label_anchor_not_capital"}},{"type":"Feature","id":"toolbay-region-0287-period-013","geometry":{"type":"Point","coordinates":[106.0,28.0]},"properties":{"id":"toolbay-region-0287-period-013","entity_id":"toolbay-region-0287","start_year":617,"end_year":620,"open_ended":false,"names":{"ja":"隋","en":"Sui","zh":"隋"},"abbreviations":{"ja":"隋","en":"Sui","zh":"隋"},"symbol_key":null,"label_position":[106.0,28.0],"source_pixel":[2860,620],"display_level":0,"source":{"file":"js/regions.js","region_index":287,"row_index":13},"position_kind":"source_label_anchor_not_capital"}},{"type":"Feature","id":"toolbay-region-0298-period-003","geometry":{"type":"Point","coordinates":[100.0,0.0]},"properties":{"id":"toolbay-region-0298-period-003","entity_id":"toolbay-region-0298","start_year":400,"end_year":790,"open_ended":false,"names":{"ja":"シュリーヴィジャヤ王国","en":"Srivijaya Empire","zh":"三佛乔（室利佛逝）"},"abbreviations":{"ja":"シュリーヴィジャヤ","en":"Srivijaya","zh":"三佛乔"},"symbol_key":null,"label_position":[100.0,0.0],"source_pixel":[2800,900],"display_level":0,"source":{"file":"js/regions.js","region_index":298,"row_index":3},"position_kind":"source_label_anchor_not_capital"}},{"type":"Feature","id":"toolbay-region-0311-period-003","geometry":{"type":"Point","coordinates":[126.5,33.4]},"properties":{"id":"toolbay-region-0311-period-003","entity_id":"toolbay-region-0311","start_year":450,"end_year":662,"open_ended":false,"names":{"ja":"耽罗","en":"Tamna","zh":"耽罗"},"abbreviations":{"ja":"耽罗","en":"Tamna","zh":"耽罗"},"symbol_key":null,"label_position":[126.5,33.4],"source_pixel":[3065,566],"display_level":2,"source":{"file":"js/regions.js","region_index":311,"row_index":3},"position_kind":"source_label_anchor_not_capital"}},{"type":"Feature","id":"toolbay-region-0319-period-003","geometry":{"type":"Point","coordinates":[71.0,25.0]},"properties":{"id":"toolbay-region-0319-period-003","entity_id":"toolbay-region-0319","start_year":495,"end_year":780,"open_ended":false,"names":{"ja":"ヴァラピ朝","en":"Vallabhi dynasty","zh":"Vallabhi dynasty"},"abbreviations":{"ja":"ヴァラピ","en":"Vallabhi","zh":"Vallabhi"},"symbol_key":null,"label_position":[71.0,25.0],"source_pixel":[2510,650],"display_level":0,"source":{"file":"js/regions.js","region_index":319,"row_index":3},"position_kind":"source_label_anchor_not_capital"}},{"type":"Feature","id":"toolbay-region-0322-period-004","geometry":{"type":"Point","coordinates":[77.0,20.0]},"properties":{"id":"toolbay-region-0322-period-004","entity_id":"toolbay-region-0322","start_year":551,"end_year":642,"open_ended":false,"names":{"ja":"チャー儿キヤ朝","en":"Chalukya dynasty","zh":"遮娄其王朝"},"abbreviations":{"ja":"チャー儿キヤ","en":"Chalukya","zh":"遮娄其"},"symbol_key":null,"label_position":[77.0,20.0],"source_pixel":[2570,700],"display_level":0,"source":{"file":"js/regions.js","region_index":322,"row_index":4},"position_kind":"source_label_anchor_not_capital"}},{"type":"Feature","id":"toolbay-region-0337-period-004","geometry":{"type":"Point","coordinates":[80.0,26.5]},"properties":{"id":"toolbay-region-0337-period-004","entity_id":"toolbay-region-0337","start_year":610,"end_year":647,"open_ended":false,"names":{"ja":"ヴァ儿ダーナ朝","en":"Kingdom of Vardhana","zh":"戒日王朝"},"abbreviations":{"ja":"ヴァ儿ダナ","en":"Vardhana","zh":"戒日王朝"},"symbol_key":null,"label_position":[80.0,26.5],"source_pixel":[2600,635],"display_level":0,"source":{"file":"js/regions.js","region_index":337,"row_index":4},"position_kind":"source_label_anchor_not_capital"}},{"type":"Feature","id":"toolbay-region-0340-period-003","geometry":{"type":"Point","coordinates":[133.0,51.0]},"properties":{"id":"toolbay-region-0340-period-003","entity_id":"toolbay-region-0340","start_year":550,"end_year":650,"open_ended":false,"names":{"ja":"黒水靺鞨","en":"Heishui Mohe","zh":"黒水靺鞨"},"abbreviations":{"ja":"黒水靺鞨","en":"Heishui Mohe","zh":"黒水靺鞨"},"symbol_key":null,"label_position":[133.0,51.0],"source_pixel":[3130,390],"display_level":1,"source":{"file":"js/regions.js","region_index":340,"row_index":3},"position_kind":"source_label_anchor_not_capital"}},{"type":"Feature","id":"toolbay-region-0341-period-003","geometry":{"type":"Point","coordinates":[128.0,46.0]},"properties":{"id":"toolbay-region-0341-period-003","entity_id":"toolbay-region-0341","start_year":550,"end_year":650,"open_ended":false,"names":{"ja":"粟末靺鞨","en":"Sumo Mohe","zh":"粟末靺鞨"},"abbreviations":{"ja":"粟末靺鞨","en":"Sumo Mohe","zh":"粟末靺鞨"},"symbol_key":null,"label_position":[128.0,46.0],"source_pixel":[3080,440],"display_level":1,"source":{"file":"js/regions.js","region_index":341,"row_index":3},"position_kind":"source_label_anchor_not_capital"}},{"type":"Feature","id":"toolbay-region-0343-period-004","geometry":{"type":"Point","coordinates":[102.0,46.0]},"properties":{"id":"toolbay-region-0343-period-004","entity_id":"toolbay-region-0343","start_year":586,"end_year":630,"open_ended":false,"names":{"ja":"东突厥","en":"Eastern Göktürks","zh":"东突厥"},"abbreviations":{"ja":"东突厥","en":"E.Göktürks","zh":"东突厥"},"symbol_key":"gokturk","label_position":[102.0,46.0],"source_pixel":[2820,440],"display_level":0,"source":{"file":"js/regions.js","region_index":343,"row_index":4},"position_kind":"source_label_anchor_not_capital"}},{"type":"Feature","id":"toolbay-region-0349-period-003","geometry":{"type":"Point","coordinates":[66.0,30.0]},"properties":{"id":"toolbay-region-0349-period-003","entity_id":"toolbay-region-0349","start_year":567,"end_year":712,"open_ended":false,"names":{"ja":"スードラ朝","en":"Sudhra dynasty","zh":"Sudhra dynasty"},"abbreviations":{"ja":"スードラ","en":"Sudhra","zh":"Sudhra"},"symbol_key":null,"label_position":[66.0,30.0],"source_pixel":[2460,600],"display_level":0,"source":{"file":"js/regions.js","region_index":349,"row_index":3},"position_kind":"source_label_anchor_not_capital"}},{"type":"Feature","id":"toolbay-region-0350-period-003","geometry":{"type":"Point","coordinates":[66.0,45.0]},"properties":{"id":"toolbay-region-0350-period-003","entity_id":"toolbay-region-0350","start_year":586,"end_year":657,"open_ended":false,"names":{"ja":"西突厥","en":"Western Göktürks","zh":"西突厥"},"abbreviations":{"ja":"西突厥","en":"W.Göktürks","zh":"西突厥"},"symbol_key":null,"label_position":[66.0,45.0],"source_pixel":[2460,450],"display_level":0,"source":{"file":"js/regions.js","region_index":350,"row_index":3},"position_kind":"source_label_anchor_not_capital"}},{"type":"Feature","id":"toolbay-region-0351-period-003","geometry":{"type":"Point","coordinates":[100.0,16.0]},"properties":{"id":"toolbay-region-0351-period-003","entity_id":"toolbay-region-0351","start_year":600,"end_year":1000,"open_ended":false,"names":{"ja":"ドヴァーラヴァティー王国","en":"Dvaravati kingdom","zh":"陀罗钵地王国"},"abbreviations":{"ja":"ドヴァラヴァティ","en":"Dvaravati","zh":"陀罗钵地"},"symbol_key":null,"label_position":[100.0,16.0],"source_pixel":[2800,740],"display_level":1,"source":{"file":"js/regions.js","region_index":351,"row_index":3},"position_kind":"source_label_anchor_not_capital"}},{"type":"Feature","id":"toolbay-region-0352-period-003","geometry":{"type":"Point","coordinates":[86.0,49.0]},"properties":{"id":"toolbay-region-0352-period-003","entity_id":"toolbay-region-0352","start_year":602,"end_year":630,"open_ended":false,"names":{"ja":"铁勒","en":"Tiele","zh":"铁勒"},"abbreviations":{"ja":"铁勒","en":"Tiele","zh":"铁勒"},"symbol_key":null,"label_position":[86.0,49.0],"source_pixel":[2660,410],"display_level":0,"source":{"file":"js/regions.js","region_index":352,"row_index":3},"position_kind":"source_label_anchor_not_capital"}},{"type":"Feature","id":"toolbay-region-0353-period-003","geometry":{"type":"Point","coordinates":[85.0,33.0]},"properties":{"id":"toolbay-region-0353-period-003","entity_id":"toolbay-region-0353","start_year":617,"end_year":880,"open_ended":false,"names":{"ja":"吐蕃","en":"Tubut","zh":"吐蕃"},"abbreviations":{"ja":"吐蕃","en":"Tubut","zh":"吐蕃"},"symbol_key":null,"label_position":[85.0,33.0],"source_pixel":[2650,570],"display_level":0,"source":{"file":"js/regions.js","region_index":353,"row_index":3},"position_kind":"source_label_anchor_not_capital"}},{"type":"Feature","id":"toolbay-region-0356-period-003","geometry":{"type":"Point","coordinates":[100.0,40.0]},"properties":{"id":"toolbay-region-0356-period-003","entity_id":"toolbay-region-0356","start_year":617,"end_year":619,"open_ended":false,"names":{"ja":"凉","en":"Liang","zh":"凉"},"abbreviations":{"ja":"凉","en":"Liang","zh":"凉"},"symbol_key":null,"label_position":[100.0,40.0],"source_pixel":[2800,500],"display_level":1,"source":{"file":"js/regions.js","region_index":356,"row_index":3},"position_kind":"source_label_anchor_not_capital"}},{"type":"Feature","id":"toolbay-region-0357-period-004","geometry":{"type":"Point","coordinates":[109.0,35.0]},"properties":{"id":"toolbay-region-0357-period-004","entity_id":"toolbay-region-0357","start_year":618,"end_year":624,"open_ended":false,"names":{"ja":"唐","en":"Tang","zh":"唐"},"abbreviations":{"ja":"唐","en":"Tang","zh":"唐"},"symbol_key":null,"label_position":[109.0,35.0],"source_pixel":[2890,550],"display_level":0,"source":{"file":"js/regions.js","region_index":357,"row_index":4},"position_kind":"source_label_anchor_not_capital"}},{"type":"Feature","id":"toolbay-region-0358-period-003","geometry":{"type":"Point","coordinates":[109.0,39.0]},"properties":{"id":"toolbay-region-0358-period-003","entity_id":"toolbay-region-0358","start_year":617,"end_year":628,"open_ended":false,"names":{"ja":"梁","en":"Liang","zh":"梁"},"abbreviations":{"ja":"梁","en":"Liang","zh":"梁"},"symbol_key":null,"label_position":[109.0,39.0],"source_pixel":[2890,510],"display_level":1,"source":{"file":"js/regions.js","region_index":358,"row_index":3},"position_kind":"source_label_anchor_not_capital"}},{"type":"Feature","id":"toolbay-region-0359-period-003","geometry":{"type":"Point","coordinates":[111.0,25.0]},"properties":{"id":"toolbay-region-0359-period-003","entity_id":"toolbay-region-0359","start_year":617,"end_year":621,"open_ended":false,"names":{"ja":"梁","en":"Liang","zh":"梁"},"abbreviations":{"ja":"梁","en":"Liang","zh":"梁"},"symbol_key":null,"label_position":[111.0,25.0],"source_pixel":[2910,650],"display_level":0,"source":{"file":"js/regions.js","region_index":359,"row_index":3},"position_kind":"source_label_anchor_not_capital"}},{"type":"Feature","id":"toolbay-region-0360-period-003","geometry":{"type":"Point","coordinates":[115.0,26.0]},"properties":{"id":"toolbay-region-0360-period-003","entity_id":"toolbay-region-0360","start_year":617,"end_year":621,"open_ended":false,"names":{"ja":"楚","en":"Chu","zh":"楚"},"abbreviations":{"ja":"楚","en":"Chu","zh":"楚"},"symbol_key":null,"label_position":[115.0,26.0],"source_pixel":[2950,640],"display_level":1,"source":{"file":"js/regions.js","region_index":360,"row_index":3},"position_kind":"source_label_anchor_not_capital"}},{"type":"Feature","id":"toolbay-region-0361-period-003","geometry":{"type":"Point","coordinates":[116.0,36.0]},"properties":{"id":"toolbay-region-0361-period-003","entity_id":"toolbay-region-0361","start_year":618,"end_year":621,"open_ended":false,"names":{"ja":"夏","en":"Xia","zh":"夏"},"abbreviations":{"ja":"夏","en":"Xia","zh":"夏"},"symbol_key":null,"label_position":[116.0,36.0],"source_pixel":[2960,540],"display_level":0,"source":{"file":"js/regions.js","region_index":361,"row_index":3},"position_kind":"source_label_anchor_not_capital"}},{"type":"Feature","id":"toolbay-region-0362-period-003","geometry":{"type":"Point","coordinates":[119.5,33.0]},"properties":{"id":"toolbay-region-0362-period-003","entity_id":"toolbay-region-0362","start_year":618,"end_year":621,"open_ended":false,"names":{"ja":"吴","en":"Wu","zh":"吴"},"abbreviations":{"ja":"吴","en":"Wu","zh":"吴"},"symbol_key":null,"label_position":[119.5,33.0],"source_pixel":[2995,570],"display_level":1,"source":{"file":"js/regions.js","region_index":362,"row_index":3},"position_kind":"source_label_anchor_not_capital"}},{"type":"Feature","id":"toolbay-region-0363-period-003","geometry":{"type":"Point","coordinates":[116.0,31.0]},"properties":{"id":"toolbay-region-0363-period-003","entity_id":"toolbay-region-0363","start_year":618,"end_year":624,"open_ended":false,"names":{"ja":"宋","en":"Song","zh":"宋"},"abbreviations":{"ja":"宋","en":"Song","zh":"宋"},"symbol_key":null,"label_position":[116.0,31.0],"source_pixel":[2960,590],"display_level":1,"source":{"file":"js/regions.js","region_index":363,"row_index":3},"position_kind":"source_label_anchor_not_capital"}},{"type":"Feature","id":"toolbay-region-0366-period-003","geometry":{"type":"Point","coordinates":[102.5,14.0]},"properties":{"id":"toolbay-region-0366-period-003","entity_id":"toolbay-region-0366","start_year":602,"end_year":630,"open_ended":false,"names":{"ja":"真腊","en":"Chenla","zh":"真腊"},"abbreviations":{"ja":"真腊","en":"Chenla","zh":"真腊"},"symbol_key":null,"label_position":[102.5,14.0],"source_pixel":[2825,760],"display_level":0,"source":{"file":"js/regions.js","region_index":366,"row_index":3},"position_kind":"source_label_anchor_not_capital"}},{"type":"Feature","id":"toolbay-region-0369-period-003","geometry":{"type":"Point","coordinates":[82.0,28.6]},"properties":{"id":"toolbay-region-0369-period-003","entity_id":"toolbay-region-0369","start_year":590,"end_year":900,"open_ended":false,"names":{"ja":"リッチャヴィ王国","en":"Licchavi","zh":"Licchavi"},"abbreviations":{"ja":"リッチャヴィ","en":"Licchavi","zh":"Licchavi"},"symbol_key":null,"label_position":[82.0,28.6],"source_pixel":[2620,614],"display_level":1,"source":{"file":"js/regions.js","region_index":369,"row_index":3},"position_kind":"source_label_anchor_not_capital"}}]}
