{"type":"FeatureCollection","features":[{"type":"Feature","id":"boundaries:-1330","geometry":{"type":"LineString","coordinates":[[114.8,35.2],[114.3,35.2],[114.3,35.1],[113.3,35.1],[113.3,35.0],[113.1,35.0],[113.1,34.9],[113.0,34.9],[113.0,34.8],[112.9,34.8],[112.9,34.7],[112.6,34.7],[112.6,34.6],[112.2,34.6],[112.2,34.4],[112.3,34.4],[112.3,34.3],[112.4,34.3],[112.4,34.1],[112.5,34.1],[112.5,34.0],[112.7,34.0],[112.7,33.9],[112.8,33.9],[112.8,33.8],[113.0,33.8],[113.0,33.7],[113.2,33.7],[113.2,33.6],[115.3,33.6],[115.3,33.7],[115.5,33.7],[115.5,33.8],[115.6,33.8],[115.6,33.9],[115.7,33.9],[115.7,34.0],[115.8,34.0],[115.8,34.1],[115.9,34.1],[115.9,34.8],[115.6,34.8],[115.6,34.9],[115.1,34.9],[115.1,35.0],[115.0,35.0],[115.0,35.1],[114.8,35.1],[114.8,35.2]]},"properties":{"start_year":-1330,"end_year":-1190}}]}
