{"type":"FeatureCollection","features":[{"type":"Feature","id":"boundaries:-190","geometry":{"type":"MultiLineString","coordinates":[[[78.0,14.2],[78.0,14.3]],[[78.0,14.3],[77.3,14.3]],[[77.3,14.3],[77.3,14.4]],[[77.3,14.4],[77.1,14.4]],[[77.1,14.4],[76.6,14.4]],[[76.6,14.4],[76.6,14.3]],[[76.6,14.3],[75.9,14.3]],[[75.9,14.3],[75.9,14.2]],[[75.9,14.2],[75.1,14.2]],[[75.1,14.2],[75.1,14.1]],[[75.1,14.1],[74.5,14.1]],[[74.5,14.1],[74.5,14.0],[74.6,14.0],[74.6,13.7],[74.7,13.7],[74.7,13.6]],[[74.7,13.6],[75.0,13.6]],[[75.0,13.6],[75.0,13.5]],[[75.0,13.5],[75.4,13.5]],[[75.4,13.5],[75.4,13.4]],[[75.4,13.4],[75.8,13.4]],[[75.8,13.4],[75.8,13.3]],[[75.8,13.3],[75.9,13.3]],[[75.9,13.3],[75.9,13.2]],[[75.9,13.2],[76.0,13.2]],[[76.0,13.2],[76.0,13.1]],[[76.0,13.1],[76.1,13.1]],[[76.1,13.1],[76.1,13.0]],[[76.1,13.0],[76.2,13.0]],[[76.2,13.0],[76.2,12.9]],[[76.2,12.9],[76.3,12.9]],[[76.3,12.9],[76.3,12.8]],[[76.3,12.8],[76.5,12.8]],[[76.5,12.8],[76.5,12.7]],[[76.5,12.7],[76.6,12.7]],[[76.6,12.7],[76.6,12.6]],[[76.6,12.6],[76.7,12.6]],[[76.7,12.6],[76.7,12.5]],[[76.7,12.5],[76.8,12.5]],[[76.8,12.5],[76.8,12.4]],[[76.8,12.4],[76.9,12.4]],[[76.9,12.4],[76.9,12.3]],[[76.9,12.3],[77.0,12.3]],[[77.0,12.3],[77.0,12.2]],[[77.0,12.2],[77.2,12.2]],[[77.2,12.2],[77.2,12.1]],[[77.2,12.1],[77.3,12.1]],[[77.3,12.1],[77.3,12.0]],[[77.3,12.0],[77.4,12.0]],[[77.4,12.0],[77.4,11.9]],[[77.4,11.9],[77.5,11.9]],[[77.5,11.9],[77.5,11.7]],[[77.5,11.7],[77.7,11.7]],[[77.7,11.7],[77.7,11.6]],[[77.7,11.6],[77.8,11.6]],[[77.8,11.6],[77.8,11.4]],[[77.8,11.4],[77.9,11.4]],[[77.9,11.4],[77.9,11.3]],[[77.9,11.3],[78.0,11.3]],[[78.0,11.3],[78.0,11.2]],[[78.0,11.2],[78.1,11.2]],[[78.1,11.2],[78.1,11.1]],[[78.1,11.1],[78.2,11.1]],[[78.2,11.1],[78.2,10.9]],[[78.2,10.9],[78.4,10.9]],[[78.4,10.9],[78.4,10.8]],[[78.4,10.8],[78.5,10.8]],[[78.5,10.8],[78.5,10.7]],[[78.5,10.7],[78.6,10.7]],[[78.6,10.7],[78.6,10.6]],[[78.6,10.6],[78.8,10.6]],[[78.8,10.6],[78.8,10.5]],[[78.8,10.5],[79.4,10.5]],[[79.4,10.5],[79.4,10.4]],[[79.4,10.4],[79.6,10.4],[79.6,10.3],[79.8,10.3],[79.8,10.4],[79.9,10.4],[79.9,11.5],[79.8,11.5],[79.8,11.9],[79.9,11.9],[79.9,12.2],[80.0,12.2],[80.0,12.3],[80.1,12.3],[80.1,12.5],[80.2,12.5],[80.2,12.7],[80.3,12.7],[80.3,13.1],[80.4,13.1],[80.4,13.6],[80.3,13.6],[80.3,13.9]],[[80.3,13.9],[79.6,13.9]],[[79.6,13.9],[79.6,14.0]],[[79.6,14.0],[79.4,14.0]],[[79.4,14.0],[79.4,14.1]],[[79.4,14.1],[78.5,14.1]],[[78.5,14.1],[78.5,14.2]],[[78.5,14.2],[78.0,14.2]],[[120.2,34.5],[119.9,34.5],[119.9,34.6],[119.7,34.6],[119.7,34.7],[119.6,34.7]],[[119.6,34.7],[119.4,34.7]],[[119.4,34.7],[119.4,34.6]],[[119.4,34.6],[119.3,34.6]],[[119.3,34.6],[119.3,34.5]],[[119.3,34.5],[119.1,34.5]],[[119.1,34.5],[119.1,34.4]],[[119.1,34.4],[118.9,34.4]],[[118.9,34.4],[118.9,34.3]],[[118.9,34.3],[118.2,34.3]],[[118.2,34.3],[118.2,34.2]],[[118.2,34.2],[118.1,34.2]],[[118.1,34.2],[118.1,34.1]],[[118.1,34.1],[118.0,34.1]],[[118.0,34.1],[118.0,33.8]],[[118.0,33.8],[117.9,33.8]],[[117.9,33.8],[117.9,33.6]],[[117.9,33.6],[118.0,33.6]],[[118.0,33.6],[118.0,33.5]],[[118.0,33.5],[118.1,33.5]],[[118.1,33.5],[118.1,33.4]],[[118.1,33.4],[118.2,33.4]],[[118.2,33.4],[118.2,33.3]],[[118.2,33.3],[118.3,33.3]],[[118.3,33.3],[118.3,33.2]],[[118.3,33.2],[118.4,33.2]],[[118.4,33.2],[118.4,33.1]],[[118.4,33.1],[118.5,33.1]],[[118.5,33.1],[118.5,33.0]],[[118.5,33.0],[118.6,33.0]],[[118.6,33.0],[118.6,32.9]],[[118.6,32.9],[118.7,32.9]],[[118.7,32.9],[118.7,32.7]],[[118.7,32.7],[118.8,32.7]],[[118.8,32.7],[118.8,32.6]],[[118.8,32.6],[118.9,32.6]],[[118.9,32.6],[118.9,32.5]],[[118.9,32.5],[119.0,32.5]],[[119.0,32.5],[119.0,32.2]],[[119.0,32.2],[119.1,32.2]],[[119.1,32.2],[119.1,32.1]],[[119.1,32.1],[119.2,32.1]],[[119.2,32.1],[119.2,31.9]],[[119.2,31.9],[119.3,31.9]],[[119.3,31.9],[119.3,30.7]],[[119.3,30.7],[119.2,30.7]],[[119.2,30.7],[119.2,30.6]],[[119.2,30.6],[119.1,30.6]],[[119.1,30.6],[119.1,30.2]],[[119.1,30.2],[119.0,30.2]],[[119.0,30.2],[119.0,29.9]],[[119.0,29.9],[118.9,29.9]],[[118.9,29.9],[118.9,29.7]],[[118.9,29.7],[118.8,29.7]],[[118.8,29.7],[118.8,29.5]],[[118.8,29.5],[118.7,29.5]],[[118.7,29.5],[118.7,29.4]],[[118.7,29.4],[118.6,29.4]],[[118.6,29.4],[118.6,29.2]],[[118.6,29.2],[118.5,29.2]],[[118.5,29.2],[118.5,28.9]],[[118.5,28.9],[118.4,28.9]],[[118.4,28.9],[118.4,28.8]],[[118.4,28.8],[118.3,28.8]],[[118.3,28.8],[118.3,28.7]],[[118.3,28.7],[118.2,28.7]],[[118.2,28.7],[118.2,28.5]],[[118.2,28.5],[118.0,28.5]],[[118.0,28.5],[118.0,28.4]],[[118.0,28.4],[117.8,28.4]],[[117.8,28.4],[117.8,28.3]],[[117.8,28.3],[117.7,28.3]],[[117.7,28.3],[117.7,28.2]],[[117.7,28.2],[117.6,28.2]],[[117.6,28.2],[117.6,28.1]],[[117.6,28.1],[117.5,28.1]],[[117.5,28.1],[117.5,27.9]],[[117.5,27.9],[117.4,27.9]],[[117.4,27.9],[117.4,27.8]],[[117.4,27.8],[117.2,27.8]],[[117.2,27.8],[117.2,27.7]],[[117.2,27.7],[117.1,27.7]],[[117.1,27.7],[117.1,27.6]],[[117.1,27.6],[117.3,27.6]],[[117.3,27.6],[117.3,27.5]],[[117.3,27.5],[117.4,27.5]],[[117.4,27.5],[117.4,27.4]],[[117.4,27.4],[117.5,27.4]],[[117.5,27.4],[117.5,27.3]],[[117.5,27.3],[117.6,27.3]],[[117.6,27.3],[117.6,27.2]],[[117.6,27.2],[117.7,27.2]],[[117.7,27.2],[117.7,27.1]],[[117.7,27.1],[117.8,27.1]],[[117.8,27.1],[117.8,27.0]],[[117.8,27.0],[117.9,27.0]],[[117.9,27.0],[117.9,26.9]],[[117.9,26.9],[118.0,26.9]],[[118.0,26.9],[118.0,26.8]],[[118.0,26.8],[118.2,26.8]],[[118.2,26.8],[118.2,26.7]],[[118.2,26.7],[118.3,26.7]],[[118.3,26.7],[118.3,26.5]],[[118.3,26.5],[118.4,26.5]],[[118.4,26.5],[118.4,26.4]],[[118.4,26.4],[118.5,26.4]],[[118.5,26.4],[118.5,26.3]],[[118.5,26.3],[118.6,26.3]],[[118.6,26.3],[118.6,26.2]],[[118.6,26.2],[118.7,26.2]],[[118.7,26.2],[118.7,26.1]],[[118.7,26.1],[118.8,26.1]],[[118.8,26.1],[118.8,26.0]],[[118.8,26.0],[118.9,26.0]],[[118.9,26.0],[118.9,25.9]],[[118.9,25.9],[119.0,25.9]],[[119.0,25.9],[119.0,25.8]],[[119.0,25.8],[119.1,25.8]],[[119.1,25.8],[119.1,25.7]],[[119.1,25.7],[119.3,25.7]],[[119.3,25.7],[119.3,25.5]],[[119.3,25.5],[119.4,25.5]],[[119.4,25.5],[119.4,25.4]],[[119.4,25.4],[119.8,25.4],[119.8,25.5],[119.9,25.5],[119.9,25.7],[119.8,25.7],[119.8,25.8],[119.7,25.8],[119.7,26.2],[119.8,26.2],[119.8,26.3],[119.9,26.3],[119.9,26.5],[120.0,26.5],[120.0,26.6],[120.1,26.6],[120.1,26.7],[120.2,26.7],[120.2,26.9],[120.3,26.9],[120.3,27.0],[120.4,27.0],[120.4,27.2],[120.5,27.2],[120.5,27.3],[120.6,27.3],[120.6,27.4],[120.7,27.4],[120.7,27.8],[120.8,27.8],[120.8,27.9],[121.2,27.9],[121.2,28.0],[121.3,28.0],[121.3,28.2],[121.4,28.2],[121.4,28.3],[121.6,28.3],[121.6,28.4],[121.7,28.4],[121.7,28.7],[121.8,28.7],[121.8,29.0],[121.9,29.0],[121.9,29.2],[122.0,29.2],[122.0,29.6],[122.1,29.6],[122.1,29.7],[122.3,29.7],[122.3,29.8],[122.4,29.8],[122.4,30.2],[122.3,30.2],[122.3,30.3],[121.9,30.3],[121.9,30.2],[121.5,30.2],[121.5,30.3],[121.4,30.3],[121.4,30.4],[121.2,30.4],[121.2,30.5],[121.1,30.5],[121.1,30.6],[121.2,30.6],[121.2,30.7],[121.4,30.7],[121.4,30.8],[121.5,30.8],[121.5,30.9],[121.8,30.9],[121.8,31.0],[121.9,31.0],[121.9,31.2],[121.8,31.2],[121.8,31.5],[121.9,31.5],[121.9,31.7],[122.0,31.7],[122.0,31.9],[121.9,31.9],[121.9,32.0],[121.8,32.0],[121.8,32.1],[121.7,32.1],[121.7,32.2],[121.5,32.2],[121.5,32.3],[121.4,32.3],[121.4,32.5],[121.3,32.5],[121.3,32.6],[121.1,32.6],[121.1,32.7],[121.0,32.7],[121.0,33.0],[120.9,33.0],[120.9,33.1],[120.8,33.1],[120.8,33.3],[120.7,33.3],[120.7,33.5],[120.6,33.5],[120.6,33.8],[120.5,33.8],[120.5,34.0],[120.4,34.0],[120.4,34.3],[120.3,34.3],[120.3,34.4],[120.2,34.4],[120.2,34.5]],[[95.8,43.0],[95.8,43.1]],[[95.8,43.1],[95.7,43.1]],[[95.7,43.1],[95.7,43.2]],[[95.7,43.2],[95.3,43.2]],[[95.3,43.2],[94.4,43.2],[94.4,43.3],[92.8,43.3],[92.8,43.2],[90.8,43.2],[90.8,43.1],[90.6,43.1],[90.6,43.0],[90.5,43.0],[90.5,42.9],[90.4,42.9],[90.4,42.7],[90.3,42.7],[90.3,40.8],[90.4,40.8],[90.4,40.3],[90.5,40.3],[90.5,39.8],[90.6,39.8],[90.6,39.2],[90.7,39.2],[90.7,39.0],[90.8,39.0],[90.8,38.8],[90.9,38.8],[90.9,38.6],[91.0,38.6],[91.0,38.3],[91.1,38.3],[91.1,38.1],[91.2,38.1],[91.2,37.9],[91.3,37.9],[91.3,37.8],[91.4,37.8],[91.4,37.7],[91.5,37.7],[91.5,37.6],[91.9,37.6],[91.9,37.5],[93.0,37.5],[93.0,37.4],[93.2,37.4],[93.2,37.3],[93.4,37.3],[93.4,37.2],[94.4,37.2],[94.4,37.3],[94.6,37.3],[94.6,37.4],[94.7,37.4],[94.7,37.5],[94.9,37.5],[94.9,37.7],[95.1,37.7],[95.1,37.8],[95.2,37.8],[95.2,37.9],[95.3,37.9],[95.3,38.0],[95.4,38.0],[95.4,38.1],[95.5,38.1],[95.5,38.0],[95.7,38.0],[95.7,37.8],[95.9,37.8],[95.9,37.7],[96.2,37.7],[96.2,37.6],[96.6,37.6],[96.6,37.5],[96.7,37.5],[96.7,37.4],[96.9,37.4],[96.9,37.3],[97.3,37.3],[97.3,37.2],[97.7,37.2],[97.7,37.1],[98.2,37.1],[98.2,37.0],[99.4,37.0],[99.4,36.9],[99.6,36.9],[99.6,36.8],[99.8,36.8],[99.8,36.7],[100.0,36.7],[100.0,36.6],[100.1,36.6],[100.1,36.5],[100.3,36.5],[100.3,36.4],[100.8,36.4],[100.8,36.3],[101.3,36.3],[101.3,36.2],[101.8,36.2],[101.8,36.1],[102.4,36.1],[102.4,36.0],[102.9,36.0],[102.9,35.9],[103.7,35.9],[103.7,35.8],[104.4,35.8],[104.4,35.7],[105.1,35.7],[105.1,35.6],[106.4,35.6],[106.4,35.5],[107.0,35.5],[107.0,35.6],[107.2,35.6],[107.2,35.7],[107.3,35.7],[107.3,35.8],[107.4,35.8],[107.4,35.9],[107.5,35.9]],[[107.5,35.9],[107.5,36.2]],[[107.5,36.2],[107.6,36.2]],[[107.6,36.2],[107.6,36.3]],[[107.6,36.3],[107.7,36.3]],[[107.7,36.3],[107.7,36.4]],[[107.7,36.4],[107.8,36.4]],[[107.8,36.4],[107.8,36.6]],[[107.8,36.6],[107.9,36.6]],[[107.9,36.6],[107.9,36.9]],[[107.9,36.9],[107.8,36.9]],[[107.8,36.9],[107.8,37.0]],[[107.8,37.0],[107.7,37.0]],[[107.7,37.0],[107.7,37.1]],[[107.7,37.1],[107.6,37.1]],[[107.6,37.1],[107.6,37.2]],[[107.6,37.2],[107.5,37.2]],[[107.5,37.2],[107.5,37.3]],[[107.5,37.3],[107.4,37.3]],[[107.4,37.3],[107.4,37.4]],[[107.4,37.4],[107.3,37.4]],[[107.3,37.4],[107.3,37.7]],[[107.3,37.7],[107.2,37.7]],[[107.2,37.7],[107.2,38.0]],[[107.2,38.0],[107.0,38.0]],[[107.0,38.0],[107.0,38.3]],[[107.0,38.3],[106.9,38.3]],[[106.9,38.3],[106.9,38.6]],[[106.9,38.6],[106.8,38.6]],[[106.8,38.6],[106.8,38.7]],[[106.8,38.7],[106.7,38.7]],[[106.7,38.7],[106.7,38.9]],[[106.7,38.9],[106.5,38.9]],[[106.5,38.9],[106.5,39.0]],[[106.5,39.0],[106.4,39.0]],[[106.4,39.0],[106.4,39.2]],[[106.4,39.2],[106.3,39.2]],[[106.3,39.2],[106.3,39.3]],[[106.3,39.3],[106.2,39.3]],[[106.2,39.3],[106.2,39.4]],[[106.2,39.4],[106.0,39.4]],[[106.0,39.4],[106.0,39.6]],[[106.0,39.6],[105.8,39.6]],[[105.8,39.6],[105.8,39.7]],[[105.8,39.7],[105.7,39.7]],[[105.7,39.7],[105.7,39.9]],[[105.7,39.9],[105.6,39.9]],[[105.6,39.9],[105.6,40.0]],[[105.6,40.0],[105.5,40.0]],[[105.5,40.0],[105.5,40.1]],[[105.5,40.1],[105.4,40.1]],[[105.4,40.1],[105.4,40.0]],[[105.4,40.0],[105.1,40.0]],[[105.1,40.0],[105.1,40.1]],[[105.1,40.1],[104.7,40.1]],[[104.7,40.1],[104.7,40.2]],[[104.7,40.2],[104.2,40.2]],[[104.2,40.2],[104.2,40.3]],[[104.2,40.3],[103.9,40.3]],[[103.9,40.3],[103.9,40.4]],[[103.9,40.4],[103.5,40.4]],[[103.5,40.4],[103.5,40.5]],[[103.5,40.5],[103.2,40.5]],[[103.2,40.5],[103.2,40.6]],[[103.2,40.6],[102.8,40.6]],[[102.8,40.6],[102.8,40.7]],[[102.8,40.7],[102.5,40.7]],[[102.5,40.7],[102.5,40.8]],[[102.5,40.8],[102.1,40.8]],[[102.1,40.8],[102.1,40.9]],[[102.1,40.9],[101.5,40.9]],[[101.5,40.9],[101.5,41.0]],[[101.5,41.0],[101.3,41.0]],[[101.3,41.0],[101.3,41.1]],[[101.3,41.1],[101.0,41.1]],[[101.0,41.1],[101.0,41.2]],[[101.0,41.2],[100.8,41.2]],[[100.8,41.2],[100.8,41.3]],[[100.8,41.3],[100.7,41.3]],[[100.7,41.3],[100.7,41.4]],[[100.7,41.4],[99.9,41.4]],[[99.9,41.4],[99.9,41.5]],[[99.9,41.5],[99.7,41.5]],[[99.7,41.5],[99.7,41.6]],[[99.7,41.6],[99.4,41.6]],[[99.4,41.6],[99.4,41.7]],[[99.4,41.7],[99.0,41.7]],[[99.0,41.7],[99.0,41.8]],[[99.0,41.8],[98.6,41.8]],[[98.6,41.8],[98.6,41.9]],[[98.6,41.9],[98.3,41.9]],[[98.3,41.9],[98.3,42.0]],[[98.3,42.0],[97.9,42.0]],[[97.9,42.0],[97.9,42.1]],[[97.9,42.1],[97.6,42.1]],[[97.6,42.1],[97.6,42.2]],[[97.6,42.2],[97.3,42.2]],[[97.3,42.2],[97.3,42.3]],[[97.3,42.3],[96.9,42.3]],[[96.9,42.3],[96.9,42.4]],[[96.9,42.4],[96.7,42.4]],[[96.7,42.4],[96.7,42.5]],[[96.7,42.5],[96.6,42.5]],[[96.6,42.5],[96.6,42.6]],[[96.6,42.6],[96.4,42.6]],[[96.4,42.6],[96.4,42.7]],[[96.4,42.7],[96.2,42.7]],[[96.2,42.7],[96.2,42.8]],[[96.2,42.8],[96.1,42.8]],[[96.1,42.8],[96.1,42.9]],[[96.1,42.9],[95.9,42.9]],[[95.9,42.9],[95.9,43.0]],[[95.9,43.0],[95.8,43.0]],[[125.8,42.0],[125.5,42.0]],[[125.5,42.0],[125.5,42.1]],[[125.5,42.1],[125.0,42.1]],[[125.0,42.1],[125.0,42.2]],[[125.0,42.2],[124.3,42.2]],[[124.3,42.2],[124.3,42.1]],[[124.3,42.1],[123.6,42.1]],[[123.6,42.1],[123.6,42.0]],[[123.6,42.0],[123.3,42.0]],[[123.3,42.0],[123.3,41.9]],[[123.3,41.9],[123.2,41.9]],[[123.2,41.9],[123.2,41.8]],[[123.2,41.8],[122.9,41.8]],[[122.9,41.8],[122.9,41.7]],[[122.9,41.7],[122.7,41.7]],[[122.7,41.7],[122.7,41.6]],[[122.7,41.6],[122.6,41.6]],[[122.6,41.6],[122.6,41.5]],[[122.6,41.5],[122.3,41.5]],[[122.3,41.5],[122.3,41.4]],[[122.3,41.4],[122.0,41.4]],[[122.0,41.4],[122.0,41.3]],[[122.0,41.3],[121.7,41.3]],[[121.7,41.3],[121.7,41.2]],[[121.7,41.2],[121.0,41.2]],[[121.0,41.2],[121.0,41.3]],[[121.0,41.3],[120.4,41.3]],[[120.4,41.3],[120.4,41.4]],[[120.4,41.4],[120.2,41.4]],[[120.2,41.4],[120.2,41.5]],[[120.2,41.5],[120.0,41.5]],[[120.0,41.5],[120.0,41.6]],[[120.0,41.6],[119.8,41.6]],[[119.8,41.6],[119.8,41.7]],[[119.8,41.7],[119.4,41.7]],[[119.4,41.7],[119.4,41.8]],[[119.4,41.8],[119.0,41.8]],[[119.0,41.8],[119.0,41.9]],[[119.0,41.9],[118.2,41.9]],[[118.2,41.9],[118.2,42.0]],[[118.2,42.0],[117.2,42.0]],[[117.2,42.0],[117.2,41.9]],[[117.2,41.9],[116.9,41.9]],[[116.9,41.9],[116.9,41.8]],[[116.9,41.8],[116.6,41.8]],[[116.6,41.8],[116.6,41.7]],[[116.6,41.7],[116.5,41.7]],[[116.5,41.7],[116.5,41.6]],[[116.5,41.6],[116.3,41.6]],[[116.3,41.6],[116.3,41.5]],[[116.3,41.5],[116.0,41.5]],[[116.0,41.5],[116.0,41.4]],[[116.0,41.4],[115.7,41.4]],[[115.7,41.4],[115.7,41.3]],[[115.7,41.3],[115.3,41.3]],[[115.3,41.3],[115.3,41.2]],[[115.3,41.2],[115.4,41.2]],[[115.4,41.2],[115.4,41.0]],[[115.4,41.0],[115.5,41.0]],[[115.5,41.0],[115.5,40.9]],[[115.5,40.9],[115.6,40.9]],[[115.6,40.9],[115.6,40.8]],[[115.6,40.8],[115.7,40.8]],[[115.7,40.8],[115.7,40.7]],[[115.7,40.7],[115.8,40.7]],[[115.8,40.7],[115.8,40.6]],[[115.8,40.6],[115.9,40.6]],[[115.9,40.6],[115.9,40.5]],[[115.9,40.5],[116.0,40.5]],[[116.0,40.5],[116.0,40.3]],[[116.0,40.3],[116.1,40.3]],[[116.1,40.3],[116.1,40.1]],[[116.1,40.1],[116.2,40.1]],[[116.2,40.1],[116.2,39.9]],[[116.2,39.9],[116.3,39.9]],[[116.3,39.9],[116.3,39.7]],[[116.3,39.7],[116.4,39.7]],[[116.4,39.7],[116.4,39.5]],[[116.4,39.5],[116.5,39.5]],[[116.5,39.5],[116.5,39.3]],[[116.5,39.3],[116.6,39.3]],[[116.6,39.3],[116.6,39.2]],[[116.6,39.2],[116.7,39.2]],[[116.7,39.2],[116.7,39.0]],[[116.7,39.0],[116.8,39.0]],[[116.8,39.0],[116.8,38.9]],[[116.8,38.9],[117.1,38.9]],[[117.1,38.9],[117.1,38.8]],[[117.1,38.8],[117.6,38.8]],[[117.6,38.8],[117.6,39.0],[117.7,39.0],[117.7,39.1],[117.9,39.1],[117.9,39.2],[118.2,39.2],[118.2,39.1],[118.9,39.1],[118.9,39.2],[119.1,39.2],[119.1,39.3],[119.2,39.3],[119.2,39.5],[119.3,39.5],[119.3,39.7],[119.4,39.7],[119.4,39.8],[119.6,39.8],[119.6,39.9],[119.7,39.9],[119.7,40.0],[120.0,40.0],[120.0,40.1],[120.2,40.1],[120.2,40.2],[120.5,40.2],[120.5,40.3],[120.6,40.3],[120.6,40.5],[120.7,40.5],[120.7,40.6],[120.9,40.6],[120.9,40.7],[121.0,40.7],[121.0,40.8],[121.1,40.8],[121.1,40.9],[121.5,40.9],[121.5,41.0],[121.8,41.0],[121.8,40.9],[121.9,40.9],[121.9,40.8],[122.1,40.8],[122.1,40.7],[122.2,40.7],[122.2,40.4],[122.1,40.4],[122.1,40.3],[122.0,40.3],[122.0,40.2],[121.9,40.2],[121.9,40.1],[121.8,40.1],[121.8,40.0],[121.6,40.0],[121.6,39.9],[121.5,39.9],[121.5,39.8],[121.4,39.8],[121.4,39.7],[121.3,39.7],[121.3,39.5],[121.4,39.5],[121.4,39.3],[121.5,39.3],[121.5,39.2],[121.4,39.2],[121.4,39.1],[121.3,39.1],[121.3,38.8],[121.5,38.8],[121.5,38.9],[121.9,38.9],[121.9,39.0],[122.0,39.0],[122.0,39.1],[122.1,39.1],[122.1,39.2],[122.2,39.2],[122.2,39.3],[122.5,39.3],[122.5,39.4],[122.6,39.4],[122.6,39.5],[122.7,39.5],[122.7,39.6],[122.9,39.6],[122.9,39.7],[123.3,39.7],[123.3,39.8],[123.7,39.8],[123.7,39.9],[124.2,39.9],[124.2,39.8],[124.5,39.8],[124.5,39.7],[124.7,39.7],[124.7,39.6],[125.3,39.6]],[[125.3,39.6],[125.3,39.7]],[[125.3,39.7],[125.4,39.7]],[[125.4,39.7],[125.4,39.8]],[[125.4,39.8],[125.5,39.8]],[[125.5,39.8],[125.5,40.0]],[[125.5,40.0],[125.6,40.0]],[[125.6,40.0],[125.6,40.1]],[[125.6,40.1],[125.7,40.1]],[[125.7,40.1],[125.7,40.3]],[[125.7,40.3],[125.8,40.3]],[[125.8,40.3],[125.8,40.5]],[[125.8,40.5],[125.9,40.5]],[[125.9,40.5],[125.9,40.6]],[[125.9,40.6],[126.0,40.6]],[[126.0,40.6],[126.0,40.7]],[[126.0,40.7],[126.0,40.8],[126.1,40.8],[126.1,41.0],[126.2,41.0],[126.2,41.7],[126.1,41.7],[126.1,41.9]],[[126.1,41.9],[125.8,41.9]],[[125.8,41.9],[125.8,42.0]],[[73.8,42.9],[73.7,42.9],[73.7,43.1]],[[73.7,43.1],[73.4,43.1]],[[73.4,43.1],[73.4,43.2]],[[73.4,43.2],[72.7,43.2]],[[72.7,43.2],[72.6,43.2]],[[72.6,43.2],[72.6,43.1]],[[72.6,43.1],[72.4,43.1]],[[72.4,43.1],[72.4,43.0]],[[72.4,43.0],[71.9,43.0]],[[71.9,43.0],[71.9,42.9]],[[71.9,42.9],[71.9,42.8],[71.8,42.8],[71.8,42.5],[71.7,42.5],[71.7,41.6],[71.6,41.6],[71.6,41.2],[71.5,41.2],[71.5,40.5],[71.4,40.5],[71.4,40.0],[71.5,40.0],[71.5,39.7],[71.6,39.7],[71.6,39.6],[71.7,39.6],[71.7,39.5],[71.9,39.5],[71.9,39.4],[72.0,39.4],[72.0,39.3],[72.1,39.3],[72.1,39.2],[72.2,39.2],[72.2,39.1],[72.3,39.1],[72.3,39.0],[72.5,39.0],[72.5,38.9],[72.7,38.9],[72.7,38.8],[72.9,38.8],[72.9,38.9],[73.0,38.9],[73.0,39.0],[73.3,39.0],[73.3,39.3],[73.4,39.3],[73.4,39.6],[73.5,39.6],[73.5,40.0],[73.6,40.0],[73.6,40.4],[73.7,40.4],[73.7,40.5],[73.8,40.5],[73.8,40.8],[73.9,40.8],[73.9,41.4],[74.0,41.4],[74.0,41.9],[74.1,41.9],[74.1,42.5],[74.0,42.5],[74.0,42.6],[73.9,42.6],[73.9,42.8],[73.8,42.8],[73.8,42.9]],[[76.9,46.2],[76.9,46.6]],[[76.9,46.6],[76.8,46.6]],[[76.8,46.6],[76.8,46.8]],[[76.8,46.8],[75.9,46.8],[75.9,46.7],[75.8,46.7],[75.8,46.6],[75.6,46.6],[75.6,46.5],[75.1,46.5],[75.1,46.6],[74.9,46.6],[74.9,46.5],[74.7,46.5],[74.7,46.3],[74.4,46.3],[74.4,46.2],[74.3,46.2],[74.3,46.1],[74.2,46.1],[74.2,46.0],[74.1,46.0],[74.1,45.7],[74.0,45.7],[74.0,45.5],[73.9,45.5],[73.9,45.3],[73.7,45.3],[73.7,45.1],[73.9,45.1],[73.9,45.0],[74.0,45.0]],[[74.0,45.0],[75.7,45.0]],[[75.7,45.0],[75.7,45.1]],[[75.7,45.1],[75.9,45.1]],[[75.9,45.1],[75.9,45.2]],[[75.9,45.2],[76.1,45.2]],[[76.1,45.2],[76.1,45.3]],[[76.1,45.3],[76.2,45.3]],[[76.2,45.3],[76.2,45.4]],[[76.2,45.4],[76.3,45.4]],[[76.3,45.4],[76.3,45.5]],[[76.3,45.5],[76.4,45.5]],[[76.4,45.5],[76.4,45.6]],[[76.4,45.6],[76.5,45.6]],[[76.5,45.6],[76.5,45.8]],[[76.5,45.8],[76.6,45.8]],[[76.6,45.8],[76.6,45.9]],[[76.6,45.9],[76.7,45.9]],[[76.7,45.9],[76.7,46.0]],[[76.7,46.0],[76.8,46.0]],[[76.8,46.0],[76.8,46.2]],[[76.8,46.2],[76.9,46.2]],[[115.2,25.8],[115.2,25.9]],[[115.2,25.9],[115.1,25.9]],[[115.1,25.9],[114.9,25.9]],[[114.9,25.9],[114.9,25.8]],[[114.9,25.8],[114.7,25.8]],[[114.7,25.8],[114.7,25.7]],[[114.7,25.7],[114.5,25.7]],[[114.5,25.7],[114.5,25.6]],[[114.5,25.6],[112.4,25.6]],[[112.4,25.6],[112.4,25.5]],[[112.4,25.5],[112.3,25.5]],[[112.3,25.5],[112.3,25.4]],[[112.3,25.4],[112.2,25.4]],[[112.2,25.4],[112.2,25.3]],[[112.2,25.3],[111.9,25.3]],[[111.9,25.3],[111.9,25.2]],[[111.9,25.2],[111.5,25.2]],[[111.5,25.2],[111.5,25.1]],[[111.5,25.1],[111.1,25.1]],[[111.1,25.1],[111.1,25.0]],[[111.1,25.0],[110.1,25.0]],[[110.1,25.0],[110.0,25.0],[110.0,24.9],[109.9,24.9],[109.9,24.8],[109.8,24.8],[109.8,24.7],[109.7,24.7],[109.7,24.6],[109.5,24.6],[109.5,24.5],[109.3,24.5],[109.3,24.4],[109.1,24.4],[109.1,24.3],[108.9,24.3],[108.9,24.2],[108.7,24.2],[108.7,24.1],[108.4,24.1],[108.4,24.0],[108.3,24.0],[108.3,23.9],[108.1,23.9],[108.1,23.8],[107.9,23.8],[107.9,23.7],[107.6,23.7],[107.6,23.6],[107.5,23.6],[107.5,23.5],[107.3,23.5],[107.3,23.4],[107.1,23.4],[107.1,23.3],[106.8,23.3],[106.8,23.2],[106.5,23.2],[106.5,23.1],[106.3,23.1],[106.3,23.0],[106.1,23.0],[106.1,22.9],[105.9,22.9],[105.9,22.8],[105.8,22.8],[105.8,22.7],[105.7,22.7],[105.7,22.4],[105.6,22.4],[105.6,21.9],[105.7,21.9],[105.7,21.6],[105.8,21.6],[105.8,21.3],[105.9,21.3],[105.9,21.2],[106.0,21.2],[106.0,21.0],[106.1,21.0],[106.1,20.9],[106.3,20.9],[106.3,20.8],[106.4,20.8],[106.4,20.7],[106.5,20.7],[106.5,20.6],[106.7,20.6],[106.7,20.7],[106.9,20.7],[106.9,20.8],[107.1,20.8],[107.1,20.9],[107.5,20.9],[107.5,21.0],[107.6,21.0],[107.6,21.1],[107.7,21.1],[107.7,21.3],[107.8,21.3],[107.8,21.4],[108.0,21.4],[108.0,21.5],[108.2,21.5],[108.2,21.6],[108.5,21.6],[108.5,21.7],[109.0,21.7],[109.0,21.6],[109.1,21.6],[109.1,21.5],[109.7,21.5],[109.7,20.7],[109.8,20.7],[109.8,20.5],[109.9,20.5],[109.9,20.4],[110.0,20.4],[110.0,20.3],[110.5,20.3],[110.5,21.0],[110.6,21.0],[110.6,21.2],[110.7,21.2],[110.7,21.3],[110.8,21.3],[110.8,21.4],[110.9,21.4],[110.9,21.5],[111.5,21.5],[111.5,21.6],[111.9,21.6],[111.9,21.7],[112.9,21.7],[112.9,21.8],[113.0,21.8],[113.0,21.9],[113.2,21.9],[113.2,22.0],[113.5,22.0],[113.5,22.1],[113.6,22.1],[113.6,22.6],[113.9,22.6],[113.9,22.2],[114.0,22.2],[114.0,22.1],[114.2,22.1],[114.2,22.2],[114.3,22.2],[114.3,22.3],[114.4,22.3],[114.4,22.4],[114.5,22.4],[114.5,22.5],[114.7,22.5],[114.7,22.6],[115.0,22.6],[115.0,22.7],[115.1,22.7],[115.1,22.8],[116.0,22.8],[116.0,22.9],[116.2,22.9],[116.2,23.0]],[[116.2,23.0],[116.2,23.4]],[[116.2,23.4],[116.1,23.4]],[[116.1,23.4],[116.1,23.5]],[[116.1,23.5],[116.0,23.5]],[[116.0,23.5],[116.0,24.2]],[[116.0,24.2],[115.9,24.2]],[[115.9,24.2],[115.9,24.4]],[[115.9,24.4],[115.8,24.4]],[[115.8,24.4],[115.8,24.6]],[[115.8,24.6],[115.7,24.6]],[[115.7,24.6],[115.7,25.0]],[[115.7,25.0],[115.6,25.0]],[[115.6,25.0],[115.6,25.2]],[[115.6,25.2],[115.5,25.2]],[[115.5,25.2],[115.5,25.4]],[[115.5,25.4],[115.4,25.4]],[[115.4,25.4],[115.4,25.6]],[[115.4,25.6],[115.3,25.6]],[[115.3,25.6],[115.3,25.8]],[[115.3,25.8],[115.2,25.8]],[[60.6,31.5],[60.6,31.4]],[[60.6,31.4],[60.2,31.4]],[[60.2,31.4],[60.2,31.3]],[[60.2,31.3],[60.0,31.3]],[[60.0,25.4],[60.7,25.4],[60.7,25.3],[61.1,25.3],[61.1,25.2],[61.3,25.2],[61.3,25.1],[62.0,25.1],[62.0,25.2],[62.5,25.2],[62.5,25.3],[63.6,25.3],[63.6,25.4],[64.2,25.4],[64.2,25.3],[64.8,25.3],[64.8,25.4],[65.0,25.4],[65.0,25.3],[65.2,25.3],[65.2,25.4],[66.0,25.4],[66.0,25.5],[66.5,25.5],[66.5,25.4],[66.6,25.4]],[[66.6,25.4],[66.8,25.4]],[[66.8,25.4],[66.8,25.5]],[[66.8,25.5],[66.9,25.5]],[[66.9,25.5],[66.9,25.7]],[[66.9,25.7],[67.0,25.7]],[[67.0,25.7],[67.0,25.8]],[[67.0,25.8],[67.1,25.8]],[[67.1,25.8],[67.1,25.9]],[[67.1,25.9],[67.2,25.9]],[[67.2,25.9],[67.2,26.1]],[[67.2,26.1],[67.3,26.1]],[[67.3,26.1],[67.3,26.3]],[[67.3,26.3],[67.4,26.3]],[[67.4,26.3],[67.4,26.6]],[[67.4,26.6],[67.5,26.6]],[[67.5,26.6],[67.5,26.7]],[[67.5,26.7],[67.6,26.7]],[[67.6,26.7],[67.6,26.9]],[[67.6,26.9],[67.7,26.9]],[[67.7,26.9],[67.7,27.2]],[[67.7,27.2],[67.8,27.2]],[[67.8,27.2],[67.8,27.4]],[[67.8,27.4],[67.9,27.4]],[[67.9,27.4],[67.9,27.6]],[[67.9,27.6],[68.0,27.6]],[[68.0,27.6],[68.0,27.9]],[[68.0,27.9],[68.1,27.9]],[[68.1,27.9],[68.1,28.4]],[[68.1,28.4],[68.2,28.4]],[[68.2,28.4],[68.2,28.6]],[[68.2,28.6],[68.3,28.6]],[[68.3,28.6],[68.3,28.8]],[[68.3,28.8],[68.4,28.8]],[[68.4,28.8],[68.4,29.0]],[[68.4,29.0],[68.5,29.0]],[[68.5,29.0],[68.5,29.2]],[[68.5,29.2],[68.6,29.2]],[[68.6,29.2],[68.6,29.7]],[[68.6,29.7],[66.3,29.7]],[[66.3,29.7],[66.3,29.8]],[[66.3,29.8],[66.1,29.8]],[[66.1,29.8],[66.1,29.9]],[[66.1,29.9],[65.7,29.9]],[[65.7,29.9],[65.7,30.0]],[[65.7,30.0],[65.5,30.0]],[[65.5,30.0],[65.5,30.1]],[[65.5,30.1],[65.3,30.1]],[[65.3,30.1],[65.3,30.2]],[[65.3,30.2],[65.0,30.2]],[[65.0,30.2],[65.0,30.3]],[[65.0,30.3],[64.7,30.3]],[[64.7,30.3],[64.7,30.4]],[[64.7,30.4],[64.6,30.4]],[[64.6,30.4],[64.6,30.5]],[[64.6,30.5],[64.3,30.5]],[[64.3,30.5],[64.3,30.6]],[[64.3,30.6],[63.9,30.6]],[[63.9,30.6],[63.9,30.7]],[[63.9,30.7],[63.4,30.7]],[[63.4,30.7],[63.4,30.8]],[[63.4,30.8],[63.1,30.8]],[[63.1,30.8],[63.1,30.9]],[[63.1,30.9],[62.9,30.9]],[[62.9,30.9],[62.9,31.0]],[[62.9,31.0],[62.5,31.0]],[[62.5,31.0],[62.5,31.1]],[[62.5,31.1],[62.1,31.1]],[[62.1,31.1],[62.1,31.2]],[[62.1,31.2],[61.9,31.2]],[[61.9,31.2],[61.9,31.3]],[[61.9,31.3],[61.6,31.3]],[[61.6,31.3],[61.6,31.4]],[[61.6,31.4],[61.3,31.4]],[[61.3,31.4],[61.3,31.5]],[[61.3,31.5],[61.1,31.5]],[[61.1,31.5],[60.6,31.5]],[[69.9,44.7],[69.9,44.8],[69.6,44.8],[69.6,44.9],[69.4,44.9],[69.4,44.8],[68.8,44.8],[68.8,44.7],[68.7,44.7],[68.7,44.3],[68.6,44.3],[68.6,43.8],[68.7,43.8],[68.7,43.6],[68.8,43.6],[68.8,43.5],[68.9,43.5],[68.9,43.4],[69.1,43.4],[69.1,43.3],[69.3,43.3],[69.3,43.2],[69.6,43.2],[69.6,43.1],[70.0,43.1],[70.0,43.0],[70.7,43.0],[70.7,42.9],[71.9,42.9]],[[72.7,43.2],[72.7,43.6]],[[72.7,43.6],[72.8,43.6]],[[72.8,43.6],[72.8,44.4]],[[72.8,44.4],[71.6,44.4],[71.6,44.5],[71.1,44.5],[71.1,44.6],[70.5,44.6],[70.5,44.7],[69.9,44.7]],[[121.2,45.0],[121.1,45.0],[121.1,45.2],[121.0,45.2],[121.0,45.3],[120.8,45.3],[120.8,45.4],[120.7,45.4],[120.7,45.5],[120.6,45.5],[120.6,45.6],[120.5,45.6],[120.5,45.8],[120.4,45.8],[120.4,45.9],[120.3,45.9],[120.3,46.1],[120.2,46.1],[120.2,46.5],[120.1,46.5],[120.1,46.8],[120.0,46.8],[120.0,47.0],[119.9,47.0],[119.9,47.2],[119.8,47.2],[119.8,47.4],[119.7,47.4],[119.7,47.7],[119.6,47.7],[119.6,48.0],[119.5,48.0],[119.5,48.2],[119.4,48.2],[119.4,48.4],[119.3,48.4],[119.3,48.6],[119.1,48.6],[119.1,48.7],[118.9,48.7],[118.9,48.8],[118.6,48.8],[118.6,48.9],[117.7,48.9],[117.7,49.0],[117.1,49.0],[117.1,49.1],[116.8,49.1],[116.8,49.2],[116.5,49.2],[116.5,49.3],[115.4,49.3],[115.4,49.4],[112.8,49.4],[112.8,49.3],[109.7,49.3],[109.7,49.2],[109.2,49.2],[109.2,49.1],[108.8,49.1],[108.8,49.0],[108.3,49.0],[108.3,48.9],[107.9,48.9],[107.9,48.8],[107.3,48.8],[107.3,48.7],[106.8,48.7],[106.8,48.6],[106.2,48.6],[106.2,48.5],[105.9,48.5],[105.9,48.4],[105.7,48.4],[105.7,48.3],[105.5,48.3],[105.5,48.2],[105.3,48.2],[105.3,48.1],[104.0,48.1],[104.0,48.2],[103.6,48.2],[103.6,48.3],[103.3,48.3],[103.3,48.4],[103.1,48.4],[103.1,48.5],[102.8,48.5],[102.8,48.6],[102.5,48.6],[102.5,48.7],[102.2,48.7],[102.2,48.8],[101.7,48.8],[101.7,48.9],[101.4,48.9],[101.4,49.0],[101.1,49.0],[101.1,49.1],[100.9,49.1],[100.9,49.2],[100.6,49.2],[100.6,49.3],[100.3,49.3],[100.3,49.4],[99.9,49.4],[99.9,49.5],[99.7,49.5],[99.7,49.6],[99.4,49.6],[99.4,49.7],[99.1,49.7],[99.1,49.8],[98.9,49.8],[98.9,49.9],[98.6,49.9],[98.6,50.0],[98.3,50.0],[98.3,50.1],[98.1,50.1],[98.1,50.2],[97.8,50.2],[97.8,50.3],[97.5,50.3],[97.5,50.4],[96.2,50.4],[96.2,50.5],[95.6,50.5],[95.6,50.4],[95.1,50.4],[95.1,50.3],[94.6,50.3],[94.6,50.2],[94.4,50.2],[94.4,50.3],[92.7,50.3],[92.7,50.4],[92.4,50.4],[92.4,50.5],[90.6,50.5],[90.6,50.4],[90.2,50.4],[90.2,50.3],[90.1,50.3],[90.1,50.0],[90.0,50.0],[90.0,49.3],[90.1,49.3],[90.1,49.2],[90.0,49.2],[90.0,48.6],[90.1,48.6],[90.1,48.5],[90.3,48.5],[90.3,48.2],[90.4,48.2],[90.4,48.1],[90.7,48.1],[90.7,48.0],[90.8,48.0],[90.8,47.9],[90.9,47.9],[90.9,47.8],[91.0,47.8],[91.0,47.6],[91.1,47.6],[91.1,47.5],[91.2,47.5],[91.2,47.4],[91.3,47.4],[91.3,47.3],[91.4,47.3],[91.4,47.2],[91.7,47.2],[91.7,47.1],[92.0,47.1],[92.0,47.0],[92.1,47.0],[92.1,46.9],[92.3,46.9],[92.3,46.8],[92.4,46.8],[92.4,46.6],[92.5,46.6],[92.5,46.4],[92.6,46.4],[92.6,46.2],[92.7,46.2],[92.7,46.1],[92.8,46.1],[92.8,45.8],[92.9,45.8],[92.9,45.6],[93.0,45.6],[93.0,45.4],[93.1,45.4],[93.1,45.3],[93.2,45.3],[93.2,45.2],[93.4,45.2],[93.4,45.1],[93.5,45.1],[93.5,45.0],[93.7,45.0],[93.7,44.9],[93.8,44.9],[93.8,44.8],[93.9,44.8],[93.9,44.7],[94.0,44.7],[94.0,44.5],[94.1,44.5],[94.1,44.4],[94.2,44.4],[94.2,44.3],[94.3,44.3],[94.3,44.2],[94.4,44.2],[94.4,44.1],[94.5,44.1],[94.5,43.9],[94.7,43.9],[94.7,43.7],[94.8,43.7],[94.8,43.6],[95.0,43.6],[95.0,43.5],[95.1,43.5],[95.1,43.4],[95.2,43.4],[95.2,43.3],[95.3,43.3],[95.3,43.2]],[[107.9,36.9],[109.3,36.9]],[[109.3,36.9],[109.3,36.8]],[[109.3,36.8],[109.5,36.8]],[[109.5,36.8],[109.5,36.7]],[[109.5,36.7],[110.1,36.7]],[[110.1,36.7],[110.1,36.8]],[[110.1,36.8],[110.3,36.8]],[[110.3,36.8],[110.3,36.9]],[[110.3,36.9],[110.5,36.9]],[[110.5,36.9],[110.5,37.0]],[[110.5,37.0],[110.7,37.0]],[[110.7,37.0],[110.7,37.1]],[[110.7,37.1],[110.8,37.1]],[[110.8,37.1],[110.8,37.2]],[[110.8,37.2],[110.9,37.2]],[[110.9,37.2],[110.9,37.3]],[[110.9,37.3],[111.1,37.3]],[[111.1,37.3],[111.1,37.4]],[[111.1,37.4],[111.2,37.4]],[[111.2,37.4],[111.2,37.5]],[[111.2,37.5],[111.3,37.5]],[[111.3,37.5],[111.3,37.6]],[[111.3,37.6],[111.4,37.6]],[[111.4,37.6],[111.4,37.7]],[[111.4,37.7],[111.5,37.7]],[[111.5,37.7],[111.5,37.8]],[[111.5,37.8],[111.6,37.8]],[[111.6,37.8],[111.6,37.9]],[[111.6,37.9],[111.7,37.9]],[[111.7,37.9],[111.7,38.1]],[[111.7,38.1],[111.8,38.1]],[[111.8,38.1],[111.8,38.2]],[[111.8,38.2],[111.9,38.2]],[[111.9,38.2],[111.9,38.4]],[[111.9,38.4],[112.0,38.4]],[[112.0,38.4],[112.0,38.5]],[[112.0,38.5],[112.1,38.5]],[[112.1,38.5],[112.1,38.6]],[[112.1,38.6],[112.2,38.6]],[[112.2,38.6],[112.2,38.7]],[[112.2,38.7],[112.4,38.7]],[[112.4,38.7],[112.4,38.8]],[[112.4,38.8],[112.8,38.8]],[[112.8,38.8],[112.8,38.9]],[[112.8,38.9],[112.9,38.9]],[[112.9,38.9],[112.9,39.0]],[[112.9,39.0],[113.0,39.0]],[[113.0,39.0],[113.0,39.1]],[[113.0,39.1],[113.1,39.1]],[[113.1,39.1],[113.1,39.2]],[[113.1,39.2],[113.2,39.2]],[[113.2,39.2],[113.2,39.3]],[[113.2,39.3],[113.4,39.3]],[[113.4,39.3],[113.4,39.4]],[[113.4,39.4],[113.5,39.4]],[[113.5,39.4],[113.5,39.5]],[[113.5,39.5],[113.6,39.5]],[[113.6,39.5],[113.6,39.6]],[[113.6,39.6],[113.7,39.6]],[[113.7,39.6],[113.7,39.7]],[[113.7,39.7],[113.8,39.7]],[[113.8,39.7],[113.8,39.8]],[[113.8,39.8],[114.0,39.8]],[[114.0,39.8],[114.0,39.9]],[[114.0,39.9],[114.1,39.9]],[[114.1,39.9],[114.1,40.0]],[[114.1,40.0],[114.2,40.0]],[[114.2,40.0],[114.2,40.1]],[[114.2,40.1],[114.4,40.1]],[[114.4,40.1],[114.4,40.2]],[[114.4,40.2],[114.5,40.2]],[[114.5,40.2],[114.5,40.3]],[[114.5,40.3],[114.6,40.3]],[[114.6,40.3],[114.6,40.4]],[[114.6,40.4],[114.7,40.4]],[[114.7,40.4],[114.7,40.5]],[[114.7,40.5],[114.8,40.5]],[[114.8,40.5],[114.8,40.6]],[[114.8,40.6],[114.9,40.6]],[[114.9,40.6],[114.9,40.7]],[[114.9,40.7],[115.0,40.7]],[[115.0,40.7],[115.0,40.8]],[[115.0,40.8],[115.1,40.8]],[[115.1,40.8],[115.1,41.0]],[[115.1,41.0],[115.2,41.0]],[[115.2,41.0],[115.2,41.3]],[[115.2,41.3],[115.3,41.3]],[[126.1,41.9],[126.1,42.0],[126.2,42.0],[126.2,42.1],[126.3,42.1],[126.3,42.2],[126.4,42.2],[126.4,42.9],[126.3,42.9],[126.3,43.1],[126.2,43.1],[126.2,43.2],[126.1,43.2],[126.1,43.5],[126.0,43.5],[126.0,43.7],[125.9,43.7],[125.9,43.8],[125.8,43.8],[125.8,43.9],[125.7,43.9],[125.7,44.0],[125.4,44.0],[125.4,44.1],[125.3,44.1],[125.3,44.2],[125.0,44.2],[125.0,44.3],[124.8,44.3],[124.8,44.4],[124.6,44.4],[124.6,44.5],[123.2,44.5],[123.2,44.4],[122.4,44.4],[122.4,44.5],[121.9,44.5],[121.9,44.6],[121.7,44.6],[121.7,44.7],[121.5,44.7],[121.5,44.8],[121.3,44.8],[121.3,44.9],[121.2,44.9],[121.2,45.0]],[[117.9,33.8],[117.4,33.8]],[[117.4,33.8],[117.4,33.7]],[[117.4,33.7],[117.2,33.7]],[[117.2,33.7],[117.2,33.6]],[[117.2,33.6],[117.1,33.6]],[[117.1,33.6],[117.1,33.5]],[[117.1,33.5],[116.8,33.5]],[[116.8,33.5],[116.8,33.4]],[[116.8,33.4],[116.3,33.4]],[[116.3,33.4],[116.3,33.5]],[[116.3,33.5],[116.2,33.5]],[[116.2,33.5],[116.1,33.5]],[[116.1,33.5],[116.1,33.1]],[[116.1,33.1],[116.2,33.1]],[[116.2,33.1],[116.2,32.7]],[[116.2,32.7],[116.3,32.7]],[[116.3,32.7],[116.3,32.4]],[[116.3,32.4],[116.4,32.4]],[[116.4,32.4],[116.4,32.0]],[[116.4,32.0],[116.5,32.0]],[[116.5,32.0],[116.5,30.8]],[[116.5,30.8],[116.4,30.8]],[[116.4,30.8],[116.4,30.1]],[[116.4,30.1],[116.3,30.1]],[[116.3,30.1],[116.3,30.0]],[[116.3,30.0],[116.2,30.0]],[[116.2,30.0],[116.2,29.8]],[[116.2,29.8],[116.1,29.8]],[[116.1,29.8],[116.1,29.7]],[[116.1,29.7],[116.0,29.7]],[[116.0,29.7],[116.0,29.6]],[[116.0,29.6],[115.9,29.6]],[[115.9,29.6],[115.9,29.5]],[[115.9,29.5],[115.8,29.5]],[[115.8,29.5],[115.8,29.4]],[[115.8,29.4],[115.7,29.4]],[[115.7,29.4],[115.7,29.3]],[[115.7,29.3],[115.6,29.3]],[[115.6,29.3],[115.6,29.2]],[[115.6,29.2],[115.5,29.2]],[[115.5,29.2],[115.5,28.8]],[[115.5,28.8],[115.6,28.8]],[[115.6,28.8],[115.6,27.9]],[[115.6,27.9],[115.5,27.9]],[[115.5,27.9],[115.5,27.4]],[[115.5,27.4],[115.4,27.4]],[[115.4,27.4],[115.4,27.2]],[[115.4,27.2],[115.3,27.2]],[[115.3,27.2],[115.3,26.7]],[[115.3,26.7],[115.2,26.7]],[[115.2,26.7],[115.2,26.4]],[[115.2,26.4],[115.1,26.4]],[[115.1,26.4],[115.1,25.9]],[[115.2,25.9],[115.2,26.1]],[[115.2,26.1],[115.4,26.1]],[[115.4,26.1],[115.4,26.2]],[[115.4,26.2],[115.5,26.2]],[[115.5,26.2],[115.5,26.3]],[[115.5,26.3],[115.7,26.3]],[[115.7,26.3],[115.7,26.4]],[[115.7,26.4],[115.8,26.4]],[[115.8,26.4],[115.8,26.5]],[[115.8,26.5],[115.9,26.5]],[[115.9,26.5],[115.9,26.6]],[[115.9,26.6],[116.0,26.6]],[[116.0,26.6],[116.0,26.7]],[[116.0,26.7],[116.2,26.7]],[[116.2,26.7],[116.2,26.9]],[[116.2,26.9],[116.4,26.9]],[[116.4,26.9],[116.4,27.0]],[[116.4,27.0],[116.5,27.0]],[[116.5,27.0],[116.5,27.1]],[[116.5,27.1],[116.6,27.1]],[[116.6,27.1],[116.6,27.2]],[[116.6,27.2],[116.7,27.2]],[[116.7,27.2],[116.7,27.3]],[[116.7,27.3],[116.8,27.3]],[[116.8,27.3],[116.8,27.4]],[[116.8,27.4],[116.9,27.4]],[[116.9,27.4],[116.9,27.5]],[[116.9,27.5],[117.0,27.5]],[[117.0,27.5],[117.0,27.6]],[[117.0,27.6],[117.1,27.6]],[[116.0,29.2],[116.0,29.4],[116.2,29.4],[116.2,29.2],[116.0,29.2]],[[116.4,29.0],[116.4,29.2],[116.5,29.2],[116.5,29.0],[116.4,29.0]],[[74.7,13.6],[74.7,13.3],[74.8,13.3],[74.8,12.8],[74.9,12.8],[74.9,12.6],[75.0,12.6],[75.0,12.4],[75.1,12.4],[75.1,12.2],[75.2,12.2],[75.2,12.0],[75.3,12.0],[75.3,11.9],[75.4,11.9],[75.4,11.8],[75.5,11.8],[75.5,11.7],[75.6,11.7],[75.6,11.5],[75.7,11.5],[75.7,11.3],[75.8,11.3],[75.8,11.1],[75.9,11.1],[75.9,10.8],[76.0,10.8],[76.0,10.5],[76.1,10.5],[76.1,10.3],[76.2,10.3],[76.2,9.9],[76.3,9.9],[76.3,9.5],[76.4,9.5],[76.4,9.2],[76.5,9.2],[76.5,9.0],[76.6,9.0],[76.6,8.9],[76.7,8.9],[76.7,8.8],[76.8,8.8],[76.8,8.7],[76.9,8.7],[76.9,8.5],[77.0,8.5],[77.0,8.4],[77.1,8.4],[77.1,8.3],[77.2,8.3],[77.2,8.2],[77.8,8.2],[77.8,8.3],[78.0,8.3],[78.0,8.4],[78.1,8.4],[78.1,8.5],[78.2,8.5],[78.2,8.9],[78.3,8.9],[78.3,9.1],[78.4,9.1],[78.4,9.2],[78.8,9.2],[78.8,9.3],[78.9,9.3],[78.9,9.4],[79.0,9.4],[79.0,9.8],[79.1,9.8],[79.1,9.9],[79.2,9.9],[79.2,10.0],[79.3,10.0],[79.3,10.3],[79.4,10.3],[79.4,10.4]],[[117.9,38.3],[117.9,38.4],[117.8,38.4]],[[117.8,38.4],[117.7,38.4]],[[117.7,38.4],[117.7,38.3]],[[117.7,38.3],[117.6,38.3]],[[117.6,38.3],[117.6,38.1]],[[117.6,38.1],[117.5,38.1]],[[117.5,38.1],[117.5,37.9]],[[117.5,37.9],[117.4,37.9]],[[117.4,37.9],[117.4,37.7]],[[117.4,37.7],[117.3,37.7]],[[117.3,37.7],[117.3,37.4]],[[117.3,37.4],[117.2,37.4]],[[117.2,37.4],[117.2,37.3]],[[117.2,37.3],[117.0,37.3]],[[117.0,37.3],[117.0,37.2]],[[117.0,37.2],[116.9,37.2]],[[116.9,37.2],[116.9,37.1]],[[116.9,37.1],[116.8,37.1]],[[116.8,37.1],[116.8,35.4]],[[116.8,35.4],[116.9,35.4]],[[116.9,35.4],[116.9,35.2]],[[116.9,35.2],[117.0,35.2]],[[117.0,35.2],[117.0,35.1]],[[117.0,35.1],[117.1,35.1]],[[117.1,35.1],[117.1,35.0]],[[117.1,35.0],[117.2,35.0]],[[117.2,35.0],[117.2,34.9]],[[117.2,34.9],[117.3,34.9]],[[117.3,34.9],[117.3,34.8]],[[117.3,34.8],[117.4,34.8]],[[117.4,34.8],[117.4,34.7]],[[117.4,34.7],[117.6,34.7]],[[117.6,34.7],[117.6,34.6]],[[117.6,34.6],[117.7,34.6]],[[117.7,34.6],[117.7,34.5]],[[117.7,34.5],[117.8,34.5]],[[117.8,34.5],[117.8,34.4]],[[117.8,34.4],[118.0,34.4]],[[118.0,34.4],[118.0,34.3]],[[118.0,34.3],[118.2,34.3]],[[119.6,34.7],[119.6,34.8],[119.5,34.8],[119.5,34.9],[119.4,34.9],[119.4,35.2],[119.5,35.2],[119.5,35.4],[119.6,35.4],[119.6,35.6],[119.7,35.6],[119.7,35.7],[120.0,35.7],[120.0,35.8],[120.1,35.8],[120.1,35.9],[120.2,35.9],[120.2,36.0],[120.3,36.0],[120.3,36.1],[120.6,36.1],[120.6,36.2],[120.7,36.2],[120.7,36.4],[120.8,36.4],[120.8,36.5],[121.0,36.5],[121.0,36.6],[121.1,36.6],[121.1,36.7],[121.3,36.7],[121.3,36.8],[121.7,36.8],[121.7,36.9],[122.5,36.9],[122.5,37.0],[122.6,37.0],[122.6,37.4],[122.5,37.4],[122.5,37.5],[122.3,37.5],[122.3,37.6],[121.9,37.6],[121.9,37.5],[121.6,37.5],[121.6,37.6],[121.4,37.6],[121.4,37.7],[121.2,37.7],[121.2,37.8],[121.0,37.8],[121.0,37.9],[120.9,37.9],[120.9,38.0],[120.7,38.0],[120.7,37.9],[120.5,37.9],[120.5,37.8],[120.3,37.8],[120.3,37.7],[120.2,37.7],[120.2,37.6],[120.1,37.6],[120.1,37.5],[119.9,37.5],[119.9,37.4],[119.8,37.4],[119.8,37.3],[119.7,37.3],[119.7,37.2],[119.3,37.2],[119.3,37.3],[119.1,37.3],[119.1,37.4],[119.0,37.4],[119.0,38.2],[118.9,38.2],[118.9,38.3],[118.7,38.3],[118.7,38.2],[118.0,38.2],[118.0,38.3],[117.9,38.3]],[[90.5,26.3],[90.5,26.4],[90.0,26.4],[90.0,26.5],[88.8,26.5],[88.8,26.6],[87.8,26.6],[87.8,26.7],[87.4,26.7],[87.4,26.8],[86.5,26.8],[86.5,26.9],[86.3,26.9],[86.3,27.0],[86.0,27.0],[86.0,27.1],[85.7,27.1],[85.7,27.2],[85.4,27.2],[85.4,27.3],[85.1,27.3],[85.1,27.4],[84.9,27.4],[84.9,27.5],[84.7,27.5],[84.7,27.6],[84.4,27.6],[84.4,27.7],[84.2,27.7],[84.2,27.8],[83.9,27.8],[83.9,27.9],[83.5,27.9],[83.5,28.0],[83.2,28.0],[83.2,28.1],[82.9,28.1],[82.9,28.2],[82.7,28.2],[82.7,28.3],[82.4,28.3],[82.4,28.4],[81.9,28.4],[81.9,28.5],[81.8,28.5],[81.8,28.6],[81.6,28.6],[81.6,28.7],[81.1,28.7],[81.1,28.9],[80.7,28.9],[80.7,29.0],[80.5,29.0],[80.5,29.1],[80.2,29.1],[80.2,29.2],[79.9,29.2],[79.9,29.3],[79.6,29.3],[79.6,29.4],[79.4,29.4],[79.4,29.5],[79.0,29.5],[79.0,29.6],[78.8,29.6],[78.8,29.7],[78.6,29.7],[78.6,29.8],[78.4,29.8],[78.4,29.9],[78.3,29.9],[78.3,30.0],[78.0,30.0],[78.0,30.1],[77.9,30.1],[77.9,30.2],[77.7,30.2],[77.7,30.3],[77.6,30.3],[77.6,30.4],[77.4,30.4],[77.4,30.5],[77.3,30.5],[77.3,30.6],[77.2,30.6],[77.2,30.7],[77.1,30.7],[77.1,30.8],[77.0,30.8],[77.0,31.0],[76.9,31.0],[76.9,31.1],[76.8,31.1],[76.8,31.3],[76.7,31.3],[76.7,31.4],[76.6,31.4],[76.6,31.5],[76.5,31.5],[76.5,31.6],[76.4,31.6],[76.4,31.7],[76.3,31.7],[76.3,31.9],[76.2,31.9],[76.2,32.0],[76.1,32.0],[76.1,32.1],[76.0,32.1],[76.0,32.2],[75.9,32.2],[75.9,32.3],[75.8,32.3],[75.8,32.5],[75.6,32.5],[75.6,32.6],[75.4,32.6],[75.4,32.7],[75.2,32.7],[75.2,32.8],[75.0,32.8],[75.0,32.9],[74.9,32.9],[74.9,33.0],[74.8,33.0],[74.8,33.1],[74.6,33.1],[74.6,33.2],[74.5,33.2],[74.5,33.3],[74.3,33.3],[74.3,33.4],[74.2,33.4],[74.2,33.5],[74.0,33.5],[74.0,33.6],[73.9,33.6],[73.9,33.7],[73.7,33.7],[73.7,33.8],[73.6,33.8],[73.6,33.9],[73.5,33.9],[73.5,34.0]],[[73.5,34.0],[73.4,34.0]],[[73.4,34.0],[73.4,34.1]],[[73.4,34.1],[73.2,34.1],[73.2,34.2],[73.1,34.2],[73.1,34.3],[72.9,34.3],[72.9,34.4],[72.8,34.4],[72.8,34.5],[72.7,34.5],[72.7,34.7],[72.6,34.7],[72.6,34.8],[72.5,34.8],[72.5,35.0],[72.4,35.0],[72.4,35.2],[72.3,35.2],[72.3,35.3],[72.2,35.3]],[[72.2,35.3],[72.2,34.9]],[[72.2,34.9],[72.1,34.9]],[[72.1,34.9],[72.1,34.6]],[[72.1,34.6],[72.0,34.6]],[[72.0,34.6],[72.0,34.4]],[[72.0,34.4],[71.9,34.4]],[[71.9,34.4],[71.9,34.2]],[[71.9,34.2],[71.8,34.2]],[[71.8,34.2],[71.8,34.0]],[[71.8,34.0],[71.7,34.0]],[[71.7,34.0],[71.7,33.8]],[[71.7,33.8],[71.6,33.8]],[[71.6,33.8],[71.6,33.6]],[[71.6,33.6],[71.5,33.6]],[[71.5,33.6],[71.5,33.4]],[[71.5,33.4],[71.4,33.4]],[[71.4,33.4],[71.4,33.0]],[[71.4,33.0],[71.3,33.0]],[[71.3,33.0],[71.3,32.9]],[[71.3,32.9],[71.2,32.9]],[[71.2,32.9],[71.2,32.6]],[[71.2,32.6],[71.1,32.6]],[[71.1,32.6],[71.1,32.3]],[[71.1,32.3],[71.0,32.3]],[[71.0,32.3],[71.0,32.1]],[[71.0,32.1],[70.9,32.1]],[[70.9,32.1],[70.9,31.9]],[[70.9,31.9],[70.8,31.9]],[[70.8,31.9],[70.8,31.8]],[[70.8,31.8],[70.7,31.8]],[[70.7,31.8],[70.7,31.7]],[[70.7,31.7],[70.6,31.7]],[[70.6,31.7],[70.6,31.5]],[[70.6,31.5],[70.5,31.5]],[[70.5,31.5],[70.5,31.3]],[[70.5,31.3],[70.4,31.3]],[[70.4,31.3],[70.4,31.2]],[[70.4,31.2],[70.3,31.2]],[[70.3,31.2],[70.3,31.0]],[[70.3,31.0],[70.2,31.0]],[[70.2,31.0],[70.2,30.9]],[[70.2,30.9],[70.1,30.9]],[[70.1,30.9],[70.1,30.7]],[[70.1,30.7],[70.0,30.7]],[[70.0,30.7],[70.0,30.6]],[[70.0,30.6],[69.9,30.6]],[[69.9,30.6],[69.9,30.5]],[[69.9,30.5],[69.7,30.5]],[[69.7,30.5],[69.7,30.4]],[[69.7,30.4],[69.6,30.4]],[[69.6,30.4],[69.6,30.3]],[[69.6,30.3],[69.4,30.3]],[[69.4,30.3],[69.4,30.2]],[[69.4,30.2],[69.3,30.2]],[[69.3,30.2],[69.3,30.1]],[[69.3,30.1],[69.2,30.1]],[[69.2,30.1],[69.2,29.9]],[[69.2,29.9],[68.9,29.9]],[[68.9,29.9],[68.9,29.8]],[[68.9,29.8],[68.6,29.8]],[[68.6,29.8],[68.6,29.7]],[[66.6,25.4],[66.6,25.3],[66.7,25.3],[66.7,25.0],[66.8,25.0],[66.8,24.9],[67.0,24.9],[67.0,24.8],[67.1,24.8],[67.1,24.7],[67.2,24.7],[67.2,24.5],[67.3,24.5],[67.3,24.2],[67.4,24.2],[67.4,24.1],[67.5,24.1],[67.5,23.9],[67.6,23.9],[67.6,23.8],[68.1,23.8],[68.1,23.7],[68.2,23.7],[68.2,23.6],[68.3,23.6],[68.3,23.5],[68.4,23.5],[68.4,23.4],[68.5,23.4],[68.5,23.3],[68.6,23.3],[68.6,23.2],[68.7,23.2],[68.7,23.1],[68.9,23.1],[68.9,23.0],[69.1,23.0],[69.1,22.9],[69.5,22.9],[69.5,22.8],[69.8,22.8],[69.8,22.9],[70.1,22.9],[70.1,22.8],[70.2,22.8],[70.2,22.7],[70.1,22.7],[70.1,22.6],[69.6,22.6],[69.6,22.5],[69.1,22.5],[69.1,22.4],[69.0,22.4],[69.0,22.2],[69.1,22.2],[69.1,22.1],[69.2,22.1],[69.2,22.0],[69.3,22.0],[69.3,21.9],[69.4,21.9],[69.4,21.8],[69.5,21.8],[69.5,21.7],[69.6,21.7],[69.6,21.6],[69.7,21.6],[69.7,21.5],[69.8,21.5],[69.8,21.4],[69.9,21.4],[69.9,21.3],[70.0,21.3],[70.0,21.2],[70.1,21.2],[70.1,21.1],[70.2,21.1],[70.2,21.0],[70.4,21.0],[70.4,20.9],[70.5,20.9],[70.5,20.8],[70.8,20.8],[70.8,20.7],[71.0,20.7],[71.0,20.8],[71.3,20.8],[71.3,20.9],[71.5,20.9],[71.5,21.0],[71.7,21.0],[71.7,21.1],[71.9,21.1],[71.9,21.2],[72.1,21.2],[72.1,21.3],[72.2,21.3],[72.2,21.5],[72.3,21.5],[72.3,22.0],[72.5,22.0],[72.5,21.8],[72.6,21.8],[72.6,21.1],[72.7,21.1],[72.7,21.0],[72.8,21.0],[72.8,20.8],[72.9,20.8],[72.9,20.5],[72.8,20.5],[72.8,20.3],[72.7,20.3],[72.7,19.5],[72.8,19.5],[72.8,18.9],[72.9,18.9],[72.9,18.3],[73.0,18.3],[73.0,18.0],[73.1,18.0],[73.1,17.6],[73.2,17.6],[73.2,17.2],[73.3,17.2],[73.3,16.5],[73.4,16.5],[73.4,16.2],[73.5,16.2],[73.5,16.0],[73.6,16.0],[73.6,15.9],[73.7,15.9],[73.7,15.6],[73.8,15.6],[73.8,15.4],[73.9,15.4],[73.9,15.1],[74.0,15.1],[74.0,15.0],[74.1,15.0],[74.1,14.9],[74.2,14.9],[74.2,14.7],[74.3,14.7],[74.3,14.5],[74.4,14.5],[74.4,14.3],[74.5,14.3],[74.5,14.1]],[[77.1,14.4],[77.1,14.5]],[[77.1,14.5],[76.9,14.5]],[[76.9,14.5],[76.9,14.7]],[[76.9,14.7],[76.8,14.7]],[[76.8,14.7],[76.8,14.9]],[[76.8,14.9],[76.7,14.9]],[[76.7,14.9],[76.7,15.1]],[[76.7,15.1],[76.6,15.1]],[[76.6,15.1],[76.6,15.2]],[[76.6,15.2],[76.5,15.2]],[[76.5,15.2],[76.5,15.4]],[[76.5,15.4],[76.4,15.4]],[[76.4,15.4],[76.4,15.5]],[[76.4,15.5],[76.3,15.5]],[[76.3,15.5],[76.3,15.6]],[[76.3,15.6],[76.2,15.6]],[[76.2,15.6],[76.2,15.8]],[[76.2,15.8],[76.1,15.8]],[[76.1,15.8],[76.1,15.9]],[[76.1,15.9],[76.0,15.9]],[[76.0,15.9],[76.0,16.0]],[[76.0,16.0],[75.9,16.0]],[[75.9,16.0],[75.9,16.1]],[[75.9,16.1],[75.8,16.1]],[[75.8,16.1],[75.8,16.3]],[[75.8,16.3],[75.7,16.3]],[[75.7,16.3],[75.7,16.4]],[[75.7,16.4],[75.6,16.4]],[[75.6,16.4],[75.6,16.5]],[[75.6,16.5],[75.5,16.5]],[[75.5,16.5],[75.5,16.6]],[[75.5,16.6],[75.4,16.6]],[[75.4,16.6],[75.4,16.7]],[[75.4,16.7],[75.3,16.7]],[[75.3,16.7],[75.3,16.8]],[[75.3,16.8],[75.2,16.8]],[[75.2,16.8],[75.2,16.9]],[[75.2,16.9],[75.1,16.9]],[[75.1,16.9],[75.1,17.0]],[[75.1,17.0],[75.0,17.0]],[[75.0,17.0],[75.0,17.1]],[[75.0,17.1],[74.9,17.1]],[[74.9,17.1],[74.9,17.2]],[[74.9,17.2],[74.8,17.2]],[[74.8,17.2],[74.8,17.3]],[[74.8,17.3],[74.7,17.3]],[[74.7,17.3],[74.7,17.4]],[[74.7,17.4],[74.6,17.4]],[[74.6,17.4],[74.6,17.5]],[[74.6,17.5],[74.5,17.5]],[[74.5,17.5],[74.5,17.6]],[[74.5,17.6],[74.4,17.6]],[[74.4,17.6],[74.4,17.8]],[[74.4,17.8],[74.3,17.8]],[[74.3,17.8],[74.3,18.0]],[[74.3,18.0],[74.2,18.0]],[[74.2,18.0],[74.2,18.3]],[[74.2,18.3],[74.1,18.3]],[[74.1,18.3],[74.1,18.4]],[[74.1,18.4],[74.0,18.4]],[[74.0,18.4],[74.0,18.9]],[[74.0,18.9],[74.1,18.9]],[[74.1,18.9],[74.1,19.0]],[[74.1,19.0],[74.3,19.0]],[[74.3,19.0],[74.3,19.1]],[[74.3,19.1],[74.7,19.1]],[[74.7,19.1],[74.7,19.2]],[[74.7,19.2],[76.8,19.2]],[[76.8,19.2],[76.8,19.1]],[[76.8,19.1],[77.5,19.1]],[[77.5,19.1],[77.5,19.0]],[[77.5,19.0],[77.8,19.0]],[[77.8,19.0],[77.8,18.9]],[[77.8,18.9],[78.0,18.9]],[[78.0,18.9],[78.0,18.8]],[[78.0,18.8],[78.3,18.8]],[[78.3,18.8],[78.3,18.7]],[[78.3,18.7],[78.6,18.7]],[[78.6,18.7],[78.6,18.6]],[[78.6,18.6],[78.8,18.6]],[[78.8,18.6],[78.8,18.5]],[[78.8,18.5],[79.0,18.5]],[[79.0,18.5],[79.0,18.4]],[[79.0,18.4],[79.1,18.4]],[[79.1,18.4],[79.1,18.3]],[[79.1,18.3],[79.3,18.3]],[[79.3,18.3],[79.3,18.2]],[[79.3,18.2],[79.5,18.2]],[[79.5,18.2],[79.5,18.1]],[[79.5,18.1],[79.6,18.1]],[[79.6,18.1],[79.6,18.0]],[[79.6,18.0],[79.7,18.0]],[[79.7,18.0],[79.7,18.3]],[[79.7,18.3],[79.6,18.3]],[[79.6,18.3],[79.6,18.5]],[[79.6,18.5],[79.5,18.5]],[[79.5,18.5],[79.5,19.5]],[[79.5,19.5],[79.6,19.5]],[[79.6,19.5],[79.6,19.7]],[[79.6,19.7],[79.7,19.7]],[[79.7,19.7],[79.7,20.1]],[[79.7,20.1],[79.8,20.1]],[[79.8,20.1],[79.8,20.2]],[[79.8,20.2],[79.9,20.2]],[[79.9,20.2],[79.9,20.4]],[[79.9,20.4],[80.0,20.4]],[[80.0,20.4],[80.0,21.3]],[[80.0,21.3],[80.1,21.3]],[[80.1,21.3],[80.1,21.7]],[[80.1,21.7],[80.2,21.7]],[[80.2,21.7],[80.2,22.0]],[[80.2,22.0],[80.4,22.0]],[[80.4,22.0],[80.4,21.9]],[[80.4,21.9],[80.5,21.9]],[[80.5,21.9],[80.5,21.8]],[[80.5,21.8],[80.6,21.8]],[[80.6,21.8],[80.6,21.7]],[[80.6,21.7],[80.9,21.7]],[[80.9,21.7],[80.9,21.6]],[[80.9,21.6],[81.3,21.6]],[[81.3,21.6],[81.3,21.5]],[[81.3,21.5],[81.8,21.5]],[[81.8,21.5],[81.8,21.4]],[[81.8,21.4],[82.1,21.4]],[[82.1,21.4],[82.1,21.3]],[[82.1,21.3],[82.4,21.3]],[[82.4,21.3],[82.4,21.2]],[[82.4,21.2],[82.6,21.2]],[[82.6,21.2],[82.6,21.1]],[[82.6,21.1],[82.8,21.1]],[[82.8,21.1],[82.8,21.0]],[[82.8,21.0],[82.9,21.0]],[[82.9,21.0],[82.9,20.9]],[[82.9,20.9],[83.0,20.9]],[[83.0,20.9],[83.0,20.8]],[[83.0,20.8],[83.2,20.8]],[[83.2,20.8],[83.2,20.7]],[[83.2,20.7],[83.4,20.7]],[[83.4,20.7],[83.4,20.6]],[[83.4,20.6],[83.6,20.6]],[[83.6,20.6],[83.6,20.5]],[[83.6,20.5],[83.8,20.5]],[[83.8,20.5],[83.8,20.4]],[[83.8,20.4],[84.3,20.4]],[[84.3,20.4],[84.3,20.3]],[[84.3,20.3],[84.8,20.3]],[[84.8,20.3],[84.8,20.2]],[[84.8,20.2],[85.1,20.2]],[[85.1,20.2],[85.1,20.1]],[[85.1,20.1],[85.3,20.1]],[[85.3,20.1],[85.3,20.0]],[[85.3,20.0],[85.4,20.0]],[[85.4,20.0],[85.4,19.9]],[[85.4,19.9],[85.5,19.9]],[[85.5,19.9],[85.5,19.8]],[[85.5,19.8],[85.6,19.8]],[[85.6,19.8],[85.9,19.8],[85.9,19.9],[86.3,19.9],[86.3,20.0],[86.4,20.0],[86.4,20.1],[86.5,20.1],[86.5,20.2],[86.6,20.2],[86.6,20.3],[86.8,20.3],[86.8,20.4],[86.9,20.4],[86.9,20.6],[87.0,20.6],[87.0,21.0],[86.9,21.0],[86.9,21.4],[87.0,21.4],[87.0,21.5],[87.1,21.5],[87.1,21.6],[87.5,21.6],[87.5,21.7],[87.8,21.7],[87.8,21.8],[88.1,21.8],[88.1,21.7],[88.2,21.7],[88.2,21.6],[89.0,21.6],[89.0,21.7],[89.4,21.7],[89.4,21.8],[89.7,21.8],[89.7,21.9],[89.9,21.9],[89.9,22.0],[90.0,22.0],[90.0,21.9],[90.7,21.9],[90.7,22.0],[90.8,22.0],[90.8,22.1],[91.0,22.1],[91.0,22.2],[91.1,22.2],[91.1,22.5],[91.2,22.5],[91.2,22.6],[91.7,22.6],[91.7,22.5],[91.8,22.5],[91.8,22.0],[91.9,22.0],[91.9,22.1],[92.0,22.1],[92.0,22.2],[92.1,22.2],[92.1,22.3],[92.2,22.3],[92.2,22.4],[92.3,22.4],[92.3,22.6],[92.4,22.6],[92.4,22.7],[92.5,22.7],[92.5,23.5],[92.6,23.5],[92.6,24.5],[92.5,24.5],[92.5,24.8],[92.4,24.8],[92.4,25.0],[92.3,25.0],[92.3,25.1],[92.2,25.1],[92.2,25.2],[92.1,25.2],[92.1,25.3],[92.0,25.3],[92.0,25.4],[91.9,25.4],[91.9,25.5],[91.7,25.5],[91.7,25.6],[91.6,25.6],[91.6,25.7],[91.5,25.7],[91.5,25.8],[91.4,25.8],[91.4,25.9],[91.3,25.9],[91.3,26.0],[91.1,26.0],[91.1,26.1],[91.0,26.1],[91.0,26.2],[90.8,26.2],[90.8,26.3],[90.5,26.3]],[[89.9,26.1],[90.0,26.1],[90.0,25.8],[89.9,25.8],[89.9,26.1]],[[89.7,24.3],[89.7,24.7],[89.9,24.7],[89.9,24.3],[89.7,24.3]],[[67.7,24.0],[67.7,24.1],[67.6,24.1],[67.6,24.2],[67.7,24.2],[67.7,24.3],[67.9,24.3],[67.9,24.0],[67.7,24.0]],[[115.4,29.2],[115.4,29.3]],[[115.4,29.3],[115.3,29.3]],[[115.3,29.3],[115.3,29.4]],[[115.3,29.4],[114.2,29.4]],[[114.2,29.4],[114.2,29.5]],[[114.2,29.5],[113.9,29.5]],[[113.9,29.5],[113.9,29.4]],[[113.9,29.4],[113.7,29.4]],[[113.7,29.4],[113.7,29.2]],[[113.7,29.2],[113.6,29.2]],[[113.6,29.2],[113.6,29.1]],[[113.6,29.1],[113.5,29.1]],[[113.5,29.1],[113.5,29.0]],[[113.5,29.0],[113.4,29.0]],[[113.4,29.0],[113.4,28.9]],[[113.4,28.9],[113.3,28.9]],[[113.3,28.9],[113.3,28.8]],[[113.3,28.8],[113.2,28.8]],[[113.2,28.8],[113.2,27.9]],[[113.2,27.9],[113.1,27.9]],[[113.1,27.9],[113.1,27.7]],[[113.1,27.7],[113.0,27.7]],[[113.0,27.7],[113.0,27.3]],[[113.0,27.3],[112.9,27.3]],[[112.9,27.3],[112.9,26.9]],[[112.9,26.9],[112.8,26.9]],[[112.8,26.9],[112.8,26.6]],[[112.8,26.6],[112.7,26.6]],[[112.7,26.6],[112.7,26.2]],[[112.7,26.2],[112.6,26.2]],[[112.6,26.2],[112.6,25.9]],[[112.6,25.9],[112.5,25.9]],[[112.5,25.9],[112.5,25.7]],[[112.5,25.7],[112.4,25.7]],[[112.4,25.7],[112.4,25.6]],[[115.5,29.2],[115.4,29.2]],[[116.4,35.2],[116.6,35.2]],[[116.6,35.2],[116.6,35.3]],[[116.6,35.3],[116.8,35.3]],[[116.8,35.3],[116.8,35.4]],[[116.8,37.1],[116.7,37.1]],[[116.7,37.1],[116.7,37.0]],[[116.7,37.0],[116.6,37.0]],[[116.6,37.0],[116.6,36.9]],[[116.6,36.9],[116.4,36.9]],[[116.4,36.9],[116.4,36.8]],[[116.4,36.8],[116.1,36.8]],[[116.1,36.8],[116.1,36.7]],[[116.1,36.7],[116.0,36.7]],[[116.0,36.7],[116.0,36.6]],[[116.0,36.6],[115.7,36.6]],[[115.7,36.6],[115.7,36.5]],[[115.7,36.5],[115.5,36.5]],[[115.5,36.5],[115.5,36.4]],[[115.5,36.4],[114.8,36.4]],[[114.8,36.4],[114.6,36.4]],[[114.6,36.4],[114.6,36.3]],[[114.6,36.3],[114.5,36.3]],[[114.5,36.3],[114.5,36.2]],[[114.5,36.2],[114.4,36.2]],[[114.4,36.2],[114.4,36.0]],[[114.4,36.0],[114.3,36.0]],[[114.3,36.0],[114.3,35.9]],[[114.3,35.9],[114.2,35.9]],[[114.2,35.9],[114.2,35.8]],[[114.2,35.8],[114.1,35.8]],[[114.1,35.8],[114.1,35.7]],[[114.1,35.7],[114.0,35.7]],[[114.0,35.7],[114.0,35.5]],[[114.0,35.5],[113.9,35.5]],[[113.9,35.5],[113.9,35.3]],[[113.9,35.3],[113.8,35.3]],[[113.8,35.3],[113.8,35.2]],[[113.8,35.2],[113.7,35.2]],[[113.7,35.2],[113.7,35.0]],[[113.7,35.0],[113.6,35.0]],[[113.6,35.0],[113.6,34.8]],[[113.6,34.8],[113.5,34.8]],[[113.5,34.8],[113.5,34.5]],[[113.5,34.5],[114.2,34.5]],[[114.2,34.5],[114.2,34.6]],[[114.2,34.6],[114.8,34.6]],[[114.8,34.6],[114.8,34.7]],[[114.8,34.7],[115.1,34.7]],[[115.1,34.7],[115.1,34.8]],[[115.1,34.8],[115.5,34.8]],[[115.5,34.8],[115.5,34.9]],[[115.5,34.9],[115.7,34.9]],[[115.7,34.9],[115.8,34.9]],[[115.8,34.9],[115.8,35.0]],[[115.8,35.0],[116.3,35.0]],[[116.3,35.0],[116.3,35.1]],[[116.3,35.1],[116.4,35.1]],[[116.4,35.1],[116.4,35.2]],[[78.3,44.8],[78.3,44.9],[78.5,44.9],[78.5,45.0],[78.6,45.0],[78.6,45.2],[78.7,45.2],[78.7,45.4],[78.8,45.4],[78.8,46.7],[78.7,46.7],[78.7,46.8],[78.4,46.8],[78.4,46.9],[77.0,46.9],[77.0,46.8],[76.8,46.8]],[[74.0,45.0],[74.0,44.9],[73.6,44.9],[73.6,44.8],[73.4,44.8],[73.4,44.7],[73.2,44.7],[73.2,44.6],[73.0,44.6],[73.0,44.5],[72.9,44.5],[72.9,44.4],[72.8,44.4]],[[73.7,43.1],[74.8,43.1],[74.8,43.2],[75.1,43.2],[75.1,43.3],[75.6,43.3],[75.6,43.4],[75.8,43.4],[75.8,43.5],[76.0,43.5],[76.0,43.6],[76.3,43.6],[76.3,43.7],[76.6,43.7],[76.6,43.8],[76.8,43.8],[76.8,43.9],[76.9,43.9],[76.9,44.0],[77.2,44.0],[77.2,44.1],[77.4,44.1],[77.4,44.2],[77.7,44.2],[77.7,44.4],[77.9,44.4],[77.9,44.5],[78.0,44.5],[78.0,44.7],[78.1,44.7],[78.1,44.8],[78.3,44.8]],[[80.4,9.8],[80.3,9.8],[80.3,9.9],[80.0,9.9],[80.0,9.5],[80.1,9.5],[80.1,9.2],[80.0,9.2],[80.0,9.1],[79.9,9.1],[79.9,8.5],[79.8,8.5],[79.8,8.4],[79.7,8.4],[79.7,7.9],[79.8,7.9],[79.8,6.9],[79.9,6.9],[79.9,6.7],[80.0,6.7],[80.0,6.3],[80.1,6.3],[80.1,6.1],[80.2,6.1],[80.2,6.0],[80.8,6.0],[80.8,6.1],[81.1,6.1],[81.1,6.2],[81.4,6.2],[81.4,6.3],[81.5,6.3],[81.5,6.4],[81.6,6.4],[81.6,6.5],[81.7,6.5],[81.7,6.6],[81.8,6.6],[81.8,6.8],[81.9,6.8],[81.9,7.2],[81.8,7.2],[81.8,7.8],[81.7,7.8],[81.7,7.9],[81.6,7.9],[81.6,8.1],[81.5,8.1],[81.5,8.3],[81.4,8.3],[81.4,8.6],[81.3,8.6],[81.3,8.7],[81.2,8.7],[81.2,8.9],[81.1,8.9],[81.1,9.0],[81.0,9.0],[81.0,9.2],[80.9,9.2],[80.9,9.4],[80.8,9.4],[80.8,9.5],[80.7,9.5],[80.7,9.6],[80.6,9.6],[80.6,9.7],[80.4,9.7],[80.4,9.8]],[[79.7,18.0],[79.7,17.9]],[[79.7,17.9],[80.1,17.9]],[[80.1,17.9],[80.1,17.8]],[[80.1,17.8],[80.3,17.8]],[[80.3,17.8],[80.3,17.7]],[[80.3,17.7],[80.6,17.7]],[[80.6,17.7],[80.6,17.6]],[[80.6,17.6],[80.8,17.6]],[[80.8,17.6],[80.8,17.5]],[[80.8,17.5],[80.9,17.5]],[[80.9,17.5],[80.9,17.4]],[[80.9,17.4],[81.0,17.4]],[[81.0,17.4],[81.0,17.3]],[[81.0,17.3],[81.1,17.3]],[[81.1,17.3],[81.1,17.1]],[[81.1,17.1],[81.2,17.1]],[[81.2,17.1],[81.2,17.0]],[[81.2,17.0],[81.3,17.0]],[[81.3,17.0],[81.3,16.9]],[[81.3,16.9],[81.4,16.9]],[[81.4,16.9],[81.4,16.7]],[[81.4,16.7],[81.5,16.7]],[[81.5,16.7],[81.5,16.6]],[[81.5,16.6],[81.6,16.6]],[[81.6,16.6],[81.6,16.4]],[[81.6,16.4],[81.9,16.4],[81.9,16.5],[82.2,16.5],[82.2,16.6],[82.3,16.6],[82.3,16.7],[82.4,16.7],[82.4,17.2],[82.5,17.2],[82.5,17.3],[82.7,17.3],[82.7,17.4],[82.8,17.4],[82.8,17.5],[83.1,17.5],[83.1,17.6],[83.2,17.6],[83.2,17.7],[83.3,17.7],[83.3,17.8],[83.4,17.8],[83.4,17.9],[83.5,17.9],[83.5,18.0],[83.6,18.0],[83.6,18.1],[83.8,18.1],[83.8,18.2],[83.9,18.2],[83.9,18.3],[84.1,18.3],[84.1,18.4],[84.2,18.4],[84.2,18.5],[84.3,18.5],[84.3,18.6],[84.4,18.6],[84.4,18.7],[84.5,18.7],[84.5,18.8],[84.6,18.8],[84.6,18.9],[84.7,18.9],[84.7,19.1],[84.8,19.1],[84.8,19.2],[84.9,19.2],[84.9,19.3],[85.0,19.3],[85.0,19.4],[85.1,19.4],[85.1,19.5],[85.2,19.5],[85.2,19.6],[85.4,19.6],[85.4,19.7],[85.6,19.7],[85.6,19.8]],[[60.2,33.5],[60.1,33.5]],[[60.1,33.5],[60.1,33.6]],[[60.1,33.6],[60.0,33.6]],[[61.1,31.5],[61.1,32.4]],[[61.1,32.4],[61.0,32.4]],[[61.0,32.4],[61.0,32.5]],[[61.0,32.5],[60.9,32.5]],[[60.9,32.5],[60.9,32.7]],[[60.9,32.7],[60.8,32.7]],[[60.8,32.7],[60.8,32.8]],[[60.8,32.8],[60.7,32.8]],[[60.7,32.8],[60.7,32.9]],[[60.7,32.9],[60.6,32.9]],[[60.6,32.9],[60.6,33.0]],[[60.6,33.0],[60.5,33.0]],[[60.5,33.0],[60.5,33.2]],[[60.5,33.2],[60.4,33.2]],[[60.4,33.2],[60.4,33.3]],[[60.4,33.3],[60.2,33.3]],[[60.2,33.3],[60.2,33.5]],[[60.2,39.3],[60.1,39.3]],[[60.1,39.3],[60.1,39.8]],[[60.1,39.8],[60.0,39.8]],[[60.0,37.6],[60.1,37.6]],[[60.1,37.6],[60.1,37.7]],[[60.1,37.7],[60.2,37.7]],[[60.2,37.7],[60.2,37.8]],[[60.2,37.8],[60.3,37.8]],[[60.3,37.8],[60.3,38.0]],[[60.3,38.0],[60.4,38.0]],[[60.4,38.0],[60.4,38.8]],[[60.4,38.8],[60.3,38.8]],[[60.3,38.8],[60.3,39.0]],[[60.3,39.0],[60.2,39.0]],[[60.2,39.0],[60.2,39.3]],[[114.1,39.8],[114.0,39.8]],[[107.5,35.9],[107.5,34.4],[107.4,34.4],[107.4,34.1],[107.3,34.1],[107.3,33.3],[107.2,33.3],[107.2,32.9],[107.1,32.9],[107.1,32.3],[107.0,32.3],[107.0,32.1],[106.9,32.1],[106.9,30.9],[107.0,30.9],[107.0,30.7],[107.1,30.7],[107.1,30.5],[107.2,30.5],[107.2,30.4],[107.3,30.4],[107.3,30.3],[107.4,30.3],[107.4,30.1],[107.6,30.1],[107.6,30.0],[107.9,30.0],[107.9,29.9],[108.6,29.9],[108.6,29.8],[109.4,29.8],[109.4,29.7],[109.5,29.7],[109.5,29.6],[109.6,29.6],[109.6,29.5],[109.7,29.5],[109.7,29.3],[109.9,29.3],[109.9,29.2],[110.0,29.2],[110.0,29.1],[110.1,29.1],[110.1,28.8],[110.2,28.8],[110.2,28.6],[110.3,28.6],[110.3,27.8],[110.2,27.8],[110.2,27.3],[110.1,27.3],[110.1,25.0]],[[116.2,33.5],[116.2,33.9]],[[116.2,33.9],[116.1,33.9]],[[116.1,33.9],[116.1,34.1]],[[116.1,34.1],[116.0,34.1]],[[116.0,34.1],[116.0,34.2]],[[116.0,34.2],[115.9,34.2]],[[115.9,34.2],[115.9,34.4]],[[115.9,34.4],[115.8,34.4]],[[115.8,34.4],[115.8,34.7]],[[115.8,34.7],[115.7,34.7]],[[115.7,34.7],[115.7,34.9]],[[114.8,36.4],[114.8,36.5]],[[114.8,36.5],[114.7,36.5]],[[114.7,36.5],[114.7,36.8]],[[114.7,36.8],[114.6,36.8]],[[114.6,36.8],[114.6,37.3]],[[114.6,37.3],[114.5,37.3]],[[114.5,37.3],[114.5,37.7]],[[114.5,37.7],[114.4,37.7]],[[114.4,37.7],[114.4,38.1]],[[114.4,38.1],[114.3,38.1]],[[114.3,38.1],[114.3,38.3]],[[114.3,38.3],[114.2,38.3]],[[114.2,38.3],[114.2,39.0]],[[114.2,39.0],[114.1,39.0]],[[114.1,39.0],[114.1,39.8]],[[80.3,13.9],[80.3,14.0],[80.2,14.0],[80.2,14.9],[80.1,14.9],[80.1,15.4],[80.2,15.4],[80.2,15.5],[80.3,15.5],[80.3,15.7],[80.4,15.7],[80.4,15.8],[80.5,15.8],[80.5,15.9],[80.7,15.9],[80.7,15.8],[81.0,15.8],[81.0,15.9],[81.1,15.9],[81.1,16.0],[81.2,16.0],[81.2,16.2],[81.3,16.2],[81.3,16.3],[81.4,16.3],[81.4,16.4],[81.6,16.4]],[[116.2,23.0],[116.5,23.0],[116.5,23.1],[116.6,23.1],[116.6,23.2],[116.7,23.2],[116.7,23.3],[116.8,23.3],[116.8,23.4],[116.9,23.4],[116.9,23.5],[117.3,23.5],[117.3,23.6],[117.4,23.6],[117.4,23.7],[117.5,23.7],[117.5,23.8],[117.6,23.8],[117.6,23.9],[117.7,23.9],[117.7,24.0],[117.9,24.0],[117.9,24.1],[118.0,24.1],[118.0,24.2],[118.1,24.2],[118.1,24.3],[118.2,24.3],[118.2,24.4],[118.4,24.4],[118.4,24.5],[118.5,24.5],[118.5,24.6],[118.6,24.6],[118.6,24.7],[118.8,24.7],[118.8,24.8],[118.9,24.8],[118.9,25.0],[119.0,25.0],[119.0,25.1],[119.1,25.1],[119.1,25.2],[119.3,25.2],[119.3,25.3],[119.4,25.3],[119.4,25.4]],[[73.5,34.0],[73.5,34.1],[73.4,34.1]],[[72.2,35.3],[72.2,35.4],[72.3,35.4],[72.3,35.6],[72.4,35.6],[72.4,36.3],[72.3,36.3],[72.3,36.6],[72.2,36.6],[72.2,36.7],[72.1,36.7],[72.1,36.9],[72.0,36.9],[72.0,37.0],[71.9,37.0],[71.9,37.1],[71.8,37.1],[71.8,37.3],[71.7,37.3],[71.7,37.5],[71.6,37.5],[71.6,37.6],[71.5,37.6],[71.5,37.8],[71.4,37.8],[71.4,37.9],[71.3,37.9],[71.3,38.0],[71.2,38.0],[71.2,38.1],[71.1,38.1],[71.1,38.3],[71.0,38.3],[71.0,38.4],[70.9,38.4],[70.9,38.5],[70.8,38.5],[70.8,38.6],[70.7,38.6],[70.7,38.7],[70.6,38.7],[70.6,38.8],[70.5,38.8],[70.5,39.0],[70.4,39.0],[70.4,39.1],[70.3,39.1],[70.3,39.2],[70.1,39.2],[70.1,39.3],[70.0,39.3],[70.0,39.4],[69.9,39.4],[69.9,39.5],[69.8,39.5],[69.8,39.6],[69.7,39.6],[69.7,39.7],[69.5,39.7],[69.5,39.8],[69.3,39.8],[69.3,39.9],[69.2,39.9],[69.2,40.0],[69.0,40.0],[69.0,40.1],[68.9,40.1],[68.9,40.2],[68.8,40.2],[68.8,40.3],[68.7,40.3],[68.7,40.4],[68.6,40.4],[68.6,40.5],[68.3,40.5],[68.3,40.6],[68.2,40.6],[68.2,40.7],[68.1,40.7],[68.1,40.8],[68.0,40.8],[68.0,40.9],[67.8,40.9],[67.8,41.0],[67.5,41.0],[67.5,41.1],[67.4,41.1],[67.4,41.2],[67.3,41.2],[67.3,41.3],[67.1,41.3],[67.1,41.4],[63.4,41.4],[63.4,41.3],[62.7,41.3],[62.7,41.2],[62.3,41.2],[62.3,41.1],[62.1,41.1],[62.1,41.0],[61.9,41.0],[61.9,40.9],[61.8,40.9],[61.8,40.8],[61.7,40.8],[61.7,40.7],[61.4,40.7],[61.4,40.6],[61.3,40.6],[61.3,40.5],[61.1,40.5],[61.1,40.4],[61.0,40.4],[61.0,40.3],[60.8,40.3],[60.8,40.2],[60.7,40.2],[60.7,40.1],[60.6,40.1],[60.6,40.0],[60.2,40.0],[60.2,39.9],[60.1,39.9],[60.1,39.8]],[[117.8,38.4],[117.8,38.5],[117.7,38.5],[117.7,38.6],[117.6,38.6],[117.6,38.8]],[[126.5,40.4],[126.5,40.5],[126.4,40.5],[126.4,40.6],[126.3,40.6],[126.3,40.7],[126.0,40.7]],[[125.3,39.6],[125.3,39.5],[125.4,39.5],[125.4,39.3],[125.3,39.3],[125.3,39.1],[125.2,39.1],[125.2,39.0],[125.1,39.0],[125.1,38.7],[125.0,38.7],[125.0,38.6],[124.9,38.6],[124.9,38.1],[125.0,38.1],[125.0,37.9],[125.1,37.9],[125.1,37.8],[125.2,37.8],[125.2,37.7],[125.4,37.7],[125.4,37.8],[125.7,37.8],[125.7,37.9],[126.0,37.9],[126.0,37.8],[126.3,37.8],[126.3,37.7],[126.4,37.7],[126.4,37.4],[126.5,37.4],[126.5,37.3],[126.7,37.3],[126.7,37.4],[126.9,37.4],[126.9,37.5],[127.0,37.5],[127.0,37.6],[127.1,37.6],[127.1,37.7],[127.2,37.7],[127.2,37.8],[127.3,37.8],[127.3,38.0],[127.4,38.0],[127.4,38.1],[127.5,38.1],[127.5,38.6],[127.4,38.6],[127.4,38.9],[127.3,38.9],[127.3,39.1],[127.2,39.1],[127.2,39.3],[127.1,39.3],[127.1,39.6],[127.0,39.6],[127.0,39.8],[126.9,39.8],[126.9,40.0],[126.7,40.0],[126.7,40.2],[126.6,40.2],[126.6,40.4],[126.5,40.4]]]},"properties":{"start_year":-190,"end_year":-180}}]}
