{"type":"FeatureCollection","features":[{"type":"Feature","id":"boundaries:-255","geometry":{"type":"MultiLineString","coordinates":[[[77.8,11.0],[77.5,11.0]],[[77.5,11.0],[77.5,11.1]],[[77.5,11.1],[75.9,11.1]],[[75.9,11.1],[75.9,10.8],[76.0,10.8],[76.0,10.5],[76.1,10.5],[76.1,10.3],[76.2,10.3],[76.2,9.9],[76.3,9.9],[76.3,9.5],[76.4,9.5],[76.4,9.2],[76.5,9.2],[76.5,9.0],[76.6,9.0],[76.6,8.9],[76.7,8.9],[76.7,8.8],[76.8,8.8],[76.8,8.7],[76.9,8.7],[76.9,8.5],[77.0,8.5],[77.0,8.4],[77.1,8.4],[77.1,8.3],[77.2,8.3],[77.2,8.2],[77.8,8.2],[77.8,8.3],[78.0,8.3],[78.0,8.4],[78.1,8.4],[78.1,8.5],[78.2,8.5],[78.2,8.9],[78.3,8.9],[78.3,9.1],[78.4,9.1],[78.4,9.2],[78.8,9.2],[78.8,9.3],[78.9,9.3],[78.9,9.4],[79.0,9.4],[79.0,9.8],[79.1,9.8],[79.1,9.9],[79.2,9.9],[79.2,10.0],[79.3,10.0],[79.3,10.3],[79.4,10.3],[79.4,10.4]],[[79.4,10.4],[79.3,10.4]],[[79.3,10.4],[79.3,10.5]],[[79.3,10.5],[79.1,10.5]],[[79.1,10.5],[79.1,10.6]],[[79.1,10.6],[78.8,10.6]],[[78.8,10.6],[78.8,10.7]],[[78.8,10.7],[78.5,10.7]],[[78.5,10.7],[78.5,10.8]],[[78.5,10.8],[78.1,10.8]],[[78.1,10.8],[78.1,10.9]],[[78.1,10.9],[77.8,10.9]],[[77.8,10.9],[77.8,11.0]],[[115.4,36.8],[115.4,37.0]],[[115.4,37.0],[115.5,37.0]],[[115.5,37.0],[115.5,37.2]],[[115.5,37.2],[115.4,37.2]],[[115.4,37.2],[115.4,37.1]],[[115.4,37.1],[115.2,37.1]],[[115.2,37.1],[115.2,37.0]],[[115.2,37.0],[115.0,37.0]],[[115.0,37.0],[115.0,36.9]],[[115.0,36.9],[114.7,36.9]],[[114.7,36.9],[114.7,36.8]],[[114.7,36.8],[114.4,36.8]],[[114.4,36.8],[114.4,36.7]],[[114.4,36.7],[114.3,36.7]],[[114.3,36.7],[114.3,36.6]],[[114.3,36.6],[114.0,36.6]],[[114.0,36.6],[114.0,36.5]],[[114.0,36.5],[113.1,36.5]],[[113.1,36.5],[113.1,36.6]],[[113.1,36.6],[112.7,36.6]],[[112.7,36.6],[112.7,36.7]],[[112.7,36.7],[112.3,36.7]],[[112.3,36.7],[112.3,36.8]],[[112.3,36.8],[112.0,36.8]],[[112.0,36.8],[112.0,36.9]],[[112.0,36.9],[111.5,36.9]],[[111.5,36.9],[111.5,36.8]],[[111.5,36.8],[111.7,36.8]],[[111.7,36.8],[111.7,36.7]],[[111.7,36.7],[111.8,36.7]],[[111.8,36.7],[111.8,36.5]],[[111.8,36.5],[111.9,36.5]],[[111.9,36.5],[111.9,36.3]],[[111.9,36.3],[112.0,36.3]],[[112.0,36.3],[112.0,36.2]],[[112.0,36.2],[112.1,36.2]],[[112.1,36.2],[112.1,36.0]],[[112.1,36.0],[112.2,36.0]],[[112.2,36.0],[112.2,35.7]],[[112.2,35.7],[112.3,35.7]],[[112.3,35.7],[112.3,35.5]],[[112.3,35.5],[112.3,35.4]],[[112.3,35.4],[112.4,35.4]],[[112.4,35.4],[112.4,35.3]],[[112.4,35.3],[112.5,35.3]],[[112.5,35.3],[112.5,35.2]],[[112.5,35.2],[112.6,35.2]],[[112.6,35.2],[112.6,35.1]],[[112.6,35.1],[112.8,35.1]],[[112.8,35.1],[112.8,35.0]],[[112.8,35.0],[112.9,35.0]],[[112.9,35.0],[112.9,34.7]],[[112.9,34.7],[112.8,34.7]],[[112.8,34.7],[112.8,34.1]],[[112.8,34.1],[112.9,34.1]],[[112.9,34.1],[112.9,33.8]],[[112.9,33.8],[113.0,33.8]],[[113.0,33.8],[113.0,33.6]],[[113.0,33.6],[113.1,33.6]],[[113.1,33.6],[113.1,33.3]],[[113.1,33.3],[113.2,33.3]],[[113.2,33.3],[113.2,33.1]],[[113.2,33.1],[113.3,33.1]],[[113.3,33.1],[114.1,33.1]],[[114.1,33.1],[114.1,33.2]],[[114.1,33.2],[114.1,33.3]],[[114.1,33.3],[114.2,33.3]],[[114.2,33.3],[114.2,33.4]],[[114.2,33.4],[114.3,33.4]],[[114.3,33.4],[114.3,33.6]],[[114.3,33.6],[114.4,33.6]],[[114.4,33.6],[114.4,34.1]],[[114.4,34.1],[114.5,34.1]],[[114.5,34.1],[114.5,34.3]],[[114.5,34.3],[114.6,34.3]],[[114.6,34.3],[114.6,34.6]],[[114.6,34.6],[114.7,34.6]],[[114.7,34.6],[114.7,34.8]],[[114.7,34.8],[114.8,34.8]],[[114.8,34.8],[114.8,34.9]],[[114.8,34.9],[115.0,34.9]],[[115.0,34.9],[115.0,35.0]],[[115.0,35.0],[115.2,35.0]],[[115.2,35.0],[115.2,35.1]],[[115.2,35.1],[115.3,35.1]],[[115.3,35.1],[115.3,35.2]],[[115.3,35.2],[115.4,35.2]],[[115.4,35.2],[115.4,35.3]],[[115.4,35.3],[115.6,35.3]],[[115.6,35.3],[115.6,35.6]],[[115.6,35.6],[115.5,35.6]],[[115.5,35.6],[115.5,35.7]],[[115.5,35.7],[115.4,35.7]],[[115.4,35.7],[115.4,35.8]],[[115.4,35.8],[115.3,35.8]],[[115.3,35.8],[115.3,36.0]],[[115.3,36.0],[115.2,36.0]],[[115.2,36.0],[115.2,36.5]],[[115.2,36.5],[115.3,36.5]],[[115.3,36.5],[115.3,36.8]],[[115.3,36.8],[115.4,36.8]],[[104.1,41.1],[103.7,41.1],[103.7,41.2],[103.3,41.2],[103.3,41.3],[102.8,41.3],[102.8,41.2],[102.2,41.2],[102.2,41.1],[101.8,41.1],[101.8,41.0],[101.5,41.0],[101.5,40.9],[101.2,40.9],[101.2,40.8],[100.7,40.8],[100.7,40.7],[99.9,40.7],[99.9,40.6],[97.0,40.6],[97.0,40.5],[96.7,40.5],[96.7,40.4],[96.6,40.4],[96.6,40.3],[96.5,40.3],[96.5,40.2],[96.4,40.2],[96.4,40.1],[96.3,40.1],[96.3,39.9],[96.1,39.9],[96.1,39.7],[96.0,39.7],[96.0,39.5],[95.9,39.5],[95.9,39.1],[96.0,39.1],[96.0,38.8],[96.1,38.8],[96.1,38.7],[96.2,38.7],[96.2,38.6],[96.4,38.6],[96.4,38.5],[96.7,38.5],[96.7,38.4],[96.8,38.4],[96.8,38.3],[96.9,38.3],[96.9,38.2],[97.1,38.2],[97.1,38.1],[97.2,38.1],[97.2,38.0],[97.3,38.0],[97.3,37.8],[97.4,37.8],[97.4,37.7],[97.6,37.7],[97.6,37.6],[98.0,37.6],[98.0,37.5],[98.4,37.5],[98.4,37.4],[98.8,37.4],[98.8,37.3],[99.0,37.3],[99.0,37.2],[99.2,37.2],[99.2,37.1],[99.3,37.1],[99.3,37.0],[99.5,37.0],[99.5,36.9],[99.6,36.9],[99.6,36.8],[99.8,36.8],[99.8,36.7],[99.9,36.7],[99.9,36.6],[100.1,36.6],[100.1,36.5],[100.3,36.5],[100.3,36.4],[100.6,36.4],[100.6,36.3],[101.0,36.3],[101.0,36.2],[101.5,36.2],[101.5,36.1],[102.0,36.1],[102.0,36.0],[102.2,36.0],[102.2,35.9],[102.3,35.9],[102.3,35.8],[102.4,35.8],[102.4,35.7],[102.5,35.7],[102.5,35.6],[102.6,35.6],[102.6,35.5],[102.8,35.5],[102.8,35.4],[102.9,35.4]],[[102.9,35.4],[102.9,35.5]],[[102.9,35.5],[103.1,35.5]],[[103.1,35.5],[103.1,35.6]],[[103.1,35.6],[103.4,35.6]],[[103.4,35.6],[103.4,35.7]],[[103.4,35.7],[104.1,35.7]],[[104.1,35.7],[104.1,35.8]],[[104.1,35.8],[105.0,35.8]],[[105.0,35.8],[105.0,35.9]],[[105.0,35.9],[106.5,35.9]],[[106.5,35.9],[106.5,36.0]],[[106.5,36.0],[107.2,36.0]],[[107.2,36.0],[107.2,36.1]],[[107.2,36.1],[107.2,36.2],[107.3,36.2],[107.3,36.5],[107.4,36.5],[107.4,36.7],[107.5,36.7],[107.5,37.8],[107.6,37.8],[107.6,39.0],[107.7,39.0],[107.7,39.8],[107.6,39.8],[107.6,40.1],[107.5,40.1],[107.5,40.2],[107.4,40.2],[107.4,40.3],[107.3,40.3],[107.3,40.4],[107.2,40.4],[107.2,40.5],[107.1,40.5],[107.1,40.6],[106.9,40.6],[106.9,40.7],[105.5,40.7],[105.5,40.8],[105.1,40.8],[105.1,40.9],[104.6,40.9],[104.6,41.0],[104.1,41.0],[104.1,41.1]],[[125.8,42.0],[125.5,42.0]],[[125.5,42.0],[125.5,42.1]],[[125.5,42.1],[125.0,42.1]],[[125.0,42.1],[125.0,42.2]],[[125.0,42.2],[124.3,42.2]],[[124.3,42.2],[124.3,42.1]],[[124.3,42.1],[123.6,42.1]],[[123.6,42.1],[123.6,42.0]],[[123.6,42.0],[123.3,42.0]],[[123.3,42.0],[123.3,41.9]],[[123.3,41.9],[123.2,41.9]],[[123.2,41.9],[123.2,41.8]],[[123.2,41.8],[122.9,41.8]],[[122.9,41.8],[122.9,41.7]],[[122.9,41.7],[122.7,41.7]],[[122.7,41.7],[122.7,41.6]],[[122.7,41.6],[122.6,41.6]],[[122.6,41.6],[122.6,41.5]],[[122.6,41.5],[122.3,41.5]],[[122.3,41.5],[122.3,41.4]],[[122.3,41.4],[122.0,41.4]],[[122.0,41.4],[122.0,41.3]],[[122.0,41.3],[121.7,41.3]],[[121.7,41.3],[121.7,41.2]],[[121.7,41.2],[121.0,41.2]],[[121.0,41.2],[121.0,41.3]],[[121.0,41.3],[120.4,41.3]],[[120.4,41.3],[120.4,41.4]],[[120.4,41.4],[120.2,41.4]],[[120.2,41.4],[120.2,41.5]],[[120.2,41.5],[120.0,41.5]],[[120.0,41.5],[120.0,41.6]],[[120.0,41.6],[119.8,41.6]],[[119.8,41.6],[119.8,41.7]],[[119.8,41.7],[119.4,41.7]],[[119.4,41.7],[119.4,41.8]],[[119.4,41.8],[119.0,41.8]],[[119.0,41.8],[119.0,41.9]],[[119.0,41.9],[118.5,41.9]],[[118.5,41.9],[118.2,41.9],[118.2,42.0],[117.2,42.0],[117.2,41.9],[116.9,41.9],[116.9,41.8],[116.6,41.8],[116.6,41.7],[116.5,41.7],[116.5,41.6],[116.3,41.6],[116.3,41.5],[116.0,41.5],[116.0,41.4],[115.7,41.4],[115.7,41.3],[115.6,41.3]],[[115.6,41.3],[115.6,39.8]],[[115.6,39.8],[115.7,39.8]],[[115.7,39.8],[115.7,39.3]],[[115.7,39.3],[115.8,39.3]],[[115.8,39.3],[115.8,38.7]],[[115.8,38.7],[116.9,38.7]],[[116.9,38.7],[116.9,38.8]],[[116.9,38.8],[117.6,38.8]],[[117.6,38.8],[117.6,39.0],[117.7,39.0],[117.7,39.1],[117.9,39.1],[117.9,39.2],[118.2,39.2],[118.2,39.1],[118.9,39.1],[118.9,39.2],[119.1,39.2],[119.1,39.3],[119.2,39.3],[119.2,39.5],[119.3,39.5],[119.3,39.7],[119.4,39.7],[119.4,39.8],[119.6,39.8],[119.6,39.9],[119.7,39.9],[119.7,40.0],[120.0,40.0],[120.0,40.1],[120.2,40.1],[120.2,40.2],[120.5,40.2],[120.5,40.3],[120.6,40.3],[120.6,40.5],[120.7,40.5],[120.7,40.6],[120.9,40.6],[120.9,40.7],[121.0,40.7],[121.0,40.8],[121.1,40.8],[121.1,40.9],[121.5,40.9],[121.5,41.0],[121.8,41.0],[121.8,40.9],[121.9,40.9],[121.9,40.8],[122.1,40.8],[122.1,40.7],[122.2,40.7],[122.2,40.4],[122.1,40.4],[122.1,40.3],[122.0,40.3],[122.0,40.2],[121.9,40.2],[121.9,40.1],[121.8,40.1],[121.8,40.0],[121.6,40.0],[121.6,39.9],[121.5,39.9],[121.5,39.8],[121.4,39.8],[121.4,39.7],[121.3,39.7],[121.3,39.5],[121.4,39.5],[121.4,39.3],[121.5,39.3],[121.5,39.2],[121.4,39.2],[121.4,39.1],[121.3,39.1],[121.3,38.8],[121.5,38.8],[121.5,38.9],[121.9,38.9],[121.9,39.0],[122.0,39.0],[122.0,39.1],[122.1,39.1],[122.1,39.2],[122.2,39.2],[122.2,39.3],[122.5,39.3],[122.5,39.4],[122.6,39.4],[122.6,39.5],[122.7,39.5],[122.7,39.6],[122.9,39.6],[122.9,39.7],[123.3,39.7],[123.3,39.8],[123.7,39.8],[123.7,39.9],[124.2,39.9],[124.2,39.8],[124.5,39.8],[124.5,39.7],[124.7,39.7],[124.7,39.6],[125.3,39.6],[125.3,39.7],[125.4,39.7],[125.4,39.8],[125.5,39.8],[125.5,40.0],[125.6,40.0],[125.6,40.1],[125.7,40.1],[125.7,40.3],[125.8,40.3],[125.8,40.5],[125.9,40.5],[125.9,40.6],[126.0,40.6],[126.0,40.8],[126.1,40.8],[126.1,41.0],[126.2,41.0],[126.2,41.7],[126.1,41.7],[126.1,41.9]],[[126.1,41.9],[125.8,41.9]],[[125.8,41.9],[125.8,42.0]],[[60.2,36.1],[60.1,36.1]],[[60.1,36.1],[60.1,36.2]],[[60.1,36.2],[60.0,36.2]],[[60.0,25.4],[60.7,25.4],[60.7,25.3],[61.1,25.3],[61.1,25.2],[61.3,25.2],[61.3,25.1],[62.0,25.1],[62.0,25.2],[62.5,25.2],[62.5,25.3]],[[62.5,25.3],[62.5,25.5]],[[62.5,25.5],[62.6,25.5]],[[62.6,25.5],[62.6,25.6]],[[62.6,25.6],[62.7,25.6]],[[62.7,25.6],[62.7,25.7]],[[62.7,25.7],[62.8,25.7]],[[62.8,25.7],[62.8,25.8]],[[62.8,25.8],[62.9,25.8]],[[62.9,25.8],[62.9,26.0]],[[62.9,26.0],[63.0,26.0]],[[63.0,26.0],[63.0,26.1]],[[63.0,26.1],[63.1,26.1]],[[63.1,26.1],[63.1,26.2]],[[63.1,26.2],[63.2,26.2]],[[63.2,26.2],[63.2,26.3]],[[63.2,26.3],[63.3,26.3]],[[63.3,26.3],[63.3,26.5]],[[63.3,26.5],[63.4,26.5]],[[63.4,26.5],[63.4,26.7]],[[63.4,26.7],[63.5,26.7]],[[63.5,26.7],[63.5,26.9]],[[63.5,26.9],[63.6,26.9]],[[63.6,26.9],[63.6,27.0]],[[63.6,27.0],[63.5,27.0]],[[63.5,27.0],[63.5,27.3]],[[63.5,27.3],[63.4,27.3]],[[63.4,27.3],[63.4,27.5]],[[63.4,27.5],[63.3,27.5]],[[63.3,27.5],[63.3,27.7]],[[63.3,27.7],[63.2,27.7]],[[63.2,27.7],[63.2,27.9]],[[63.2,27.9],[63.1,27.9]],[[63.1,27.9],[63.1,28.0]],[[63.1,28.0],[63.0,28.0]],[[63.0,28.0],[63.0,28.2]],[[63.0,28.2],[62.9,28.2]],[[62.9,28.2],[62.9,28.3]],[[62.9,28.3],[62.8,28.3]],[[62.8,28.3],[62.8,28.5]],[[62.8,28.5],[62.7,28.5]],[[62.7,28.5],[62.7,28.7]],[[62.7,28.7],[62.6,28.7]],[[62.6,28.7],[62.6,29.0]],[[62.6,29.0],[62.5,29.0]],[[62.5,29.0],[62.5,29.2]],[[62.5,29.2],[62.4,29.2]],[[62.4,29.2],[62.4,29.5]],[[62.4,29.5],[62.3,29.5]],[[62.3,29.5],[62.3,29.7]],[[62.3,29.7],[62.2,29.7]],[[62.2,29.7],[62.2,30.0]],[[62.2,30.0],[62.1,30.0]],[[62.1,30.0],[62.1,30.4]],[[62.1,30.4],[62.0,30.4]],[[62.0,30.4],[62.0,30.8]],[[62.0,30.8],[61.9,30.8]],[[61.9,30.8],[61.9,31.1]],[[61.9,31.1],[61.8,31.1]],[[61.8,31.1],[61.8,31.3]],[[61.8,31.3],[61.7,31.3]],[[61.7,31.3],[61.7,31.8]],[[61.7,31.8],[61.8,31.8]],[[61.8,31.8],[61.8,32.0]],[[61.8,32.0],[61.9,32.0]],[[61.9,32.0],[61.9,32.1]],[[61.9,32.1],[62.0,32.1]],[[62.0,32.1],[62.0,32.2]],[[62.0,32.2],[62.2,32.2]],[[62.2,32.2],[62.2,32.3]],[[62.2,32.3],[62.3,32.3]],[[62.3,32.3],[62.3,32.4]],[[62.3,32.4],[62.5,32.4]],[[62.5,32.4],[62.5,32.5]],[[62.5,32.5],[62.6,32.5]],[[62.6,32.5],[62.6,32.6]],[[62.6,32.6],[62.8,32.6]],[[62.8,32.6],[62.8,32.7]],[[62.8,32.7],[63.0,32.7]],[[63.0,32.7],[63.0,32.8]],[[63.0,32.8],[63.3,32.8]],[[63.3,32.8],[63.3,32.9]],[[63.3,32.9],[63.4,32.9]],[[63.4,32.9],[63.4,33.0]],[[63.4,33.0],[63.7,33.0]],[[63.7,33.0],[63.7,33.1]],[[63.7,33.1],[64.4,33.1]],[[64.4,33.1],[64.4,33.2]],[[64.4,33.2],[64.6,33.2]],[[64.6,33.2],[64.6,33.3]],[[64.6,33.3],[64.9,33.3]],[[64.9,33.3],[64.9,33.4]],[[64.9,33.4],[66.3,33.4]],[[66.3,33.4],[66.3,33.5]],[[66.3,33.5],[67.0,33.5]],[[67.0,33.5],[67.0,33.6]],[[67.0,33.6],[68.2,33.6]],[[68.2,33.6],[68.2,33.7]],[[68.2,33.7],[68.6,33.7]],[[68.6,33.7],[68.6,33.8]],[[68.6,33.8],[69.1,33.8]],[[69.1,33.8],[69.1,33.9]],[[69.1,33.9],[69.5,33.9]],[[69.5,33.9],[69.5,34.0]],[[69.5,34.0],[69.8,34.0]],[[69.8,34.0],[69.8,34.1]],[[69.8,34.1],[70.1,34.1]],[[70.1,34.1],[70.1,34.2]],[[70.1,34.2],[70.4,34.2]],[[70.4,34.2],[70.4,34.3]],[[70.4,34.3],[70.7,34.3]],[[70.7,34.3],[70.7,34.4]],[[70.7,34.4],[71.0,34.4]],[[71.0,34.4],[71.0,34.5]],[[71.0,34.5],[71.4,34.5]],[[71.4,34.5],[71.4,34.6]],[[71.4,34.6],[71.7,34.6]],[[71.7,34.6],[71.7,34.7]],[[71.7,34.7],[72.3,34.7]],[[72.3,34.7],[72.3,34.6]],[[72.3,34.6],[72.7,34.6]],[[72.7,34.6],[72.7,34.5]],[[72.7,34.5],[72.8,34.5]],[[72.8,34.5],[72.8,34.4]],[[72.8,34.4],[72.9,34.4]],[[72.9,34.4],[72.9,34.3]],[[72.9,34.3],[73.1,34.3]],[[73.1,34.3],[73.1,34.2]],[[73.1,34.2],[73.2,34.2]],[[73.2,34.2],[73.2,34.1]],[[73.2,34.1],[73.4,34.1]],[[73.4,34.1],[73.4,34.6],[73.3,34.6],[73.3,34.8],[73.2,34.8],[73.2,35.0],[73.1,35.0],[73.1,35.1],[73.0,35.1],[73.0,35.3],[72.9,35.3],[72.9,35.5],[72.8,35.5],[72.8,35.6],[72.7,35.6],[72.7,35.8],[72.6,35.8],[72.6,36.0],[72.5,36.0],[72.5,36.2],[72.4,36.2],[72.4,36.3],[72.3,36.3],[72.3,36.6],[72.2,36.6],[72.2,36.7],[72.1,36.7],[72.1,36.9],[72.0,36.9],[72.0,37.0],[71.9,37.0],[71.9,37.1],[71.8,37.1],[71.8,37.3],[71.7,37.3],[71.7,37.5],[71.6,37.5],[71.6,37.6],[71.5,37.6],[71.5,37.8],[71.4,37.8],[71.4,37.9],[71.3,37.9]],[[71.3,37.9],[71.3,37.8]],[[71.3,37.8],[71.2,37.8]],[[71.2,37.8],[71.2,37.6]],[[71.2,37.6],[71.1,37.6]],[[71.1,37.6],[71.1,37.4]],[[71.1,37.4],[71.0,37.4]],[[71.0,37.4],[71.0,37.3]],[[71.0,37.3],[70.9,37.3]],[[70.9,37.3],[70.9,37.2]],[[70.9,37.2],[70.8,37.2]],[[70.8,37.2],[70.8,37.1]],[[70.8,37.1],[70.7,37.1]],[[70.7,37.1],[70.7,37.0]],[[70.7,37.0],[70.5,37.0]],[[70.5,37.0],[70.5,36.9]],[[70.5,36.9],[70.4,36.9]],[[70.4,36.9],[70.4,36.8]],[[70.4,36.8],[70.2,36.8]],[[70.2,36.8],[70.2,36.7]],[[70.2,36.7],[70.0,36.7]],[[70.0,36.7],[70.0,36.6]],[[70.0,36.6],[69.8,36.6]],[[69.8,36.6],[69.8,36.5]],[[69.8,36.5],[69.6,36.5]],[[69.6,36.5],[69.6,36.4]],[[69.6,36.4],[69.2,36.4]],[[69.2,36.4],[69.2,36.3]],[[69.2,36.3],[68.9,36.3]],[[68.9,36.3],[68.9,36.2]],[[68.9,36.2],[68.8,36.2]],[[68.8,36.2],[68.8,36.1]],[[68.8,36.1],[68.4,36.1]],[[68.4,36.1],[68.4,36.0]],[[68.4,36.0],[68.3,36.0]],[[68.3,36.0],[68.3,35.9]],[[68.3,35.9],[68.1,35.9]],[[68.1,35.9],[68.1,35.8]],[[68.1,35.8],[67.9,35.8]],[[67.9,35.8],[67.9,35.7]],[[67.9,35.7],[67.5,35.7]],[[67.5,35.7],[67.5,35.6]],[[67.5,35.6],[67.3,35.6]],[[67.3,35.6],[67.3,35.5]],[[67.3,35.5],[67.1,35.5]],[[67.1,35.5],[67.1,35.4]],[[67.1,35.4],[66.8,35.4]],[[66.8,35.4],[66.8,35.3]],[[66.8,35.3],[66.6,35.3]],[[66.6,35.3],[66.6,35.2]],[[66.6,35.2],[65.3,35.2]],[[65.3,35.2],[65.3,35.1]],[[65.3,35.1],[64.0,35.1]],[[64.0,35.1],[64.0,35.0]],[[64.0,35.0],[63.2,35.0]],[[63.2,35.0],[63.2,34.9]],[[63.2,34.9],[62.4,34.9]],[[62.4,34.9],[62.4,34.8]],[[62.4,34.8],[61.6,34.8]],[[61.6,34.8],[61.6,34.9]],[[61.6,34.9],[61.2,34.9]],[[61.2,34.9],[61.2,35.0]],[[61.2,35.0],[60.7,35.0]],[[60.7,35.0],[60.7,35.1]],[[60.7,35.1],[60.5,35.1]],[[60.5,35.1],[60.5,35.2]],[[60.5,35.2],[60.4,35.2]],[[60.4,35.2],[60.4,35.5]],[[60.4,35.5],[60.5,35.5]],[[60.5,35.5],[60.5,35.9]],[[60.5,35.9],[60.4,35.9]],[[60.4,35.9],[60.4,36.0]],[[60.4,36.0],[60.2,36.0]],[[60.2,36.0],[60.2,36.1]],[[60.2,39.3],[60.1,39.3]],[[60.1,39.3],[60.1,39.8]],[[60.1,39.8],[60.0,39.8]],[[60.0,37.6],[60.1,37.6]],[[60.1,37.6],[60.1,37.7]],[[60.1,37.7],[60.2,37.7]],[[60.2,37.7],[60.2,37.8]],[[60.2,37.8],[60.3,37.8]],[[60.3,37.8],[60.3,38.0]],[[60.3,38.0],[60.4,38.0]],[[60.4,38.0],[60.4,38.8]],[[60.4,38.8],[60.3,38.8]],[[60.3,38.8],[60.3,39.0]],[[60.3,39.0],[60.2,39.0]],[[60.2,39.0],[60.2,39.3]],[[114.7,44.8],[114.7,45.0],[114.7,45.2],[114.6,45.2],[114.6,45.3],[114.5,45.3],[114.5,45.4],[114.4,45.4],[114.4,45.5],[114.2,45.5],[114.2,45.6],[113.4,45.6],[113.4,45.7],[113.2,45.7],[113.2,45.8],[113.1,45.8],[113.1,45.9],[112.8,45.9],[112.8,46.0],[112.0,46.0],[112.0,46.1],[111.5,46.1],[111.5,46.2],[110.7,46.2],[110.7,46.3],[108.7,46.3],[108.7,46.4],[108.3,46.4],[108.3,46.3],[107.7,46.3],[107.7,46.2],[107.3,46.2],[107.3,46.1],[106.9,46.1],[106.9,46.0],[106.4,46.0],[106.4,45.9],[106.0,45.9],[106.0,45.8],[105.8,45.8],[105.8,45.7],[105.6,45.7],[105.6,45.6],[105.5,45.6],[105.5,45.5],[105.4,45.5],[105.4,45.4],[105.3,45.4],[105.3,45.3],[105.2,45.3],[105.2,45.2],[105.1,45.2],[105.1,45.0],[105.1,44.4],[105.2,44.4],[105.2,44.2],[105.3,44.2],[105.3,44.1],[105.4,44.1],[105.4,44.0],[105.5,44.0],[105.5,43.9],[105.7,43.9],[105.7,43.8],[105.8,43.8],[105.8,43.7],[106.0,43.7],[106.0,43.6],[106.2,43.6],[106.2,43.5],[106.4,43.5],[106.4,43.4],[106.5,43.4],[106.5,43.3],[106.6,43.3],[106.6,43.2],[106.7,43.2],[106.7,43.1],[106.8,43.1],[106.8,42.9],[106.9,42.9],[106.9,42.5],[107.0,42.5],[107.0,42.2],[107.1,42.2],[107.1,41.8],[107.2,41.8],[107.2,41.6],[107.3,41.6],[107.3,41.5],[107.4,41.5],[107.4,41.4],[107.6,41.4],[107.6,41.2],[107.8,41.2],[107.8,41.1],[108.0,41.1],[108.0,41.0],[108.2,41.0],[108.2,40.9],[108.4,40.9],[108.4,40.8],[108.6,40.8],[108.6,40.7],[108.9,40.7],[108.9,40.6],[109.1,40.6]],[[109.1,40.6],[109.3,40.6]],[[109.3,40.6],[109.4,40.6],[109.4,40.7],[109.5,40.7],[109.5,40.8],[109.6,40.8],[109.6,41.0],[109.7,41.0],[109.7,41.1],[109.8,41.1],[109.8,41.2],[109.9,41.2],[109.9,41.3],[110.0,41.3],[110.0,41.5],[110.1,41.5],[110.1,41.6],[110.2,41.6],[110.2,41.8],[110.3,41.8],[110.3,42.0],[110.4,42.0],[110.4,42.3],[110.5,42.3],[110.5,42.4],[110.6,42.4],[110.6,42.6],[110.7,42.6],[110.7,42.7],[110.8,42.7],[110.8,42.8],[110.9,42.8],[110.9,43.0],[111.0,43.0],[111.0,43.1],[111.1,43.1],[111.1,43.3],[111.2,43.3],[111.2,43.4],[111.4,43.4],[111.4,43.5],[111.5,43.5],[111.5,43.6],[111.7,43.6],[111.7,43.7],[112.3,43.7],[112.3,43.8],[112.8,43.8],[112.8,43.9],[113.2,43.9],[113.2,44.0],[113.6,44.0],[113.6,44.1],[114.0,44.1],[114.0,44.2],[114.3,44.2],[114.3,44.3],[114.4,44.3],[114.4,44.4],[114.5,44.4],[114.5,44.6],[114.6,44.6],[114.6,44.8],[114.7,44.8]],[[112.3,35.5],[112.2,35.5]],[[112.2,35.5],[112.2,35.4]],[[112.2,35.4],[112.0,35.4]],[[112.0,35.4],[112.0,35.3]],[[112.0,35.3],[111.9,35.3]],[[111.9,35.3],[111.9,35.2]],[[111.9,35.2],[111.8,35.2]],[[111.8,35.2],[111.8,35.1]],[[111.8,35.1],[111.7,35.1]],[[111.7,35.1],[111.7,35.0]],[[111.7,35.0],[111.6,35.0]],[[111.6,35.0],[111.6,34.8]],[[111.6,34.8],[111.5,34.8]],[[111.5,34.8],[111.5,34.7]],[[111.5,34.7],[111.4,34.7]],[[111.4,34.7],[111.4,34.6]],[[111.4,34.6],[111.3,34.6]],[[111.3,34.6],[111.3,34.5]],[[111.3,34.5],[111.0,34.5]],[[111.0,34.5],[111.0,34.4]],[[111.0,34.4],[110.9,34.4]],[[110.9,34.4],[110.9,34.3]],[[110.9,34.3],[110.7,34.3]],[[110.7,34.3],[110.7,34.2]],[[110.7,34.2],[110.0,34.2]],[[110.0,34.2],[110.0,34.0]],[[110.0,34.0],[109.9,34.0]],[[109.9,34.0],[109.9,33.8]],[[109.9,33.8],[109.8,33.8]],[[109.8,33.8],[109.8,33.4]],[[109.8,33.4],[109.9,33.4]],[[109.9,33.4],[109.9,33.3]],[[109.9,33.3],[110.0,33.3]],[[110.0,33.3],[110.0,33.2]],[[110.0,33.2],[110.1,33.2]],[[110.1,33.2],[110.1,33.1]],[[110.1,33.1],[110.2,33.1]],[[110.2,33.1],[110.2,33.0]],[[110.2,33.0],[110.3,33.0]],[[110.3,33.0],[110.3,32.9]],[[110.3,32.9],[110.5,32.9]],[[110.5,32.9],[110.5,32.8]],[[110.5,32.8],[110.8,32.8]],[[110.8,32.8],[110.8,32.7]],[[110.8,32.7],[111.0,32.7]],[[111.0,32.7],[111.0,32.6]],[[111.0,32.6],[111.2,32.6]],[[111.2,32.6],[111.2,32.5]],[[111.2,32.5],[111.3,32.5]],[[111.3,32.5],[111.3,32.4]],[[111.3,32.4],[111.4,32.4]],[[111.4,32.4],[111.4,32.3]],[[111.4,32.3],[111.5,32.3]],[[111.5,32.3],[111.5,32.2]],[[111.5,32.2],[111.6,32.2]],[[111.6,32.2],[111.6,32.1]],[[111.6,32.1],[111.7,32.1]],[[111.7,32.1],[111.7,32.0]],[[111.7,32.0],[111.8,32.0]],[[111.8,32.0],[111.8,31.9]],[[111.8,31.9],[112.0,31.9]],[[112.0,31.9],[112.0,31.8]],[[112.0,31.8],[112.8,31.8]],[[112.8,31.8],[112.8,31.9]],[[112.8,31.9],[113.0,31.9]],[[113.0,31.9],[113.0,32.0]],[[113.0,32.0],[113.1,32.0]],[[113.1,32.0],[113.1,32.3]],[[113.1,32.3],[113.2,32.3]],[[113.2,32.3],[113.2,32.9]],[[113.2,32.9],[113.3,32.9]],[[113.3,32.9],[113.3,33.1]],[[120.0,44.3],[119.6,44.3],[119.6,44.4],[119.4,44.4],[119.4,44.3],[118.7,44.3],[118.7,44.2],[118.3,44.2],[118.3,44.1],[118.2,44.1],[118.2,44.0],[118.1,44.0],[118.1,43.9],[118.0,43.9],[118.0,43.8],[117.9,43.8],[117.9,43.7],[117.8,43.7],[117.8,43.6],[117.7,43.6],[117.7,43.0],[117.8,43.0],[117.8,42.8],[117.9,42.8],[117.9,42.6],[118.0,42.6],[118.0,42.5],[118.1,42.5],[118.1,42.4],[118.2,42.4],[118.2,42.3],[118.3,42.3],[118.3,42.1],[118.4,42.1],[118.4,42.0],[118.5,42.0],[118.5,41.9]],[[126.1,41.9],[126.1,42.0],[126.2,42.0],[126.2,42.1],[126.3,42.1],[126.3,42.2],[126.4,42.2],[126.4,42.5],[126.3,42.5],[126.3,42.7],[126.1,42.7],[126.1,42.8],[126.0,42.8],[126.0,42.9],[125.7,42.9],[125.7,43.0],[125.4,43.0],[125.4,43.1],[124.8,43.1],[124.8,43.2],[124.4,43.2],[124.4,43.3],[124.0,43.3],[124.0,43.4],[123.5,43.4],[123.5,43.5],[123.0,43.5],[123.0,43.6],[122.6,43.6],[122.6,43.7],[122.1,43.7],[122.1,43.8],[121.8,43.8],[121.8,43.9],[121.4,43.9],[121.4,44.0],[120.8,44.0],[120.8,44.1],[120.3,44.1],[120.3,44.2],[120.0,44.2],[120.0,44.3]],[[89.9,22.0],[90.0,22.0],[90.0,21.9],[90.7,21.9],[90.7,22.0],[90.8,22.0],[90.8,22.1],[91.0,22.1],[91.0,22.2],[91.1,22.2],[91.1,22.5],[91.2,22.5],[91.2,22.6],[91.7,22.6],[91.7,22.5],[91.8,22.5],[91.8,22.0],[91.9,22.0],[91.9,22.1],[92.0,22.1],[92.0,22.2],[92.1,22.2],[92.1,22.3],[92.2,22.3],[92.2,22.4],[92.3,22.4],[92.3,22.6],[92.4,22.6],[92.4,22.7],[92.5,22.7],[92.5,23.5],[92.6,23.5],[92.6,24.5],[92.5,24.5],[92.5,24.8],[92.4,24.8],[92.4,25.0],[92.3,25.0],[92.3,25.1],[92.2,25.1],[92.2,25.2],[92.1,25.2],[92.1,25.3],[92.0,25.3],[92.0,25.4],[91.9,25.4],[91.9,25.5],[91.7,25.5],[91.7,25.6],[91.6,25.6],[91.6,25.7],[91.5,25.7],[91.5,25.8],[91.4,25.8],[91.4,25.9],[91.3,25.9],[91.3,26.0],[91.1,26.0],[91.1,26.1],[91.0,26.1],[91.0,26.2],[90.8,26.2],[90.8,26.3],[90.5,26.3],[90.5,26.4],[90.0,26.4],[90.0,26.5],[88.8,26.5],[88.8,26.6],[87.8,26.6],[87.8,26.7],[87.4,26.7],[87.4,26.8],[86.5,26.8],[86.5,26.9],[86.3,26.9],[86.3,27.0],[86.0,27.0],[86.0,27.1],[85.7,27.1],[85.7,27.2],[85.4,27.2],[85.4,27.3],[85.1,27.3],[85.1,27.4],[84.9,27.4],[84.9,27.5],[84.7,27.5],[84.7,27.6],[84.4,27.6],[84.4,27.7],[84.2,27.7],[84.2,27.8],[83.9,27.8],[83.9,27.9],[83.5,27.9],[83.5,28.0],[83.2,28.0],[83.2,28.1],[82.9,28.1],[82.9,28.2],[82.7,28.2],[82.7,28.3],[82.4,28.3],[82.4,28.4],[81.9,28.4],[81.9,28.5],[81.8,28.5],[81.8,28.6],[81.6,28.6],[81.6,28.7],[81.1,28.7],[81.1,28.9],[80.7,28.9],[80.7,29.0],[80.5,29.0],[80.5,29.1],[80.2,29.1],[80.2,29.2],[79.9,29.2],[79.9,29.3],[79.6,29.3],[79.6,29.4],[79.4,29.4],[79.4,29.5],[79.0,29.5],[79.0,29.6],[78.8,29.6],[78.8,29.7],[78.6,29.7],[78.6,29.8],[78.4,29.8],[78.4,29.9],[78.3,29.9],[78.3,30.0],[78.0,30.0],[78.0,30.1],[77.9,30.1],[77.9,30.2],[77.7,30.2],[77.7,30.3],[77.6,30.3],[77.6,30.4],[77.4,30.4],[77.4,30.5],[77.3,30.5],[77.3,30.6],[77.2,30.6],[77.2,30.7],[77.1,30.7],[77.1,30.8],[77.0,30.8],[77.0,31.0],[76.9,31.0],[76.9,31.1],[76.8,31.1],[76.8,31.3],[76.7,31.3],[76.7,31.4],[76.6,31.4],[76.6,31.5],[76.5,31.5],[76.5,31.6],[76.4,31.6],[76.4,31.7],[76.3,31.7],[76.3,31.9],[76.2,31.9],[76.2,32.0],[76.1,32.0],[76.1,32.1],[76.0,32.1],[76.0,32.2],[75.9,32.2],[75.9,32.3],[75.8,32.3],[75.8,32.5],[75.6,32.5],[75.6,32.6],[75.4,32.6],[75.4,32.7],[75.2,32.7],[75.2,32.8],[75.0,32.8],[75.0,32.9],[74.9,32.9],[74.9,33.0],[74.8,33.0],[74.8,33.1],[74.6,33.1],[74.6,33.2],[74.5,33.2],[74.5,33.3],[74.3,33.3],[74.3,33.4],[74.2,33.4],[74.2,33.5],[74.0,33.5],[74.0,33.6],[73.9,33.6],[73.9,33.7],[73.7,33.7],[73.7,33.8],[73.6,33.8],[73.6,33.9],[73.5,33.9],[73.5,34.0]],[[73.5,34.0],[73.4,34.0]],[[73.4,34.0],[73.4,34.1]],[[62.5,25.3],[63.6,25.3],[63.6,25.4],[64.2,25.4],[64.2,25.3],[64.8,25.3],[64.8,25.4],[65.0,25.4],[65.0,25.3],[65.2,25.3],[65.2,25.4],[66.0,25.4],[66.0,25.5],[66.5,25.5],[66.5,25.4],[66.6,25.4],[66.6,25.3],[66.7,25.3],[66.7,25.0],[66.8,25.0],[66.8,24.9],[67.0,24.9],[67.0,24.8],[67.1,24.8],[67.1,24.7],[67.2,24.7],[67.2,24.5],[67.3,24.5],[67.3,24.2],[67.4,24.2],[67.4,24.1],[67.5,24.1],[67.5,23.9],[67.6,23.9],[67.6,23.8],[68.1,23.8],[68.1,23.7],[68.2,23.7],[68.2,23.6],[68.3,23.6],[68.3,23.5],[68.4,23.5],[68.4,23.4],[68.5,23.4],[68.5,23.3],[68.6,23.3],[68.6,23.2],[68.7,23.2],[68.7,23.1],[68.9,23.1],[68.9,23.0],[69.1,23.0],[69.1,22.9],[69.5,22.9],[69.5,22.8],[69.8,22.8],[69.8,22.9],[70.1,22.9],[70.1,22.8],[70.2,22.8],[70.2,22.7],[70.1,22.7],[70.1,22.6],[69.6,22.6],[69.6,22.5],[69.1,22.5],[69.1,22.4],[69.0,22.4],[69.0,22.2],[69.1,22.2],[69.1,22.1],[69.2,22.1],[69.2,22.0],[69.3,22.0],[69.3,21.9],[69.4,21.9],[69.4,21.8],[69.5,21.8],[69.5,21.7],[69.6,21.7],[69.6,21.6],[69.7,21.6],[69.7,21.5],[69.8,21.5],[69.8,21.4],[69.9,21.4],[69.9,21.3],[70.0,21.3],[70.0,21.2],[70.1,21.2],[70.1,21.1],[70.2,21.1],[70.2,21.0],[70.4,21.0],[70.4,20.9],[70.5,20.9],[70.5,20.8],[70.8,20.8],[70.8,20.7],[71.0,20.7],[71.0,20.8],[71.3,20.8],[71.3,20.9],[71.5,20.9],[71.5,21.0],[71.7,21.0],[71.7,21.1],[71.9,21.1],[71.9,21.2],[72.1,21.2],[72.1,21.3],[72.2,21.3],[72.2,21.5],[72.3,21.5],[72.3,22.0],[72.5,22.0],[72.5,21.8],[72.6,21.8],[72.6,21.1],[72.7,21.1],[72.7,21.0],[72.8,21.0],[72.8,20.8],[72.9,20.8],[72.9,20.5],[72.8,20.5],[72.8,20.3],[72.7,20.3],[72.7,19.5],[72.8,19.5],[72.8,18.9],[72.9,18.9],[72.9,18.3],[73.0,18.3],[73.0,18.0],[73.1,18.0],[73.1,17.6],[73.2,17.6],[73.2,17.2],[73.3,17.2],[73.3,16.5],[73.4,16.5],[73.4,16.2],[73.5,16.2],[73.5,16.0],[73.6,16.0],[73.6,15.9],[73.7,15.9],[73.7,15.6],[73.8,15.6],[73.8,15.4],[73.9,15.4],[73.9,15.1],[74.0,15.1],[74.0,15.0],[74.1,15.0],[74.1,14.9],[74.2,14.9],[74.2,14.7],[74.3,14.7],[74.3,14.5],[74.4,14.5],[74.4,14.3],[74.5,14.3],[74.5,14.0],[74.6,14.0],[74.6,13.7],[74.7,13.7],[74.7,13.3],[74.8,13.3],[74.8,12.8],[74.9,12.8],[74.9,12.6],[75.0,12.6],[75.0,12.4],[75.1,12.4],[75.1,12.2],[75.2,12.2],[75.2,12.0],[75.3,12.0],[75.3,11.9],[75.4,11.9],[75.4,11.8],[75.5,11.8],[75.5,11.7],[75.6,11.7],[75.6,11.5],[75.7,11.5],[75.7,11.3],[75.8,11.3],[75.8,11.1],[75.9,11.1]],[[79.4,10.4],[79.6,10.4],[79.6,10.3],[79.8,10.3],[79.8,10.4],[79.9,10.4],[79.9,11.5],[79.8,11.5],[79.8,11.9],[79.9,11.9],[79.9,12.2],[80.0,12.2],[80.0,12.3],[80.1,12.3],[80.1,12.5],[80.2,12.5],[80.2,12.7],[80.3,12.7],[80.3,13.1],[80.4,13.1],[80.4,13.6],[80.3,13.6],[80.3,14.0],[80.2,14.0],[80.2,14.9],[80.1,14.9],[80.1,15.4],[80.2,15.4],[80.2,15.5],[80.3,15.5],[80.3,15.7],[80.4,15.7],[80.4,15.8],[80.5,15.8],[80.5,15.9],[80.7,15.9],[80.7,15.8],[81.0,15.8],[81.0,15.9],[81.1,15.9],[81.1,16.0],[81.2,16.0],[81.2,16.2],[81.3,16.2],[81.3,16.3],[81.4,16.3],[81.4,16.4],[81.9,16.4],[81.9,16.5],[82.2,16.5],[82.2,16.6],[82.3,16.6],[82.3,16.7],[82.4,16.7],[82.4,17.2],[82.5,17.2],[82.5,17.3],[82.7,17.3],[82.7,17.4],[82.8,17.4],[82.8,17.5],[83.1,17.5],[83.1,17.6],[83.2,17.6],[83.2,17.7],[83.3,17.7],[83.3,17.8],[83.4,17.8],[83.4,17.9],[83.5,17.9],[83.5,18.0],[83.6,18.0],[83.6,18.1],[83.8,18.1],[83.8,18.2],[83.9,18.2],[83.9,18.3],[84.1,18.3],[84.1,18.4],[84.2,18.4],[84.2,18.5],[84.3,18.5],[84.3,18.6],[84.4,18.6],[84.4,18.7],[84.5,18.7],[84.5,18.8],[84.6,18.8],[84.6,18.9],[84.7,18.9],[84.7,19.1],[84.8,19.1],[84.8,19.2],[84.9,19.2],[84.9,19.3],[85.0,19.3],[85.0,19.4],[85.1,19.4],[85.1,19.5],[85.2,19.5],[85.2,19.6],[85.4,19.6],[85.4,19.7],[85.6,19.7],[85.6,19.8],[85.9,19.8],[85.9,19.9],[86.3,19.9],[86.3,20.0],[86.4,20.0],[86.4,20.1],[86.5,20.1],[86.5,20.2],[86.6,20.2],[86.6,20.3],[86.8,20.3],[86.8,20.4],[86.9,20.4],[86.9,20.6],[87.0,20.6],[87.0,21.0],[86.9,21.0],[86.9,21.4],[87.0,21.4],[87.0,21.5],[87.1,21.5],[87.1,21.6],[87.5,21.6],[87.5,21.7],[87.8,21.7],[87.8,21.8],[88.1,21.8],[88.1,21.7],[88.2,21.7],[88.2,21.6],[89.0,21.6],[89.0,21.7],[89.4,21.7],[89.4,21.8],[89.7,21.8],[89.7,21.9],[89.9,21.9],[89.9,22.0]],[[89.9,26.1],[90.0,26.1],[90.0,25.8],[89.9,25.8],[89.9,26.1]],[[89.9,24.3],[89.7,24.3],[89.7,24.7],[89.9,24.7],[89.9,24.3]],[[67.6,24.2],[67.7,24.2],[67.7,24.3],[67.9,24.3],[67.9,24.0],[67.7,24.0],[67.7,24.1],[67.6,24.1],[67.6,24.2]],[[117.7,38.5],[117.7,38.6],[117.6,38.6],[117.6,38.8]],[[115.8,38.7],[115.8,37.8]],[[115.8,37.8],[115.7,37.8]],[[115.7,37.8],[115.7,37.5]],[[115.7,37.5],[115.6,37.5]],[[115.6,37.5],[115.6,37.2]],[[115.6,37.2],[115.5,37.2]],[[114.1,33.2],[114.5,33.2]],[[114.5,33.2],[114.5,33.1]],[[114.5,33.1],[114.7,33.1]],[[114.7,33.1],[114.7,33.0]],[[114.7,33.0],[114.9,33.0]],[[114.9,33.0],[114.9,32.9]],[[114.9,32.9],[115.0,32.9]],[[115.0,32.9],[115.0,32.8]],[[115.0,32.8],[116.0,32.8]],[[116.0,32.8],[116.0,32.9]],[[116.0,32.9],[116.3,32.9]],[[116.3,32.9],[116.3,33.0]],[[116.3,33.0],[116.6,33.0]],[[116.6,33.0],[116.6,33.1]],[[116.6,33.1],[116.7,33.1]],[[116.7,33.1],[116.7,33.2]],[[116.7,33.2],[117.0,33.2]],[[117.0,33.2],[117.0,33.3]],[[117.0,33.3],[117.2,33.3]],[[117.2,33.3],[117.2,33.4]],[[117.2,33.4],[117.3,33.4]],[[117.3,33.4],[117.3,33.5]],[[117.3,33.5],[117.6,33.5]],[[117.6,33.5],[117.6,33.6]],[[117.6,33.6],[117.9,33.6]],[[117.9,33.6],[117.9,33.7]],[[117.9,33.7],[118.0,33.7]],[[118.0,33.7],[118.0,34.0]],[[118.0,34.0],[118.1,34.0]],[[118.1,34.0],[118.1,34.1]],[[118.1,34.1],[118.2,34.1]],[[118.2,34.1],[118.2,34.5]],[[118.2,34.5],[118.1,34.5]],[[118.1,34.5],[118.1,34.8]],[[118.1,34.8],[118.0,34.8]],[[118.0,34.8],[118.0,35.5]],[[118.0,35.5],[118.1,35.5]],[[118.1,35.5],[118.1,35.6]],[[118.1,35.6],[118.2,35.6]],[[118.2,35.6],[118.2,35.8]],[[118.2,35.8],[118.3,35.8]],[[118.3,35.8],[118.3,36.0]],[[118.3,36.0],[118.4,36.0]],[[118.4,36.0],[118.4,36.1]],[[118.4,36.1],[118.6,36.1]],[[118.6,36.1],[118.6,36.2]],[[118.6,36.2],[119.5,36.2]],[[119.5,36.2],[119.5,36.1]],[[119.5,36.1],[119.6,36.1]],[[119.6,36.1],[119.6,35.9]],[[119.6,35.9],[119.7,35.9]],[[119.7,35.9],[119.7,35.7]],[[119.7,35.7],[120.0,35.7],[120.0,35.8],[120.1,35.8],[120.1,35.9],[120.2,35.9],[120.2,36.0],[120.3,36.0],[120.3,36.1],[120.6,36.1],[120.6,36.2],[120.7,36.2],[120.7,36.4],[120.8,36.4],[120.8,36.5],[121.0,36.5],[121.0,36.6],[121.1,36.6],[121.1,36.7],[121.3,36.7],[121.3,36.8],[121.7,36.8],[121.7,36.9],[122.5,36.9],[122.5,37.0],[122.6,37.0],[122.6,37.4],[122.5,37.4],[122.5,37.5],[122.3,37.5],[122.3,37.6],[121.9,37.6],[121.9,37.5],[121.6,37.5],[121.6,37.6],[121.4,37.6],[121.4,37.7],[121.2,37.7],[121.2,37.8],[121.0,37.8],[121.0,37.9],[120.9,37.9],[120.9,38.0],[120.7,38.0],[120.7,37.9],[120.5,37.9],[120.5,37.8],[120.3,37.8],[120.3,37.7],[120.2,37.7],[120.2,37.6],[120.1,37.6],[120.1,37.5],[119.9,37.5],[119.9,37.4],[119.8,37.4],[119.8,37.3],[119.7,37.3],[119.7,37.2],[119.3,37.2],[119.3,37.3],[119.1,37.3],[119.1,37.4],[119.0,37.4],[119.0,38.2],[118.9,38.2],[118.9,38.3],[118.7,38.3],[118.7,38.2],[118.0,38.2],[118.0,38.3],[117.9,38.3],[117.9,38.4],[117.8,38.4],[117.8,38.5],[117.7,38.5]],[[80.3,9.9],[80.0,9.9],[80.0,9.5],[80.1,9.5],[80.1,9.2],[80.0,9.2],[80.0,9.1],[79.9,9.1],[79.9,8.5],[79.8,8.5],[79.8,8.4],[79.7,8.4],[79.7,7.9],[79.8,7.9],[79.8,6.9],[79.9,6.9],[79.9,6.7],[80.0,6.7],[80.0,6.3],[80.1,6.3],[80.1,6.1],[80.2,6.1],[80.2,6.0],[80.8,6.0],[80.8,6.1],[81.1,6.1],[81.1,6.2],[81.4,6.2],[81.4,6.3],[81.5,6.3],[81.5,6.4],[81.6,6.4],[81.6,6.5],[81.7,6.5],[81.7,6.6],[81.8,6.6],[81.8,6.8],[81.9,6.8],[81.9,7.2],[81.8,7.2],[81.8,7.8],[81.7,7.8],[81.7,7.9],[81.6,7.9],[81.6,8.1],[81.5,8.1],[81.5,8.3],[81.4,8.3],[81.4,8.6],[81.3,8.6],[81.3,8.7],[81.2,8.7],[81.2,8.9],[81.1,8.9],[81.1,9.0],[81.0,9.0],[81.0,9.2],[80.9,9.2],[80.9,9.4],[80.8,9.4],[80.8,9.5],[80.7,9.5],[80.7,9.6],[80.6,9.6],[80.6,9.7],[80.4,9.7],[80.4,9.8],[80.3,9.8],[80.3,9.9]],[[109.1,40.6],[109.1,40.5],[109.0,40.5],[109.0,40.2],[108.9,40.2],[108.9,40.0],[108.8,40.0],[108.8,39.8],[108.7,39.8],[108.7,39.5],[108.6,39.5],[108.6,38.9],[108.5,38.9],[108.5,38.6],[108.4,38.6],[108.4,38.4],[108.3,38.4],[108.3,38.0],[108.2,38.0],[108.2,37.3],[108.1,37.3],[108.1,37.1],[108.0,37.1],[108.0,36.9],[107.9,36.9],[107.9,36.6],[107.8,36.6],[107.8,36.5],[107.7,36.5],[107.7,36.3],[107.6,36.3],[107.6,36.2],[107.5,36.2],[107.5,36.1],[107.2,36.1]],[[102.9,35.4],[102.9,35.2],[103.1,35.2],[103.1,35.1],[103.3,35.1],[103.3,35.0],[103.5,35.0],[103.5,34.9],[103.9,34.9],[103.9,34.8],[104.4,34.8],[104.4,34.7],[105.0,34.7],[105.0,34.6],[105.5,34.6],[105.5,34.5],[105.7,34.5],[105.7,34.3],[105.8,34.3],[105.8,34.1],[105.9,34.1],[105.9,33.8],[105.8,33.8],[105.8,33.3],[105.7,33.3],[105.7,33.1],[105.6,33.1],[105.6,32.8],[105.5,32.8],[105.5,32.7],[105.4,32.7],[105.4,32.6],[105.3,32.6],[105.3,32.4],[105.2,32.4],[105.2,32.3],[105.1,32.3],[105.1,32.1],[105.0,32.1],[105.0,31.8],[104.9,31.8],[104.9,31.7],[104.8,31.7],[104.8,31.6],[104.7,31.6],[104.7,31.3],[104.6,31.3],[104.6,31.2],[104.5,31.2],[104.5,30.9],[104.4,30.9],[104.4,30.7],[104.3,30.7],[104.3,29.8],[104.4,29.8],[104.4,29.6],[104.5,29.6],[104.5,29.5],[104.6,29.5],[104.6,29.4],[104.7,29.4],[104.7,29.3],[104.8,29.3],[104.8,29.2],[104.9,29.2],[104.9,29.1],[105.0,29.1],[105.0,29.0],[105.2,29.0],[105.2,28.9],[105.4,28.9],[105.4,28.8],[105.5,28.8],[105.5,28.7],[106.4,28.7],[106.4,28.8],[106.5,28.8],[106.5,28.9],[106.7,28.9],[106.7,29.0],[106.9,29.0],[106.9,28.9],[107.0,28.9],[107.0,28.8],[107.1,28.8],[107.1,28.7],[107.2,28.7],[107.2,28.6],[107.3,28.6],[107.3,28.4],[107.4,28.4],[107.4,28.3],[107.5,28.3],[107.5,28.2],[107.6,28.2],[107.6,28.0],[107.7,28.0],[107.7,27.8],[107.8,27.8],[107.8,27.6],[107.9,27.6],[107.9,27.4],[108.0,27.4]],[[108.0,27.4],[108.6,27.4]],[[108.6,27.4],[108.6,27.5]],[[108.6,27.5],[108.9,27.5]],[[108.9,27.5],[108.9,27.6]],[[108.9,27.6],[109.3,27.6]],[[109.3,27.6],[109.3,27.7]],[[109.3,27.7],[109.6,27.7]],[[109.6,27.7],[109.6,27.8]],[[109.6,27.8],[109.9,27.8]],[[109.9,27.8],[109.9,27.9]],[[109.9,27.9],[110.2,27.9]],[[110.2,27.9],[110.2,28.0]],[[110.2,28.0],[110.3,28.0]],[[110.3,28.0],[110.3,28.1]],[[110.3,28.1],[110.5,28.1]],[[110.5,28.1],[110.5,28.2]],[[110.5,28.2],[110.6,28.2]],[[110.6,28.2],[110.6,28.3]],[[110.6,28.3],[110.7,28.3]],[[110.7,28.3],[110.7,28.4]],[[110.7,28.4],[110.8,28.4]],[[110.8,28.4],[110.8,28.5]],[[110.8,28.5],[110.9,28.5]],[[110.9,28.5],[110.9,28.6]],[[110.9,28.6],[111.1,28.6]],[[111.1,28.6],[111.1,28.7]],[[111.1,28.7],[111.2,28.7]],[[111.2,28.7],[111.2,28.8]],[[111.2,28.8],[111.3,28.8]],[[111.3,28.8],[111.3,28.9]],[[111.3,28.9],[111.4,28.9]],[[111.4,28.9],[111.4,29.0]],[[111.4,29.0],[111.5,29.0]],[[111.5,29.0],[111.5,29.2]],[[111.5,29.2],[111.6,29.2]],[[111.6,29.2],[111.6,29.4]],[[111.6,29.4],[111.7,29.4]],[[111.7,29.4],[111.7,29.7]],[[111.7,29.7],[111.8,29.7]],[[111.8,29.7],[111.8,30.0]],[[111.8,30.0],[111.9,30.0]],[[111.9,30.0],[111.9,30.4]],[[111.9,30.4],[112.0,30.4]],[[112.0,30.4],[112.0,31.1]],[[112.0,31.1],[111.9,31.1]],[[111.9,31.1],[111.9,31.4]],[[111.9,31.4],[111.8,31.4]],[[111.8,31.4],[111.8,31.9]],[[111.5,36.9],[111.4,36.9]],[[111.4,36.9],[111.4,37.1]],[[111.4,37.1],[111.3,37.1]],[[111.3,37.1],[111.3,37.2]],[[111.3,37.2],[111.2,37.2]],[[111.2,37.2],[111.2,37.3]],[[111.2,37.3],[111.1,37.3]],[[111.1,37.3],[111.1,37.5]],[[111.1,37.5],[111.0,37.5]],[[111.0,37.5],[111.0,37.7]],[[111.0,37.7],[110.9,37.7]],[[110.9,37.7],[110.9,37.8]],[[110.9,37.8],[110.8,37.8]],[[110.8,37.8],[110.8,37.9]],[[110.8,37.9],[110.7,37.9]],[[110.7,37.9],[110.7,38.1]],[[110.7,38.1],[110.6,38.1]],[[110.6,38.1],[110.6,38.3]],[[110.6,38.3],[110.5,38.3]],[[110.5,38.3],[110.5,38.5]],[[110.5,38.5],[110.4,38.5]],[[110.4,38.5],[110.4,38.6]],[[110.4,38.6],[110.3,38.6]],[[110.3,38.6],[110.3,38.8]],[[110.3,38.8],[110.2,38.8]],[[110.2,38.8],[110.2,39.2]],[[110.2,39.2],[110.1,39.2]],[[110.1,39.2],[110.1,39.9]],[[110.1,39.9],[110.1,40.0],[109.8,40.0],[109.8,40.1],[109.7,40.1],[109.7,40.2],[109.6,40.2],[109.6,40.3],[109.5,40.3],[109.5,40.4],[109.4,40.4],[109.4,40.5],[109.3,40.5],[109.3,40.6]],[[108.0,27.4],[108.0,27.3],[108.1,27.3],[108.1,27.2],[108.2,27.2],[108.2,27.1],[108.4,27.1],[108.4,27.0],[108.6,27.0],[108.6,26.9],[108.8,26.9],[108.8,26.8],[109.1,26.8],[109.1,26.7],[109.3,26.7],[109.3,26.6],[109.6,26.6],[109.6,26.5],[109.9,26.5],[109.9,26.4],[110.1,26.4],[110.1,26.3],[110.2,26.3],[110.2,26.2],[110.6,26.2],[110.6,26.1],[110.8,26.1],[110.8,26.0],[111.0,26.0],[111.0,25.9],[111.2,25.9],[111.2,25.8],[111.4,25.8],[111.4,25.7],[111.9,25.7],[111.9,25.6],[113.0,25.6],[113.0,25.7],[114.3,25.7],[114.3,25.8],[114.9,25.8],[114.9,25.9],[115.0,25.9],[115.0,26.0],[115.4,26.0],[115.4,26.1],[115.7,26.1],[115.7,26.2],[116.0,26.2],[116.0,26.3],[116.3,26.3],[116.3,26.4],[116.4,26.4],[116.4,26.5],[116.6,26.5],[116.6,26.6],[116.9,26.6],[116.9,26.7],[117.3,26.7],[117.3,26.8],[117.8,26.8],[117.8,26.9],[118.1,26.9],[118.1,27.0],[118.3,27.0],[118.3,27.1],[118.4,27.1],[118.4,27.2],[118.5,27.2],[118.5,27.3],[118.6,27.3],[118.6,27.4],[118.7,27.4],[118.7,27.5],[118.8,27.5],[118.8,27.7],[118.9,27.7],[118.9,27.8],[120.0,27.8],[120.0,27.7],[120.3,27.7],[120.3,27.6],[120.7,27.6],[120.7,27.8],[120.8,27.8],[120.8,27.9],[121.2,27.9],[121.2,28.0],[121.3,28.0],[121.3,28.2],[121.4,28.2],[121.4,28.3],[121.6,28.3],[121.6,28.4],[121.7,28.4],[121.7,28.7],[121.8,28.7],[121.8,29.0],[121.9,29.0],[121.9,29.2],[122.0,29.2],[122.0,29.6],[122.1,29.6],[122.1,29.7],[122.3,29.7],[122.3,29.8],[122.4,29.8],[122.4,30.2],[122.3,30.2],[122.3,30.3],[121.9,30.3],[121.9,30.2],[121.5,30.2],[121.5,30.3],[121.4,30.3],[121.4,30.4],[121.2,30.4],[121.2,30.5],[121.1,30.5],[121.1,30.6],[121.2,30.6],[121.2,30.7],[121.4,30.7],[121.4,30.8],[121.5,30.8],[121.5,30.9],[121.8,30.9],[121.8,31.0],[121.9,31.0],[121.9,31.2],[121.8,31.2],[121.8,31.5],[121.9,31.5],[121.9,31.7],[122.0,31.7],[122.0,31.9],[121.9,31.9],[121.9,32.0],[121.8,32.0],[121.8,32.1],[121.7,32.1],[121.7,32.2],[121.5,32.2],[121.5,32.3],[121.4,32.3],[121.4,32.5],[121.3,32.5],[121.3,32.6],[121.1,32.6],[121.1,32.7],[121.0,32.7],[121.0,33.0],[120.9,33.0],[120.9,33.1],[120.8,33.1],[120.8,33.3],[120.7,33.3],[120.7,33.5],[120.6,33.5],[120.6,33.8],[120.5,33.8],[120.5,34.0],[120.4,34.0],[120.4,34.3],[120.3,34.3],[120.3,34.4],[120.2,34.4],[120.2,34.5],[119.9,34.5],[119.9,34.6],[119.7,34.6],[119.7,34.7],[119.6,34.7],[119.6,34.8],[119.5,34.8],[119.5,34.9],[119.4,34.9],[119.4,35.2],[119.5,35.2],[119.5,35.4],[119.6,35.4],[119.6,35.6],[119.7,35.6],[119.7,35.7]],[[116.0,29.4],[116.2,29.4],[116.2,29.2],[116.0,29.2],[116.0,29.4]],[[116.6,29.1],[116.5,29.1],[116.5,29.0],[116.4,29.0],[116.4,29.2],[116.6,29.2],[116.6,29.1]],[[73.5,34.0],[73.5,34.1],[73.4,34.1]],[[71.3,37.9],[71.3,38.0],[71.2,38.0],[71.2,38.1],[71.1,38.1],[71.1,38.3],[71.0,38.3],[71.0,38.4],[70.9,38.4],[70.9,38.5],[70.8,38.5],[70.8,38.6],[70.7,38.6],[70.7,38.7],[70.6,38.7],[70.6,38.8],[70.5,38.8],[70.5,39.0],[70.4,39.0],[70.4,39.1],[70.3,39.1],[70.3,39.2],[70.1,39.2],[70.1,39.3],[70.0,39.3],[70.0,39.4],[69.9,39.4],[69.9,39.5],[69.8,39.5],[69.8,39.6],[69.7,39.6],[69.7,39.7],[69.5,39.7],[69.5,39.8],[69.3,39.8],[69.3,39.9],[69.2,39.9],[69.2,40.0],[69.0,40.0],[69.0,40.1],[68.9,40.1],[68.9,40.2],[68.8,40.2],[68.8,40.3],[68.7,40.3],[68.7,40.4],[68.6,40.4],[68.6,40.5],[68.3,40.5],[68.3,40.6],[68.2,40.6],[68.2,40.7],[68.1,40.7],[68.1,40.8],[68.0,40.8],[68.0,40.9],[67.8,40.9],[67.8,41.0],[67.5,41.0],[67.5,41.1],[67.4,41.1],[67.4,41.2],[67.3,41.2],[67.3,41.3],[67.1,41.3],[67.1,41.4],[63.4,41.4],[63.4,41.3],[62.7,41.3],[62.7,41.2],[62.3,41.2],[62.3,41.1],[62.1,41.1],[62.1,41.0],[61.9,41.0],[61.9,40.9],[61.8,40.9],[61.8,40.8],[61.7,40.8],[61.7,40.7],[61.4,40.7],[61.4,40.6],[61.3,40.6],[61.3,40.5],[61.1,40.5],[61.1,40.4],[61.0,40.4],[61.0,40.3],[60.8,40.3],[60.8,40.2],[60.7,40.2],[60.7,40.1],[60.6,40.1],[60.6,40.0],[60.2,40.0],[60.2,39.9],[60.1,39.9],[60.1,39.8]],[[115.6,41.3],[115.1,41.3],[115.1,41.2],[114.6,41.2],[114.6,41.1],[114.2,41.1],[114.2,41.0],[114.1,41.0],[114.1,40.9],[114.0,40.9],[114.0,40.8],[113.9,40.8],[113.9,40.7],[113.8,40.7],[113.8,40.6],[113.7,40.6],[113.7,40.5],[112.9,40.5],[112.9,40.4],[111.1,40.4],[111.1,40.3],[110.8,40.3],[110.8,40.2],[110.7,40.2],[110.7,40.1],[110.6,40.1],[110.6,40.0],[110.4,40.0],[110.4,39.9],[110.1,39.9]]]},"properties":{"start_year":-255,"end_year":-247}}]}
