{"type":"FeatureCollection","features":[{"type":"Feature","id":"boundaries:-539","geometry":{"type":"MultiLineString","coordinates":[[[120.5,34.0],[120.4,34.0],[120.4,34.3],[120.2,34.3],[120.2,34.2],[120.0,34.2],[120.0,34.1],[119.8,34.1],[119.8,34.0],[119.6,34.0],[119.6,33.9],[119.4,33.9],[119.4,33.8],[119.3,33.8],[119.3,33.7],[119.0,33.7],[119.0,33.6],[118.2,33.6]],[[118.2,33.6],[118.2,33.5]],[[118.2,33.5],[118.3,33.5]],[[118.3,33.5],[118.3,33.3]],[[118.3,33.3],[118.4,33.3]],[[118.4,33.3],[118.4,33.2]],[[118.4,33.2],[118.5,33.2]],[[118.5,33.2],[118.5,33.1]],[[118.5,33.1],[118.6,33.1]],[[118.6,33.1],[118.6,32.9]],[[118.6,32.9],[118.8,32.9]],[[118.8,32.9],[118.8,32.5]],[[118.8,32.5],[118.7,32.5]],[[118.7,32.5],[118.7,32.4]],[[118.7,32.4],[118.6,32.4]],[[118.6,32.4],[118.6,32.3]],[[118.6,32.3],[118.5,32.3]],[[118.5,32.3],[118.5,32.2]],[[118.5,32.2],[118.4,32.2]],[[118.4,32.2],[118.4,32.1]],[[118.4,32.1],[118.2,32.1]],[[118.2,32.1],[118.2,32.0]],[[118.2,32.0],[118.1,32.0]],[[118.1,32.0],[118.1,31.9]],[[118.1,31.9],[118.0,31.9]],[[118.0,31.9],[118.0,31.8]],[[118.0,31.8],[117.9,31.8]],[[117.9,31.8],[117.9,31.2]],[[117.9,31.2],[118.0,31.2]],[[118.0,31.2],[118.0,30.9]],[[118.0,30.9],[118.1,30.9]],[[118.1,30.9],[118.1,30.7]],[[118.1,30.7],[118.2,30.7]],[[118.2,30.7],[118.2,30.6]],[[118.2,30.6],[118.3,30.6]],[[118.3,30.6],[118.3,30.5]],[[118.3,30.5],[118.4,30.5]],[[118.4,30.5],[118.4,30.4]],[[118.4,30.4],[118.5,30.4]],[[118.5,30.4],[118.6,30.4]],[[118.6,30.4],[118.6,30.5]],[[118.6,30.5],[118.8,30.5]],[[118.8,30.5],[118.8,30.6]],[[118.8,30.6],[118.9,30.6]],[[118.9,30.6],[118.9,30.7]],[[118.9,30.7],[119.2,30.7]],[[119.2,30.7],[119.2,30.8]],[[119.2,30.8],[119.5,30.8]],[[119.5,30.8],[119.5,30.9]],[[119.5,30.9],[120.4,30.9]],[[120.4,30.9],[120.4,31.0]],[[120.4,31.0],[120.6,31.0]],[[120.6,31.0],[120.6,31.1]],[[120.6,31.1],[120.8,31.1]],[[120.8,31.1],[120.8,31.2]],[[120.8,31.2],[120.9,31.2]],[[120.9,31.2],[120.9,31.3]],[[120.9,31.3],[121.0,31.3]],[[121.0,31.3],[121.0,31.4]],[[121.0,31.4],[121.8,31.4]],[[121.8,31.4],[121.8,31.5],[121.9,31.5],[121.9,31.7],[122.0,31.7],[122.0,31.9],[121.9,31.9],[121.9,32.0],[121.8,32.0],[121.8,32.1],[121.7,32.1],[121.7,32.2],[121.5,32.2],[121.5,32.3],[121.4,32.3],[121.4,32.5],[121.3,32.5],[121.3,32.6],[121.1,32.6],[121.1,32.7],[121.0,32.7],[121.0,33.0],[120.9,33.0],[120.9,33.1],[120.8,33.1],[120.8,33.3],[120.7,33.3],[120.7,33.5],[120.6,33.5],[120.6,33.8],[120.5,33.8],[120.5,34.0]],[[114.4,34.1],[114.3,34.1]],[[114.3,34.1],[114.3,34.2]],[[114.3,34.2],[114.1,34.2]],[[114.1,34.2],[114.1,34.3]],[[114.1,34.3],[113.6,34.3]],[[113.6,34.3],[113.6,34.2]],[[113.6,34.2],[113.1,34.2]],[[113.1,34.2],[113.1,34.1]],[[113.1,34.1],[113.0,34.1]],[[113.0,34.1],[113.0,34.0]],[[113.0,34.0],[112.8,34.0]],[[112.8,34.0],[112.8,33.9]],[[112.8,33.9],[112.7,33.9]],[[112.7,33.9],[112.7,33.8]],[[112.7,33.8],[112.6,33.8]],[[112.6,33.8],[112.6,33.7]],[[112.6,33.7],[112.5,33.7]],[[112.5,33.7],[112.5,33.6]],[[112.5,33.6],[112.4,33.6]],[[112.4,33.6],[112.4,33.4]],[[112.4,33.4],[112.3,33.4]],[[112.3,33.4],[112.3,33.3]],[[112.3,33.3],[112.4,33.3]],[[112.4,33.3],[112.4,33.2]],[[112.4,33.2],[112.5,33.2]],[[112.5,33.2],[112.5,33.1]],[[112.5,33.1],[113.0,33.1]],[[113.0,33.1],[113.7,33.1]],[[113.7,33.1],[114.1,33.1]],[[114.1,33.1],[114.1,33.2]],[[114.1,33.2],[114.1,33.3]],[[114.1,33.3],[114.2,33.3]],[[114.2,33.3],[114.2,33.4]],[[114.2,33.4],[114.3,33.4]],[[114.3,33.4],[114.3,33.6]],[[114.3,33.6],[114.4,33.6]],[[114.4,33.6],[114.4,34.1]],[[124.8,42.6],[124.2,42.6],[124.2,42.7],[123.3,42.7],[123.3,42.8],[120.7,42.8],[120.7,42.7],[120.1,42.7],[120.1,42.6],[119.4,42.6],[119.4,42.5],[118.9,42.5],[118.9,42.4],[118.5,42.4],[118.5,42.3],[118.2,42.3],[118.2,42.2],[117.7,42.2],[117.7,42.1],[117.4,42.1],[117.4,42.0],[117.1,42.0],[117.1,41.9],[116.9,41.9],[116.9,41.8],[116.6,41.8],[116.6,41.7],[116.5,41.7],[116.5,41.6],[116.3,41.6],[116.3,41.5],[116.0,41.5],[116.0,41.4],[115.7,41.4],[115.7,41.3],[115.6,41.3]],[[115.6,41.3],[115.6,39.8]],[[115.6,39.8],[115.7,39.8]],[[115.7,39.8],[115.7,39.3]],[[115.7,39.3],[115.8,39.3]],[[115.8,39.3],[115.8,38.7]],[[115.8,38.7],[116.9,38.7]],[[116.9,38.7],[116.9,38.8]],[[116.9,38.8],[117.6,38.8]],[[117.6,38.8],[117.6,39.0],[117.7,39.0],[117.7,39.1],[117.9,39.1],[117.9,39.2],[118.2,39.2],[118.2,39.1],[118.9,39.1],[118.9,39.2],[119.1,39.2],[119.1,39.3],[119.2,39.3],[119.2,39.5],[119.3,39.5],[119.3,39.7],[119.4,39.7],[119.4,39.8],[119.6,39.8],[119.6,39.9],[119.7,39.9],[119.7,40.0],[120.0,40.0],[120.0,40.1],[120.2,40.1],[120.2,40.2],[120.5,40.2],[120.5,40.3],[120.6,40.3],[120.6,40.5],[120.7,40.5],[120.7,40.6],[120.9,40.6],[120.9,40.7],[121.0,40.7],[121.0,40.8],[121.1,40.8],[121.1,40.9],[121.5,40.9],[121.5,41.0],[121.8,41.0],[121.8,40.9],[121.9,40.9],[121.9,40.8],[122.1,40.8],[122.1,40.7],[122.2,40.7],[122.2,40.4],[122.1,40.4],[122.1,40.3],[122.0,40.3],[122.0,40.2],[121.9,40.2],[121.9,40.1],[121.8,40.1],[121.8,40.0],[121.6,40.0],[121.6,39.9],[121.5,39.9],[121.5,39.8],[121.4,39.8],[121.4,39.7],[121.3,39.7],[121.3,39.5],[121.4,39.5],[121.4,39.3],[121.5,39.3],[121.5,39.2],[121.4,39.2],[121.4,39.1],[121.3,39.1],[121.3,38.8],[121.5,38.8],[121.5,38.9],[121.9,38.9],[121.9,39.0],[122.0,39.0],[122.0,39.1],[122.1,39.1],[122.1,39.2],[122.2,39.2],[122.2,39.3],[122.5,39.3],[122.5,39.4],[122.6,39.4],[122.6,39.5],[122.7,39.5],[122.7,39.6],[122.9,39.6],[122.9,39.7],[123.3,39.7],[123.3,39.8],[123.7,39.8],[123.7,39.9],[124.2,39.9],[124.2,39.8],[124.5,39.8],[124.5,39.7],[124.7,39.7],[124.7,39.6],[125.3,39.6],[125.3,39.7],[125.4,39.7],[125.4,39.8],[125.5,39.8],[125.5,40.0],[125.6,40.0],[125.6,40.1],[125.7,40.1],[125.7,40.3],[125.8,40.3],[125.8,40.5],[125.9,40.5],[125.9,40.6],[126.0,40.6],[126.0,40.8],[126.1,40.8],[126.1,41.0],[126.2,41.0],[126.2,41.7],[126.1,41.7],[126.1,41.9],[126.0,41.9],[126.0,42.0],[125.9,42.0],[125.9,42.1],[125.8,42.1],[125.8,42.2],[125.6,42.2],[125.6,42.3],[125.4,42.3],[125.4,42.4],[125.2,42.4],[125.2,42.5],[124.8,42.5],[124.8,42.6]],[[113.8,33.0],[113.7,33.0]],[[113.7,33.0],[113.7,33.1]],[[113.0,33.1],[113.0,32.6]],[[113.0,32.6],[112.9,32.6]],[[112.9,32.6],[112.9,32.4]],[[112.9,32.4],[113.0,32.4]],[[113.0,32.4],[113.0,32.3]],[[113.0,32.3],[113.1,32.3]],[[113.1,32.3],[113.1,32.2]],[[113.1,32.2],[113.4,32.2]],[[113.4,32.2],[113.4,32.1]],[[113.4,32.1],[113.7,32.1]],[[113.7,32.1],[113.7,32.0]],[[113.7,32.0],[113.9,32.0]],[[113.9,32.0],[113.9,31.9]],[[113.9,31.9],[114.0,31.9]],[[114.0,31.9],[114.0,31.8]],[[114.0,31.8],[114.5,31.8]],[[114.5,31.8],[114.5,31.7]],[[114.5,31.7],[114.6,31.7]],[[114.6,31.7],[114.6,31.6]],[[114.6,31.6],[114.7,31.6]],[[114.7,31.6],[114.7,31.5]],[[114.7,31.5],[115.2,31.5]],[[115.2,31.5],[115.2,31.6]],[[115.2,31.6],[115.3,31.6]],[[115.3,31.6],[115.3,32.0]],[[115.3,32.0],[115.2,32.0]],[[115.2,32.0],[115.2,32.1]],[[115.2,32.1],[115.1,32.1]],[[115.1,32.1],[115.1,32.2]],[[115.1,32.2],[115.0,32.2]],[[115.0,32.2],[115.0,32.3]],[[115.0,32.3],[114.7,32.3]],[[114.7,32.3],[114.7,32.4]],[[114.7,32.4],[114.6,32.4]],[[114.6,32.4],[114.6,32.5]],[[114.6,32.5],[114.5,32.5]],[[114.5,32.5],[114.5,32.6]],[[114.5,32.6],[114.3,32.6]],[[114.3,32.6],[114.3,32.7]],[[114.3,32.7],[114.2,32.7]],[[114.2,32.7],[114.2,32.8]],[[114.2,32.8],[114.0,32.8]],[[114.0,32.8],[114.0,32.9]],[[114.0,32.9],[113.8,32.9]],[[113.8,32.9],[113.8,33.0]],[[60.4,37.9],[60.1,37.9],[60.1,38.0],[60.0,38.0]],[[60.0,28.1],[60.1,28.1],[60.1,28.3],[60.6,28.3],[60.6,28.4],[60.8,28.4],[60.8,28.5],[61.3,28.5],[61.3,28.6],[61.5,28.6],[61.5,28.7],[61.8,28.7],[61.8,28.8],[62.1,28.8],[62.1,28.9],[65.4,28.9],[65.4,29.0],[65.6,29.0],[65.6,29.1],[65.8,29.1],[65.8,29.2],[66.0,29.2],[66.0,29.4],[66.1,29.4],[66.1,29.6],[66.3,29.6],[66.3,29.7],[66.4,29.7],[66.4,30.1],[66.5,30.1],[66.5,30.3],[66.6,30.3],[66.6,30.5],[66.7,30.5],[66.7,30.7],[66.8,30.7],[66.8,30.9],[66.9,30.9],[66.9,31.1],[67.0,31.1],[67.0,31.2],[67.1,31.2],[67.1,32.9],[67.2,32.9],[67.2,33.2],[67.3,33.2],[67.3,34.5],[67.2,34.5],[67.2,34.9],[67.1,34.9],[67.1,35.2],[67.0,35.2],[67.0,35.5],[66.9,35.5],[66.9,35.6],[66.8,35.6],[66.8,35.7],[66.7,35.7],[66.7,35.8],[66.6,35.8],[66.6,35.9],[66.4,35.9],[66.4,36.0],[66.3,36.0],[66.3,36.1],[66.1,36.1],[66.1,36.2],[66.0,36.2],[66.0,36.3],[65.9,36.3],[65.9,36.4],[65.8,36.4],[65.8,36.5],[65.7,36.5],[65.7,36.6],[65.5,36.6],[65.5,36.7],[65.3,36.7],[65.3,36.8],[65.0,36.8],[65.0,36.9],[64.7,36.9],[64.7,36.8],[63.1,36.8],[63.1,36.9],[62.8,36.9],[62.8,37.0],[62.7,37.0],[62.7,37.1],[62.5,37.1],[62.5,37.2],[62.4,37.2],[62.4,37.3],[61.8,37.3],[61.8,37.4],[61.2,37.4],[61.2,37.5],[61.1,37.5],[61.1,37.6],[60.7,37.6],[60.7,37.7],[60.5,37.7],[60.5,37.8],[60.4,37.8],[60.4,37.9]],[[115.6,41.3],[115.1,41.3],[115.1,41.2],[114.6,41.2],[114.6,41.1],[114.2,41.1],[114.2,41.0],[114.1,41.0],[114.1,40.9],[114.0,40.9],[114.0,40.8],[113.9,40.8],[113.9,40.7],[113.8,40.7],[113.8,40.6],[113.7,40.6],[113.7,40.5],[112.9,40.5],[112.9,40.4],[111.1,40.4],[111.1,40.3],[110.8,40.3],[110.8,40.2],[110.7,40.2],[110.7,40.1],[110.6,40.1],[110.6,40.0],[110.4,40.0],[110.4,39.9],[110.1,39.9],[110.1,39.8],[110.0,39.8],[110.0,39.0],[109.9,39.0],[109.9,38.6],[109.8,38.6],[109.8,38.3],[109.7,38.3],[109.7,38.1],[109.6,38.1],[109.6,37.8],[109.5,37.8],[109.5,37.6],[109.4,37.6],[109.4,37.5],[109.3,37.5],[109.3,37.4],[109.2,37.4],[109.2,37.1],[109.1,37.1],[109.1,37.0],[109.0,37.0],[109.0,36.5],[108.9,36.5],[108.9,36.3],[108.8,36.3],[108.8,36.1],[108.7,36.1],[108.7,36.0]],[[108.7,36.0],[108.7,35.1]],[[108.7,35.1],[108.8,35.1]],[[108.8,35.1],[108.8,34.5]],[[108.8,34.5],[108.9,34.5]],[[108.9,34.5],[108.9,34.1]],[[108.9,34.1],[109.0,34.1]],[[109.0,34.1],[109.0,33.9]],[[109.0,33.9],[109.0,33.7]],[[109.0,33.7],[109.1,33.7]],[[109.1,33.7],[109.1,33.6]],[[109.1,33.6],[109.2,33.6]],[[109.2,33.6],[109.2,33.5]],[[109.2,33.5],[109.3,33.5]],[[109.3,33.5],[109.3,33.4]],[[109.3,33.4],[109.7,33.4]],[[109.7,33.4],[109.7,33.3]],[[109.7,33.3],[110.2,33.3]],[[110.2,33.3],[110.2,33.2]],[[110.2,33.2],[112.4,33.2]],[[114.4,34.1],[114.5,34.1]],[[114.5,34.1],[114.5,34.3]],[[114.5,34.3],[114.6,34.3]],[[114.6,34.3],[114.6,34.6]],[[114.6,34.6],[114.7,34.6]],[[114.7,34.6],[114.7,34.8]],[[114.7,34.8],[114.8,34.8]],[[114.8,34.8],[114.8,34.9]],[[114.8,34.9],[115.0,34.9]],[[115.0,34.9],[115.0,35.0]],[[115.0,35.0],[115.2,35.0]],[[115.2,35.0],[115.2,35.1]],[[115.2,35.1],[115.3,35.1]],[[115.3,35.1],[115.3,35.2]],[[115.3,35.2],[115.4,35.2]],[[115.4,35.2],[115.4,35.3]],[[115.4,35.3],[115.6,35.3]],[[115.6,35.3],[115.6,35.6]],[[115.6,35.6],[115.5,35.6]],[[115.5,35.6],[115.5,35.7]],[[115.5,35.7],[115.4,35.7]],[[115.4,35.7],[115.4,35.8]],[[115.4,35.8],[115.3,35.8]],[[115.3,35.8],[115.3,36.0]],[[115.3,36.0],[115.2,36.0]],[[115.2,36.0],[115.2,36.5]],[[115.2,36.5],[115.3,36.5]],[[115.3,36.5],[115.3,36.8]],[[115.3,36.8],[115.4,36.8]],[[115.4,36.8],[115.4,37.0]],[[115.4,37.0],[115.5,37.0]],[[115.5,37.0],[115.5,37.2]],[[115.5,37.2],[115.6,37.2]],[[115.6,37.2],[115.6,37.5]],[[115.6,37.5],[115.7,37.5]],[[115.7,37.5],[115.7,37.8]],[[115.7,37.8],[115.8,37.8]],[[115.8,37.8],[115.8,38.7]],[[110.5,34.6],[110.7,34.6]],[[110.7,34.6],[110.7,34.7]],[[110.7,34.7],[111.1,34.7]],[[111.1,34.7],[111.1,34.8]],[[111.1,34.8],[111.5,34.8]],[[111.5,34.8],[111.5,34.7]],[[111.5,34.7],[112.0,34.7]],[[112.0,34.7],[112.0,34.6]],[[112.0,34.6],[112.2,34.6]],[[112.2,34.6],[112.2,34.3]],[[112.2,34.3],[112.3,34.3]],[[112.3,34.3],[112.3,34.1]],[[112.3,34.1],[112.0,34.1]],[[112.0,34.1],[112.0,34.0]],[[112.0,34.0],[111.4,34.0]],[[111.4,34.0],[111.4,33.9]],[[111.4,33.9],[111.0,33.9]],[[111.0,33.9],[111.0,34.0]],[[111.0,34.0],[110.6,34.0]],[[110.6,34.0],[110.6,34.1]],[[110.6,34.1],[110.4,34.1]],[[110.4,34.1],[110.4,34.5]],[[110.4,34.5],[110.5,34.5]],[[110.5,34.5],[110.5,34.6]],[[115.8,35.3],[115.6,35.3]],[[114.1,33.2],[114.5,33.2]],[[114.5,33.2],[114.5,33.1]],[[114.5,33.1],[114.7,33.1]],[[114.7,33.1],[114.7,33.0]],[[114.7,33.0],[114.9,33.0]],[[114.9,33.0],[114.9,32.9]],[[114.9,32.9],[115.0,32.9]],[[115.0,32.9],[115.0,32.8]],[[115.0,32.8],[116.0,32.8]],[[116.0,32.8],[116.0,32.9]],[[116.0,32.9],[116.3,32.9]],[[116.3,32.9],[116.3,33.0]],[[116.3,33.0],[116.6,33.0]],[[116.6,33.0],[116.6,33.1]],[[116.6,33.1],[116.7,33.1]],[[116.7,33.1],[116.7,33.2]],[[116.7,33.2],[117.0,33.2]],[[117.0,33.2],[117.0,33.3]],[[117.0,33.3],[117.2,33.3]],[[117.2,33.3],[117.2,33.4]],[[117.2,33.4],[117.3,33.4]],[[117.3,33.4],[117.3,33.5]],[[117.3,33.5],[117.6,33.5]],[[117.6,33.5],[117.6,33.6]],[[117.6,33.6],[117.9,33.6]],[[117.9,33.6],[117.9,33.7]],[[117.9,33.7],[118.0,33.7]],[[118.0,33.7],[118.0,34.0],[118.1,34.0],[118.1,34.1],[118.2,34.1],[118.2,34.5],[118.1,34.5],[118.1,34.8],[118.0,34.8],[118.0,35.3]],[[118.0,35.3],[117.5,35.3]],[[117.5,35.3],[117.4,35.3]],[[117.4,35.3],[117.4,35.2]],[[117.4,35.2],[115.8,35.2]],[[115.8,35.2],[115.8,35.3]],[[121.9,31.2],[121.8,31.2],[121.8,31.4]],[[118.5,30.4],[118.5,30.2]],[[118.5,30.2],[118.6,30.2]],[[118.6,30.2],[118.6,30.0]],[[118.6,30.0],[118.7,30.0]],[[118.7,30.0],[118.7,29.8]],[[118.7,29.8],[118.8,29.8]],[[118.8,29.8],[118.8,29.5]],[[118.8,29.5],[118.9,29.5]],[[118.9,29.5],[118.9,29.2]],[[118.9,29.2],[119.0,29.2],[119.0,29.1],[119.1,29.1],[119.1,28.9],[119.2,28.9],[119.2,28.8],[119.3,28.8],[119.3,28.7],[119.4,28.7],[119.4,28.6],[119.6,28.6],[119.6,28.5],[119.7,28.5],[119.7,28.4],[119.8,28.4],[119.8,28.3],[120.0,28.3],[120.0,28.2],[120.3,28.2],[120.3,28.1],[120.5,28.1],[120.5,28.0],[120.6,28.0],[120.6,27.9],[121.2,27.9],[121.2,28.0],[121.3,28.0],[121.3,28.2],[121.4,28.2],[121.4,28.3],[121.6,28.3],[121.6,28.4],[121.7,28.4],[121.7,28.7],[121.8,28.7],[121.8,29.0],[121.9,29.0],[121.9,29.2],[122.0,29.2],[122.0,29.6],[122.1,29.6],[122.1,29.7],[122.3,29.7],[122.3,29.8],[122.4,29.8],[122.4,30.2],[122.3,30.2],[122.3,30.3],[121.9,30.3],[121.9,30.2],[121.5,30.2],[121.5,30.3],[121.4,30.3],[121.4,30.4],[121.2,30.4],[121.2,30.5],[121.1,30.5],[121.1,30.6],[121.2,30.6],[121.2,30.7],[121.4,30.7],[121.4,30.8],[121.5,30.8],[121.5,30.9],[121.8,30.9],[121.8,31.0],[121.9,31.0],[121.9,31.2]],[[117.0,36.4],[116.9,36.4]],[[116.9,36.4],[116.9,36.5]],[[116.9,36.5],[116.4,36.5]],[[116.4,36.5],[116.4,36.4]],[[116.4,36.4],[116.2,36.4]],[[116.2,36.4],[116.2,36.3]],[[116.2,36.3],[116.0,36.3]],[[116.0,36.3],[116.0,36.2]],[[116.0,36.2],[115.9,36.2]],[[115.9,36.2],[115.9,36.1]],[[115.9,36.1],[115.8,36.1]],[[115.8,36.1],[115.8,36.0]],[[115.8,36.0],[115.7,36.0]],[[115.7,36.0],[115.7,35.8]],[[115.7,35.8],[115.6,35.8]],[[115.6,35.8],[115.6,35.6]],[[117.5,35.3],[117.5,35.7]],[[117.5,35.7],[117.4,35.7]],[[117.4,35.7],[117.4,35.9]],[[117.4,35.9],[117.3,35.9]],[[117.3,35.9],[117.3,36.1]],[[117.3,36.1],[117.2,36.1]],[[117.2,36.1],[117.2,36.2]],[[117.2,36.2],[117.1,36.2]],[[117.1,36.2],[117.1,36.3]],[[117.1,36.3],[117.0,36.3]],[[117.0,36.3],[117.0,36.4]],[[117.7,38.6],[117.6,38.6],[117.6,38.8]],[[118.0,35.3],[118.0,35.5],[118.1,35.5],[118.1,35.6],[118.2,35.6],[118.2,35.8],[118.3,35.8],[118.3,36.0],[118.4,36.0],[118.4,36.1],[118.6,36.1],[118.6,36.2],[119.5,36.2],[119.5,36.1],[119.6,36.1],[119.6,35.9],[119.7,35.9],[119.7,35.7],[120.0,35.7],[120.0,35.8],[120.1,35.8],[120.1,35.9],[120.2,35.9],[120.2,36.0],[120.3,36.0],[120.3,36.1],[120.6,36.1],[120.6,36.2],[120.7,36.2],[120.7,36.4],[120.8,36.4],[120.8,36.5],[121.0,36.5],[121.0,36.6],[121.1,36.6],[121.1,36.7],[121.3,36.7],[121.3,36.8],[121.7,36.8],[121.7,36.9],[122.5,36.9],[122.5,37.0],[122.6,37.0],[122.6,37.4],[122.5,37.4],[122.5,37.5],[122.3,37.5],[122.3,37.6],[121.9,37.6],[121.9,37.5],[121.6,37.5],[121.6,37.6],[121.4,37.6],[121.4,37.7],[121.2,37.7],[121.2,37.8],[121.0,37.8],[121.0,37.9],[120.9,37.9],[120.9,38.0],[120.7,38.0],[120.7,37.9],[120.5,37.9],[120.5,37.8],[120.3,37.8],[120.3,37.7],[120.2,37.7],[120.2,37.6],[120.1,37.6],[120.1,37.5],[119.9,37.5],[119.9,37.4],[119.8,37.4],[119.8,37.3],[119.7,37.3],[119.7,37.2],[119.3,37.2],[119.3,37.3],[119.1,37.3],[119.1,37.4],[119.0,37.4],[119.0,38.2],[118.9,38.2],[118.9,38.3],[118.7,38.3],[118.7,38.2],[118.0,38.2],[118.0,38.3],[117.9,38.3],[117.9,38.4],[117.8,38.4],[117.8,38.5],[117.7,38.5],[117.7,38.6]],[[108.7,36.0],[108.3,36.0],[108.3,35.9],[107.5,35.9],[107.5,35.8],[107.3,35.8],[107.3,35.7],[107.0,35.7],[107.0,35.6],[106.6,35.6],[106.6,35.5],[105.9,35.5],[105.9,35.4],[105.3,35.4],[105.3,35.3],[103.9,35.3],[103.9,35.2],[103.8,35.2],[103.8,35.0],[103.9,35.0],[103.9,34.8],[104.4,34.8],[104.4,34.7],[105.0,34.7],[105.0,34.6],[105.5,34.6],[105.5,34.5],[105.8,34.5],[105.8,34.4],[105.9,34.4],[105.9,34.3],[106.1,34.3],[106.1,34.2],[106.2,34.2],[106.2,34.1],[106.3,34.1],[106.3,33.9],[106.4,33.9],[106.4,33.8],[106.5,33.8],[106.5,33.7],[106.6,33.7],[106.6,33.6],[106.7,33.6],[106.7,33.5],[107.5,33.5],[107.5,33.6],[107.7,33.6]],[[107.7,33.6],[107.8,33.6]],[[107.8,33.6],[107.8,33.7]],[[107.8,33.7],[108.3,33.7]],[[108.3,33.7],[108.3,33.8]],[[108.3,33.8],[108.4,33.8]],[[108.4,33.8],[108.4,33.9]],[[108.4,33.9],[109.0,33.9]],[[107.7,33.6],[107.7,33.5],[107.8,33.5],[107.8,33.2],[107.9,33.2],[107.9,32.0],[107.8,32.0],[107.8,31.7],[107.7,31.7],[107.7,31.3],[107.6,31.3],[107.6,31.0],[107.5,31.0],[107.5,30.7],[107.4,30.7],[107.4,30.5],[107.3,30.5],[107.3,30.3],[107.1,30.3],[107.1,30.0],[107.2,30.0],[107.2,29.7],[107.3,29.7],[107.3,29.1],[107.4,29.1],[107.4,29.0],[107.5,29.0],[107.5,28.7],[107.6,28.7],[107.6,28.6],[107.7,28.6],[107.7,28.5],[107.9,28.5],[107.9,28.4],[108.2,28.4],[108.2,28.3],[108.5,28.3],[108.5,28.2],[108.7,28.2],[108.7,28.1],[109.0,28.1],[109.0,28.0],[109.3,28.0],[109.3,27.9],[109.6,27.9],[109.6,27.8],[109.9,27.8],[109.9,27.7],[110.1,27.7],[110.1,27.6],[110.3,27.6],[110.3,27.5],[110.5,27.5],[110.5,27.4],[110.6,27.4],[110.6,27.3],[110.8,27.3],[110.8,27.2],[111.0,27.2],[111.0,27.1],[111.4,27.1],[111.4,27.0],[111.7,27.0],[111.7,26.9],[112.5,26.9],[112.5,27.0],[112.9,27.0],[112.9,27.1],[113.2,27.1],[113.2,27.2],[113.7,27.2],[113.7,27.3],[114.1,27.3],[114.1,27.4],[114.4,27.4],[114.4,27.5],[115.1,27.5],[115.1,27.6],[115.5,27.6],[115.5,27.7],[115.8,27.7],[115.8,27.8],[116.3,27.8],[116.3,27.9],[116.5,27.9],[116.5,28.0],[116.9,28.0],[116.9,28.1],[117.3,28.1],[117.3,28.2],[117.8,28.2],[117.8,28.3],[118.3,28.3],[118.3,28.4],[118.5,28.4],[118.5,28.6],[118.6,28.6],[118.6,28.7],[118.7,28.7],[118.7,28.8],[118.8,28.8],[118.8,29.0],[118.9,29.0],[118.9,29.2]],[[118.2,33.6],[118.1,33.6],[118.1,33.7],[118.0,33.7]],[[116.0,29.2],[116.0,29.4],[116.2,29.4],[116.2,29.2],[116.0,29.2]],[[116.4,29.0],[116.4,29.2],[116.6,29.2],[116.6,29.1],[116.5,29.1],[116.5,29.0],[116.4,29.0]]]},"properties":{"start_year":-539,"end_year":-529}}]}
