{"type":"FeatureCollection","features":[{"type":"Feature","id":"boundaries:380","geometry":{"type":"MultiLineString","coordinates":[[[79.0,23.2],[79.0,23.3]],[[79.0,23.3],[78.4,23.3]],[[78.4,23.3],[78.4,23.4]],[[78.4,23.4],[78.0,23.4]],[[78.0,23.4],[78.0,23.3]],[[78.0,23.3],[77.9,23.3]],[[77.9,23.3],[77.9,23.0]],[[77.9,23.0],[77.8,23.0]],[[77.8,23.0],[77.8,22.9]],[[77.8,22.9],[77.7,22.9]],[[77.7,22.9],[77.7,22.6]],[[77.7,22.6],[77.6,22.6]],[[77.6,22.6],[77.6,22.5]],[[77.6,22.5],[77.5,22.5]],[[77.5,22.5],[77.5,22.3]],[[77.5,22.3],[77.4,22.3]],[[77.4,22.3],[77.4,21.7]],[[77.4,21.7],[76.8,21.7]],[[76.8,21.7],[76.8,21.8]],[[76.8,21.8],[76.4,21.8]],[[76.4,21.8],[76.4,21.9]],[[76.4,21.9],[76.0,21.9]],[[76.0,21.9],[76.0,22.0]],[[76.0,22.0],[75.1,22.0]],[[75.1,22.0],[75.1,22.1]],[[75.1,22.1],[74.2,22.1]],[[74.2,22.1],[74.2,22.0]],[[74.2,22.0],[73.4,22.0]],[[73.4,22.0],[73.4,21.9]],[[73.4,21.9],[73.0,21.9]],[[73.0,21.9],[73.0,21.8]],[[73.0,21.8],[72.6,21.8]],[[72.6,21.8],[72.6,21.1],[72.7,21.1],[72.7,21.0],[72.8,21.0],[72.8,20.8],[72.9,20.8],[72.9,20.5],[72.8,20.5],[72.8,20.3],[72.7,20.3],[72.7,19.5],[72.8,19.5],[72.8,18.9],[72.9,18.9],[72.9,18.3],[73.0,18.3],[73.0,18.0],[73.1,18.0],[73.1,17.6],[73.2,17.6],[73.2,17.2],[73.3,17.2],[73.3,16.5],[73.4,16.5],[73.4,16.2],[73.5,16.2],[73.5,16.0],[73.6,16.0],[73.6,15.9],[73.7,15.9],[73.7,15.8]],[[73.7,15.8],[74.0,15.8]],[[74.0,15.8],[74.0,15.7]],[[74.0,15.7],[74.2,15.7]],[[74.2,15.7],[74.2,15.6]],[[74.2,15.6],[74.7,15.6]],[[74.7,15.6],[74.7,15.5]],[[74.7,15.5],[75.0,15.5]],[[75.0,15.5],[75.0,15.4]],[[75.0,15.4],[75.2,15.4]],[[75.2,15.4],[75.2,15.3]],[[75.2,15.3],[75.6,15.3]],[[75.6,15.3],[75.6,15.2]],[[75.6,15.2],[75.9,15.2]],[[75.9,15.2],[75.9,15.1]],[[75.9,15.1],[77.7,15.1]],[[77.7,15.1],[77.7,15.2]],[[77.7,15.2],[78.0,15.2]],[[78.0,15.2],[78.0,15.3]],[[78.0,15.3],[78.5,15.3]],[[78.5,15.3],[78.5,15.4]],[[78.5,15.4],[78.9,15.4]],[[78.9,15.4],[78.9,15.5]],[[78.9,15.5],[79.5,15.5]],[[79.5,15.5],[79.5,15.6]],[[79.5,15.6],[79.4,15.6]],[[79.4,15.6],[79.4,16.0]],[[79.4,16.0],[79.3,16.0]],[[79.3,16.0],[79.3,16.8]],[[79.3,16.8],[79.4,16.8]],[[79.4,16.8],[79.4,17.3]],[[79.4,17.3],[79.5,17.3]],[[79.5,17.3],[79.5,17.5]],[[79.5,17.5],[79.6,17.5]],[[79.6,17.5],[79.6,17.7]],[[79.6,17.7],[79.7,17.7]],[[79.7,17.7],[79.7,17.8]],[[79.7,17.8],[79.8,17.8]],[[79.8,17.8],[79.8,17.9]],[[79.8,17.9],[79.9,17.9]],[[79.9,17.9],[79.9,18.0]],[[79.9,18.0],[80.0,18.0]],[[80.0,18.0],[80.0,18.2]],[[80.0,18.2],[80.1,18.2]],[[80.1,18.2],[80.1,18.3]],[[80.1,18.3],[80.2,18.3]],[[80.2,18.3],[80.2,18.4]],[[80.2,18.4],[80.4,18.4]],[[80.4,18.4],[80.4,18.5]],[[80.4,18.5],[80.5,18.5]],[[80.5,18.5],[80.5,18.6]],[[80.5,18.6],[80.6,18.6]],[[80.6,18.6],[80.6,18.7]],[[80.6,18.7],[80.8,18.7]],[[80.8,18.7],[80.8,18.8]],[[80.8,18.8],[80.9,18.8]],[[80.9,18.8],[80.9,18.9]],[[80.9,18.9],[81.1,18.9]],[[81.1,18.9],[81.1,19.0]],[[81.1,19.0],[81.3,19.0]],[[81.3,19.0],[81.3,19.1]],[[81.3,19.1],[81.4,19.1]],[[81.4,19.1],[81.4,19.2]],[[81.4,19.2],[82.0,19.2]],[[82.0,19.2],[82.0,19.1]],[[82.0,19.1],[82.1,19.1]],[[82.1,19.1],[82.1,19.0]],[[82.1,19.0],[82.2,19.0]],[[82.2,19.0],[82.2,18.9]],[[82.2,18.9],[82.3,18.9]],[[82.3,18.9],[82.3,18.8]],[[82.3,18.8],[82.4,18.8]],[[82.4,18.8],[82.4,18.6]],[[82.4,18.6],[82.5,18.6]],[[82.5,18.6],[82.5,18.5]],[[82.5,18.5],[82.6,18.5]],[[82.6,18.5],[82.6,18.3]],[[82.6,18.3],[82.7,18.3]],[[82.7,18.3],[82.7,18.2]],[[82.7,18.2],[82.8,18.2]],[[82.8,18.2],[82.8,18.0]],[[82.8,18.0],[82.9,18.0]],[[82.9,18.0],[82.9,17.8]],[[82.9,17.8],[83.0,17.8]],[[83.0,17.8],[83.0,17.6]],[[83.0,17.6],[83.1,17.6]],[[83.1,17.6],[83.2,17.6],[83.2,17.7],[83.3,17.7],[83.3,17.8],[83.4,17.8],[83.4,17.9],[83.5,17.9],[83.5,18.0],[83.6,18.0],[83.6,18.1],[83.8,18.1],[83.8,18.2],[83.9,18.2],[83.9,18.3],[84.1,18.3],[84.1,18.4],[84.2,18.4],[84.2,18.5],[84.3,18.5],[84.3,18.6],[84.4,18.6],[84.4,18.7],[84.5,18.7],[84.5,18.8],[84.6,18.8],[84.6,18.9],[84.7,18.9],[84.7,19.1],[84.8,19.1],[84.8,19.2],[84.9,19.2],[84.9,19.3],[85.0,19.3],[85.0,19.4],[85.1,19.4],[85.1,19.5],[85.2,19.5],[85.2,19.6],[85.4,19.6],[85.4,19.7]],[[85.4,19.7],[85.3,19.7]],[[85.3,19.7],[85.3,19.8]],[[85.3,19.8],[85.2,19.8]],[[85.2,19.8],[85.2,19.9]],[[85.2,19.9],[85.0,19.9]],[[85.0,19.9],[85.0,20.0]],[[85.0,20.0],[84.9,20.0]],[[84.9,20.0],[84.9,20.2]],[[84.9,20.2],[84.8,20.2]],[[84.8,20.2],[84.8,20.3]],[[84.8,20.3],[84.7,20.3]],[[84.7,20.3],[84.7,20.5]],[[84.7,20.5],[84.6,20.5]],[[84.6,20.5],[84.6,20.6]],[[84.6,20.6],[84.5,20.6]],[[84.5,20.6],[84.5,20.8]],[[84.5,20.8],[84.4,20.8]],[[84.4,20.8],[84.4,20.9]],[[84.4,20.9],[84.3,20.9]],[[84.3,20.9],[84.3,21.0]],[[84.3,21.0],[84.2,21.0]],[[84.2,21.0],[84.2,21.1]],[[84.2,21.1],[84.1,21.1]],[[84.1,21.1],[84.1,21.2]],[[84.1,21.2],[84.0,21.2]],[[84.0,21.2],[84.0,21.3]],[[84.0,21.3],[83.9,21.3]],[[83.9,21.3],[83.9,21.4]],[[83.9,21.4],[83.6,21.4]],[[83.6,21.4],[83.6,21.5]],[[83.6,21.5],[83.2,21.5]],[[83.2,21.5],[83.2,21.6]],[[83.2,21.6],[82.9,21.6]],[[82.9,21.6],[82.9,21.7]],[[82.9,21.7],[82.6,21.7]],[[82.6,21.7],[82.6,21.8]],[[82.6,21.8],[82.5,21.8]],[[82.5,21.8],[82.5,21.9]],[[82.5,21.9],[82.2,21.9]],[[82.2,21.9],[82.2,22.0]],[[82.2,22.0],[82.0,22.0]],[[82.0,22.0],[82.0,22.1]],[[82.0,22.1],[81.9,22.1]],[[81.9,22.1],[81.9,22.2]],[[81.9,22.2],[81.6,22.2]],[[81.6,22.2],[81.6,22.3]],[[81.6,22.3],[81.4,22.3]],[[81.4,22.3],[81.4,22.4]],[[81.4,22.4],[81.0,22.4]],[[81.0,22.4],[81.0,22.5]],[[81.0,22.5],[80.9,22.5]],[[80.9,22.5],[80.9,22.6]],[[80.9,22.6],[80.6,22.6]],[[80.6,22.6],[80.6,22.7]],[[80.6,22.7],[80.4,22.7]],[[80.4,22.7],[80.4,22.8]],[[80.4,22.8],[80.0,22.8]],[[80.0,22.8],[80.0,22.9]],[[80.0,22.9],[79.8,22.9]],[[79.8,22.9],[79.8,23.0]],[[79.8,23.0],[79.5,23.0]],[[79.5,23.0],[79.5,23.1]],[[79.5,23.1],[79.3,23.1]],[[79.3,23.1],[79.3,23.2]],[[79.3,23.2],[79.0,23.2]],[[129.1,37.6],[128.2,37.6]],[[128.2,37.6],[128.2,37.7]],[[128.2,37.7],[127.6,37.7]],[[127.6,37.7],[127.6,37.4]],[[127.6,37.4],[127.7,37.4]],[[127.7,37.4],[127.7,37.2]],[[127.7,37.2],[127.8,37.2]],[[127.8,37.2],[127.8,37.0]],[[127.8,37.0],[127.9,37.0]],[[127.9,37.0],[127.9,36.6]],[[127.9,36.6],[128.2,36.6],[128.2,36.5],[128.4,36.5],[128.4,36.4],[128.6,36.4],[128.6,36.3],[129.4,36.3],[129.4,36.5],[129.5,36.5],[129.5,37.1],[129.4,37.1],[129.4,37.4],[129.3,37.4],[129.3,37.5],[129.2,37.5],[129.2,37.7],[129.1,37.7]],[[129.1,37.7],[129.1,37.6]],[[74.0,44.9],[74.0,45.0]],[[74.0,45.0],[73.9,45.0]],[[73.9,45.0],[73.9,45.1]],[[73.9,45.1],[73.7,45.1]],[[73.7,45.1],[73.7,45.3]],[[73.7,45.3],[73.5,45.3],[73.5,45.4],[73.4,45.4],[73.4,45.5],[73.3,45.5],[73.3,46.1],[73.4,46.1],[73.4,46.2],[73.5,46.2],[73.5,46.4],[73.7,46.4],[73.7,46.5],[73.9,46.5],[73.9,46.6],[74.1,46.6],[74.1,46.7],[74.4,46.7],[74.4,46.8],[74.5,46.8],[74.5,46.9],[75.8,46.9],[75.8,46.8],[75.9,46.8]],[[75.9,46.8],[76.8,46.8]],[[76.8,46.8],[77.0,46.8]],[[77.0,46.8],[77.0,46.9]],[[77.0,46.9],[77.8,46.9]],[[77.8,46.9],[77.8,47.0]],[[77.8,47.0],[78.0,47.0]],[[78.0,47.0],[78.0,47.1]],[[78.0,47.1],[78.2,47.1]],[[78.2,47.1],[78.2,47.2]],[[78.2,47.2],[78.5,47.2]],[[78.5,47.2],[78.5,47.3]],[[78.5,47.3],[78.6,47.3]],[[78.6,47.3],[78.6,47.4]],[[78.6,47.4],[78.9,47.4]],[[78.9,47.4],[78.9,47.5]],[[78.9,47.5],[79.1,47.5]],[[79.1,47.5],[79.1,47.6]],[[79.1,47.6],[79.2,47.6]],[[79.2,47.6],[79.2,47.8]],[[79.2,47.8],[79.3,47.8]],[[79.3,47.8],[79.3,47.9]],[[79.3,47.9],[79.4,47.9]],[[79.4,47.9],[79.4,48.0]],[[79.4,48.0],[79.5,48.0]],[[79.5,48.0],[79.5,48.1]],[[79.5,48.1],[79.6,48.1]],[[79.6,48.1],[79.6,48.3]],[[79.6,48.3],[79.7,48.3]],[[79.7,48.3],[79.7,48.4]],[[79.7,48.4],[79.8,48.4]],[[79.8,48.4],[79.8,48.5]],[[79.8,48.5],[79.9,48.5]],[[79.9,48.5],[79.9,48.7]],[[79.9,48.7],[80.0,48.7]],[[80.0,48.7],[80.0,48.8]],[[80.0,48.8],[80.1,48.8]],[[80.1,48.8],[80.1,49.6]],[[80.1,49.6],[80.2,49.6]],[[80.2,49.6],[80.2,49.7]],[[80.2,49.7],[80.2,50.4],[80.1,50.4],[80.1,50.7],[80.0,50.7],[80.0,50.9],[79.9,50.9],[79.9,51.0],[79.8,51.0],[79.8,51.1],[79.6,51.1],[79.6,51.0],[79.1,51.0],[79.1,50.9],[78.4,50.9],[78.4,51.0],[78.0,51.0],[78.0,51.1],[77.4,51.1],[77.4,51.2],[76.0,51.2],[76.0,51.3],[75.8,51.3],[75.8,51.4],[75.5,51.4],[75.5,51.5],[75.1,51.5],[75.1,51.6],[72.3,51.6],[72.3,51.5],[68.9,51.5],[68.9,51.6],[68.6,51.6],[68.6,51.7],[68.0,51.7],[68.0,51.8],[67.6,51.8],[67.6,51.9],[66.7,51.9],[66.7,52.0],[66.0,52.0],[66.0,52.1],[64.5,52.1],[64.5,52.0],[64.0,52.0],[64.0,51.9],[63.3,51.9],[63.3,51.8],[62.9,51.8],[62.9,51.7],[62.5,51.7],[62.5,51.6],[61.6,51.6],[61.6,51.5],[61.4,51.5],[61.4,51.4],[61.0,51.4],[61.0,51.3],[60.7,51.3],[60.7,51.1],[60.6,51.1],[60.6,51.0],[60.5,51.0],[60.5,50.8],[60.4,50.8],[60.4,50.6],[60.3,50.6],[60.3,50.4],[60.2,50.4],[60.2,50.2],[60.1,50.2],[60.1,50.1],[60.0,50.1]],[[60.0,46.2],[60.5,46.2],[60.5,46.3],[60.6,46.3],[60.6,46.4],[60.5,46.4],[60.5,46.6],[60.6,46.6],[60.6,46.7],[60.8,46.7],[60.8,46.6],[60.9,46.6],[60.9,46.5],[61.2,46.5],[61.2,46.6],[61.3,46.6],[61.3,46.4],[61.2,46.4],[61.2,46.2],[61.1,46.2],[61.1,46.1],[61.0,46.1],[61.0,46.0],[60.9,46.0],[60.9,45.6],[61.0,45.6],[61.0,45.5],[61.1,45.5],[61.1,45.4],[61.2,45.4],[61.2,45.2],[61.3,45.2],[61.3,45.1],[61.4,45.1],[61.4,45.0],[61.4,44.9],[61.3,44.9],[61.3,44.8],[61.1,44.8],[61.1,44.7],[61.0,44.7],[61.0,44.5],[60.9,44.5],[60.9,44.3],[60.8,44.3],[60.8,44.2],[60.6,44.2],[60.6,44.1],[60.3,44.1],[60.3,44.0],[60.2,44.0],[60.2,43.9],[60.1,43.9],[60.1,43.8],[60.0,43.8]],[[60.0,41.8],[60.1,41.8]],[[60.1,41.8],[60.1,41.7]],[[60.1,41.7],[60.4,41.7]],[[60.4,41.7],[60.4,41.6]],[[60.4,41.6],[60.6,41.6]],[[60.6,41.6],[60.6,41.5]],[[60.6,41.5],[60.8,41.5]],[[60.8,41.5],[60.8,41.4]],[[60.8,41.4],[61.1,41.4]],[[61.1,41.4],[61.1,41.3]],[[61.1,41.3],[61.3,41.3]],[[61.3,41.3],[61.3,41.2]],[[61.3,41.2],[61.5,41.2]],[[61.5,41.2],[61.5,41.1]],[[61.5,41.1],[61.9,41.1]],[[61.9,41.1],[61.9,41.0]],[[61.9,41.0],[62.0,41.0]],[[62.0,41.0],[62.0,40.9]],[[62.0,40.9],[62.2,40.9]],[[62.2,40.9],[62.2,40.8]],[[62.2,40.8],[62.7,40.8]],[[62.7,40.8],[62.7,40.9]],[[62.7,40.9],[63.2,40.9]],[[63.2,40.9],[63.2,41.0]],[[63.2,41.0],[63.5,41.0]],[[63.5,41.0],[63.5,41.1]],[[63.5,41.1],[64.1,41.1]],[[64.1,41.1],[64.1,41.2]],[[64.1,41.2],[64.3,41.2]],[[64.3,41.2],[64.3,41.3]],[[64.3,41.3],[64.6,41.3]],[[64.6,41.3],[64.6,41.4]],[[64.6,41.4],[65.0,41.4]],[[65.0,41.4],[65.0,41.5]],[[65.0,41.5],[65.1,41.5]],[[65.1,41.5],[65.1,41.6]],[[65.1,41.6],[66.0,41.6]],[[66.0,41.6],[66.0,41.7]],[[66.0,41.7],[66.6,41.7]],[[66.6,41.7],[66.8,41.7],[66.8,41.8],[67.1,41.8],[67.1,41.9],[67.3,41.9],[67.3,42.0],[67.7,42.0],[67.7,42.2],[67.9,42.2],[67.9,42.3],[68.0,42.3],[68.0,42.5],[69.0,42.5]],[[69.0,42.5],[69.0,42.6]],[[69.0,42.6],[68.9,42.6]],[[68.9,42.6],[68.9,42.8]],[[68.9,42.8],[68.8,42.8]],[[68.8,42.8],[68.8,43.2]],[[68.8,43.2],[68.7,43.2]],[[68.7,43.2],[68.7,43.8]],[[68.7,43.8],[68.6,43.8]],[[68.6,43.8],[68.6,44.3]],[[68.6,44.3],[68.7,44.3]],[[68.7,44.3],[68.7,44.7]],[[68.7,44.7],[68.8,44.7]],[[68.8,44.7],[68.8,44.8]],[[68.8,44.8],[69.4,44.8]],[[69.4,44.8],[69.4,44.9]],[[69.4,44.9],[69.6,44.9]],[[69.6,44.9],[69.6,44.8]],[[69.6,44.8],[69.9,44.8]],[[69.9,44.8],[69.9,44.7]],[[69.9,44.7],[70.5,44.7]],[[70.5,44.7],[70.5,44.6]],[[70.5,44.6],[71.1,44.6]],[[71.1,44.6],[71.1,44.5]],[[71.1,44.5],[71.6,44.5]],[[71.6,44.5],[71.6,44.4]],[[71.6,44.4],[72.8,44.4]],[[72.8,44.4],[72.9,44.4]],[[72.9,44.4],[72.9,44.5]],[[72.9,44.5],[73.0,44.5]],[[73.0,44.5],[73.0,44.6]],[[73.0,44.6],[73.2,44.6]],[[73.2,44.6],[73.2,44.7]],[[73.2,44.7],[73.4,44.7]],[[73.4,44.7],[73.4,44.8]],[[73.4,44.8],[73.6,44.8]],[[73.6,44.8],[73.6,44.9]],[[73.6,44.9],[74.0,44.9]],[[119.4,44.6],[115.8,44.6],[115.8,44.5],[115.6,44.5],[115.6,44.4],[115.3,44.4],[115.3,44.3],[115.1,44.3],[115.1,44.2],[115.0,44.2],[115.0,44.1],[114.8,44.1],[114.8,43.1],[114.9,43.1],[114.9,42.9],[115.0,42.9],[115.0,42.7],[115.1,42.7],[115.1,42.6]],[[115.1,42.6],[115.1,42.5]],[[115.1,42.5],[115.2,42.5]],[[115.2,42.5],[115.2,42.4]],[[115.2,42.4],[115.4,42.4]],[[115.4,42.4],[115.4,42.3]],[[115.4,42.3],[115.5,42.3]],[[115.5,42.3],[115.5,42.2]],[[115.5,42.2],[115.7,42.2]],[[115.7,42.2],[115.7,42.1]],[[115.7,42.1],[115.8,42.1]],[[115.8,42.1],[115.8,42.0]],[[115.8,42.0],[116.0,42.0]],[[116.0,42.0],[116.0,41.9]],[[116.0,41.9],[117.5,41.9]],[[117.5,41.9],[117.5,42.0]],[[117.5,42.0],[117.9,42.0]],[[117.9,42.0],[117.9,42.1]],[[117.9,42.1],[118.2,42.1]],[[118.2,42.1],[118.2,42.2]],[[118.2,42.2],[119.0,42.2]],[[119.0,42.2],[119.0,42.3]],[[119.0,42.3],[119.3,42.3]],[[119.3,42.3],[119.3,42.4]],[[119.3,42.4],[119.6,42.4]],[[119.6,42.4],[119.6,42.5]],[[119.6,42.5],[120.1,42.5]],[[120.1,42.5],[120.1,42.6]],[[120.1,42.6],[120.4,42.6]],[[120.4,42.6],[120.4,42.7]],[[120.4,42.7],[120.8,42.7]],[[120.8,42.7],[120.8,42.8]],[[120.8,42.8],[121.2,42.8]],[[121.2,42.8],[121.2,42.9]],[[121.2,42.9],[121.4,42.9]],[[121.4,42.9],[121.4,43.0]],[[121.4,43.0],[121.6,43.0]],[[121.6,43.0],[121.6,43.1]],[[121.6,43.1],[121.8,43.1]],[[121.8,43.1],[121.8,43.2]],[[121.8,43.2],[122.1,43.2]],[[122.1,43.2],[122.1,43.3]],[[122.1,43.3],[122.4,43.3]],[[122.4,43.3],[122.4,43.4]],[[122.4,43.4],[122.6,43.4]],[[122.6,43.4],[122.6,43.5]],[[122.6,43.5],[122.7,43.5]],[[122.7,43.5],[122.7,43.6]],[[122.7,43.6],[122.8,43.6]],[[122.8,43.6],[122.8,43.8]],[[122.8,43.8],[122.9,43.8]],[[122.9,43.8],[122.9,43.9]],[[122.9,43.9],[122.8,43.9],[122.8,44.0],[122.4,44.0],[122.4,44.1],[121.9,44.1],[121.9,44.2],[121.4,44.2],[121.4,44.3],[121.2,44.3],[121.2,44.4],[120.5,44.4],[120.5,44.5],[119.4,44.5],[119.4,44.6]],[[106.0,11.4],[106.0,12.9]],[[106.0,12.9],[106.0,13.1],[105.3,13.1],[105.3,13.2],[104.1,13.2],[104.1,13.1],[103.8,13.1],[103.8,13.0],[103.5,13.0],[103.5,12.9],[103.1,12.9],[103.1,12.8],[102.7,12.8],[102.7,12.7],[102.5,12.7],[102.5,12.6],[102.4,12.6],[102.4,12.5],[102.3,12.5],[102.3,12.2],[102.7,12.2],[102.7,12.1],[102.8,12.1],[102.8,11.8],[102.9,11.8],[102.9,11.6],[103.0,11.6],[103.0,11.3],[103.1,11.3],[103.1,10.9],[103.4,10.9],[103.4,11.0],[103.6,11.0],[103.6,10.6],[103.7,10.6],[103.7,10.5],[103.8,10.5],[103.8,10.4],[104.0,10.4],[104.0,10.5],[104.2,10.5],[104.2,10.6],[104.3,10.6],[104.3,10.5],[104.4,10.5],[104.4,10.4],[104.5,10.4],[104.5,10.3],[104.7,10.3],[104.7,10.2],[104.9,10.2],[104.9,10.1],[105.0,10.1],[105.0,9.9],[104.9,9.9],[104.9,9.7],[104.8,9.7],[104.8,8.7],[104.9,8.7],[104.9,8.6],[105.1,8.6],[105.1,8.7],[105.2,8.7],[105.2,8.8],[105.3,8.8],[105.3,8.9],[105.4,8.9],[105.4,9.0],[105.5,9.0],[105.5,9.1],[105.6,9.1],[105.6,9.2],[105.8,9.2],[105.8,9.3],[106.1,9.3],[106.1,9.4],[106.2,9.4],[106.2,9.5],[106.3,9.5],[106.3,9.6],[106.5,9.6],[106.5,9.7],[106.6,9.7],[106.6,9.8],[106.7,9.8],[106.7,10.0],[106.8,10.0],[106.8,10.4],[106.9,10.4],[106.9,10.5]],[[106.9,10.5],[106.9,10.6]],[[106.9,10.6],[106.8,10.6]],[[106.8,10.6],[106.8,10.7]],[[106.8,10.7],[106.7,10.7]],[[106.7,10.7],[106.7,10.8]],[[106.7,10.8],[106.6,10.8]],[[106.6,10.8],[106.6,10.9]],[[106.6,10.9],[106.5,10.9]],[[106.5,10.9],[106.5,11.0]],[[106.5,11.0],[106.4,11.0]],[[106.4,11.0],[106.4,11.1]],[[106.4,11.1],[106.3,11.1]],[[106.3,11.1],[106.3,11.2]],[[106.3,11.2],[106.2,11.2]],[[106.2,11.2],[106.2,11.3]],[[106.2,11.3],[106.1,11.3]],[[106.1,11.3],[106.1,11.4]],[[106.1,11.4],[106.0,11.4]],[[105.3,10.7],[105.1,10.7],[105.1,10.8],[105.2,10.8],[105.2,10.9],[105.3,10.9],[105.3,10.7]],[[73.7,15.8],[73.7,15.6],[73.8,15.6],[73.8,15.4],[73.9,15.4],[73.9,15.1],[74.0,15.1],[74.0,15.0],[74.1,15.0],[74.1,14.9],[74.2,14.9],[74.2,14.7],[74.3,14.7],[74.3,14.5],[74.4,14.5],[74.4,14.3],[74.5,14.3],[74.5,14.0],[74.6,14.0],[74.6,13.7],[74.7,13.7],[74.7,13.6]],[[74.7,13.6],[75.0,13.6]],[[75.0,13.6],[75.0,13.5]],[[75.0,13.5],[75.4,13.5]],[[75.4,13.5],[75.4,13.4]],[[75.4,13.4],[75.8,13.4]],[[75.8,13.4],[75.8,13.3]],[[75.8,13.3],[75.9,13.3]],[[75.9,13.3],[75.9,13.2]],[[75.9,13.2],[76.0,13.2]],[[76.0,13.2],[76.0,13.1]],[[76.0,13.1],[76.1,13.1]],[[76.1,13.1],[76.1,13.0]],[[76.1,13.0],[76.2,13.0]],[[76.2,13.0],[76.2,12.9]],[[76.2,12.9],[76.3,12.9]],[[76.3,12.9],[76.3,12.8]],[[76.3,12.8],[76.5,12.8]],[[76.5,12.8],[76.5,12.7]],[[76.5,12.7],[76.6,12.7]],[[76.6,12.7],[76.6,12.6]],[[76.6,12.6],[76.7,12.6]],[[76.7,12.6],[76.7,12.5]],[[76.7,12.5],[76.8,12.5]],[[76.8,12.5],[76.8,12.4]],[[76.8,12.4],[76.9,12.4]],[[76.9,12.4],[76.9,12.3]],[[76.9,12.3],[77.0,12.3]],[[77.0,12.3],[77.0,12.2]],[[77.0,12.2],[77.2,12.2]],[[77.2,12.2],[77.2,12.1]],[[77.2,12.1],[77.3,12.1]],[[77.3,12.1],[77.3,12.0]],[[77.3,12.0],[77.4,12.0]],[[77.4,12.0],[77.4,11.9]],[[77.4,11.9],[77.5,11.9]],[[77.5,11.9],[77.5,11.7]],[[77.5,11.7],[77.7,11.7]],[[77.7,11.7],[77.7,11.6]],[[77.7,11.6],[77.8,11.6]],[[77.8,11.6],[77.8,11.4]],[[77.8,11.4],[77.9,11.4]],[[77.9,11.4],[77.9,11.3]],[[77.9,11.3],[78.0,11.3]],[[78.0,11.3],[78.0,11.2]],[[78.0,11.2],[78.1,11.2]],[[78.1,11.2],[78.1,11.1]],[[78.1,11.1],[78.2,11.1]],[[78.2,11.1],[78.2,10.9]],[[78.2,10.9],[78.4,10.9]],[[78.4,10.9],[78.4,10.8]],[[78.4,10.8],[78.5,10.8]],[[78.5,10.8],[78.5,10.7]],[[78.5,10.7],[78.6,10.7]],[[78.6,10.7],[78.6,10.6]],[[78.6,10.6],[78.8,10.6]],[[78.8,10.6],[78.8,10.5]],[[78.8,10.5],[79.4,10.5]],[[79.4,10.5],[79.4,10.4]],[[79.4,10.4],[79.6,10.4],[79.6,10.3],[79.8,10.3],[79.8,10.4],[79.9,10.4],[79.9,11.5],[79.8,11.5],[79.8,11.9],[79.9,11.9],[79.9,12.2],[80.0,12.2],[80.0,12.3],[80.1,12.3],[80.1,12.5],[80.2,12.5],[80.2,12.7],[80.3,12.7],[80.3,13.1],[80.4,13.1],[80.4,13.6],[80.3,13.6],[80.3,14.0],[80.2,14.0],[80.2,14.9],[80.1,14.9],[80.1,15.4]],[[80.1,15.4],[79.9,15.4]],[[79.9,15.4],[79.9,15.5]],[[79.9,15.5],[79.5,15.5]],[[60.0,25.4],[60.7,25.4],[60.7,25.3],[61.1,25.3],[61.1,25.2],[61.3,25.2],[61.3,25.1],[62.0,25.1],[62.0,25.2],[62.5,25.2],[62.5,25.3],[63.6,25.3],[63.6,25.4],[64.2,25.4],[64.2,25.3],[64.8,25.3],[64.8,25.4],[65.0,25.4],[65.0,25.3],[65.2,25.3],[65.2,25.4],[66.0,25.4],[66.0,25.5],[66.1,25.5]],[[66.1,25.5],[66.1,25.7]],[[66.1,25.7],[66.2,25.7]],[[66.2,25.7],[66.2,25.8]],[[66.2,25.8],[66.3,25.8]],[[66.3,25.8],[66.3,25.9]],[[66.3,25.9],[66.4,25.9]],[[66.4,25.9],[66.4,26.1]],[[66.4,26.1],[66.5,26.1]],[[66.5,26.1],[66.5,26.2]],[[66.5,26.2],[66.6,26.2]],[[66.6,26.2],[66.6,26.3]],[[66.6,26.3],[66.7,26.3]],[[66.7,26.3],[66.7,26.5]],[[66.7,26.5],[66.8,26.5]],[[66.8,26.5],[66.8,26.6]],[[66.8,26.6],[66.9,26.6]],[[66.9,26.6],[66.9,26.8]],[[66.9,26.8],[67.0,26.8]],[[67.0,26.8],[67.0,26.9]],[[67.0,26.9],[67.1,26.9]],[[67.1,26.9],[67.1,27.1]],[[67.1,27.1],[67.2,27.1]],[[67.2,27.1],[67.2,27.3]],[[67.2,27.3],[67.3,27.3]],[[67.3,27.3],[67.3,27.5]],[[67.3,27.5],[67.4,27.5]],[[67.4,27.5],[67.4,27.6]],[[67.4,27.6],[67.5,27.6]],[[67.5,27.6],[67.5,27.8]],[[67.5,27.8],[67.6,27.8]],[[67.6,27.8],[67.6,27.9]],[[67.6,27.9],[67.7,27.9]],[[67.7,27.9],[67.7,28.1]],[[67.7,28.1],[67.8,28.1]],[[67.8,28.1],[67.8,28.2]],[[67.8,28.2],[67.9,28.2]],[[67.9,28.2],[67.9,28.4]],[[67.9,28.4],[68.0,28.4]],[[68.0,28.4],[68.0,28.6]],[[68.0,28.6],[68.1,28.6]],[[68.1,28.6],[68.1,28.7]],[[68.1,28.7],[68.2,28.7]],[[68.2,28.7],[68.2,28.8]],[[68.2,28.8],[68.3,28.8]],[[68.3,28.8],[68.3,29.0]],[[68.3,29.0],[68.4,29.0]],[[68.4,29.0],[68.4,29.1]],[[68.4,29.1],[68.6,29.1]],[[68.6,29.1],[68.6,29.2]],[[68.6,29.2],[68.7,29.2]],[[68.7,29.2],[68.7,29.3]],[[68.7,29.3],[68.8,29.3]],[[68.8,29.3],[68.8,29.4]],[[68.8,29.4],[69.0,29.4]],[[69.0,29.4],[69.0,29.5]],[[69.0,29.5],[69.1,29.5]],[[69.1,29.5],[69.1,29.6]],[[69.1,29.6],[69.1,30.6],[69.0,30.6],[69.0,31.1],[68.9,31.1],[68.9,31.4],[68.8,31.4],[68.8,31.8],[68.7,31.8],[68.7,32.1],[68.6,32.1],[68.6,32.4],[68.5,32.4],[68.5,32.6],[68.4,32.6],[68.4,32.8],[68.3,32.8],[68.3,32.9],[68.2,32.9],[68.2,33.1],[68.1,33.1],[68.1,33.3],[68.0,33.3],[68.0,33.5],[67.9,33.5],[67.9,33.6],[67.8,33.6],[67.8,33.8],[67.7,33.8],[67.7,33.9],[67.6,33.9],[67.6,34.1],[67.5,34.1],[67.5,34.3],[67.4,34.3],[67.4,34.4],[67.3,34.4],[67.3,34.5],[67.2,34.5],[67.2,34.6],[67.1,34.6],[67.1,34.8],[67.0,34.8],[67.0,34.9],[66.9,34.9],[66.9,35.0],[66.8,35.0],[66.8,35.1],[66.7,35.1],[66.7,35.2],[66.6,35.2],[66.6,35.4],[66.5,35.4],[66.5,35.5],[66.4,35.5],[66.4,35.8],[66.3,35.8],[66.3,36.4],[66.2,36.4],[66.2,37.4],[66.3,37.4],[66.3,37.9],[66.4,37.9],[66.4,38.2],[66.5,38.2],[66.5,38.5],[66.6,38.5],[66.6,38.7],[66.7,38.7],[66.7,38.9],[66.8,38.9],[66.8,39.1],[66.9,39.1],[66.9,39.3],[67.0,39.3],[67.0,40.3],[66.9,40.3],[66.9,40.6],[66.8,40.6],[66.8,40.9],[66.7,40.9],[66.7,41.6],[66.6,41.6],[66.6,41.7]],[[112.5,44.9],[112.5,45.0],[112.4,45.0],[112.4,45.1],[112.1,45.1],[112.1,45.2],[111.9,45.2],[111.9,45.3],[111.8,45.3],[111.8,45.4],[111.5,45.4],[111.5,45.5],[111.2,45.5],[111.2,45.6],[111.0,45.6],[111.0,45.7],[110.8,45.7],[110.8,45.8],[110.7,45.8],[110.7,45.9],[110.4,45.9],[110.4,46.0],[110.1,46.0],[110.1,46.1],[109.7,46.1]],[[109.7,46.1],[109.6,46.1]],[[109.6,46.1],[109.6,46.2]],[[109.6,46.2],[109.1,46.2]],[[109.1,46.2],[109.1,46.3]],[[109.1,46.3],[108.6,46.3]],[[108.6,46.3],[108.6,46.4]],[[108.6,46.4],[108.3,46.4]],[[108.3,46.4],[108.3,46.5]],[[108.3,46.5],[108.0,46.5]],[[108.0,46.5],[108.0,46.6]],[[108.0,46.6],[106.8,46.6]],[[106.8,46.6],[106.8,46.5]],[[106.8,46.5],[106.1,46.5]],[[106.1,46.5],[106.1,46.4]],[[106.1,46.4],[105.9,46.4]],[[105.9,46.4],[105.9,46.3]],[[105.9,46.3],[105.5,46.3]],[[105.5,46.3],[105.5,46.2]],[[105.5,46.2],[105.3,46.2]],[[105.3,46.2],[105.3,46.1]],[[105.3,46.1],[105.0,46.1]],[[105.0,46.1],[105.0,46.0]],[[105.0,46.0],[104.9,46.0]],[[104.9,46.0],[104.9,45.9]],[[104.9,45.9],[104.7,45.9]],[[104.7,45.9],[104.7,45.8]],[[104.7,45.8],[104.3,45.8]],[[104.3,45.8],[104.3,45.7]],[[104.3,45.7],[102.8,45.7]],[[102.8,45.7],[102.8,45.8]],[[102.8,45.8],[102.5,45.8]],[[102.5,45.8],[102.5,45.9]],[[102.5,45.9],[102.2,45.9]],[[102.2,45.9],[102.2,46.0]],[[102.2,46.0],[101.7,46.0]],[[101.7,46.0],[101.7,46.1]],[[101.7,46.1],[101.3,46.1]],[[101.3,46.1],[101.3,46.2]],[[101.3,46.2],[100.7,46.2]],[[100.7,46.2],[100.7,46.3]],[[100.7,46.3],[100.1,46.3]],[[100.1,46.3],[100.1,46.4]],[[100.1,46.4],[99.9,46.4]],[[99.9,46.4],[99.9,46.5]],[[99.9,46.5],[99.7,46.5]],[[99.7,46.5],[99.7,46.6]],[[99.7,46.6],[99.5,46.6]],[[99.5,46.6],[99.5,46.7]],[[99.5,46.7],[99.3,46.7]],[[99.3,46.7],[99.3,46.8]],[[99.3,46.8],[99.2,46.8]],[[99.2,46.8],[99.2,46.9]],[[99.2,46.9],[98.9,46.9]],[[98.9,46.9],[98.9,47.0]],[[98.9,47.0],[98.8,47.0]],[[98.8,47.0],[98.8,47.1]],[[98.8,47.1],[98.6,47.1]],[[98.6,47.1],[98.6,47.2]],[[98.6,47.2],[98.4,47.2]],[[98.4,47.2],[98.4,47.3]],[[98.4,47.3],[98.2,47.3]],[[98.2,47.3],[98.2,47.4]],[[98.2,47.4],[98.0,47.4]],[[98.0,47.4],[98.0,47.5]],[[98.0,47.5],[97.1,47.5],[97.1,47.6],[96.7,47.6],[96.7,47.5],[96.2,47.5],[96.2,47.4],[96.0,47.4],[96.0,47.3],[95.9,47.3],[95.9,47.2],[95.8,47.2],[95.8,47.1],[95.7,47.1],[95.7,47.0],[95.5,47.0],[95.5,46.9],[95.4,46.9],[95.4,46.8],[95.2,46.8],[95.2,46.7],[95.1,46.7],[95.1,46.5],[95.0,46.5],[95.0,46.4],[94.9,46.4],[94.9,46.3],[94.8,46.3],[94.8,46.2],[94.7,46.2],[94.7,46.0],[94.6,46.0],[94.6,45.9],[94.5,45.9],[94.5,45.7],[94.4,45.7],[94.4,45.5],[94.3,45.5],[94.3,45.3],[94.2,45.3],[94.2,45.0],[94.2,44.9],[94.1,44.9],[94.1,44.5],[94.2,44.5],[94.2,44.1],[94.3,44.1],[94.3,43.8],[94.4,43.8],[94.4,43.5],[94.5,43.5],[94.5,43.4],[94.6,43.4],[94.6,43.3],[94.7,43.3],[94.7,43.2],[94.8,43.2],[94.8,43.1],[94.9,43.1]],[[94.9,43.1],[96.2,43.1]],[[96.2,43.1],[96.2,43.0]],[[96.2,43.0],[96.8,43.0]],[[96.8,43.0],[96.8,42.9]],[[96.8,42.9],[97.2,42.9]],[[97.2,42.9],[97.2,42.8]],[[97.2,42.8],[97.4,42.8]],[[97.4,42.8],[97.4,42.7]],[[97.4,42.7],[97.6,42.7]],[[97.6,42.7],[97.6,42.6]],[[97.6,42.6],[97.8,42.6]],[[97.8,42.6],[97.8,42.5]],[[97.8,42.5],[98.1,42.5]],[[98.1,42.5],[98.1,42.4]],[[98.1,42.4],[98.4,42.4]],[[98.4,42.4],[98.4,42.3]],[[98.4,42.3],[98.8,42.3]],[[98.8,42.3],[98.8,42.2]],[[98.8,42.2],[99.2,42.2]],[[99.2,42.2],[99.2,42.1]],[[99.2,42.1],[99.4,42.1]],[[99.4,42.1],[99.4,42.0]],[[99.4,42.0],[99.7,42.0]],[[99.7,42.0],[99.7,41.9]],[[99.7,41.9],[99.9,41.9]],[[99.9,41.9],[99.9,41.8]],[[99.9,41.8],[100.2,41.8]],[[100.2,41.8],[100.2,41.7]],[[100.2,41.7],[100.5,41.7]],[[100.5,41.7],[100.5,41.6]],[[100.5,41.6],[100.7,41.6]],[[100.7,41.6],[100.7,41.5]],[[100.7,41.5],[101.0,41.5]],[[101.0,41.5],[101.0,41.4]],[[101.0,41.4],[101.3,41.4]],[[101.3,41.4],[101.3,41.3]],[[101.3,41.3],[101.5,41.3]],[[101.5,41.3],[101.5,41.2]],[[101.5,41.2],[101.6,41.2]],[[101.6,41.2],[101.6,41.1]],[[101.6,41.1],[101.8,41.1]],[[101.8,41.1],[101.8,41.0]],[[101.8,41.0],[101.9,41.0]],[[101.9,41.0],[101.9,40.9]],[[101.9,40.9],[102.2,40.9]],[[102.2,40.9],[102.2,40.8]],[[102.2,40.8],[102.4,40.8]],[[102.4,40.8],[102.4,40.7]],[[102.4,40.7],[102.6,40.7]],[[102.6,40.7],[102.6,40.6]],[[102.6,40.6],[102.7,40.6]],[[102.7,40.6],[102.7,40.5]],[[102.7,40.5],[102.9,40.5]],[[102.9,40.5],[102.9,40.4]],[[102.9,40.4],[103.2,40.4]],[[103.2,40.4],[103.2,40.3]],[[103.2,40.3],[103.7,40.3]],[[103.7,40.3],[103.7,40.2]],[[103.7,40.2],[104.1,40.2]],[[104.1,40.2],[104.1,40.1]],[[104.1,40.1],[104.2,40.1]],[[104.2,40.1],[104.2,40.0]],[[104.2,40.0],[104.4,40.0]],[[104.4,40.0],[104.4,39.9]],[[104.4,39.9],[104.5,39.9]],[[104.5,39.9],[104.5,39.7]],[[104.5,39.7],[104.6,39.7]],[[104.6,39.7],[104.6,39.6]],[[104.6,39.6],[104.7,39.6]],[[104.7,39.6],[104.7,39.4]],[[104.7,39.4],[104.8,39.4]],[[104.8,39.4],[104.8,39.0]],[[104.8,39.0],[104.9,39.0]],[[104.9,39.0],[104.9,38.9]],[[104.9,38.9],[105.0,38.9]],[[105.0,38.9],[105.0,38.8]],[[105.0,38.8],[105.1,38.8]],[[105.1,38.8],[105.1,38.6]],[[105.1,38.6],[105.2,38.6]],[[105.2,38.6],[105.2,38.4]],[[105.2,38.4],[105.3,38.4]],[[105.3,38.4],[105.3,38.2]],[[105.3,38.2],[105.4,38.2]],[[105.4,38.2],[105.4,38.1]],[[105.4,38.1],[105.6,38.1]],[[105.6,38.1],[105.6,38.0]],[[105.6,38.0],[105.9,38.0]],[[105.9,38.0],[105.9,37.9]],[[105.9,37.9],[106.3,37.9]],[[106.3,37.9],[106.3,37.8]],[[106.3,37.8],[106.6,37.8]],[[106.6,37.8],[106.6,37.9]],[[106.6,37.9],[106.8,37.9]],[[106.8,37.9],[106.8,38.0]],[[106.8,38.0],[106.9,38.0]],[[106.9,38.0],[106.9,38.1]],[[106.9,38.1],[107.0,38.1]],[[107.0,38.1],[107.0,38.3]],[[107.0,38.3],[107.1,38.3]],[[107.1,38.3],[107.1,38.4]],[[107.1,38.4],[107.3,38.4]],[[107.3,38.4],[107.3,38.5]],[[107.3,38.5],[107.4,38.5]],[[107.4,38.5],[107.4,38.6]],[[107.4,38.6],[107.5,38.6]],[[107.5,38.6],[107.5,38.7]],[[107.5,38.7],[107.8,38.7]],[[107.8,38.7],[107.8,38.8]],[[107.8,38.8],[108.2,38.8]],[[108.2,38.8],[108.2,38.9]],[[108.2,38.9],[108.3,38.9]],[[108.3,38.9],[108.3,39.0]],[[108.3,39.0],[108.4,39.0]],[[108.4,39.0],[108.4,39.1]],[[108.4,39.1],[108.5,39.1]],[[108.5,39.1],[108.5,39.3]],[[108.5,39.3],[108.6,39.3]],[[108.6,39.3],[108.6,39.5]],[[108.6,39.5],[108.7,39.5]],[[108.7,39.5],[108.7,39.7]],[[108.7,39.7],[108.8,39.7]],[[108.8,39.7],[108.8,39.8]],[[108.8,39.8],[108.9,39.8]],[[108.9,39.8],[108.9,40.0]],[[108.9,40.0],[109.0,40.0]],[[109.0,40.0],[109.0,40.1]],[[109.0,40.1],[109.1,40.1]],[[109.1,40.1],[109.1,40.3]],[[109.1,40.3],[109.2,40.3]],[[109.2,40.3],[109.2,40.4]],[[109.2,40.4],[109.3,40.4]],[[109.3,40.4],[109.3,40.6]],[[109.3,40.6],[109.4,40.6]],[[109.4,40.6],[109.4,40.8]],[[109.4,40.8],[109.6,40.8]],[[109.6,40.8],[109.6,40.9]],[[109.6,40.9],[109.7,40.9]],[[109.7,40.9],[109.7,41.0]],[[109.7,41.0],[109.8,41.0]],[[109.8,41.0],[109.8,41.1]],[[109.8,41.1],[109.9,41.1]],[[109.9,41.1],[109.9,41.2]],[[109.9,41.2],[110.1,41.2]],[[110.1,41.2],[110.1,41.3]],[[110.1,41.3],[110.2,41.3]],[[110.2,41.3],[110.2,41.4]],[[110.2,41.4],[110.4,41.4]],[[110.4,41.4],[110.4,41.5]],[[110.4,41.5],[110.7,41.5]],[[110.7,41.5],[110.7,41.6]],[[110.7,41.6],[110.9,41.6]],[[110.9,41.6],[110.9,41.7]],[[110.9,41.7],[111.1,41.7]],[[111.1,41.7],[111.1,41.8]],[[111.1,41.8],[111.3,41.8]],[[111.3,41.8],[111.3,41.9]],[[111.3,41.9],[111.5,41.9]],[[111.5,41.9],[111.5,42.0]],[[111.5,42.0],[111.7,42.0]],[[111.7,42.0],[111.7,42.1]],[[111.7,42.1],[111.9,42.1]],[[111.9,42.1],[111.9,42.2]],[[111.9,42.2],[112.1,42.2]],[[112.1,42.2],[112.1,42.3]],[[112.1,42.3],[112.3,42.3]],[[112.3,42.3],[112.3,42.4]],[[112.3,42.4],[112.5,42.4]],[[112.5,42.4],[112.5,42.5]],[[112.5,42.5],[112.8,42.5]],[[112.8,42.5],[112.8,42.6]],[[112.8,42.6],[113.0,42.6]],[[113.0,42.6],[113.0,42.7]],[[113.0,42.7],[113.1,42.7]],[[113.1,42.7],[113.1,42.8]],[[113.1,42.8],[113.3,42.8]],[[113.3,42.8],[113.3,42.9]],[[113.3,42.9],[113.4,42.9]],[[113.4,42.9],[113.4,43.0],[113.5,43.0],[113.5,43.2],[113.6,43.2],[113.6,43.3],[113.7,43.3],[113.7,43.5],[113.8,43.5],[113.8,44.0],[113.7,44.0],[113.7,44.2],[113.6,44.2],[113.6,44.3],[113.5,44.3],[113.5,44.4],[113.4,44.4],[113.4,44.5],[113.3,44.5],[113.3,44.6],[113.2,44.6],[113.2,44.7],[113.0,44.7],[113.0,44.8],[112.8,44.8],[112.8,44.9],[112.5,44.9]],[[76.9,46.2],[76.9,46.6]],[[76.9,46.6],[76.8,46.6]],[[76.8,46.6],[76.8,46.8]],[[75.9,46.8],[75.9,46.7],[75.8,46.7],[75.8,46.6],[75.6,46.6],[75.6,46.5],[75.1,46.5],[75.1,46.6],[74.9,46.6],[74.9,46.5],[74.7,46.5],[74.7,46.3],[74.4,46.3],[74.4,46.2],[74.3,46.2],[74.3,46.1],[74.2,46.1],[74.2,46.0],[74.1,46.0],[74.1,45.7],[74.0,45.7],[74.0,45.5],[73.9,45.5],[73.9,45.3],[73.7,45.3]],[[74.0,45.0],[75.7,45.0]],[[75.7,45.0],[75.7,45.1]],[[75.7,45.1],[75.9,45.1]],[[75.9,45.1],[75.9,45.2]],[[75.9,45.2],[76.1,45.2]],[[76.1,45.2],[76.1,45.3]],[[76.1,45.3],[76.2,45.3]],[[76.2,45.3],[76.2,45.4]],[[76.2,45.4],[76.3,45.4]],[[76.3,45.4],[76.3,45.5]],[[76.3,45.5],[76.4,45.5]],[[76.4,45.5],[76.4,45.6]],[[76.4,45.6],[76.5,45.6]],[[76.5,45.6],[76.5,45.8]],[[76.5,45.8],[76.6,45.8]],[[76.6,45.8],[76.6,45.9]],[[76.6,45.9],[76.7,45.9]],[[76.7,45.9],[76.7,46.0]],[[76.7,46.0],[76.8,46.0]],[[76.8,46.0],[76.8,46.2]],[[76.8,46.2],[76.9,46.2]],[[71.5,29.6],[71.5,29.7],[70.4,29.7],[70.4,29.8],[69.4,29.8],[69.4,29.7],[69.2,29.7],[69.2,29.6],[69.1,29.6]],[[66.1,25.5],[66.5,25.5],[66.5,25.4],[66.6,25.4],[66.6,25.3],[66.7,25.3],[66.7,25.0],[66.8,25.0],[66.8,24.9],[67.0,24.9],[67.0,24.8],[67.1,24.8],[67.1,24.7],[67.2,24.7],[67.2,24.5],[67.3,24.5],[67.3,24.2],[67.4,24.2],[67.4,24.1],[67.5,24.1],[67.5,23.9],[67.6,23.9],[67.6,23.8],[68.1,23.8],[68.1,23.7],[68.2,23.7],[68.2,23.6],[68.3,23.6],[68.3,23.5],[68.4,23.5],[68.4,23.4],[68.5,23.4],[68.5,23.3],[68.6,23.3],[68.6,23.2],[68.7,23.2],[68.7,23.1],[68.9,23.1],[68.9,23.0],[69.1,23.0],[69.1,22.9],[69.5,22.9],[69.5,22.8],[69.8,22.8],[69.8,22.9],[70.1,22.9],[70.1,22.8],[70.2,22.8]],[[70.2,22.8],[70.2,23.0]],[[70.2,23.0],[70.3,23.0]],[[70.3,23.0],[70.3,23.1]],[[70.3,23.1],[70.5,23.1]],[[70.5,23.1],[70.5,23.2]],[[70.5,23.2],[70.6,23.2]],[[70.6,23.2],[70.6,23.3]],[[70.6,23.3],[70.7,23.3]],[[70.7,23.3],[70.7,23.4]],[[70.7,23.4],[70.8,23.4]],[[70.8,23.4],[70.8,23.5]],[[70.8,23.5],[71.0,23.5]],[[71.0,23.5],[71.0,23.6]],[[71.0,23.6],[71.1,23.6]],[[71.1,23.6],[71.1,23.8]],[[71.1,23.8],[71.3,23.8]],[[71.3,23.8],[71.3,24.0]],[[71.3,24.0],[71.4,24.0]],[[71.4,24.0],[71.4,24.2]],[[71.4,24.2],[71.5,24.2]],[[71.5,24.2],[71.5,24.4]],[[71.5,24.4],[71.6,24.4]],[[71.6,24.4],[71.6,24.5]],[[71.6,24.5],[71.7,24.5]],[[71.7,24.5],[71.7,24.7]],[[71.7,24.7],[71.8,24.7]],[[71.8,24.7],[71.8,24.8]],[[71.8,24.8],[71.9,24.8]],[[71.9,24.8],[71.9,24.9]],[[71.9,24.9],[72.0,24.9]],[[72.0,24.9],[72.0,25.1]],[[72.0,25.1],[72.1,25.1]],[[72.1,25.1],[72.1,25.3]],[[72.1,25.3],[72.2,25.3]],[[72.2,25.3],[72.2,25.4]],[[72.2,25.4],[72.3,25.4]],[[72.3,25.4],[72.3,25.6]],[[72.3,25.6],[72.4,25.6]],[[72.4,25.6],[72.4,25.7]],[[72.4,25.7],[72.5,25.7]],[[72.5,25.7],[72.5,25.8]],[[72.5,25.8],[72.6,25.8]],[[72.6,25.8],[72.6,26.1]],[[72.6,26.1],[72.7,26.1]],[[72.7,26.1],[72.7,26.2]],[[72.7,26.2],[72.8,26.2]],[[72.8,26.2],[72.8,27.1]],[[72.8,27.1],[72.7,27.1]],[[72.7,27.1],[72.7,27.9]],[[72.7,27.9],[72.8,27.9]],[[72.8,27.9],[72.8,28.4]],[[72.8,28.4],[72.7,28.4]],[[72.7,28.4],[72.7,28.6]],[[72.7,28.6],[72.6,28.6]],[[72.6,28.6],[72.6,28.8]],[[72.6,28.8],[72.5,28.8]],[[72.5,28.8],[72.5,29.0]],[[72.5,29.0],[72.4,29.0]],[[72.4,29.0],[72.4,29.1]],[[72.4,29.1],[72.3,29.1]],[[72.3,29.1],[72.3,29.2]],[[72.3,29.2],[72.3,29.3],[72.2,29.3],[72.2,29.4],[72.1,29.4],[72.1,29.5],[72.0,29.5],[72.0,29.6],[71.5,29.6]],[[67.7,24.1],[67.6,24.1],[67.6,24.2],[67.7,24.2],[67.7,24.3],[67.9,24.3],[67.9,24.0],[67.7,24.0],[67.7,24.1]],[[99.4,39.4],[99.4,39.5]],[[99.4,39.5],[98.8,39.5]],[[98.8,39.5],[98.8,39.6]],[[98.8,39.6],[98.7,39.6]],[[98.7,39.6],[98.7,39.5]],[[98.7,39.5],[98.5,39.5]],[[98.5,39.5],[98.5,39.4],[98.4,39.4],[98.4,39.1],[98.5,39.1],[98.5,39.0],[98.6,39.0],[98.6,38.9],[98.7,38.9],[98.7,38.8],[98.8,38.8],[98.8,38.7],[98.9,38.7],[98.9,38.6],[99.1,38.6],[99.1,38.5],[99.3,38.5],[99.3,38.4],[99.4,38.4],[99.4,38.3],[99.7,38.3],[99.7,38.2],[100.0,38.2],[100.0,38.1],[100.2,38.1],[100.2,38.0],[100.4,38.0],[100.4,37.9],[100.5,37.9],[100.5,37.8],[100.6,37.8],[100.6,37.7],[100.7,37.7],[100.7,37.6],[100.9,37.6],[100.9,37.5],[101.0,37.5],[101.0,37.4],[101.1,37.4],[101.1,37.3],[101.3,37.3],[101.3,37.2],[101.5,37.2],[101.5,37.1],[101.6,37.1],[101.6,37.0],[101.7,37.0],[101.7,36.8],[101.8,36.8],[101.8,36.7],[101.9,36.7],[101.9,36.6],[102.0,36.6],[102.0,36.5],[102.1,36.5],[102.1,36.4],[102.3,36.4],[102.3,36.3],[102.4,36.3],[102.4,36.2],[102.5,36.2],[102.5,36.1],[102.6,36.1],[102.6,36.0],[102.7,36.0],[102.7,35.8],[102.9,35.8],[102.9,35.7],[103.0,35.7],[103.0,35.6],[103.1,35.6],[103.1,35.5],[103.3,35.5],[103.3,35.4],[103.4,35.4],[103.4,35.3],[103.6,35.3],[103.6,35.2],[104.0,35.2],[104.0,35.1],[104.6,35.1],[104.6,35.2],[104.7,35.2]],[[104.7,35.2],[104.7,35.6]],[[104.7,35.6],[104.6,35.6]],[[104.6,35.6],[104.6,35.7]],[[104.6,35.7],[104.5,35.7]],[[104.5,35.7],[104.5,35.8]],[[104.5,35.8],[104.4,35.8]],[[104.4,35.8],[104.4,36.2]],[[104.4,36.2],[104.3,36.2]],[[104.3,36.2],[104.3,36.5]],[[104.3,36.5],[104.2,36.5]],[[104.2,36.5],[104.2,36.7]],[[104.2,36.7],[104.1,36.7]],[[104.1,36.7],[104.1,36.8]],[[104.1,36.8],[104.0,36.8]],[[104.0,36.8],[104.0,37.0]],[[104.0,37.0],[103.9,37.0]],[[103.9,37.0],[103.9,37.1]],[[103.9,37.1],[103.8,37.1]],[[103.8,37.1],[103.8,37.3]],[[103.8,37.3],[103.7,37.3]],[[103.7,37.3],[103.7,37.4]],[[103.7,37.4],[103.6,37.4]],[[103.6,37.4],[103.6,37.6]],[[103.6,37.6],[103.5,37.6]],[[103.5,37.6],[103.5,37.7]],[[103.5,37.7],[103.4,37.7]],[[103.4,37.7],[103.4,37.8]],[[103.4,37.8],[103.3,37.8]],[[103.3,37.8],[103.3,37.9]],[[103.3,37.9],[103.2,37.9]],[[103.2,37.9],[103.2,38.0]],[[103.2,38.0],[103.1,38.0]],[[103.1,38.0],[103.1,38.1]],[[103.1,38.1],[103.0,38.1]],[[103.0,38.1],[103.0,38.2]],[[103.0,38.2],[102.8,38.2]],[[102.8,38.2],[102.8,38.4]],[[102.8,38.4],[102.6,38.4]],[[102.6,38.4],[102.6,38.5]],[[102.6,38.5],[102.4,38.5]],[[102.4,38.5],[102.4,38.6]],[[102.4,38.6],[102.2,38.6]],[[102.2,38.6],[102.2,38.7]],[[102.2,38.7],[101.7,38.7]],[[101.7,38.7],[101.7,38.8]],[[101.7,38.8],[101.5,38.8]],[[101.5,38.8],[101.5,38.9]],[[101.5,38.9],[101.2,38.9]],[[101.2,38.9],[101.2,39.0]],[[101.2,39.0],[101.0,39.0]],[[101.0,39.0],[101.0,39.1]],[[101.0,39.1],[100.6,39.1]],[[100.6,39.1],[100.6,39.2]],[[100.6,39.2],[100.3,39.2]],[[100.3,39.2],[100.3,39.3]],[[100.3,39.3],[99.9,39.3]],[[99.9,39.3],[99.9,39.4]],[[99.9,39.4],[99.4,39.4]],[[125.6,43.7],[125.6,43.8],[125.1,43.8],[125.1,43.9],[124.7,43.9]],[[124.7,43.9],[124.7,42.8]],[[124.7,42.8],[124.6,42.8]],[[124.6,42.8],[124.6,42.1]],[[124.6,42.1],[124.5,42.1]],[[124.5,42.1],[124.5,41.9]],[[124.5,41.9],[124.4,41.9]],[[124.4,41.9],[124.4,41.5]],[[124.4,41.5],[124.5,41.5]],[[124.5,41.5],[124.5,41.4]],[[124.5,41.4],[124.6,41.4]],[[124.6,41.4],[124.6,41.1]],[[124.6,41.1],[124.7,41.1]],[[124.7,41.1],[124.7,41.0]],[[124.7,41.0],[124.8,41.0]],[[124.8,41.0],[124.8,40.9]],[[124.8,40.9],[124.9,40.9]],[[124.9,40.9],[124.9,40.8]],[[124.9,40.8],[125.0,40.8]],[[125.0,40.8],[125.0,40.7]],[[125.0,40.7],[125.1,40.7]],[[125.1,40.7],[125.1,40.6]],[[125.1,40.6],[125.2,40.6]],[[125.2,40.6],[125.2,40.5]],[[125.2,40.5],[125.3,40.5]],[[125.3,40.5],[125.3,40.3]],[[125.3,40.3],[125.4,40.3]],[[125.4,40.3],[125.4,40.1]],[[125.4,40.1],[125.5,40.1]],[[125.5,40.1],[125.5,40.0]],[[125.5,40.0],[125.6,40.0]],[[125.6,40.0],[125.6,39.8]],[[125.6,39.8],[125.7,39.8]],[[125.7,39.8],[125.7,39.6]],[[125.7,39.6],[125.8,39.6]],[[125.8,39.6],[125.8,39.5]],[[125.8,39.5],[125.9,39.5]],[[125.9,39.5],[125.9,39.3]],[[125.9,39.3],[126.0,39.3]],[[126.0,39.3],[126.0,39.1]],[[126.0,39.1],[126.1,39.1]],[[126.1,39.1],[126.1,38.9]],[[126.1,38.9],[126.2,38.9]],[[126.2,38.9],[126.2,39.0]],[[126.2,39.0],[126.8,39.0]],[[126.8,39.0],[126.8,38.9]],[[126.8,38.9],[126.9,38.9]],[[126.9,38.9],[126.9,38.8]],[[126.9,38.8],[127.1,38.8]],[[127.1,38.8],[127.1,38.7]],[[127.1,38.7],[127.2,38.7]],[[127.2,38.7],[127.2,38.5]],[[127.2,38.5],[127.3,38.5]],[[127.3,38.5],[127.3,38.4]],[[127.3,38.4],[127.4,38.4]],[[127.4,38.4],[127.4,38.2]],[[127.4,38.2],[127.5,38.2]],[[127.5,38.2],[127.5,38.0]],[[127.5,38.0],[127.6,38.0]],[[127.6,38.0],[127.6,37.7]],[[129.1,37.7],[129.1,37.8],[129.0,37.8],[129.0,37.9],[128.9,37.9],[128.9,38.0],[128.8,38.0],[128.8,38.1],[128.7,38.1],[128.7,38.3],[128.6,38.3],[128.6,38.5],[128.5,38.5],[128.5,38.6],[128.4,38.6],[128.4,38.7],[128.3,38.7],[128.3,38.8],[128.2,38.8],[128.2,38.9],[128.1,38.9],[128.1,39.0],[127.9,39.0],[127.9,39.1],[127.8,39.1],[127.8,39.2],[127.7,39.2],[127.7,39.3],[127.6,39.3],[127.6,39.8],[127.7,39.8],[127.7,39.9],[127.9,39.9],[127.9,40.0],[128.3,40.0],[128.3,40.1],[128.5,40.1],[128.5,40.2],[128.6,40.2],[128.6,40.3],[128.8,40.3],[128.8,40.4],[128.9,40.4],[128.9,40.5],[129.1,40.5],[129.1,40.6],[129.2,40.6],[129.2,40.7],[129.4,40.7],[129.4,40.8],[129.6,40.8],[129.6,40.9],[129.7,40.9],[129.7,41.0],[129.8,41.0],[129.8,41.8],[129.9,41.8],[129.9,41.9],[130.0,41.9],[130.0,42.0],[130.1,42.0],[130.1,42.1],[130.2,42.1],[130.2,42.2],[130.4,42.2],[130.4,42.3],[130.5,42.3],[130.5,42.4],[130.6,42.4],[130.6,42.5],[130.9,42.5],[130.9,42.6],[130.8,42.6],[130.8,42.7],[130.7,42.7],[130.7,42.8],[130.6,42.8],[130.6,42.9],[130.5,42.9],[130.5,43.0],[130.3,43.0],[130.3,43.1],[130.0,43.1],[130.0,43.2],[129.6,43.2],[129.6,43.3],[127.2,43.3],[127.2,43.4],[126.8,43.4],[126.8,43.5],[126.2,43.5],[126.2,43.6],[125.9,43.6],[125.9,43.7],[125.6,43.7]],[[69.0,42.5],[69.0,42.4],[69.1,42.4],[69.1,42.3],[69.2,42.3],[69.2,42.2],[69.3,42.2],[69.3,42.0],[69.4,42.0],[69.4,41.9],[69.5,41.9],[69.5,41.8],[69.7,41.8],[69.7,41.7],[69.8,41.7],[69.8,41.6],[69.9,41.6],[69.9,41.5],[70.0,41.5],[70.0,41.4],[70.1,41.4],[70.1,41.3],[70.2,41.3],[70.2,41.1],[70.3,41.1],[70.3,41.0],[70.4,41.0],[70.4,40.8],[70.5,40.8],[70.5,40.5],[70.6,40.5],[70.6,40.3],[70.7,40.3],[70.7,40.2],[70.8,40.2],[70.8,40.0],[70.9,40.0],[70.9,39.8],[71.0,39.8],[71.0,39.7],[71.1,39.7],[71.1,39.5],[71.2,39.5],[71.2,39.4],[71.3,39.4],[71.3,39.2],[71.4,39.2],[71.4,39.0],[71.5,39.0],[71.5,38.9],[71.7,38.9],[71.7,38.8],[72.7,38.8],[72.7,38.9],[72.9,38.9],[72.9,39.0],[73.0,39.0],[73.0,39.1],[73.1,39.1],[73.1,39.2],[73.5,39.2],[73.5,39.3],[73.9,39.3],[73.9,39.4],[74.1,39.4],[74.1,39.5],[74.2,39.5],[74.2,39.7],[74.3,39.7],[74.3,40.0],[74.4,40.0],[74.4,40.4],[74.3,40.4],[74.3,40.8],[74.2,40.8],[74.2,41.1],[74.1,41.1],[74.1,41.3],[74.0,41.3],[74.0,41.5],[73.9,41.5],[73.9,41.6],[73.8,41.6],[73.8,41.7],[73.7,41.7],[73.7,41.8],[73.6,41.8],[73.6,41.9],[73.5,41.9],[73.5,42.0],[73.4,42.0],[73.4,42.2],[73.3,42.2],[73.3,42.5]],[[73.3,42.5],[72.8,42.5]],[[72.8,42.5],[72.8,43.2]],[[72.8,43.2],[72.7,43.2]],[[72.7,43.2],[72.7,43.6]],[[72.7,43.6],[72.8,43.6]],[[72.8,43.6],[72.8,44.4]],[[120.5,34.0],[120.4,34.0]],[[120.4,34.0],[120.0,34.0]],[[120.0,34.0],[120.0,33.9]],[[120.0,33.9],[119.9,33.9]],[[119.9,33.9],[119.9,33.8]],[[119.9,33.8],[119.8,33.8]],[[119.8,33.8],[119.8,33.7]],[[119.8,33.7],[119.6,33.7]],[[119.6,33.7],[119.6,33.6]],[[119.6,33.6],[119.5,33.6]],[[119.5,33.6],[119.5,33.5]],[[119.5,33.5],[119.4,33.5]],[[119.4,33.5],[119.4,33.4]],[[119.4,33.4],[119.3,33.4]],[[119.3,33.4],[119.3,33.3]],[[119.3,33.3],[119.2,33.3]],[[119.2,33.3],[119.2,33.2]],[[119.2,33.2],[119.0,33.2]],[[119.0,33.2],[119.0,33.1]],[[119.0,33.1],[118.9,33.1]],[[118.9,33.1],[118.9,33.0]],[[118.9,33.0],[118.8,33.0]],[[118.8,33.0],[118.8,32.9]],[[118.8,32.9],[118.7,32.9]],[[118.7,32.9],[118.7,32.8]],[[118.7,32.8],[118.5,32.8]],[[118.5,32.8],[118.5,32.7]],[[118.5,32.7],[118.2,32.7]],[[118.2,32.7],[118.2,32.6]],[[118.2,32.6],[118.0,32.6]],[[118.0,32.6],[118.0,32.5]],[[118.0,32.5],[117.8,32.5]],[[117.8,32.5],[117.8,32.4]],[[117.8,32.4],[117.6,32.4]],[[117.6,32.4],[117.6,32.3]],[[117.6,32.3],[117.5,32.3]],[[117.5,32.3],[117.5,32.2]],[[117.5,32.2],[117.4,32.2]],[[117.4,32.2],[117.4,32.1]],[[117.4,32.1],[117.3,32.1]],[[117.3,32.1],[117.3,32.0]],[[117.3,32.0],[117.1,32.0]],[[117.1,32.0],[117.1,31.9]],[[117.1,31.9],[117.0,31.9]],[[117.0,31.9],[117.0,31.8]],[[117.0,31.8],[116.9,31.8]],[[116.9,31.8],[116.9,31.7]],[[116.9,31.7],[116.7,31.7]],[[116.7,31.7],[116.7,31.6]],[[116.7,31.6],[116.6,31.6]],[[116.6,31.6],[116.6,31.5]],[[116.6,31.5],[116.4,31.5]],[[116.4,31.5],[116.4,31.4]],[[116.4,31.4],[114.6,31.4]],[[114.6,31.4],[114.6,31.3]],[[114.6,31.3],[113.1,31.3]],[[113.1,31.3],[113.1,31.2]],[[113.1,31.2],[112.6,31.2]],[[112.6,31.2],[112.6,31.3]],[[112.6,31.3],[112.5,31.3]],[[112.5,31.3],[112.5,31.2]],[[112.5,31.2],[112.2,31.2]],[[112.2,31.2],[112.2,31.3]],[[112.2,31.3],[111.6,31.3]],[[111.6,31.3],[111.6,31.4]],[[111.6,31.4],[110.7,31.4]],[[110.7,31.4],[110.7,31.5]],[[110.7,31.5],[109.2,31.5]],[[109.2,31.5],[109.2,31.4]],[[109.2,31.4],[108.8,31.4]],[[108.8,31.4],[108.8,31.3]],[[108.8,31.3],[108.6,31.3]],[[108.6,31.3],[108.6,31.2]],[[108.6,31.2],[108.4,31.2]],[[108.4,31.2],[108.4,31.1]],[[108.4,31.1],[108.2,31.1]],[[108.2,31.1],[108.2,31.0]],[[108.2,31.0],[107.9,31.0]],[[107.9,31.0],[107.9,30.9]],[[107.9,30.9],[107.7,30.9]],[[107.7,30.9],[107.7,30.8]],[[107.7,30.8],[107.5,30.8]],[[107.5,30.8],[107.5,30.7]],[[107.5,30.7],[107.3,30.7]],[[107.3,30.7],[107.3,30.6]],[[107.3,30.6],[107.2,30.6]],[[107.2,30.6],[107.2,30.5]],[[107.2,30.5],[107.1,30.5]],[[107.1,30.5],[107.1,30.4]],[[107.1,30.4],[106.9,30.4]],[[106.9,30.4],[106.9,30.3]],[[106.9,30.3],[106.8,30.3]],[[106.8,30.3],[106.8,30.2]],[[106.8,30.2],[106.6,30.2]],[[106.6,30.2],[106.6,30.1]],[[106.6,30.1],[106.4,30.1]],[[106.4,30.1],[106.4,30.0]],[[106.4,30.0],[106.2,30.0]],[[106.2,30.0],[106.2,29.9]],[[106.2,29.9],[105.8,29.9]],[[105.8,29.9],[105.8,29.8]],[[105.8,29.8],[104.7,29.8]],[[104.7,29.8],[104.7,29.9]],[[104.7,29.9],[104.5,29.9]],[[104.5,29.9],[104.4,29.9],[104.4,29.7],[104.3,29.7],[104.3,29.6],[104.2,29.6],[104.2,29.5],[104.1,29.5],[104.1,29.3],[104.0,29.3],[104.0,29.2],[103.9,29.2],[103.9,29.1],[103.8,29.1],[103.8,29.0],[103.7,29.0],[103.7,28.9],[103.6,28.9],[103.6,28.8],[103.5,28.8],[103.5,28.7],[103.3,28.7],[103.3,28.6],[103.2,28.6],[103.2,28.5],[103.1,28.5],[103.1,28.4],[103.0,28.4],[103.0,28.3],[102.9,28.3],[102.9,28.2],[102.7,28.2],[102.7,28.1],[102.6,28.1],[102.6,28.0],[102.5,28.0],[102.5,27.9],[102.3,27.9],[102.3,27.8],[102.2,27.8],[102.2,27.7],[102.1,27.7],[102.1,27.6],[102.0,27.6],[102.0,27.4],[101.9,27.4],[101.9,27.3],[101.8,27.3],[101.8,27.2],[101.7,27.2],[101.7,27.1],[101.6,27.1],[101.6,26.9],[101.5,26.9],[101.5,26.8],[101.4,26.8],[101.4,26.7],[101.3,26.7],[101.3,26.6],[101.2,26.6],[101.2,26.5],[101.1,26.5],[101.1,26.4],[101.0,26.4],[101.0,26.3],[100.9,26.3],[100.9,26.1],[100.8,26.1],[100.8,25.3],[100.9,25.3],[100.9,25.1],[101.0,25.1],[101.0,24.8],[101.1,24.8],[101.1,24.6],[101.2,24.6],[101.2,24.4],[101.3,24.4],[101.3,24.3],[101.4,24.3],[101.4,24.1],[101.5,24.1],[101.5,24.0],[101.6,24.0],[101.6,23.8],[101.8,23.8],[101.8,23.7],[101.9,23.7],[101.9,23.6],[102.0,23.6],[102.0,23.5],[102.1,23.5],[102.1,23.4],[102.2,23.4],[102.2,23.3],[102.4,23.3],[102.4,23.2],[102.5,23.2],[102.5,23.1],[102.6,23.1],[102.6,23.0],[102.7,23.0],[102.7,22.9],[102.8,22.9],[102.8,22.8],[102.9,22.8],[102.9,22.7],[103.0,22.7],[103.0,22.3],[103.1,22.3],[103.1,21.5],[103.2,21.5],[103.2,21.3],[103.3,21.3],[103.3,20.8],[103.4,20.8],[103.4,20.5],[103.5,20.5],[103.5,20.4],[103.7,20.4],[103.7,20.0],[103.8,20.0],[103.8,19.8],[103.9,19.8],[103.9,19.4],[104.0,19.4],[104.0,19.1],[104.1,19.1],[104.1,18.8],[104.2,18.8],[104.2,18.6],[104.3,18.6],[104.3,17.6],[104.4,17.6],[104.4,17.3],[104.5,17.3],[104.5,17.1],[104.6,17.1],[104.6,16.9],[104.7,16.9],[104.7,16.8],[104.8,16.8],[104.8,16.6],[104.9,16.6],[104.9,16.5],[105.0,16.5],[105.0,16.4],[105.1,16.4],[105.1,16.3],[105.2,16.3],[105.2,16.2],[105.4,16.2],[105.4,16.1],[105.6,16.1],[105.6,16.0],[105.8,16.0]],[[105.8,16.0],[106.6,16.0]],[[106.6,16.0],[106.6,16.1]],[[106.6,16.1],[106.8,16.1]],[[106.8,16.1],[106.8,16.2]],[[106.8,16.2],[107.0,16.2]],[[107.0,16.2],[107.0,16.3]],[[107.0,16.3],[107.2,16.3]],[[107.2,16.3],[107.2,16.4]],[[107.2,16.4],[107.3,16.4]],[[107.3,16.4],[107.3,16.5]],[[107.3,16.5],[107.4,16.5]],[[107.4,16.5],[107.4,16.6]],[[107.4,16.6],[107.5,16.6]],[[107.5,16.6],[107.5,16.7]],[[107.5,16.7],[107.5,16.8],[107.4,16.8],[107.4,16.9],[107.3,16.9],[107.3,17.0],[107.2,17.0],[107.2,17.1],[107.1,17.1],[107.1,17.2],[107.0,17.2],[107.0,17.3],[106.9,17.3],[106.9,17.4],[106.8,17.4],[106.8,17.5],[106.7,17.5],[106.7,17.6],[106.6,17.6],[106.6,17.8],[106.5,17.8],[106.5,18.2],[106.4,18.2],[106.4,18.3],[106.2,18.3],[106.2,18.4],[106.1,18.4],[106.1,18.5],[106.0,18.5],[106.0,18.6],[105.9,18.6],[105.9,18.7],[105.8,18.7],[105.8,18.9],[105.7,18.9],[105.7,19.1],[105.8,19.1],[105.8,19.3],[105.9,19.3],[105.9,19.8],[106.0,19.8],[106.0,19.9],[106.1,19.9],[106.1,20.0],[106.2,20.0],[106.2,20.1],[106.3,20.1],[106.3,20.2],[106.4,20.2],[106.4,20.3],[106.5,20.3],[106.5,20.4],[106.6,20.4],[106.6,20.6],[106.7,20.6],[106.7,20.7],[106.9,20.7],[106.9,20.8],[107.1,20.8],[107.1,20.9],[107.5,20.9],[107.5,21.0],[107.6,21.0],[107.6,21.1],[107.7,21.1],[107.7,21.3],[107.8,21.3],[107.8,21.4],[108.0,21.4],[108.0,21.5],[108.2,21.5],[108.2,21.6],[108.5,21.6],[108.5,21.7],[109.0,21.7],[109.0,21.6],[109.1,21.6],[109.1,21.5],[109.7,21.5],[109.7,20.7],[109.8,20.7],[109.8,20.5],[109.9,20.5],[109.9,20.4],[110.0,20.4],[110.0,20.3],[110.1,20.3],[110.1,20.2],[110.0,20.2],[110.0,20.1],[109.6,20.1],[109.6,20.0],[109.3,20.0],[109.3,19.9],[109.2,19.9],[109.2,19.8],[109.1,19.8],[109.1,19.7],[109.0,19.7],[109.0,19.6],[108.9,19.6],[108.9,19.5],[108.8,19.5],[108.8,19.4],[108.7,19.4],[108.7,19.3],[108.6,19.3],[108.6,18.9],[108.7,18.9],[108.7,18.6],[108.8,18.6],[108.8,18.5],[108.9,18.5],[108.9,18.4],[109.2,18.4],[109.2,18.3],[109.5,18.3],[109.5,18.2],[109.7,18.2],[109.7,18.3],[109.8,18.3],[109.8,18.4],[110.0,18.4],[110.0,18.5],[110.1,18.5],[110.1,18.6],[110.2,18.6],[110.2,18.7],[110.5,18.7],[110.5,18.8],[110.6,18.8],[110.6,19.3],[110.7,19.3],[110.7,19.4],[110.8,19.4],[110.8,19.5],[110.9,19.5],[110.9,19.6],[111.0,19.6],[111.0,20.0],[110.9,20.0],[110.9,20.1],[110.8,20.1],[110.8,20.2],[110.5,20.2],[110.5,21.0],[110.6,21.0],[110.6,21.2],[110.7,21.2],[110.7,21.3],[110.8,21.3],[110.8,21.4],[110.9,21.4],[110.9,21.5],[111.5,21.5],[111.5,21.6],[111.9,21.6],[111.9,21.7],[112.9,21.7],[112.9,21.8],[113.0,21.8],[113.0,21.9],[113.2,21.9],[113.2,22.0],[113.5,22.0],[113.5,22.1],[113.6,22.1],[113.6,22.6],[113.9,22.6],[113.9,22.2],[114.0,22.2],[114.0,22.1],[114.2,22.1],[114.2,22.2],[114.3,22.2],[114.3,22.3],[114.4,22.3],[114.4,22.4],[114.5,22.4],[114.5,22.5],[114.7,22.5],[114.7,22.6],[115.0,22.6],[115.0,22.7],[115.1,22.7],[115.1,22.8],[116.0,22.8],[116.0,22.9],[116.2,22.9],[116.2,23.0],[116.5,23.0],[116.5,23.1],[116.6,23.1],[116.6,23.2],[116.7,23.2],[116.7,23.3],[116.8,23.3],[116.8,23.4],[116.9,23.4],[116.9,23.5],[117.3,23.5],[117.3,23.6],[117.4,23.6],[117.4,23.7],[117.5,23.7],[117.5,23.8],[117.6,23.8],[117.6,23.9],[117.7,23.9],[117.7,24.0],[117.9,24.0],[117.9,24.1],[118.0,24.1],[118.0,24.2],[118.1,24.2],[118.1,24.3],[118.2,24.3],[118.2,24.4],[118.4,24.4],[118.4,24.5],[118.5,24.5],[118.5,24.6],[118.6,24.6],[118.6,24.7],[118.8,24.7],[118.8,24.8],[118.9,24.8],[118.9,25.0],[119.0,25.0],[119.0,25.1],[119.1,25.1],[119.1,25.2],[119.3,25.2],[119.3,25.3],[119.4,25.3],[119.4,25.4],[119.8,25.4],[119.8,25.5],[119.9,25.5],[119.9,25.7],[119.8,25.7],[119.8,25.8],[119.7,25.8],[119.7,26.2],[119.8,26.2],[119.8,26.3],[119.9,26.3],[119.9,26.5],[120.0,26.5],[120.0,26.6],[120.1,26.6],[120.1,26.7],[120.2,26.7],[120.2,26.9],[120.3,26.9],[120.3,27.0],[120.4,27.0],[120.4,27.2],[120.5,27.2],[120.5,27.3],[120.6,27.3],[120.6,27.4],[120.7,27.4],[120.7,27.8],[120.8,27.8],[120.8,27.9],[121.2,27.9],[121.2,28.0],[121.3,28.0],[121.3,28.2],[121.4,28.2],[121.4,28.3],[121.6,28.3],[121.6,28.4],[121.7,28.4],[121.7,28.7],[121.8,28.7],[121.8,29.0],[121.9,29.0],[121.9,29.2],[122.0,29.2],[122.0,29.6],[122.1,29.6],[122.1,29.7],[122.3,29.7],[122.3,29.8],[122.4,29.8],[122.4,30.2],[122.3,30.2],[122.3,30.3],[121.9,30.3],[121.9,30.2],[121.5,30.2],[121.5,30.3],[121.4,30.3],[121.4,30.4],[121.2,30.4],[121.2,30.5],[121.1,30.5],[121.1,30.6],[121.2,30.6],[121.2,30.7],[121.4,30.7],[121.4,30.8],[121.5,30.8],[121.5,30.9],[121.8,30.9],[121.8,31.0],[121.9,31.0],[121.9,31.2],[121.8,31.2],[121.8,31.5],[121.9,31.5],[121.9,31.7],[122.0,31.7],[122.0,31.9],[121.9,31.9],[121.9,32.0],[121.8,32.0],[121.8,32.1],[121.7,32.1],[121.7,32.2],[121.5,32.2],[121.5,32.3],[121.4,32.3],[121.4,32.5],[121.3,32.5],[121.3,32.6],[121.1,32.6],[121.1,32.7],[121.0,32.7],[121.0,33.0],[120.9,33.0],[120.9,33.1],[120.8,33.1],[120.8,33.3],[120.7,33.3],[120.7,33.5],[120.6,33.5],[120.6,33.8],[120.5,33.8],[120.5,34.0]],[[116.0,29.2],[116.0,29.4],[116.2,29.4],[116.2,29.2],[116.0,29.2]],[[116.4,29.0],[116.4,29.2],[116.5,29.2],[116.5,29.0],[116.4,29.0]],[[74.7,13.6],[74.7,13.3],[74.8,13.3],[74.8,12.8],[74.9,12.8],[74.9,12.6],[75.0,12.6],[75.0,12.4],[75.1,12.4],[75.1,12.2],[75.2,12.2],[75.2,12.0],[75.3,12.0],[75.3,11.9],[75.4,11.9],[75.4,11.8],[75.5,11.8],[75.5,11.7],[75.6,11.7],[75.6,11.5],[75.7,11.5],[75.7,11.3],[75.8,11.3],[75.8,11.1],[75.9,11.1],[75.9,10.8],[76.0,10.8],[76.0,10.5],[76.1,10.5],[76.1,10.3],[76.2,10.3],[76.2,9.9],[76.3,9.9],[76.3,9.5],[76.4,9.5],[76.4,9.2],[76.5,9.2],[76.5,9.0],[76.6,9.0],[76.6,8.9],[76.7,8.9],[76.7,8.8],[76.8,8.8],[76.8,8.7],[76.9,8.7],[76.9,8.5],[77.0,8.5],[77.0,8.4],[77.1,8.4],[77.1,8.3],[77.2,8.3],[77.2,8.2],[77.8,8.2],[77.8,8.3],[78.0,8.3],[78.0,8.4],[78.1,8.4],[78.1,8.5],[78.2,8.5],[78.2,8.9],[78.3,8.9],[78.3,9.1],[78.4,9.1],[78.4,9.2],[78.8,9.2],[78.8,9.3],[78.9,9.3],[78.9,9.4],[79.0,9.4],[79.0,9.8],[79.1,9.8],[79.1,9.9],[79.2,9.9],[79.2,10.0],[79.3,10.0],[79.3,10.3],[79.4,10.3],[79.4,10.4]],[[126.1,38.9],[126.1,38.7]],[[126.1,38.7],[126.0,38.7]],[[126.0,38.7],[126.0,38.3]],[[126.0,38.3],[125.9,38.3]],[[125.9,38.3],[125.9,38.2]],[[125.9,38.2],[125.8,38.2]],[[125.8,38.2],[125.8,37.9]],[[125.8,37.9],[126.0,37.9],[126.0,37.8],[126.3,37.8],[126.3,37.7],[126.4,37.7],[126.4,37.4],[126.5,37.4],[126.5,37.2],[126.4,37.2],[126.4,37.1],[126.3,37.1],[126.3,37.0],[126.2,37.0],[126.2,36.9],[126.1,36.9],[126.1,36.7],[126.2,36.7],[126.2,36.6],[126.3,36.6],[126.3,36.5],[126.4,36.5],[126.4,36.4],[126.5,36.4],[126.5,36.2],[126.6,36.2],[126.6,35.8],[126.5,35.8],[126.5,35.4],[126.9,35.4],[126.9,35.5],[127.1,35.5],[127.1,35.6],[127.2,35.6],[127.2,35.7],[127.3,35.7],[127.3,35.8],[127.4,35.8],[127.4,35.9],[127.6,35.9],[127.6,36.1],[127.7,36.1],[127.7,36.3],[127.8,36.3],[127.8,36.4],[127.9,36.4],[127.9,36.6]],[[75.6,31.2],[75.4,31.2],[75.4,31.3],[74.8,31.3],[74.8,31.2],[74.5,31.2],[74.5,31.1],[74.4,31.1],[74.4,31.0],[74.3,31.0],[74.3,30.9],[74.1,30.9],[74.1,30.8],[74.0,30.8],[74.0,30.7],[73.9,30.7],[73.9,30.6],[73.8,30.6],[73.8,30.5],[73.7,30.5],[73.7,30.4],[73.5,30.4],[73.5,30.2],[73.4,30.2],[73.4,30.1],[73.3,30.1],[73.3,29.9],[73.2,29.9],[73.2,29.8],[73.1,29.8],[73.1,29.7],[73.0,29.7],[73.0,29.6],[72.9,29.6],[72.9,29.5],[72.8,29.5],[72.8,29.4],[72.6,29.4],[72.6,29.3],[72.5,29.3],[72.5,29.2],[72.3,29.2]],[[70.2,22.8],[70.2,22.7],[70.1,22.7],[70.1,22.6],[69.6,22.6],[69.6,22.5],[69.1,22.5],[69.1,22.4],[69.0,22.4],[69.0,22.2],[69.1,22.2],[69.1,22.1],[69.2,22.1],[69.2,22.0],[69.3,22.0],[69.3,21.9],[69.4,21.9],[69.4,21.8],[69.5,21.8],[69.5,21.7],[69.6,21.7],[69.6,21.6],[69.7,21.6],[69.7,21.5],[69.8,21.5],[69.8,21.4],[69.9,21.4],[69.9,21.3],[70.0,21.3],[70.0,21.2],[70.1,21.2],[70.1,21.1],[70.2,21.1],[70.2,21.0],[70.4,21.0],[70.4,20.9],[70.5,20.9],[70.5,20.8],[70.8,20.8],[70.8,20.7],[71.0,20.7],[71.0,20.8],[71.3,20.8],[71.3,20.9],[71.5,20.9],[71.5,21.0],[71.7,21.0],[71.7,21.1],[71.9,21.1],[71.9,21.2],[72.1,21.2],[72.1,21.3],[72.2,21.3],[72.2,21.5],[72.3,21.5],[72.3,22.0],[72.5,22.0],[72.5,21.8],[72.6,21.8]],[[85.4,19.7],[85.6,19.7],[85.6,19.8],[85.9,19.8],[85.9,19.9],[86.3,19.9],[86.3,20.0],[86.4,20.0],[86.4,20.1],[86.5,20.1],[86.5,20.2],[86.6,20.2],[86.6,20.3],[86.8,20.3],[86.8,20.4],[86.9,20.4],[86.9,20.6],[87.0,20.6],[87.0,21.0],[86.9,21.0],[86.9,21.4],[87.0,21.4],[87.0,21.5],[87.1,21.5],[87.1,21.6],[87.2,21.6],[87.2,21.7],[87.1,21.7],[87.1,21.8],[86.9,21.8],[86.9,21.9],[86.8,21.9],[86.8,22.0],[86.7,22.0],[86.7,22.1],[86.6,22.1],[86.6,22.2],[86.5,22.2],[86.5,22.3],[86.4,22.3],[86.4,22.4],[86.3,22.4],[86.3,22.6],[86.2,22.6],[86.2,22.7],[86.1,22.7],[86.1,23.0],[86.0,23.0],[86.0,23.4],[85.9,23.4],[85.9,23.9],[85.8,23.9],[85.8,24.4],[85.9,24.4],[85.9,24.9],[86.0,24.9],[86.0,25.4],[86.1,25.4],[86.1,25.6],[86.2,25.6],[86.2,26.1],[86.3,26.1],[86.3,26.5],[86.4,26.5],[86.4,26.8],[86.5,26.8],[86.5,27.1],[86.6,27.1],[86.6,27.6],[86.3,27.6],[86.3,27.7],[85.9,27.7],[85.9,27.8],[85.3,27.8],[85.3,27.9],[84.9,27.9],[84.9,28.0],[84.6,28.0],[84.6,28.1],[84.3,28.1],[84.3,28.2],[83.8,28.2],[83.8,28.3],[83.4,28.3],[83.4,28.4],[83.0,28.4],[83.0,28.5],[82.8,28.5],[82.8,28.6],[82.6,28.6],[82.6,28.7],[82.5,28.7],[82.5,28.8],[82.3,28.8],[82.3,28.9],[82.0,28.9],[82.0,29.0],[81.4,29.0],[81.4,29.1],[81.2,29.1],[81.2,29.2],[80.6,29.2],[80.6,29.3],[80.0,29.3],[80.0,29.4],[79.6,29.4],[79.6,29.5],[79.3,29.5],[79.3,29.6],[79.0,29.6],[79.0,29.7],[78.8,29.7],[78.8,29.8],[78.5,29.8],[78.5,29.9],[78.2,29.9],[78.2,30.0],[77.9,30.0],[77.9,30.1],[77.5,30.1],[77.5,30.2],[77.3,30.2],[77.3,30.3],[76.9,30.3],[76.9,30.4],[76.8,30.4],[76.8,30.5],[76.7,30.5],[76.7,30.7],[76.5,30.7],[76.5,30.8],[76.1,30.8],[76.1,30.9],[75.9,30.9],[75.9,31.0],[75.7,31.0],[75.7,31.1],[75.6,31.1],[75.6,31.2]],[[80.1,44.9],[80.2,44.9],[80.2,45.0],[80.4,45.0],[80.4,45.1],[80.5,45.1],[80.5,45.3],[80.6,45.3],[80.6,45.4],[80.8,45.4],[80.8,45.5],[80.9,45.5],[80.9,45.6],[81.1,45.6],[81.1,45.7],[81.2,45.7],[81.2,45.8],[81.3,45.8],[81.3,45.9],[81.5,45.9],[81.5,46.0],[81.6,46.0],[81.6,46.1],[81.8,46.1],[81.8,46.2],[82.0,46.2],[82.0,46.3],[82.1,46.3],[82.1,46.4],[82.2,46.4],[82.2,46.5],[82.3,46.5],[82.3,46.6],[82.4,46.6],[82.4,46.7],[82.5,46.7],[82.5,47.5],[82.4,47.5],[82.4,47.7],[82.3,47.7],[82.3,48.1],[82.2,48.1],[82.2,48.3],[82.1,48.3],[82.1,48.5],[82.0,48.5],[82.0,48.6],[81.9,48.6],[81.9,48.7],[81.7,48.7],[81.7,48.9],[81.6,48.9],[81.6,49.0],[81.5,49.0],[81.5,49.1],[81.4,49.1],[81.4,49.3],[81.3,49.3],[81.3,49.4],[81.1,49.4],[81.1,49.5],[80.9,49.5],[80.9,49.6],[80.7,49.6],[80.7,49.7],[80.5,49.7],[80.5,49.8],[80.3,49.8],[80.3,49.7],[80.2,49.7]],[[73.3,42.5],[74.1,42.5],[74.1,42.4],[75.3,42.4],[75.3,42.5],[75.8,42.5],[75.8,42.6],[76.3,42.6],[76.3,42.7],[76.7,42.7],[76.7,42.8],[77.0,42.8],[77.0,42.9],[77.4,42.9],[77.4,43.0],[77.7,43.0],[77.7,43.1],[78.0,43.1],[78.0,43.2],[78.2,43.2],[78.2,43.3],[78.4,43.3],[78.4,43.4],[78.5,43.4],[78.5,43.5],[78.6,43.5],[78.6,43.6],[78.8,43.6],[78.8,43.8],[79.0,43.8],[79.0,43.9],[79.1,43.9],[79.1,44.0],[79.2,44.0],[79.2,44.1],[79.3,44.1],[79.3,44.2],[79.4,44.2],[79.4,44.3],[79.5,44.3],[79.5,44.4],[79.6,44.4],[79.6,44.5],[79.7,44.5],[79.7,44.6],[79.8,44.6],[79.8,44.7],[79.9,44.7],[79.9,44.8],[80.1,44.8],[80.1,44.9]],[[80.3,9.9],[80.0,9.9],[80.0,9.5],[80.1,9.5],[80.1,9.2],[80.0,9.2],[80.0,9.1],[79.9,9.1],[79.9,8.5],[79.8,8.5],[79.8,8.4],[79.7,8.4],[79.7,7.9],[79.8,7.9],[79.8,6.9],[79.9,6.9],[79.9,6.7],[80.0,6.7],[80.0,6.3],[80.1,6.3],[80.1,6.1],[80.2,6.1],[80.2,6.0],[80.8,6.0],[80.8,6.1],[81.1,6.1],[81.1,6.2],[81.4,6.2],[81.4,6.3],[81.5,6.3],[81.5,6.4],[81.6,6.4],[81.6,6.5],[81.7,6.5],[81.7,6.6],[81.8,6.6],[81.8,6.8],[81.9,6.8],[81.9,7.2],[81.8,7.2],[81.8,7.8],[81.7,7.8],[81.7,7.9],[81.6,7.9],[81.6,8.1],[81.5,8.1],[81.5,8.3],[81.4,8.3],[81.4,8.6],[81.3,8.6],[81.3,8.7],[81.2,8.7],[81.2,8.9],[81.1,8.9],[81.1,9.0],[81.0,9.0],[81.0,9.2],[80.9,9.2],[80.9,9.4],[80.8,9.4],[80.8,9.5],[80.7,9.5],[80.7,9.6],[80.6,9.6],[80.6,9.7],[80.4,9.7],[80.4,9.8],[80.3,9.8],[80.3,9.9]],[[128.9,33.0],[128.9,32.8],[129.0,32.8],[129.0,32.9],[129.1,32.9],[129.1,33.1],[129.0,33.1],[129.0,33.0],[128.9,33.0]],[[134.5,34.3],[134.5,34.4],[134.2,34.4],[134.2,34.3],[133.9,34.3],[133.9,34.4],[133.8,34.4]],[[133.8,34.4],[133.8,34.3],[133.6,34.3],[133.6,34.1],[133.3,34.1],[133.3,34.2],[132.9,34.2]],[[132.9,34.2],[132.9,34.1],[132.8,34.1],[132.8,34.0],[132.7,34.0],[132.7,33.8],[132.6,33.8],[132.6,33.7],[132.4,33.7],[132.4,33.6],[132.3,33.6],[132.3,33.4],[132.4,33.4],[132.4,33.1],[132.5,33.1],[132.5,33.0],[132.6,33.0],[132.6,32.9],[132.7,32.9],[132.7,32.8],[133.0,32.8],[133.0,32.9],[133.1,32.9],[133.1,33.1],[133.2,33.1],[133.2,33.2],[133.3,33.2],[133.3,33.3],[133.4,33.3],[133.4,33.4],[133.5,33.4],[133.5,33.5],[133.6,33.5],[133.6,33.6],[133.9,33.6],[133.9,33.5],[134.0,33.5],[134.0,33.4],[134.2,33.4],[134.2,33.5],[134.3,33.5],[134.3,33.6],[134.4,33.6],[134.4,33.7],[134.6,33.7],[134.6,33.8],[134.7,33.8],[134.7,34.2]],[[134.7,34.2],[134.6,34.2],[134.6,34.3],[134.5,34.3]],[[134.8,34.7],[135.0,34.7],[135.1,34.7],[135.1,34.6],[135.2,34.6],[135.2,34.4],[135.1,34.4],[135.1,33.9],[135.2,33.9],[135.2,33.8],[135.3,33.8],[135.3,33.7],[135.4,33.7],[135.4,33.6],[135.6,33.6],[135.6,33.5],[135.9,33.5],[135.9,33.6],[136.0,33.6],[136.0,33.7],[136.1,33.7],[136.1,33.9],[136.2,33.9],[136.2,34.0],[136.3,34.0],[136.3,34.2],[136.4,34.2],[136.4,34.3],[136.9,34.3],[136.9,34.6],[136.7,34.6],[136.7,34.9],[136.9,34.9],[136.9,34.8],[137.0,34.8],[137.0,34.7],[138.2,34.7],[138.2,34.8],[138.3,34.8],[138.3,34.9],[138.4,34.9],[138.4,35.0],[138.5,35.0],[138.5,35.1],[138.7,35.1],[138.7,35.0],[138.8,35.0],[138.8,34.8],[139.1,34.8],[139.1,34.9],[139.2,34.9],[139.2,35.3],[139.3,35.3],[139.3,35.4],[139.5,35.4],[139.5,35.3],[139.8,35.3]],[[139.8,35.3],[139.8,35.1],[140.2,35.1],[140.2,35.2],[140.3,35.2],[140.3,35.3],[140.4,35.3],[140.4,35.5],[140.5,35.5],[140.5,35.6],[140.6,35.6],[140.6,35.7],[140.7,35.7],[140.7,35.8],[140.8,35.8],[140.8,36.0],[140.7,36.0],[140.7,36.2],[140.6,36.2],[140.6,36.4],[140.7,36.4],[140.7,36.7],[140.8,36.7],[140.8,36.9],[140.9,36.9],[140.9,37.1],[140.8,37.1],[140.8,37.2],[140.2,37.2],[140.2,37.1],[139.8,37.1],[139.8,37.0],[139.6,37.0],[139.6,36.9],[139.5,36.9],[139.5,36.8],[139.2,36.8],[139.2,36.9],[139.1,36.9],[139.1,37.0],[139.0,37.0],[139.0,37.6],[139.1,37.6],[139.1,37.8],[139.2,37.8],[139.2,38.0],[138.9,38.0],[138.9,37.9],[138.8,37.9],[138.8,37.7],[138.7,37.7],[138.7,37.6],[138.6,37.6],[138.6,37.5],[138.5,37.5],[138.5,37.4],[138.4,37.4],[138.4,37.3],[138.2,37.3],[138.2,37.2],[138.0,37.2],[138.0,37.1],[137.6,37.1],[137.6,37.0],[137.4,37.0],[137.4,36.9],[137.2,36.9],[137.2,37.0],[137.1,37.0],[137.1,37.2],[137.2,37.2],[137.2,37.5],[136.8,37.5],[136.8,37.4],[136.7,37.4],[136.7,37.1],[136.8,37.1],[136.8,36.9],[136.7,36.9],[136.7,36.7],[136.6,36.7],[136.6,36.6],[136.5,36.6],[136.5,36.5],[136.3,36.5],[136.3,36.4],[136.2,36.4],[136.2,36.3],[136.1,36.3],[136.1,36.2],[136.0,36.2],[136.0,35.8],[135.9,35.8],[135.9,35.7],[135.7,35.7],[135.7,35.6],[135.5,35.6],[135.5,35.7],[135.4,35.7],[135.4,35.8],[135.0,35.8],[135.0,35.7],[134.3,35.7],[134.3,35.6],[133.4,35.6],[133.4,35.7],[133.0,35.7],[133.0,35.6],[132.8,35.6],[132.8,35.5],[132.7,35.5],[132.7,35.4],[132.6,35.4],[132.6,35.3],[132.4,35.3],[132.4,35.2],[132.3,35.2],[132.3,35.1],[132.2,35.1],[132.2,35.0],[132.0,35.0],[132.0,34.9],[131.9,34.9],[131.9,34.8],[131.6,34.8],[131.6,34.7],[131.5,34.7],[131.5,34.6],[131.4,34.6],[131.4,34.5],[131.0,34.5],[131.0,34.4],[130.9,34.4],[130.9,34.0],[130.5,34.0],[130.5,33.9],[130.4,33.9],[130.4,33.8],[130.2,33.8],[130.2,33.7],[130.1,33.7],[130.1,33.6],[129.9,33.6],[129.9,33.7],[129.7,33.7],[129.7,33.5],[129.5,33.5],[129.5,33.4],[129.6,33.4],[129.6,33.0],[129.7,33.0],[129.7,32.8],[129.8,32.8],[129.8,32.7],[130.0,32.7],[130.0,32.8],[129.9,32.8],[129.9,33.0],[130.1,33.0],[130.1,32.7],[130.3,32.7],[130.3,32.9],[130.4,32.9],[130.4,33.0],[130.3,33.0],[130.3,33.1],[130.2,33.1],[130.2,33.2],[130.4,33.2],[130.4,33.1],[130.5,33.1],[130.5,32.9],[130.6,32.9],[130.6,32.8],[130.5,32.8],[130.5,32.7],[130.4,32.7],[130.4,32.6],[130.2,32.6],[130.2,32.5],[130.1,32.5],[130.1,32.1],[130.6,32.1],[130.6,32.0],[130.9,32.0],[130.9,31.9],[131.5,31.9],[131.5,32.1],[131.6,32.1],[131.6,32.4],[131.7,32.4],[131.7,32.5],[131.8,32.5],[131.8,32.7],[131.9,32.7],[131.9,32.8],[132.0,32.8],[132.0,33.3],[131.9,33.3],[131.9,33.4],[131.8,33.4],[131.8,33.7],[131.7,33.7],[131.7,33.8],[131.5,33.8],[131.5,33.7],[131.2,33.7],[131.2,33.9],[131.1,33.9],[131.1,34.0],[131.9,34.0],[131.9,33.9],[132.0,33.9],[132.0,33.8],[132.3,33.8],[132.3,33.9],[132.4,33.9],[132.4,34.0],[132.6,34.0],[132.6,34.2],[132.9,34.2]],[[132.9,34.2],[132.9,34.3],[133.3,34.3],[133.3,34.4],[133.8,34.4]],[[133.8,34.4],[133.8,34.5],[134.2,34.5],[134.2,34.6],[134.4,34.6],[134.4,34.7],[134.5,34.7],[134.5,34.8],[134.8,34.8],[134.8,34.7]],[[139.9,35.3],[139.8,35.3]],[[139.8,35.3],[139.8,35.4],[139.7,35.4],[139.7,35.5],[139.8,35.5],[139.8,35.7],[140.1,35.7],[140.1,35.6],[140.0,35.6],[140.0,35.5],[139.9,35.5],[139.9,35.3]],[[134.8,34.4],[134.7,34.4],[134.7,34.2]],[[134.7,34.2],[134.9,34.2],[134.9,34.3],[135.0,34.3],[135.0,34.6],[134.9,34.6],[134.9,34.5],[134.8,34.5],[134.8,34.4]],[[129.9,34.6],[130.0,34.6],[130.0,34.7],[129.9,34.7],[129.9,34.8],[130.0,34.8],[130.0,35.0],[129.9,35.0],[129.9,34.9],[129.8,34.9],[129.8,34.7],[129.7,34.7],[129.7,34.3],[129.8,34.3],[129.8,34.4],[129.9,34.4],[129.9,34.6]],[[138.6,38.2],[138.5,38.2],[138.5,38.3],[138.6,38.3],[138.6,38.4],[138.4,38.4],[138.4,38.3],[138.3,38.3],[138.3,38.2],[138.2,38.2],[138.2,38.1],[138.3,38.1],[138.3,38.0],[138.2,38.0],[138.2,37.9],[138.4,37.9],[138.4,38.0],[138.5,38.0],[138.5,38.1],[138.6,38.1],[138.6,38.2]],[[110.8,51.6],[110.8,51.7],[109.1,51.7],[109.1,51.8],[108.7,51.8],[108.7,51.7],[108.1,51.7],[108.1,51.6],[107.9,51.6],[107.9,51.5],[107.6,51.5],[107.6,51.4],[107.2,51.4],[107.2,51.3],[107.0,51.3],[107.0,51.2],[106.4,51.2],[106.4,51.1],[105.7,51.1],[105.7,51.0],[105.2,51.0],[105.2,50.9],[101.9,50.9],[101.9,51.0],[100.8,51.0],[100.8,50.9],[100.4,50.9],[100.4,50.8],[100.1,50.8],[100.1,50.7],[100.0,50.7],[100.0,50.6],[99.8,50.6],[99.8,50.5],[99.6,50.5],[99.6,50.4],[99.5,50.4],[99.5,50.3],[99.3,50.3],[99.3,50.2],[99.1,50.2],[99.1,50.1],[99.0,50.1],[99.0,50.0],[98.8,50.0],[98.8,49.9],[98.7,49.9],[98.7,49.8],[98.6,49.8],[98.6,49.7],[98.5,49.7],[98.5,49.5],[98.4,49.5],[98.4,49.4],[98.3,49.4],[98.3,49.3],[98.2,49.3],[98.2,49.0],[98.1,49.0],[98.1,48.8],[98.0,48.8],[98.0,48.3],[97.9,48.3],[97.9,47.7],[98.0,47.7],[98.0,47.5]],[[109.7,46.1],[109.7,46.2],[109.9,46.2],[109.9,46.3],[110.2,46.3],[110.2,46.4],[110.3,46.4],[110.3,46.5],[110.4,46.5],[110.4,46.6],[110.5,46.6],[110.5,46.8],[110.6,46.8],[110.6,46.9],[110.7,46.9],[110.7,47.0],[110.8,47.0],[110.8,47.2],[110.9,47.2],[110.9,47.3],[111.0,47.3],[111.0,47.4],[111.1,47.4],[111.1,47.6],[111.2,47.6],[111.2,47.7],[111.3,47.7],[111.3,47.9],[111.4,47.9],[111.4,48.0],[111.5,48.0],[111.5,48.2],[111.7,48.2],[111.7,48.3],[111.8,48.3],[111.8,48.4],[111.9,48.4],[111.9,48.5],[112.0,48.5],[112.0,48.7],[112.2,48.7],[112.2,48.8],[112.3,48.8],[112.3,48.9],[112.4,48.9],[112.4,49.0],[112.6,49.0],[112.6,49.2],[112.7,49.2],[112.7,49.3],[112.8,49.3],[112.8,49.5],[112.9,49.5],[112.9,49.7],[113.0,49.7],[113.0,50.2],[112.9,50.2],[112.9,50.3],[112.8,50.3],[112.8,50.5],[112.7,50.5],[112.7,50.6],[112.6,50.6],[112.6,50.7],[112.5,50.7],[112.5,50.8],[112.4,50.8],[112.4,50.9],[112.3,50.9],[112.3,51.0],[112.2,51.0],[112.2,51.1],[112.0,51.1],[112.0,51.2],[111.8,51.2],[111.8,51.3],[111.6,51.3],[111.6,51.4],[111.5,51.4],[111.5,51.5],[111.1,51.5],[111.1,51.6],[110.8,51.6]],[[107.8,16.6],[107.7,16.6],[107.7,16.7],[107.5,16.7]],[[105.8,16.0],[105.8,15.8],[105.9,15.8],[105.9,15.7],[106.0,15.7],[106.0,15.5],[106.1,15.5],[106.1,15.2],[106.2,15.2],[106.2,14.4],[106.3,14.4],[106.3,13.7],[106.2,13.7],[106.2,13.4],[106.1,13.4],[106.1,12.9],[106.0,12.9]],[[106.9,10.5],[107.1,10.5],[107.1,10.4],[107.3,10.4],[107.3,10.5],[107.5,10.5],[107.5,10.6],[107.7,10.6],[107.7,10.7],[108.0,10.7],[108.0,10.8],[108.1,10.8],[108.1,10.9],[108.2,10.9],[108.2,11.0],[108.4,11.0],[108.4,11.1],[108.5,11.1],[108.5,11.2],[108.7,11.2],[108.7,11.3],[108.9,11.3],[108.9,11.4],[109.0,11.4],[109.0,11.5],[109.1,11.5],[109.1,11.6],[109.2,11.6],[109.2,11.7],[109.3,11.7],[109.3,12.3],[109.4,12.3],[109.4,12.6],[109.5,12.6],[109.5,13.1],[109.4,13.1],[109.4,13.7],[109.3,13.7],[109.3,14.3],[109.2,14.3],[109.2,14.6],[109.1,14.6],[109.1,14.9],[109.0,14.9],[109.0,15.3],[108.9,15.3],[108.9,15.4],[108.8,15.4],[108.8,15.5],[108.7,15.5],[108.7,15.6],[108.6,15.6],[108.6,15.7],[108.5,15.7],[108.5,15.9],[108.4,15.9],[108.4,16.0],[108.3,16.0],[108.3,16.2],[108.2,16.2],[108.2,16.3],[108.1,16.3],[108.1,16.4],[107.9,16.4],[107.9,16.5],[107.8,16.5],[107.8,16.6]],[[80.1,15.4],[80.2,15.4],[80.2,15.5],[80.3,15.5],[80.3,15.7],[80.4,15.7],[80.4,15.8],[80.5,15.8],[80.5,15.9],[80.7,15.9],[80.7,15.8],[81.0,15.8],[81.0,15.9],[81.1,15.9],[81.1,16.0],[81.2,16.0],[81.2,16.2],[81.3,16.2],[81.3,16.3],[81.4,16.3],[81.4,16.4],[81.9,16.4],[81.9,16.5],[82.2,16.5],[82.2,16.6],[82.3,16.6],[82.3,16.7],[82.4,16.7],[82.4,17.2],[82.5,17.2],[82.5,17.3],[82.7,17.3],[82.7,17.4],[82.8,17.4],[82.8,17.5],[83.1,17.5],[83.1,17.6]],[[124.7,43.9],[124.7,44.0],[124.1,44.0],[124.1,43.9],[122.9,43.9]],[[115.1,42.6],[114.9,42.6],[114.9,42.7],[113.9,42.7],[113.9,42.8],[113.6,42.8],[113.6,42.9],[113.4,42.9]],[[94.9,43.1],[94.9,43.0],[94.8,43.0],[94.8,42.9],[94.6,42.9],[94.6,42.8],[94.5,42.8],[94.5,42.3],[94.6,42.3],[94.6,42.1],[94.7,42.1],[94.7,42.0],[94.8,42.0],[94.8,41.8],[94.9,41.8],[94.9,41.7],[95.0,41.7],[95.0,41.6],[95.1,41.6],[95.1,41.5],[95.2,41.5],[95.2,41.4],[95.3,41.4],[95.3,41.3],[95.4,41.3],[95.4,41.2],[95.5,41.2],[95.5,41.1],[95.6,41.1],[95.6,41.0],[95.7,41.0],[95.7,40.9],[95.9,40.9],[95.9,40.8],[96.0,40.8],[96.0,40.7],[96.2,40.7],[96.2,40.6],[96.3,40.6],[96.3,40.5],[96.5,40.5],[96.5,40.4],[96.6,40.4],[96.6,40.3],[96.8,40.3],[96.8,40.2],[96.9,40.2],[96.9,40.1],[97.1,40.1],[97.1,40.0],[97.3,40.0],[97.3,39.9],[97.5,39.9],[97.5,39.8],[97.7,39.8],[97.7,39.7],[97.9,39.7],[97.9,39.6],[98.1,39.6],[98.1,39.5],[98.5,39.5]],[[104.7,35.2],[104.7,35.1],[104.8,35.1],[104.8,34.9],[104.9,34.9],[104.9,34.7],[105.0,34.7],[105.0,34.6],[105.1,34.6],[105.1,34.5],[105.2,34.5],[105.2,34.2],[105.3,34.2],[105.3,33.9],[105.2,33.9],[105.2,32.9],[105.1,32.9],[105.1,32.6],[105.0,32.6],[105.0,32.2],[104.9,32.2],[104.9,31.8],[104.8,31.8],[104.8,30.5],[104.7,30.5],[104.7,30.2],[104.6,30.2],[104.6,30.1],[104.5,30.1],[104.5,29.9]],[[120.4,34.0],[120.4,34.3],[120.3,34.3],[120.3,34.4],[120.2,34.4],[120.2,34.5],[119.9,34.5],[119.9,34.6],[119.7,34.6],[119.7,34.7],[119.6,34.7],[119.6,34.8],[119.5,34.8],[119.5,34.9],[119.4,34.9],[119.4,35.2],[119.5,35.2],[119.5,35.4],[119.6,35.4],[119.6,35.6],[119.7,35.6],[119.7,35.7],[120.0,35.7],[120.0,35.8],[120.1,35.8],[120.1,35.9],[120.2,35.9],[120.2,36.0],[120.3,36.0],[120.3,36.1],[120.6,36.1],[120.6,36.2],[120.7,36.2],[120.7,36.4],[120.8,36.4],[120.8,36.5],[121.0,36.5],[121.0,36.6],[121.1,36.6],[121.1,36.7],[121.3,36.7],[121.3,36.8],[121.7,36.8],[121.7,36.9],[122.5,36.9],[122.5,37.0],[122.6,37.0],[122.6,37.4],[122.5,37.4],[122.5,37.5],[122.3,37.5],[122.3,37.6],[121.9,37.6],[121.9,37.5],[121.6,37.5],[121.6,37.6],[121.4,37.6],[121.4,37.7],[121.2,37.7],[121.2,37.8],[121.0,37.8],[121.0,37.9],[120.9,37.9],[120.9,38.0],[120.7,38.0],[120.7,37.9],[120.5,37.9],[120.5,37.8],[120.3,37.8],[120.3,37.7],[120.2,37.7],[120.2,37.6],[120.1,37.6],[120.1,37.5],[119.9,37.5],[119.9,37.4],[119.8,37.4],[119.8,37.3],[119.7,37.3],[119.7,37.2],[119.3,37.2],[119.3,37.3],[119.1,37.3],[119.1,37.4],[119.0,37.4],[119.0,38.2],[118.9,38.2],[118.9,38.3],[118.7,38.3],[118.7,38.2],[118.0,38.2],[118.0,38.3],[117.9,38.3],[117.9,38.4],[117.8,38.4],[117.8,38.5],[117.7,38.5],[117.7,38.6],[117.6,38.6],[117.6,39.0],[117.7,39.0],[117.7,39.1],[117.9,39.1],[117.9,39.2],[118.2,39.2],[118.2,39.1],[118.9,39.1],[118.9,39.2],[119.1,39.2],[119.1,39.3],[119.2,39.3],[119.2,39.5],[119.3,39.5],[119.3,39.7],[119.4,39.7],[119.4,39.8],[119.6,39.8],[119.6,39.9],[119.7,39.9],[119.7,40.0],[120.0,40.0],[120.0,40.1],[120.2,40.1],[120.2,40.2],[120.5,40.2],[120.5,40.3],[120.6,40.3],[120.6,40.5],[120.7,40.5],[120.7,40.6],[120.9,40.6],[120.9,40.7],[121.0,40.7],[121.0,40.8],[121.1,40.8],[121.1,40.9],[121.5,40.9],[121.5,41.0],[121.8,41.0],[121.8,40.9],[121.9,40.9],[121.9,40.8],[122.1,40.8],[122.1,40.7],[122.2,40.7],[122.2,40.4],[122.1,40.4],[122.1,40.3],[122.0,40.3],[122.0,40.2],[121.9,40.2],[121.9,40.1],[121.8,40.1],[121.8,40.0],[121.6,40.0],[121.6,39.9],[121.5,39.9],[121.5,39.8],[121.4,39.8],[121.4,39.7],[121.3,39.7],[121.3,39.5],[121.4,39.5],[121.4,39.3],[121.5,39.3],[121.5,39.2],[121.4,39.2],[121.4,39.1],[121.3,39.1],[121.3,38.8],[121.5,38.8],[121.5,38.9],[121.9,38.9],[121.9,39.0],[122.0,39.0],[122.0,39.1],[122.1,39.1],[122.1,39.2],[122.2,39.2],[122.2,39.3],[122.5,39.3],[122.5,39.4],[122.6,39.4],[122.6,39.5],[122.7,39.5],[122.7,39.6],[122.9,39.6],[122.9,39.7],[123.3,39.7],[123.3,39.8],[123.7,39.8],[123.7,39.9],[124.2,39.9],[124.2,39.8],[124.5,39.8],[124.5,39.7],[124.7,39.7],[124.7,39.6],[125.3,39.6],[125.3,39.5],[125.4,39.5],[125.4,39.3],[125.3,39.3],[125.3,39.1],[125.2,39.1],[125.2,39.0],[125.1,39.0],[125.1,38.7],[125.0,38.7],[125.0,38.6],[124.9,38.6],[124.9,38.1],[125.0,38.1],[125.0,37.9],[125.1,37.9],[125.1,37.8],[125.2,37.8],[125.2,37.7],[125.4,37.7],[125.4,37.8],[125.7,37.8],[125.7,37.9],[125.8,37.9]]]},"properties":{"start_year":380,"end_year":384}}]}
