{"type":"FeatureCollection","features":[{"type":"Feature","id":"boundaries:574","geometry":{"type":"MultiLineString","coordinates":[[[102.3,43.5],[101.5,43.5]],[[101.5,43.5],[101.5,43.6]],[[101.5,43.6],[97.3,43.6]],[[97.3,43.6],[97.3,43.5]],[[97.3,43.5],[96.8,43.5]],[[96.8,43.5],[96.8,43.4]],[[96.8,43.4],[96.6,43.4]],[[96.6,43.4],[96.6,43.3]],[[96.6,43.3],[96.2,43.3]],[[96.2,43.3],[96.2,43.2]],[[96.2,43.2],[95.8,43.2]],[[95.8,43.2],[95.8,43.1]],[[95.8,43.1],[95.3,43.1]],[[95.3,43.1],[95.3,43.0]],[[95.3,43.0],[95.2,43.0]],[[95.2,43.0],[95.2,42.9]],[[95.2,42.9],[95.0,42.9]],[[95.0,42.9],[95.0,42.8]],[[95.0,42.8],[94.9,42.8]],[[94.9,42.8],[94.9,42.7]],[[94.9,42.7],[94.8,42.7]],[[94.8,42.7],[94.8,42.6]],[[94.8,42.6],[94.3,42.6]],[[94.3,42.6],[94.3,42.5]],[[94.3,42.5],[93.8,42.5]],[[93.8,42.5],[93.8,42.4]],[[93.8,42.4],[93.6,42.4]],[[93.6,42.4],[93.6,42.3]],[[93.6,42.3],[93.4,42.3]],[[93.4,42.3],[93.4,42.1]],[[93.4,42.1],[93.3,42.1]],[[93.3,42.1],[93.3,41.9]],[[93.3,41.9],[93.2,41.9]],[[93.2,41.9],[93.2,41.8]],[[93.2,41.8],[93.1,41.8]],[[93.1,41.8],[93.1,41.7]],[[93.1,41.7],[93.0,41.7]],[[93.0,41.7],[93.0,41.6]],[[93.0,41.6],[92.8,41.6]],[[92.8,41.6],[92.8,41.5]],[[92.8,41.5],[92.7,41.5]],[[92.7,41.5],[92.7,41.4]],[[92.7,41.4],[92.6,41.4]],[[92.6,41.4],[92.6,41.3]],[[92.6,41.3],[92.4,41.3]],[[92.4,41.3],[92.4,41.2]],[[92.4,41.2],[92.3,41.2]],[[92.3,41.2],[92.3,41.1]],[[92.3,41.1],[92.2,41.1]],[[92.2,41.1],[92.2,41.0]],[[92.2,41.0],[92.0,41.0]],[[92.0,41.0],[92.0,40.4]],[[92.0,40.4],[91.9,40.4]],[[91.9,40.4],[91.9,39.9]],[[91.9,39.9],[91.8,39.9]],[[91.8,39.9],[91.8,39.8]],[[91.8,39.8],[92.1,39.8]],[[92.1,39.8],[92.1,39.7]],[[92.1,39.7],[95.4,39.7]],[[95.4,39.7],[95.4,39.8]],[[95.4,39.8],[96.2,39.8]],[[96.2,39.8],[96.2,39.7]],[[96.2,39.7],[96.8,39.7]],[[96.8,39.7],[96.8,39.6]],[[96.8,39.6],[98.1,39.6]],[[98.1,39.6],[98.1,39.5]],[[98.1,39.5],[98.7,39.5]],[[98.7,39.5],[98.7,39.6]],[[98.7,39.6],[98.8,39.6]],[[98.8,39.6],[98.8,39.5]],[[98.8,39.5],[99.4,39.5]],[[99.4,39.5],[99.4,39.4]],[[99.4,39.4],[99.9,39.4]],[[99.9,39.4],[99.9,39.3]],[[99.9,39.3],[100.3,39.3]],[[100.3,39.3],[100.3,39.2]],[[100.3,39.2],[100.6,39.2]],[[100.6,39.2],[100.6,39.1]],[[100.6,39.1],[101.0,39.1]],[[101.0,39.1],[101.0,39.0]],[[101.0,39.0],[101.2,39.0]],[[101.2,39.0],[101.2,38.9]],[[101.2,38.9],[101.5,38.9]],[[101.5,38.9],[101.5,38.8]],[[101.5,38.8],[101.7,38.8]],[[101.7,38.8],[101.7,38.7]],[[101.7,38.7],[102.2,38.7]],[[102.2,38.7],[102.2,38.6]],[[102.2,38.6],[102.4,38.6]],[[102.4,38.6],[102.4,38.5]],[[102.4,38.5],[102.6,38.5]],[[102.6,38.5],[102.6,38.4]],[[102.6,38.4],[102.8,38.4]],[[102.8,38.4],[102.8,38.2]],[[102.8,38.2],[103.0,38.2]],[[103.0,38.2],[103.0,38.1]],[[103.0,38.1],[103.1,38.1]],[[103.1,38.1],[103.1,38.0]],[[103.1,38.0],[103.2,38.0]],[[103.2,38.0],[103.2,37.9]],[[103.2,37.9],[103.3,37.9]],[[103.3,37.9],[103.3,37.8]],[[103.3,37.8],[103.4,37.8]],[[103.4,37.8],[103.4,37.7]],[[103.4,37.7],[103.5,37.7]],[[103.5,37.7],[103.5,37.6]],[[103.5,37.6],[103.6,37.6]],[[103.6,37.6],[103.6,37.4]],[[103.6,37.4],[103.7,37.4]],[[103.7,37.4],[103.7,37.3]],[[103.7,37.3],[104.4,37.3]],[[104.4,37.3],[104.4,37.2]],[[104.4,37.2],[104.6,37.2]],[[104.6,37.2],[104.6,37.1]],[[104.6,37.1],[104.8,37.1]],[[104.8,37.1],[104.8,37.0]],[[104.8,37.0],[105.0,37.0]],[[105.0,37.0],[105.0,36.8]],[[105.0,36.8],[105.1,36.8]],[[105.1,36.8],[105.1,36.5]],[[105.1,36.5],[105.2,36.5]],[[105.2,36.5],[105.2,36.4]],[[105.2,36.4],[105.3,36.4]],[[105.3,36.4],[105.3,36.2]],[[105.3,36.2],[105.4,36.2]],[[105.4,36.2],[105.4,36.0]],[[105.4,36.0],[105.5,36.0]],[[105.5,36.0],[105.5,35.8]],[[105.5,35.8],[105.6,35.8]],[[105.6,35.8],[105.6,35.7]],[[105.6,35.7],[105.7,35.7]],[[105.7,35.7],[105.7,35.6]],[[105.7,35.6],[105.8,35.6]],[[105.8,35.6],[105.8,35.4]],[[105.8,35.4],[105.9,35.4]],[[105.9,35.4],[105.9,35.1]],[[105.9,35.1],[106.0,35.1]],[[106.0,35.1],[106.0,34.9]],[[106.0,34.9],[106.1,34.9]],[[106.1,34.9],[106.1,34.5]],[[106.1,34.5],[106.2,34.5]],[[106.2,34.5],[106.2,34.2]],[[106.2,34.2],[106.3,34.2]],[[106.3,34.2],[106.3,33.7]],[[106.3,33.7],[105.6,33.7]],[[105.6,33.7],[105.6,33.8]],[[105.6,33.8],[105.4,33.8]],[[105.4,33.8],[105.4,33.9]],[[105.4,33.9],[105.1,33.9]],[[105.1,33.9],[105.1,33.8]],[[105.1,33.8],[105.0,33.8]],[[105.0,33.8],[105.0,33.6],[105.1,33.6],[105.1,33.5],[105.2,33.5],[105.2,33.3],[105.3,33.3],[105.3,33.2],[105.4,33.2],[105.4,32.3],[105.3,32.3],[105.3,32.0],[105.2,32.0],[105.2,31.8],[105.1,31.8],[105.1,31.4],[105.0,31.4],[105.0,31.3],[104.8,31.3],[104.8,31.1],[104.7,31.1],[104.7,30.9],[104.6,30.9],[104.6,30.0],[104.5,30.0],[104.5,29.9],[104.4,29.9],[104.4,29.7],[104.3,29.7],[104.3,29.6],[104.2,29.6],[104.2,29.5],[104.1,29.5],[104.1,29.3],[104.0,29.3],[104.0,29.2],[103.9,29.2],[103.9,29.1],[103.8,29.1],[103.8,29.0],[103.7,29.0],[103.7,28.9],[103.6,28.9],[103.6,28.8],[103.5,28.8],[103.5,28.7],[103.3,28.7],[103.3,28.6],[103.2,28.6],[103.2,28.5],[103.1,28.5],[103.1,28.4],[103.0,28.4],[103.0,28.3]],[[103.0,28.3],[103.1,28.3]],[[103.1,28.3],[103.1,28.2]],[[103.1,28.2],[103.2,28.2]],[[103.2,28.2],[103.2,28.1]],[[103.2,28.1],[103.4,28.1]],[[103.4,28.1],[103.4,28.0]],[[103.4,28.0],[103.5,28.0]],[[103.5,28.0],[103.5,27.9]],[[103.5,27.9],[103.7,27.9]],[[103.7,27.9],[103.7,27.8]],[[103.7,27.8],[103.8,27.8]],[[103.8,27.8],[103.8,27.7]],[[103.8,27.7],[104.0,27.7]],[[104.0,27.7],[104.0,27.6]],[[104.0,27.6],[104.1,27.6]],[[104.1,27.6],[104.1,27.5]],[[104.1,27.5],[104.2,27.5]],[[104.2,27.5],[104.2,27.4]],[[104.2,27.4],[104.4,27.4]],[[104.4,27.4],[104.4,27.3]],[[104.4,27.3],[104.5,27.3]],[[104.5,27.3],[104.5,27.2]],[[104.5,27.2],[104.7,27.2]],[[104.7,27.2],[104.7,27.1]],[[104.7,27.1],[104.9,27.1]],[[104.9,27.1],[104.9,27.0]],[[104.9,27.0],[105.1,27.0]],[[105.1,27.0],[105.1,26.9]],[[105.1,26.9],[105.3,26.9]],[[105.3,26.9],[105.3,26.8]],[[105.3,26.8],[105.5,26.8]],[[105.5,26.8],[105.5,26.7]],[[105.5,26.7],[105.8,26.7]],[[105.8,26.7],[105.8,26.6]],[[105.8,26.6],[106.0,26.6]],[[106.0,26.6],[106.0,26.5]],[[106.0,26.5],[106.3,26.5]],[[106.3,26.5],[106.3,26.4]],[[106.3,26.4],[107.0,26.4]],[[107.0,26.4],[107.0,26.3]],[[107.0,26.3],[107.5,26.3]],[[107.5,26.3],[107.5,26.2]],[[107.5,26.2],[108.1,26.2]],[[108.1,26.2],[108.1,26.1]],[[108.1,26.1],[108.5,26.1]],[[108.5,26.1],[108.5,26.2]],[[108.5,26.2],[108.9,26.2]],[[108.9,26.2],[108.9,26.3]],[[108.9,26.3],[109.1,26.3]],[[109.1,26.3],[109.1,26.4]],[[109.1,26.4],[109.2,26.4]],[[109.2,26.4],[109.2,26.5]],[[109.2,26.5],[109.3,26.5]],[[109.3,26.5],[109.3,26.6]],[[109.3,26.6],[109.4,26.6]],[[109.4,26.6],[109.4,26.7]],[[109.4,26.7],[109.5,26.7]],[[109.5,26.7],[109.5,26.8]],[[109.5,26.8],[109.6,26.8]],[[109.6,26.8],[109.6,27.0]],[[109.6,27.0],[109.7,27.0]],[[109.7,27.0],[109.7,27.1]],[[109.7,27.1],[109.8,27.1]],[[109.8,27.1],[109.8,27.2]],[[109.8,27.2],[109.9,27.2]],[[109.9,27.2],[109.9,27.3]],[[109.9,27.3],[110.0,27.3]],[[110.0,27.3],[110.0,27.5]],[[110.0,27.5],[110.1,27.5]],[[110.1,27.5],[110.1,27.8]],[[110.1,27.8],[110.2,27.8]],[[110.2,27.8],[110.2,28.0]],[[110.2,28.0],[110.3,28.0]],[[110.3,28.0],[110.3,28.1]],[[110.3,28.1],[110.4,28.1]],[[110.4,28.1],[110.4,28.4]],[[110.4,28.4],[110.5,28.4]],[[110.5,28.4],[110.5,28.6]],[[110.5,28.6],[110.6,28.6]],[[110.6,28.6],[110.6,28.8]],[[110.6,28.8],[110.7,28.8]],[[110.7,28.8],[110.7,29.0]],[[110.7,29.0],[110.8,29.0]],[[110.8,29.0],[110.8,29.2]],[[110.8,29.2],[110.9,29.2]],[[110.9,29.2],[110.9,29.4]],[[110.9,29.4],[111.0,29.4]],[[111.0,29.4],[111.0,29.7]],[[111.0,29.7],[111.1,29.7]],[[111.1,29.7],[111.1,30.1]],[[111.1,30.1],[111.2,30.1]],[[111.2,30.1],[111.2,30.3]],[[111.2,30.3],[111.3,30.3]],[[111.3,30.3],[111.3,30.4]],[[111.3,30.4],[111.4,30.4]],[[111.4,30.4],[111.4,30.5]],[[111.4,30.5],[111.5,30.5]],[[111.5,30.5],[111.5,30.6]],[[111.5,30.6],[111.6,30.6]],[[111.6,30.6],[111.6,30.7]],[[111.6,30.7],[111.7,30.7]],[[111.7,30.7],[111.7,30.9]],[[111.7,30.9],[111.8,30.9]],[[111.8,30.9],[111.8,31.0]],[[111.8,31.0],[111.9,31.0]],[[111.9,31.0],[111.9,31.1]],[[111.9,31.1],[112.1,31.1]],[[112.1,31.1],[112.1,31.2]],[[112.1,31.2],[112.1,31.3]],[[112.1,31.3],[112.0,31.3]],[[112.0,31.3],[112.0,31.7]],[[112.0,31.7],[112.1,31.7]],[[112.1,31.7],[112.1,32.0]],[[112.1,32.0],[112.2,32.0]],[[112.2,32.0],[112.2,32.1]],[[112.2,32.1],[112.3,32.1]],[[112.3,32.1],[112.3,32.2]],[[112.3,32.2],[112.4,32.2]],[[112.4,32.2],[112.4,32.3]],[[112.4,32.3],[112.5,32.3]],[[112.5,32.3],[112.5,32.5]],[[112.5,32.5],[112.6,32.5]],[[112.6,32.5],[112.6,32.6]],[[112.6,32.6],[112.7,32.6]],[[112.7,32.6],[112.7,32.7]],[[112.7,32.7],[112.8,32.7]],[[112.8,32.7],[112.8,32.8]],[[112.8,32.8],[112.9,32.8]],[[112.9,32.8],[112.9,32.9]],[[112.9,32.9],[113.0,32.9]],[[113.0,32.9],[113.0,33.0]],[[113.0,33.0],[113.1,33.0]],[[113.1,33.0],[113.1,34.0]],[[113.1,34.0],[113.2,34.0]],[[113.2,34.0],[113.2,34.2]],[[113.2,34.2],[113.3,34.2]],[[113.3,34.2],[113.3,34.3]],[[113.3,34.3],[113.4,34.3]],[[113.4,34.3],[113.4,35.8]],[[113.4,35.8],[113.3,35.8]],[[113.3,35.8],[113.3,36.5]],[[113.3,36.5],[113.2,36.5]],[[113.2,36.5],[113.2,37.5]],[[113.2,37.5],[113.3,37.5]],[[113.3,37.5],[113.3,37.7]],[[113.3,37.7],[113.2,37.7]],[[113.2,37.7],[113.2,37.9]],[[113.2,37.9],[113.1,37.9]],[[113.1,37.9],[113.1,38.3]],[[113.1,38.3],[113.0,38.3]],[[113.0,38.3],[113.0,38.6]],[[113.0,38.6],[112.9,38.6]],[[112.9,38.6],[112.9,39.0]],[[112.9,39.0],[112.8,39.0]],[[112.8,39.0],[112.8,39.4]],[[112.8,39.4],[112.7,39.4]],[[112.7,39.4],[112.7,42.3]],[[112.7,42.3],[112.8,42.3]],[[112.8,42.3],[112.8,42.4]],[[112.8,42.4],[112.9,42.4]],[[112.9,42.4],[112.9,42.5]],[[112.9,42.5],[112.8,42.5]],[[112.8,42.5],[112.8,42.6]],[[112.8,42.6],[109.3,42.6]],[[109.3,42.6],[109.3,42.7]],[[109.3,42.7],[108.0,42.7]],[[108.0,42.7],[108.0,42.8]],[[108.0,42.8],[106.1,42.8]],[[106.1,42.8],[106.1,42.9]],[[106.1,42.9],[105.1,42.9]],[[105.1,42.9],[105.1,43.0]],[[105.1,43.0],[104.3,43.0]],[[104.3,43.0],[104.3,43.1]],[[104.3,43.1],[103.7,43.1]],[[103.7,43.1],[103.7,43.2]],[[103.7,43.2],[103.2,43.2]],[[103.2,43.2],[103.2,43.3]],[[103.2,43.3],[102.6,43.3]],[[102.6,43.3],[102.6,43.4]],[[102.6,43.4],[102.3,43.4]],[[102.3,43.4],[102.3,43.5]],[[127.3,38.5],[127.2,38.5]],[[127.2,38.5],[127.2,38.6]],[[127.2,38.6],[127.0,38.6]],[[127.0,38.6],[127.0,38.5]],[[127.0,38.5],[126.8,38.5]],[[126.8,38.5],[126.8,38.4]],[[126.8,38.4],[126.7,38.4]],[[126.7,38.4],[126.7,38.3]],[[126.7,38.3],[126.5,38.3]],[[126.5,38.3],[126.5,38.2]],[[126.5,38.2],[126.4,38.2]],[[126.4,38.2],[126.4,38.1]],[[126.4,38.1],[126.3,38.1]],[[126.3,38.1],[126.3,38.0]],[[126.3,38.0],[126.2,38.0]],[[126.2,38.0],[126.2,37.9]],[[126.2,37.9],[126.0,37.9]],[[126.0,37.9],[126.0,37.8],[126.3,37.8],[126.3,37.7],[126.4,37.7],[126.4,37.4],[126.5,37.4]],[[126.5,37.4],[126.6,37.4]],[[126.6,37.4],[126.6,37.5]],[[126.6,37.5],[127.5,37.5]],[[127.5,37.5],[127.5,37.4]],[[127.5,37.4],[127.7,37.4]],[[127.7,37.4],[127.7,37.2]],[[127.7,37.2],[127.8,37.2]],[[127.8,37.2],[127.8,37.0]],[[127.8,37.0],[127.9,37.0]],[[127.9,37.0],[127.9,36.4]],[[127.9,36.4],[127.8,36.4]],[[127.8,36.4],[127.8,36.3]],[[127.8,36.3],[127.7,36.3]],[[127.7,36.3],[127.7,36.1]],[[127.7,36.1],[127.6,36.1]],[[127.6,36.1],[127.6,35.8]],[[127.6,35.8],[127.5,35.8]],[[127.5,35.8],[127.5,35.7]],[[127.5,35.7],[127.4,35.7]],[[127.4,35.7],[127.4,35.5]],[[127.4,35.5],[127.3,35.5]],[[127.3,35.5],[127.3,35.3]],[[127.3,35.3],[127.2,35.3]],[[127.2,35.3],[127.2,34.9]],[[127.2,34.9],[127.1,34.9]],[[127.1,34.9],[127.1,34.5]],[[127.1,34.5],[127.0,34.5]],[[127.0,34.5],[127.0,34.4]],[[127.0,34.4],[127.5,34.4],[127.5,34.5],[127.8,34.5],[127.8,34.6],[127.9,34.6],[127.9,34.7],[128.2,34.7],[128.2,34.8],[128.3,34.8],[128.3,34.7],[128.4,34.7],[128.4,34.8],[128.7,34.8],[128.7,34.9],[128.8,34.9],[128.8,35.0],[128.9,35.0],[128.9,35.1],[129.2,35.1],[129.2,35.2],[129.3,35.2],[129.3,35.4],[129.4,35.4],[129.4,35.5],[129.5,35.5],[129.5,35.8],[129.6,35.8],[129.6,36.1],[129.5,36.1],[129.5,36.2],[129.4,36.2],[129.4,36.5],[129.5,36.5],[129.5,37.1],[129.4,37.1],[129.4,37.4],[129.3,37.4],[129.3,37.5],[129.2,37.5],[129.2,37.7],[129.1,37.7],[129.1,37.8],[129.0,37.8],[129.0,37.9],[128.9,37.9],[128.9,38.0],[128.8,38.0],[128.8,38.1],[128.7,38.1],[128.7,38.3],[128.6,38.3],[128.6,38.5],[128.5,38.5]],[[128.5,38.5],[128.2,38.5]],[[128.2,38.5],[128.2,38.4]],[[128.2,38.4],[128.0,38.4]],[[128.0,38.4],[128.0,38.3]],[[128.0,38.3],[127.8,38.3]],[[127.8,38.3],[127.8,38.2]],[[127.8,38.2],[127.6,38.2]],[[127.6,38.2],[127.6,38.3]],[[127.6,38.3],[127.4,38.3]],[[127.4,38.3],[127.4,38.4]],[[127.4,38.4],[127.3,38.4]],[[127.3,38.4],[127.3,38.5]],[[74.3,31.8],[74.2,31.8]],[[74.2,31.8],[74.2,31.5]],[[74.2,31.5],[74.1,31.5]],[[74.1,31.5],[74.1,31.3]],[[74.1,31.3],[74.0,31.3]],[[74.0,31.3],[74.0,30.7]],[[74.0,30.7],[73.9,30.7]],[[73.9,30.7],[73.9,30.3]],[[73.9,30.3],[73.8,30.3]],[[73.8,30.3],[73.8,29.8]],[[73.8,29.8],[73.7,29.8]],[[73.7,29.8],[73.7,28.4]],[[73.7,28.4],[73.8,28.4]],[[73.8,28.4],[73.8,28.1]],[[73.8,28.1],[73.9,28.1]],[[73.9,28.1],[73.9,28.0]],[[73.9,28.0],[74.1,28.0]],[[74.1,28.0],[74.1,27.9]],[[74.1,27.9],[74.2,27.9]],[[74.2,27.9],[74.2,27.8]],[[74.2,27.8],[74.4,27.8]],[[74.4,27.8],[74.4,27.7]],[[74.4,27.7],[74.5,27.7]],[[74.5,27.7],[74.5,27.6]],[[74.5,27.6],[74.8,27.6]],[[74.8,27.6],[74.8,27.4]],[[74.8,27.4],[74.9,27.4]],[[74.9,27.4],[74.9,26.7]],[[74.9,26.7],[75.0,26.7]],[[75.0,26.7],[75.0,26.3]],[[75.0,26.3],[75.1,26.3]],[[75.1,26.3],[75.1,26.2]],[[75.1,26.2],[75.2,26.2]],[[75.2,26.2],[75.2,25.9]],[[75.2,25.9],[75.3,25.9]],[[75.3,25.9],[75.3,25.8]],[[75.3,25.8],[75.4,25.8]],[[75.4,25.8],[75.4,25.7]],[[75.4,25.7],[75.5,25.7]],[[75.5,25.7],[75.5,25.6]],[[75.5,25.6],[75.6,25.6]],[[75.6,25.6],[75.6,25.5]],[[75.6,25.5],[75.7,25.5]],[[75.7,25.5],[75.7,24.1]],[[75.7,24.1],[75.6,24.1]],[[75.6,24.1],[75.6,22.9]],[[75.6,22.9],[75.7,22.9]],[[75.7,22.9],[75.7,22.8]],[[75.7,22.8],[75.8,22.8]],[[75.8,22.8],[75.8,22.7]],[[75.8,22.7],[75.9,22.7]],[[75.9,22.7],[76.3,22.7]],[[76.3,22.7],[76.3,22.8]],[[76.3,22.8],[76.4,22.8]],[[76.4,22.8],[76.4,22.9]],[[76.4,22.9],[76.8,22.9]],[[76.8,22.9],[76.8,23.0]],[[76.8,23.0],[77.3,23.0]],[[77.3,23.0],[77.3,23.1]],[[77.3,23.1],[77.8,23.1]],[[77.8,23.1],[77.8,23.2]],[[77.8,23.2],[77.9,23.2]],[[77.9,23.2],[77.9,23.3]],[[77.9,23.3],[78.0,23.3]],[[78.0,23.3],[78.0,23.4]],[[78.0,23.4],[78.4,23.4]],[[78.4,23.4],[78.4,23.3]],[[78.4,23.3],[79.0,23.3]],[[79.0,23.3],[79.0,23.2]],[[79.0,23.2],[79.3,23.2]],[[79.3,23.2],[79.3,23.1]],[[79.3,23.1],[79.5,23.1]],[[79.5,23.1],[79.6,23.1],[79.6,23.6],[79.7,23.6],[79.7,23.8],[79.8,23.8],[79.8,24.0],[79.9,24.0],[79.9,24.2],[80.0,24.2],[80.0,25.1],[80.1,25.1],[80.1,25.4],[80.2,25.4],[80.2,25.8],[80.3,25.8],[80.3,26.4],[80.4,26.4],[80.4,26.8],[80.5,26.8],[80.5,27.8],[80.4,27.8],[80.4,28.3],[80.3,28.3],[80.3,28.5],[80.2,28.5],[80.2,28.9],[80.1,28.9],[80.1,29.0],[79.9,29.0],[79.9,29.1],[79.8,29.1],[79.8,29.2],[79.6,29.2],[79.6,29.3],[79.4,29.3],[79.4,29.4],[79.2,29.4],[79.2,29.5],[79.1,29.5],[79.1,29.6],[78.8,29.6],[78.8,29.8],[78.5,29.8],[78.5,29.9],[78.2,29.9],[78.2,30.0],[77.9,30.0],[77.9,30.1],[77.5,30.1],[77.5,30.2],[77.3,30.2],[77.3,30.3],[76.9,30.3],[76.9,30.4],[76.8,30.4],[76.8,30.5],[76.5,30.5],[76.5,30.6],[76.3,30.6],[76.3,30.7],[76.2,30.7],[76.2,30.8],[76.0,30.8],[76.0,30.9],[75.8,30.9],[75.8,31.0],[75.7,31.0],[75.7,31.1],[75.6,31.1],[75.6,31.2],[75.4,31.2],[75.4,31.3],[75.0,31.3],[75.0,31.4],[74.8,31.4],[74.8,31.5],[74.6,31.5],[74.6,31.6],[74.5,31.6],[74.5,31.7],[74.3,31.7],[74.3,31.8]],[[105.3,13.1],[105.3,13.2],[104.1,13.2],[104.1,13.1],[103.8,13.1],[103.8,13.0],[103.5,13.0],[103.5,12.9],[103.1,12.9],[103.1,12.8],[102.7,12.8],[102.7,12.7],[102.5,12.7],[102.5,12.6],[102.4,12.6],[102.4,12.5],[102.3,12.5],[102.3,12.2],[102.7,12.2],[102.7,12.1],[102.8,12.1],[102.8,11.8],[102.9,11.8],[102.9,11.6],[103.0,11.6],[103.0,11.3],[103.1,11.3],[103.1,10.9],[103.4,10.9],[103.4,11.0],[103.6,11.0],[103.6,10.6],[103.7,10.6],[103.7,10.5],[103.8,10.5],[103.8,10.4],[104.0,10.4],[104.0,10.5],[104.2,10.5],[104.2,10.6],[104.3,10.6],[104.3,10.5],[104.4,10.5],[104.4,10.4],[104.5,10.4],[104.5,10.3],[104.7,10.3],[104.7,10.2],[104.9,10.2],[104.9,10.1],[105.0,10.1],[105.0,9.9],[104.9,9.9],[104.9,9.7],[104.8,9.7],[104.8,8.7],[104.9,8.7],[104.9,8.6],[105.1,8.6],[105.1,8.7],[105.2,8.7],[105.2,8.8],[105.3,8.8],[105.3,8.9],[105.4,8.9],[105.4,9.0],[105.5,9.0],[105.5,9.1],[105.6,9.1],[105.6,9.2],[105.8,9.2],[105.8,9.3],[106.1,9.3],[106.1,9.4],[106.2,9.4],[106.2,9.5],[106.3,9.5],[106.3,9.6],[106.5,9.6],[106.5,9.7],[106.6,9.7],[106.6,9.8],[106.7,9.8],[106.7,10.0],[106.8,10.0],[106.8,10.4],[106.9,10.4],[106.9,10.5]],[[106.9,10.5],[106.9,10.6]],[[106.9,10.6],[106.8,10.6]],[[106.8,10.6],[106.8,10.7]],[[106.8,10.7],[106.7,10.7]],[[106.7,10.7],[106.7,10.8]],[[106.7,10.8],[106.6,10.8]],[[106.6,10.8],[106.6,10.9]],[[106.6,10.9],[106.5,10.9]],[[106.5,10.9],[106.5,11.0]],[[106.5,11.0],[106.4,11.0]],[[106.4,11.0],[106.4,11.1]],[[106.4,11.1],[106.3,11.1]],[[106.3,11.1],[106.3,11.2]],[[106.3,11.2],[106.2,11.2]],[[106.2,11.2],[106.2,11.3]],[[106.2,11.3],[106.1,11.3]],[[106.1,11.3],[106.1,11.4]],[[106.1,11.4],[106.0,11.4]],[[106.0,11.4],[106.0,12.9]],[[106.0,12.9],[106.0,13.1],[105.3,13.1]],[[105.1,10.8],[105.2,10.8],[105.2,10.9],[105.3,10.9],[105.3,10.7],[105.1,10.7],[105.1,10.8]],[[60.1,34.2],[60.1,34.3]],[[60.1,34.3],[60.0,34.3]],[[60.0,25.4],[60.7,25.4],[60.7,25.3],[61.1,25.3],[61.1,25.2],[61.3,25.2],[61.3,25.1],[62.0,25.1],[62.0,25.2],[62.5,25.2],[62.5,25.3],[63.3,25.3]],[[63.3,25.3],[63.3,25.5]],[[63.3,25.5],[63.4,25.5]],[[63.4,25.5],[63.4,26.2]],[[63.4,26.2],[63.5,26.2]],[[63.5,26.2],[63.5,26.7]],[[63.5,26.7],[63.6,26.7]],[[63.6,26.7],[63.6,27.0]],[[63.6,27.0],[63.7,27.0]],[[63.7,27.0],[63.7,27.3]],[[63.7,27.3],[63.8,27.3]],[[63.8,27.3],[63.8,27.7]],[[63.8,27.7],[63.9,27.7]],[[63.9,27.7],[63.9,28.0]],[[63.9,28.0],[64.0,28.0]],[[64.0,28.0],[64.0,28.3]],[[64.0,28.3],[64.1,28.3]],[[64.1,28.3],[64.1,28.5]],[[64.1,28.5],[64.2,28.5]],[[64.2,28.5],[64.2,28.8]],[[64.2,28.8],[64.3,28.8]],[[64.3,28.8],[64.3,29.3]],[[64.3,29.3],[64.4,29.3]],[[64.4,29.3],[64.4,29.4]],[[64.4,29.4],[64.5,29.4]],[[64.5,29.4],[64.5,29.6]],[[64.5,29.6],[64.6,29.6]],[[64.6,29.6],[64.6,29.9]],[[64.6,29.9],[64.7,29.9]],[[64.7,29.9],[64.7,30.0]],[[64.7,30.0],[64.8,30.0]],[[64.8,30.0],[64.8,30.2]],[[64.8,30.2],[64.9,30.2]],[[64.9,30.2],[64.9,30.3]],[[64.9,30.3],[65.0,30.3]],[[65.0,30.3],[65.0,30.5]],[[65.0,30.5],[65.1,30.5]],[[65.1,30.5],[65.1,30.6]],[[65.1,30.6],[65.2,30.6]],[[65.2,30.6],[65.2,30.7]],[[65.2,30.7],[65.3,30.7]],[[65.3,30.7],[65.3,31.4]],[[65.3,31.4],[65.4,31.4]],[[65.4,31.4],[65.4,31.8]],[[65.4,31.8],[64.7,31.8]],[[64.7,31.8],[64.7,31.9]],[[64.7,31.9],[63.9,31.9]],[[63.9,31.9],[63.9,32.0]],[[63.9,32.0],[63.5,32.0]],[[63.5,32.0],[63.5,32.1]],[[63.5,32.1],[63.2,32.1]],[[63.2,32.1],[63.2,32.2]],[[63.2,32.2],[62.9,32.2]],[[62.9,32.2],[62.9,32.3]],[[62.9,32.3],[62.8,32.3]],[[62.8,32.3],[62.8,32.4]],[[62.8,32.4],[62.7,32.4]],[[62.7,32.4],[62.7,32.5]],[[62.7,32.5],[62.6,32.5]],[[62.6,32.5],[62.6,32.6]],[[62.6,32.6],[62.4,32.6]],[[62.4,32.6],[62.4,32.7]],[[62.4,32.7],[62.2,32.7]],[[62.2,32.7],[62.2,32.8]],[[62.2,32.8],[62.1,32.8]],[[62.1,32.8],[62.1,32.9]],[[62.1,32.9],[61.9,32.9]],[[61.9,32.9],[61.9,33.0]],[[61.9,33.0],[61.5,33.0]],[[61.5,33.0],[61.5,33.1]],[[61.5,33.1],[61.3,33.1]],[[61.3,33.1],[61.3,33.2]],[[61.3,33.2],[61.1,33.2]],[[61.1,33.2],[61.1,33.3]],[[61.1,33.3],[60.8,33.3]],[[60.8,33.3],[60.8,33.4]],[[60.8,33.4],[60.7,33.4]],[[60.7,33.4],[60.7,33.5]],[[60.7,33.5],[60.6,33.5]],[[60.6,33.5],[60.6,33.7]],[[60.6,33.7],[60.5,33.7]],[[60.5,33.7],[60.5,33.8]],[[60.5,33.8],[60.4,33.8]],[[60.4,33.8],[60.4,33.9]],[[60.4,33.9],[60.3,33.9]],[[60.3,33.9],[60.3,34.0]],[[60.3,34.0],[60.2,34.0]],[[60.2,34.0],[60.2,34.2]],[[60.2,34.2],[60.1,34.2]],[[91.8,39.8],[91.5,39.8]],[[91.5,39.8],[91.5,39.7]],[[91.5,39.7],[91.0,39.7]],[[91.0,39.7],[91.0,39.6]],[[91.0,39.6],[90.4,39.6]],[[90.4,39.6],[90.4,39.5]],[[90.4,39.5],[90.3,39.5]],[[90.3,39.5],[90.3,39.4]],[[90.3,39.4],[90.2,39.4]],[[90.2,39.4],[90.2,39.3]],[[90.2,39.3],[90.2,39.2],[90.3,39.2],[90.3,38.9],[90.4,38.9],[90.4,38.7],[90.5,38.7],[90.5,38.5],[90.6,38.5],[90.6,38.3],[90.7,38.3],[90.7,38.2],[90.8,38.2],[90.8,38.1],[91.1,38.1],[91.1,38.0],[91.3,38.0],[91.3,37.9],[91.4,37.9],[91.4,37.8],[91.6,37.8],[91.6,37.6],[91.7,37.6],[91.7,37.5],[91.9,37.5],[91.9,37.4],[92.3,37.4],[92.3,37.3],[92.5,37.3],[92.5,37.2],[92.6,37.2],[92.6,37.1],[93.0,37.1],[93.0,37.0],[93.4,37.0],[93.4,36.9],[94.0,36.9],[94.0,36.8],[94.3,36.8],[94.3,36.7],[95.0,36.7],[95.0,36.6],[96.3,36.6],[96.3,36.5],[99.6,36.5],[99.6,36.4],[100.2,36.4],[100.2,36.3],[100.7,36.3],[100.7,36.2],[100.9,36.2],[100.9,36.0],[101.0,36.0],[101.0,35.9],[101.2,35.9],[101.2,35.8],[101.4,35.8],[101.4,35.7],[102.3,35.7],[102.3,35.6],[102.8,35.6],[102.8,35.5],[103.0,35.5],[103.0,35.4],[103.3,35.4],[103.3,35.3],[103.5,35.3],[103.5,35.2],[103.6,35.2],[103.6,35.1],[104.7,35.1],[104.7,34.9],[104.8,34.9],[104.8,34.8],[104.9,34.8],[104.9,33.8],[105.0,33.8]],[[124.2,44.9],[124.1,44.9],[124.1,45.0],[123.1,45.0]],[[123.1,45.0],[122.2,45.0]],[[122.2,45.0],[122.2,44.9]],[[122.2,44.9],[122.1,44.9]],[[122.1,44.9],[122.1,44.8]],[[122.1,44.8],[122.0,44.8]],[[122.0,44.8],[122.0,44.6]],[[122.0,44.6],[121.9,44.6]],[[121.9,44.6],[121.9,43.8]],[[121.9,43.8],[121.8,43.8]],[[121.8,43.8],[121.8,43.6]],[[121.8,43.6],[121.7,43.6]],[[121.7,43.6],[121.7,43.5]],[[121.7,43.5],[121.6,43.5]],[[121.6,43.5],[121.6,43.3]],[[121.6,43.3],[121.5,43.3]],[[121.5,43.3],[121.5,43.1]],[[121.5,43.1],[121.4,43.1]],[[121.4,43.1],[121.4,42.9]],[[121.4,42.9],[121.2,42.9]],[[121.2,42.9],[121.2,42.8]],[[121.2,42.8],[120.8,42.8]],[[120.8,42.8],[120.8,42.7]],[[120.8,42.7],[120.9,42.7]],[[120.9,42.7],[120.9,42.5]],[[120.9,42.5],[121.0,42.5]],[[121.0,42.5],[121.0,42.3]],[[121.0,42.3],[121.1,42.3]],[[121.1,42.3],[121.1,42.1]],[[121.1,42.1],[121.2,42.1]],[[121.2,42.1],[121.2,42.0]],[[121.2,42.0],[121.3,42.0]],[[121.3,42.0],[121.3,41.8]],[[121.3,41.8],[121.4,41.8]],[[121.4,41.8],[121.4,41.6]],[[121.4,41.6],[121.5,41.6]],[[121.5,41.6],[121.5,41.2]],[[121.5,41.2],[121.4,41.2]],[[121.4,41.2],[121.4,41.0]],[[121.4,41.0],[121.5,41.0]],[[121.5,41.0],[121.8,41.0],[121.8,40.9],[121.9,40.9],[121.9,40.8],[122.1,40.8],[122.1,40.7],[122.2,40.7],[122.2,40.4],[122.1,40.4],[122.1,40.3],[122.0,40.3],[122.0,40.2],[121.9,40.2],[121.9,40.1],[121.8,40.1],[121.8,40.0],[121.6,40.0],[121.6,39.9],[121.5,39.9],[121.5,39.8],[121.4,39.8],[121.4,39.7],[121.3,39.7],[121.3,39.5],[121.4,39.5],[121.4,39.3],[121.5,39.3],[121.5,39.2],[121.4,39.2],[121.4,39.1],[121.3,39.1],[121.3,38.8],[121.5,38.8],[121.5,38.9],[121.9,38.9],[121.9,39.0],[122.0,39.0],[122.0,39.1],[122.1,39.1],[122.1,39.2],[122.2,39.2],[122.2,39.3],[122.5,39.3],[122.5,39.4],[122.6,39.4],[122.6,39.5],[122.7,39.5],[122.7,39.6],[122.9,39.6],[122.9,39.7],[123.3,39.7],[123.3,39.8],[123.7,39.8],[123.7,39.9],[124.2,39.9],[124.2,39.8],[124.5,39.8],[124.5,39.7],[124.7,39.7],[124.7,39.6],[125.3,39.6],[125.3,39.5],[125.4,39.5],[125.4,39.3],[125.3,39.3],[125.3,39.1],[125.2,39.1],[125.2,39.0],[125.1,39.0],[125.1,38.7],[125.0,38.7],[125.0,38.6],[124.9,38.6],[124.9,38.1],[125.0,38.1],[125.0,37.9],[125.1,37.9],[125.1,37.8],[125.2,37.8],[125.2,37.7],[125.4,37.7],[125.4,37.8],[125.7,37.8],[125.7,37.9],[126.0,37.9]],[[128.5,38.5],[128.5,38.6],[128.4,38.6],[128.4,38.7],[128.3,38.7],[128.3,38.8],[128.2,38.8],[128.2,38.9],[128.1,38.9],[128.1,39.0],[127.9,39.0],[127.9,39.1],[127.8,39.1],[127.8,39.2],[127.7,39.2],[127.7,39.3],[127.6,39.3],[127.6,39.8],[127.7,39.8],[127.7,39.9],[127.9,39.9],[127.9,40.0],[128.3,40.0],[128.3,40.1],[128.5,40.1],[128.5,40.2],[128.6,40.2],[128.6,40.3],[128.8,40.3],[128.8,40.4],[128.9,40.4],[128.9,40.5],[129.1,40.5],[129.1,40.6],[129.2,40.6],[129.2,40.7],[129.4,40.7],[129.4,40.8],[129.6,40.8],[129.6,40.9],[129.7,40.9],[129.7,41.0],[129.8,41.0],[129.8,41.8],[129.9,41.8],[129.9,41.9],[130.0,41.9],[130.0,42.0],[130.1,42.0],[130.1,42.1],[130.2,42.1],[130.2,42.2],[130.4,42.2],[130.4,42.3],[130.5,42.3],[130.5,42.4],[130.6,42.4],[130.6,42.5],[130.9,42.5],[130.9,42.6],[130.8,42.6],[130.8,42.7],[130.7,42.7],[130.7,42.8],[130.6,42.8],[130.6,42.9],[130.5,42.9],[130.5,43.0],[130.3,43.0],[130.3,43.1],[130.0,43.1],[130.0,43.2],[129.6,43.2],[129.6,43.3],[127.2,43.3],[127.2,43.4],[126.8,43.4],[126.8,43.5],[126.4,43.5],[126.4,43.6],[126.2,43.6],[126.2,43.7],[125.9,43.7],[125.9,43.8],[125.7,43.8],[125.7,43.9],[125.5,43.9],[125.5,44.0],[125.4,44.0],[125.4,44.1],[125.3,44.1],[125.3,44.2],[125.1,44.2],[125.1,44.3],[124.9,44.3],[124.9,44.4],[124.8,44.4],[124.8,44.5],[124.6,44.5],[124.6,44.6],[124.5,44.6],[124.5,44.7],[124.4,44.7],[124.4,44.8],[124.2,44.8],[124.2,44.9]],[[75.9,22.7],[75.9,22.6]],[[75.9,22.6],[76.0,22.6]],[[76.0,22.6],[76.0,22.5]],[[76.0,22.5],[76.1,22.5]],[[76.1,22.5],[76.1,22.4]],[[76.1,22.4],[76.2,22.4]],[[76.2,22.4],[76.2,22.2]],[[76.2,22.2],[76.3,22.2]],[[76.3,22.2],[76.3,21.1]],[[76.3,21.1],[76.2,21.1]],[[76.2,21.1],[76.2,20.9]],[[76.2,20.9],[76.1,20.9]],[[76.1,20.9],[76.1,20.7]],[[76.1,20.7],[76.0,20.7]],[[76.0,20.7],[76.0,20.6]],[[76.0,20.6],[75.9,20.6]],[[75.9,20.6],[75.9,20.4]],[[75.9,20.4],[75.8,20.4]],[[75.8,20.4],[75.8,20.3]],[[75.8,20.3],[75.7,20.3]],[[75.7,20.3],[75.7,20.2]],[[75.7,20.2],[75.6,20.2]],[[75.6,20.2],[75.6,20.0]],[[75.6,20.0],[75.5,20.0]],[[75.5,20.0],[75.5,19.9]],[[75.5,19.9],[75.4,19.9]],[[75.4,19.9],[75.4,19.7]],[[75.4,19.7],[75.3,19.7]],[[75.3,19.7],[75.3,19.5]],[[75.3,19.5],[75.2,19.5]],[[75.2,19.5],[75.2,19.3]],[[75.2,19.3],[75.1,19.3]],[[75.1,19.3],[75.1,19.2]],[[75.1,19.2],[75.0,19.2]],[[75.0,19.2],[75.0,19.0]],[[75.0,19.0],[74.9,19.0]],[[74.9,19.0],[74.9,18.8]],[[74.9,18.8],[74.8,18.8]],[[74.8,18.8],[74.8,18.6]],[[74.8,18.6],[74.7,18.6]],[[74.7,18.6],[74.7,18.4]],[[74.7,18.4],[74.6,18.4]],[[74.6,18.4],[74.6,18.2]],[[74.6,18.2],[74.5,18.2]],[[74.5,18.2],[74.5,18.0]],[[74.5,18.0],[74.4,18.0]],[[74.4,18.0],[74.4,17.8]],[[74.4,17.8],[74.3,17.8]],[[74.3,17.8],[74.3,17.6]],[[74.3,17.6],[74.2,17.6]],[[74.2,17.6],[74.2,17.5]],[[74.2,17.5],[74.1,17.5]],[[74.1,17.5],[74.1,17.3]],[[74.1,17.3],[74.0,17.3]],[[74.0,17.3],[74.0,17.0]],[[74.0,17.0],[73.9,17.0]],[[73.9,17.0],[73.9,16.9]],[[73.9,16.9],[73.8,16.9]],[[73.8,16.9],[73.8,16.6]],[[73.8,16.6],[73.7,16.6]],[[73.7,16.6],[73.7,16.0]],[[73.7,16.0],[73.6,16.0]],[[73.6,16.0],[73.6,15.9],[73.7,15.9],[73.7,15.6],[73.8,15.6],[73.8,15.4],[73.9,15.4],[73.9,15.1],[74.0,15.1],[74.0,15.0],[74.1,15.0],[74.1,14.9],[74.2,14.9],[74.2,14.7],[74.3,14.7],[74.3,14.5],[74.4,14.5],[74.4,14.3],[74.5,14.3],[74.5,14.0],[74.6,14.0],[74.6,13.7],[74.7,13.7],[74.7,13.3],[74.8,13.3],[74.8,12.8],[74.9,12.8],[74.9,12.6],[75.0,12.6],[75.0,12.4],[75.1,12.4],[75.1,12.2],[75.2,12.2]],[[75.2,12.2],[75.2,12.3]],[[75.2,12.3],[75.4,12.3]],[[75.4,12.3],[75.4,12.4]],[[75.4,12.4],[75.6,12.4]],[[75.6,12.4],[75.6,12.5]],[[75.6,12.5],[75.9,12.5]],[[75.9,12.5],[75.9,12.6]],[[75.9,12.6],[76.0,12.6]],[[76.0,12.6],[76.0,12.7]],[[76.0,12.7],[76.2,12.7]],[[76.2,12.7],[76.2,12.8]],[[76.2,12.8],[76.3,12.8]],[[76.3,12.8],[76.3,12.9]],[[76.3,12.9],[76.5,12.9]],[[76.5,12.9],[76.5,13.1]],[[76.5,13.1],[76.6,13.1]],[[76.6,13.1],[76.6,13.2]],[[76.6,13.2],[76.7,13.2]],[[76.7,13.2],[76.7,13.3]],[[76.7,13.3],[76.8,13.3]],[[76.8,13.3],[76.8,13.4]],[[76.8,13.4],[76.9,13.4]],[[76.9,13.4],[76.9,13.5]],[[76.9,13.5],[77.0,13.5]],[[77.0,13.5],[77.0,13.7]],[[77.0,13.7],[77.1,13.7]],[[77.1,13.7],[77.1,13.8]],[[77.1,13.8],[77.2,13.8]],[[77.2,13.8],[77.2,14.0]],[[77.2,14.0],[77.3,14.0]],[[77.3,14.0],[77.3,14.1]],[[77.3,14.1],[77.4,14.1]],[[77.4,14.1],[77.4,14.3]],[[77.4,14.3],[77.5,14.3]],[[77.5,14.3],[77.5,14.4]],[[77.5,14.4],[77.6,14.4]],[[77.6,14.4],[77.6,14.5]],[[77.6,14.5],[77.7,14.5]],[[77.7,14.5],[77.7,14.7]],[[77.7,14.7],[77.8,14.7]],[[77.8,14.7],[77.8,15.3]],[[77.8,15.3],[77.9,15.3]],[[77.9,15.3],[77.9,15.6]],[[77.9,15.6],[78.0,15.6]],[[78.0,15.6],[78.0,16.1]],[[78.0,16.1],[78.1,16.1]],[[78.1,16.1],[78.1,16.5]],[[78.1,16.5],[78.2,16.5]],[[78.2,16.5],[78.2,16.7]],[[78.2,16.7],[78.3,16.7]],[[78.3,16.7],[78.3,17.2]],[[78.3,17.2],[78.4,17.2]],[[78.4,17.2],[78.4,17.4]],[[78.4,17.4],[78.5,17.4]],[[78.5,17.4],[78.5,17.6]],[[78.5,17.6],[78.6,17.6]],[[78.6,17.6],[78.6,17.8]],[[78.6,17.8],[78.7,17.8]],[[78.7,17.8],[78.7,18.0]],[[78.7,18.0],[78.8,18.0]],[[78.8,18.0],[78.8,18.2]],[[78.8,18.2],[78.9,18.2]],[[78.9,18.2],[78.9,18.3]],[[78.9,18.3],[79.0,18.3]],[[79.0,18.3],[79.0,18.5]],[[79.0,18.5],[79.1,18.5]],[[79.1,18.5],[79.1,18.6]],[[79.1,18.6],[79.2,18.6]],[[79.2,18.6],[79.2,18.7]],[[79.2,18.7],[79.3,18.7]],[[79.3,18.7],[79.3,18.8]],[[79.3,18.8],[79.4,18.8]],[[79.4,18.8],[79.4,18.9]],[[79.4,18.9],[79.5,18.9]],[[79.5,18.9],[79.5,19.0]],[[79.5,19.0],[79.6,19.0]],[[79.6,19.0],[79.6,19.1]],[[79.6,19.1],[79.7,19.1]],[[79.7,19.1],[79.7,19.2]],[[79.7,19.2],[79.8,19.2]],[[79.8,19.2],[79.8,19.3]],[[79.8,19.3],[80.0,19.3]],[[80.0,19.3],[80.0,19.4]],[[80.0,19.4],[80.2,19.4]],[[80.2,19.4],[80.2,19.5]],[[80.2,19.5],[81.3,19.5]],[[81.3,19.5],[81.3,19.4]],[[81.3,19.4],[81.6,19.4]],[[81.6,19.4],[81.6,19.3]],[[81.6,19.3],[81.7,19.3]],[[81.7,19.3],[81.7,19.2]],[[81.7,19.2],[82.0,19.2]],[[82.0,19.2],[82.0,19.1]],[[82.0,19.1],[82.1,19.1]],[[82.1,19.1],[82.1,19.0]],[[82.1,19.0],[82.2,19.0]],[[82.2,19.0],[82.2,18.9]],[[82.2,18.9],[82.3,18.9]],[[82.3,18.9],[82.3,18.8]],[[82.3,18.8],[82.4,18.8]],[[82.4,18.8],[82.4,18.6]],[[82.4,18.6],[82.5,18.6]],[[82.5,18.6],[82.5,18.5]],[[82.5,18.5],[82.6,18.5]],[[82.6,18.5],[82.6,18.3]],[[82.6,18.3],[82.7,18.3]],[[82.7,18.3],[82.7,18.2]],[[82.7,18.2],[82.8,18.2]],[[82.8,18.2],[82.8,18.0]],[[82.8,18.0],[82.9,18.0]],[[82.9,18.0],[82.9,17.8]],[[82.9,17.8],[83.0,17.8]],[[83.0,17.8],[83.0,17.6]],[[83.0,17.6],[83.1,17.6]],[[83.1,17.6],[83.2,17.6],[83.2,17.7],[83.3,17.7],[83.3,17.8],[83.4,17.8],[83.4,17.9],[83.5,17.9],[83.5,18.0],[83.6,18.0],[83.6,18.1],[83.8,18.1],[83.8,18.2],[83.9,18.2],[83.9,18.3],[84.1,18.3],[84.1,18.4],[84.2,18.4],[84.2,18.5],[84.3,18.5],[84.3,18.6],[84.4,18.6],[84.4,18.7],[84.5,18.7],[84.5,18.8],[84.6,18.8],[84.6,18.9],[84.7,18.9],[84.7,19.1],[84.8,19.1],[84.8,19.2],[84.9,19.2],[84.9,19.3],[85.0,19.3],[85.0,19.4],[85.1,19.4],[85.1,19.5],[85.2,19.5],[85.2,19.6],[85.4,19.6],[85.4,19.7],[85.3,19.7],[85.3,19.8],[85.2,19.8],[85.2,19.9],[85.0,19.9],[85.0,20.0],[84.9,20.0],[84.9,20.2],[84.8,20.2],[84.8,20.3],[84.7,20.3],[84.7,20.5],[84.6,20.5],[84.6,20.6],[84.5,20.6],[84.5,20.8],[84.4,20.8],[84.4,20.9],[84.3,20.9],[84.3,21.0],[84.2,21.0],[84.2,21.1],[84.1,21.1],[84.1,21.2],[84.0,21.2],[84.0,21.3],[83.9,21.3],[83.9,21.4],[83.6,21.4],[83.6,21.5],[83.2,21.5],[83.2,21.6],[82.9,21.6],[82.9,21.7],[82.6,21.7],[82.6,21.8],[82.5,21.8],[82.5,21.9],[82.2,21.9],[82.2,22.0],[82.0,22.0],[82.0,22.1],[81.9,22.1],[81.9,22.2],[81.6,22.2],[81.6,22.3],[81.4,22.3],[81.4,22.4],[81.0,22.4],[81.0,22.5],[80.9,22.5],[80.9,22.6],[80.6,22.6],[80.6,22.7],[80.4,22.7],[80.4,22.8],[80.0,22.8],[80.0,22.9],[79.8,22.9],[79.8,23.0],[79.5,23.0],[79.5,23.1]],[[119.7,34.7],[119.6,34.7],[119.6,34.8],[119.5,34.8],[119.5,34.9],[119.4,34.9]],[[119.4,34.9],[119.0,34.9]],[[119.0,34.9],[119.0,34.8]],[[119.0,34.8],[118.9,34.8]],[[118.9,34.8],[118.9,34.7]],[[118.9,34.7],[118.7,34.7]],[[118.7,34.7],[118.7,34.6]],[[118.7,34.6],[118.5,34.6]],[[118.5,34.6],[118.5,34.5]],[[118.5,34.5],[118.3,34.5]],[[118.3,34.5],[118.3,34.4]],[[118.3,34.4],[118.2,34.4]],[[118.2,34.4],[118.2,34.3]],[[118.2,34.3],[118.0,34.3]],[[118.0,34.3],[118.0,34.2]],[[118.0,34.2],[117.9,34.2]],[[117.9,34.2],[117.9,34.1]],[[117.9,34.1],[117.8,34.1]],[[117.8,34.1],[117.8,34.0]],[[117.8,34.0],[117.6,34.0]],[[117.6,34.0],[117.6,33.9]],[[117.6,33.9],[117.5,33.9]],[[117.5,33.9],[117.5,33.8]],[[117.5,33.8],[117.3,33.8]],[[117.3,33.8],[117.3,33.7]],[[117.3,33.7],[117.2,33.7]],[[117.2,33.7],[117.2,33.6]],[[117.2,33.6],[117.0,33.6]],[[117.0,33.6],[117.0,33.5]],[[117.0,33.5],[116.9,33.5]],[[116.9,33.5],[116.9,33.4]],[[116.9,33.4],[116.8,33.4]],[[116.8,33.4],[116.8,33.3]],[[116.8,33.3],[116.7,33.3]],[[116.7,33.3],[116.7,33.1]],[[116.7,33.1],[116.6,33.1]],[[116.6,33.1],[116.6,33.0]],[[116.6,33.0],[116.4,33.0]],[[116.4,33.0],[116.4,32.9]],[[116.4,32.9],[116.3,32.9]],[[116.3,32.9],[116.3,32.8]],[[116.3,32.8],[116.0,32.8]],[[116.0,32.8],[116.0,32.7]],[[116.0,32.7],[115.8,32.7]],[[115.8,32.7],[115.8,32.6]],[[115.8,32.6],[115.6,32.6]],[[115.6,32.6],[115.6,32.2]],[[115.6,32.2],[115.5,32.2]],[[115.5,32.2],[115.5,31.7]],[[115.5,31.7],[115.4,31.7]],[[115.4,31.7],[115.4,31.4]],[[115.4,31.4],[115.3,31.4]],[[115.3,31.4],[115.3,31.3]],[[115.3,31.3],[115.2,31.3]],[[115.2,31.3],[115.2,31.2]],[[115.2,31.2],[115.1,31.2]],[[115.1,31.2],[115.1,31.1]],[[115.1,31.1],[114.9,31.1]],[[114.9,31.1],[114.9,30.9]],[[114.9,30.9],[114.7,30.9]],[[114.7,30.9],[114.7,30.8]],[[114.7,30.8],[114.1,30.8]],[[114.1,30.8],[114.1,30.9]],[[114.1,30.9],[113.7,30.9]],[[113.7,30.9],[113.7,31.0]],[[113.7,31.0],[113.3,31.0]],[[113.3,31.0],[113.3,31.1]],[[113.3,31.1],[113.0,31.1]],[[113.0,31.1],[113.0,31.2]],[[113.0,31.2],[112.1,31.2]],[[103.0,28.3],[102.9,28.3],[102.9,28.2],[102.7,28.2],[102.7,28.1],[102.6,28.1],[102.6,28.0],[102.5,28.0],[102.5,27.9],[102.3,27.9],[102.3,27.8],[102.2,27.8],[102.2,27.7],[102.1,27.7],[102.1,27.6],[102.0,27.6],[102.0,27.4],[101.9,27.4],[101.9,27.3],[101.8,27.3],[101.8,27.2],[101.7,27.2],[101.7,27.1],[101.6,27.1],[101.6,26.9],[101.5,26.9],[101.5,26.8],[101.4,26.8],[101.4,26.7],[101.3,26.7],[101.3,26.6],[101.2,26.6],[101.2,26.5],[101.1,26.5],[101.1,26.4],[101.0,26.4],[101.0,26.3],[100.9,26.3],[100.9,26.1],[100.8,26.1],[100.8,25.3],[100.9,25.3],[100.9,25.1],[101.0,25.1],[101.0,24.8],[101.1,24.8],[101.1,24.6],[101.2,24.6],[101.2,24.4],[101.3,24.4],[101.3,24.3],[101.4,24.3],[101.4,24.1],[101.5,24.1],[101.5,24.0],[101.6,24.0],[101.6,23.8],[101.8,23.8],[101.8,23.7],[101.9,23.7],[101.9,23.6],[102.0,23.6],[102.0,23.5],[102.1,23.5],[102.1,23.4],[102.2,23.4],[102.2,23.3],[102.4,23.3],[102.4,23.2],[102.5,23.2],[102.5,23.1],[102.6,23.1],[102.6,23.0],[102.7,23.0],[102.7,22.9],[102.8,22.9],[102.8,22.8],[102.9,22.8],[102.9,22.7],[103.0,22.7],[103.0,22.3],[103.1,22.3],[103.1,21.5],[103.2,21.5],[103.2,21.3],[103.3,21.3],[103.3,20.8],[103.4,20.8]],[[103.4,20.8],[103.4,20.9]],[[103.4,20.9],[103.8,20.9]],[[103.8,20.9],[103.8,21.0]],[[103.8,21.0],[105.8,21.0]],[[105.8,21.0],[105.8,20.9]],[[105.8,20.9],[106.2,20.9]],[[106.2,20.9],[106.2,20.8]],[[106.2,20.8],[106.5,20.8]],[[106.5,20.8],[106.5,20.7]],[[106.5,20.7],[106.6,20.7]],[[106.6,20.7],[106.6,20.6]],[[106.6,20.6],[106.7,20.6],[106.7,20.7],[106.9,20.7],[106.9,20.8],[107.1,20.8],[107.1,20.9],[107.5,20.9],[107.5,21.0],[107.6,21.0],[107.6,21.1],[107.7,21.1],[107.7,21.3],[107.8,21.3],[107.8,21.4],[108.0,21.4],[108.0,21.5],[108.2,21.5],[108.2,21.6],[108.5,21.6],[108.5,21.7],[109.0,21.7],[109.0,21.6],[109.1,21.6],[109.1,21.5],[109.7,21.5],[109.7,20.7],[109.8,20.7],[109.8,20.5],[109.9,20.5],[109.9,20.4],[110.0,20.4],[110.0,20.3],[110.1,20.3],[110.1,20.2],[110.0,20.2],[110.0,20.1],[109.6,20.1],[109.6,20.0],[109.3,20.0],[109.3,19.9],[109.2,19.9],[109.2,19.8],[109.1,19.8],[109.1,19.7],[109.0,19.7],[109.0,19.6],[108.9,19.6],[108.9,19.5],[108.8,19.5],[108.8,19.4],[108.7,19.4],[108.7,19.3],[108.6,19.3],[108.6,18.9],[108.7,18.9],[108.7,18.6],[108.8,18.6],[108.8,18.5],[108.9,18.5],[108.9,18.4],[109.2,18.4],[109.2,18.3],[109.5,18.3],[109.5,18.2],[109.7,18.2],[109.7,18.3],[109.8,18.3],[109.8,18.4],[110.0,18.4],[110.0,18.5],[110.1,18.5],[110.1,18.6],[110.2,18.6],[110.2,18.7],[110.5,18.7],[110.5,18.8],[110.6,18.8],[110.6,19.3],[110.7,19.3],[110.7,19.4],[110.8,19.4],[110.8,19.5],[110.9,19.5],[110.9,19.6],[111.0,19.6],[111.0,20.0],[110.9,20.0],[110.9,20.1],[110.8,20.1],[110.8,20.2],[110.5,20.2],[110.5,21.0],[110.6,21.0],[110.6,21.2],[110.7,21.2],[110.7,21.3],[110.8,21.3],[110.8,21.4],[110.9,21.4],[110.9,21.5],[111.5,21.5],[111.5,21.6],[111.9,21.6],[111.9,21.7],[112.9,21.7],[112.9,21.8],[113.0,21.8],[113.0,21.9],[113.2,21.9],[113.2,22.0],[113.5,22.0],[113.5,22.1],[113.6,22.1],[113.6,22.6],[113.9,22.6],[113.9,22.2],[114.0,22.2],[114.0,22.1],[114.2,22.1],[114.2,22.2],[114.3,22.2],[114.3,22.3],[114.4,22.3],[114.4,22.4],[114.5,22.4],[114.5,22.5],[114.7,22.5],[114.7,22.6],[115.0,22.6],[115.0,22.7],[115.1,22.7],[115.1,22.8],[116.0,22.8],[116.0,22.9],[116.2,22.9],[116.2,23.0],[116.5,23.0],[116.5,23.1],[116.6,23.1],[116.6,23.2],[116.7,23.2],[116.7,23.3],[116.8,23.3],[116.8,23.4],[116.9,23.4],[116.9,23.5],[117.3,23.5],[117.3,23.6],[117.4,23.6],[117.4,23.7],[117.5,23.7],[117.5,23.8],[117.6,23.8],[117.6,23.9],[117.7,23.9],[117.7,24.0],[117.9,24.0],[117.9,24.1],[118.0,24.1],[118.0,24.2],[118.1,24.2],[118.1,24.3],[118.2,24.3],[118.2,24.4],[118.4,24.4],[118.4,24.5],[118.5,24.5],[118.5,24.6],[118.6,24.6],[118.6,24.7],[118.8,24.7],[118.8,24.8],[118.9,24.8],[118.9,25.0],[119.0,25.0],[119.0,25.1],[119.1,25.1],[119.1,25.2],[119.3,25.2],[119.3,25.3],[119.4,25.3],[119.4,25.4],[119.8,25.4],[119.8,25.5],[119.9,25.5],[119.9,25.7],[119.8,25.7],[119.8,25.8],[119.7,25.8],[119.7,26.2],[119.8,26.2],[119.8,26.3],[119.9,26.3],[119.9,26.5],[120.0,26.5],[120.0,26.6],[120.1,26.6],[120.1,26.7],[120.2,26.7],[120.2,26.9],[120.3,26.9],[120.3,27.0],[120.4,27.0],[120.4,27.2],[120.5,27.2],[120.5,27.3],[120.6,27.3],[120.6,27.4],[120.7,27.4],[120.7,27.8],[120.8,27.8],[120.8,27.9],[121.2,27.9],[121.2,28.0],[121.3,28.0],[121.3,28.2],[121.4,28.2],[121.4,28.3],[121.6,28.3],[121.6,28.4],[121.7,28.4],[121.7,28.7],[121.8,28.7],[121.8,29.0],[121.9,29.0],[121.9,29.2],[122.0,29.2],[122.0,29.6],[122.1,29.6],[122.1,29.7],[122.3,29.7],[122.3,29.8],[122.4,29.8],[122.4,30.2],[122.3,30.2],[122.3,30.3],[121.9,30.3],[121.9,30.2],[121.5,30.2],[121.5,30.3],[121.4,30.3],[121.4,30.4],[121.2,30.4],[121.2,30.5],[121.1,30.5],[121.1,30.6],[121.2,30.6],[121.2,30.7],[121.4,30.7],[121.4,30.8],[121.5,30.8],[121.5,30.9],[121.8,30.9],[121.8,31.0],[121.9,31.0],[121.9,31.2],[121.8,31.2],[121.8,31.5],[121.9,31.5],[121.9,31.7],[122.0,31.7],[122.0,31.9],[121.9,31.9],[121.9,32.0],[121.8,32.0],[121.8,32.1],[121.7,32.1],[121.7,32.2],[121.5,32.2],[121.5,32.3],[121.4,32.3],[121.4,32.5],[121.3,32.5],[121.3,32.6],[121.1,32.6],[121.1,32.7],[121.0,32.7],[121.0,33.0],[120.9,33.0],[120.9,33.1],[120.8,33.1],[120.8,33.3],[120.7,33.3],[120.7,33.5],[120.6,33.5],[120.6,33.8],[120.5,33.8],[120.5,34.0],[120.4,34.0],[120.4,34.3],[120.3,34.3],[120.3,34.4],[120.2,34.4],[120.2,34.5],[119.9,34.5],[119.9,34.6],[119.7,34.6],[119.7,34.7]],[[116.0,29.2],[116.0,29.4],[116.2,29.4],[116.2,29.2],[116.0,29.2]],[[116.4,29.0],[116.4,29.2],[116.5,29.2],[116.5,29.0],[116.4,29.0]],[[60.2,43.9],[60.1,43.9],[60.1,43.8],[60.0,43.8]],[[65.4,31.8],[65.7,31.8]],[[65.7,31.8],[65.7,31.9]],[[65.7,31.9],[67.2,31.9]],[[67.2,31.9],[67.2,32.0]],[[67.2,32.0],[67.9,32.0]],[[67.9,32.0],[67.9,32.1]],[[67.9,32.1],[68.5,32.1]],[[68.5,32.1],[68.5,32.2]],[[68.5,32.2],[68.9,32.2]],[[68.9,32.2],[68.9,32.3]],[[68.9,32.3],[69.3,32.3]],[[69.3,32.3],[69.3,32.4]],[[69.3,32.4],[69.8,32.4]],[[69.8,32.4],[69.8,32.5]],[[69.8,32.5],[70.1,32.5]],[[70.1,32.5],[70.1,32.6]],[[70.1,32.6],[70.4,32.6]],[[70.4,32.6],[70.4,32.7]],[[70.4,32.7],[70.9,32.7]],[[70.9,32.7],[70.9,32.8]],[[70.9,32.8],[71.9,32.8]],[[71.9,32.8],[71.9,32.9]],[[71.9,32.9],[72.0,32.9]],[[72.0,32.9],[72.0,33.1]],[[72.0,33.1],[72.1,33.1]],[[72.1,33.1],[72.1,33.2]],[[72.1,33.2],[72.6,33.2]],[[72.6,33.2],[72.6,33.1]],[[72.6,33.1],[73.1,33.1]],[[73.1,33.1],[73.1,33.0]],[[73.1,33.0],[73.3,33.0]],[[73.3,33.0],[73.3,32.9]],[[73.3,32.9],[73.4,32.9]],[[73.4,32.9],[73.4,32.8]],[[73.4,32.8],[73.6,32.8]],[[73.6,32.8],[73.6,32.7]],[[73.6,32.7],[73.7,32.7]],[[73.7,32.7],[73.7,32.6]],[[73.7,32.6],[73.8,32.6]],[[73.8,32.6],[73.8,32.5]],[[73.8,32.5],[73.9,32.5]],[[73.9,32.5],[73.9,32.4]],[[73.9,32.4],[74.1,32.4]],[[74.1,32.4],[74.1,32.3]],[[74.1,32.3],[74.2,32.3]],[[74.2,32.3],[74.2,32.5],[74.1,32.5],[74.1,32.6],[74.0,32.6],[74.0,32.7],[73.9,32.7],[73.9,32.9],[73.8,32.9],[73.8,33.0],[73.7,33.0],[73.7,33.2],[73.6,33.2],[73.6,33.3],[73.5,33.3],[73.5,33.4],[73.4,33.4],[73.4,33.7],[73.3,33.7],[73.3,33.9],[73.2,33.9],[73.2,34.7],[73.3,34.7],[73.3,35.2],[73.4,35.2],[73.4,35.3],[73.5,35.3],[73.5,35.4],[73.6,35.4],[73.6,35.5],[73.7,35.5],[73.7,35.6],[73.8,35.6],[73.8,35.7],[73.9,35.7],[73.9,35.8],[74.1,35.8],[74.1,35.9],[74.2,35.9],[74.2,36.1],[74.4,36.1],[74.4,36.2],[74.5,36.2],[74.5,36.3],[74.6,36.3],[74.6,36.4],[74.7,36.4],[74.7,36.5],[74.8,36.5],[74.8,36.6],[74.9,36.6],[74.9,36.7],[75.1,36.7],[75.1,36.8],[75.3,36.8],[75.3,36.9],[75.5,36.9],[75.5,37.0],[75.7,37.0],[75.7,37.1],[76.0,37.1],[76.0,37.2],[77.4,37.2],[77.4,37.1],[77.7,37.1],[77.7,37.2],[77.8,37.2],[77.8,37.1],[77.9,37.1],[77.9,37.0],[78.2,37.0],[78.2,36.9],[78.4,36.9],[78.4,36.8],[78.8,36.8],[78.8,36.7],[79.2,36.7],[79.2,36.6],[80.9,36.6],[80.9,36.7],[81.4,36.7],[81.4,36.8],[81.9,36.8],[81.9,36.9],[82.2,36.9],[82.2,37.0],[82.4,37.0],[82.4,37.1],[82.8,37.1],[82.8,37.2],[83.1,37.2],[83.1,37.3],[83.3,37.3],[83.3,37.4],[83.8,37.4],[83.8,37.5],[84.1,37.5],[84.1,37.6],[84.4,37.6],[84.4,37.7],[84.8,37.7],[84.8,37.8],[85.1,37.8],[85.1,37.9],[85.4,37.9],[85.4,38.0],[85.6,38.0],[85.6,38.1],[85.8,38.1],[85.8,38.2],[86.2,38.2],[86.2,38.3],[86.6,38.3],[86.6,38.4],[86.9,38.4],[86.9,38.5],[87.1,38.5],[87.1,38.6],[87.3,38.6],[87.3,38.7],[87.6,38.7],[87.6,38.8],[87.9,38.8],[87.9,38.9],[88.2,38.9],[88.2,39.0],[88.5,39.0],[88.5,39.1],[89.0,39.1],[89.0,39.2],[89.5,39.2],[89.5,39.3],[90.0,39.3],[90.2,39.3]],[[112.9,42.4],[113.0,42.4]],[[113.0,42.4],[113.0,42.3]],[[113.0,42.3],[113.1,42.3]],[[113.1,42.3],[113.1,42.2]],[[113.1,42.2],[113.2,42.2]],[[113.2,42.2],[113.2,42.1]],[[113.2,42.1],[113.3,42.1]],[[113.3,42.1],[113.3,42.0]],[[113.3,42.0],[113.5,42.0]],[[113.5,42.0],[113.5,41.9]],[[113.5,41.9],[114.3,41.9]],[[114.3,41.9],[114.3,41.8]],[[114.3,41.8],[114.6,41.8]],[[114.6,41.8],[114.6,41.7]],[[114.6,41.7],[114.8,41.7]],[[114.8,41.7],[114.8,41.6]],[[114.8,41.6],[115.9,41.6]],[[115.9,41.6],[115.9,41.5]],[[115.9,41.5],[116.6,41.5]],[[116.6,41.5],[116.6,41.4]],[[116.6,41.4],[117.1,41.4]],[[117.1,41.4],[117.1,41.3]],[[117.1,41.3],[117.8,41.3]],[[117.8,41.3],[117.8,41.2]],[[117.8,41.2],[118.1,41.2]],[[118.1,41.2],[118.1,41.1]],[[118.1,41.1],[118.8,41.1]],[[118.8,41.1],[118.8,41.0]],[[118.8,41.0],[118.9,41.0]],[[118.9,41.0],[118.9,40.9]],[[118.9,40.9],[119.0,40.9]],[[119.0,40.9],[119.0,40.8]],[[119.0,40.8],[119.1,40.8]],[[119.1,40.8],[119.1,40.7]],[[119.1,40.7],[119.2,40.7]],[[119.2,40.7],[119.2,40.6]],[[119.2,40.6],[119.3,40.6]],[[119.3,40.6],[119.3,40.5]],[[119.3,40.5],[119.4,40.5]],[[119.4,40.5],[119.4,40.4]],[[119.4,40.4],[119.5,40.4]],[[119.5,40.4],[119.5,40.3]],[[119.5,40.3],[119.6,40.3]],[[119.6,40.3],[119.6,40.1]],[[119.6,40.1],[119.7,40.1]],[[119.7,40.1],[119.7,40.0]],[[119.7,40.0],[120.0,40.0],[120.0,40.1],[120.2,40.1],[120.2,40.2],[120.5,40.2],[120.5,40.3],[120.6,40.3],[120.6,40.5],[120.7,40.5],[120.7,40.6],[120.9,40.6],[120.9,40.7],[121.0,40.7],[121.0,40.8],[121.1,40.8],[121.1,40.9],[121.5,40.9],[121.5,41.0]],[[123.1,45.0],[123.1,45.3],[123.0,45.3],[123.0,45.5],[122.9,45.5],[122.9,45.7],[122.8,45.7],[122.8,45.9],[122.7,45.9],[122.7,46.1],[122.6,46.1],[122.6,46.4],[122.5,46.4],[122.5,46.8],[122.4,46.8],[122.4,47.2],[122.3,47.2],[122.3,47.7],[122.2,47.7],[122.2,48.2],[122.1,48.2],[122.1,50.5],[122.2,50.5],[122.2,50.9],[122.3,50.9],[122.3,51.6],[122.4,51.6],[122.4,53.3],[122.3,53.3],[122.3,53.6],[122.2,53.6],[122.2,53.7],[122.1,53.7],[122.1,53.8],[122.0,53.8],[122.0,53.9],[121.9,53.9],[121.9,54.0],[121.7,54.0],[121.7,54.1],[121.4,54.1],[121.4,54.2],[120.9,54.2],[120.9,54.3],[120.4,54.3],[120.4,54.4],[119.0,54.4],[119.0,54.5],[118.1,54.5],[118.1,54.4],[117.8,54.4],[117.8,54.3],[117.4,54.3],[117.4,54.2],[117.1,54.2],[117.1,54.1],[116.4,54.1],[116.4,54.0],[114.5,54.0],[114.5,53.9],[113.6,53.9],[113.6,53.8],[113.0,53.8],[113.0,53.7],[112.7,53.7],[112.7,53.6],[112.3,53.6],[112.3,53.5],[111.9,53.5],[111.9,53.4],[111.5,53.4],[111.5,53.3],[111.1,53.3],[111.1,53.2],[110.7,53.2],[110.7,53.1],[110.5,53.1],[110.5,53.0],[110.3,53.0],[110.3,52.9],[109.9,52.9],[109.9,52.8],[109.8,52.8],[109.8,52.7],[109.6,52.7],[109.6,52.6],[109.4,52.6],[109.4,52.5],[109.3,52.5],[109.3,52.4],[109.1,52.4],[109.1,52.3],[108.9,52.3],[108.9,52.2],[108.8,52.2],[108.8,52.1],[108.7,52.1],[108.7,52.0],[108.6,52.0],[108.6,51.9],[108.4,51.9],[108.4,51.8],[108.2,51.8],[108.2,51.7],[108.0,51.7],[108.0,51.6],[107.8,51.6],[107.8,51.5],[107.6,51.5],[107.6,51.4],[107.2,51.4],[107.2,51.3],[107.0,51.3],[107.0,51.2],[106.4,51.2],[106.4,51.1],[105.7,51.1],[105.7,51.0],[105.2,51.0],[105.2,50.9],[101.9,50.9],[101.9,51.0],[99.7,51.0],[99.7,51.1],[99.4,51.1],[99.4,51.2],[99.1,51.2],[99.1,51.3],[98.8,51.3],[98.8,51.4],[98.4,51.4],[98.4,51.5],[98.0,51.5],[98.0,51.6],[97.6,51.6],[97.6,51.7],[97.4,51.7],[97.4,51.8],[97.2,51.8],[97.2,51.9],[97.0,51.9],[97.0,52.0],[96.7,52.0],[96.7,52.1],[96.3,52.1],[96.3,52.2],[96.1,52.2],[96.1,52.3],[95.8,52.3],[95.8,52.4],[94.9,52.4],[94.9,52.5],[94.3,52.5],[94.3,52.6],[92.4,52.6],[92.4,52.5],[92.0,52.5],[92.0,52.4],[91.6,52.4],[91.6,52.3],[90.3,52.3],[90.3,52.4],[90.0,52.4],[88.4,52.4],[88.4,52.3],[87.8,52.3],[87.8,52.2],[87.4,52.2],[87.4,52.1],[87.0,52.1],[87.0,52.0],[86.4,52.0],[86.4,51.9],[86.0,51.9],[86.0,51.8],[85.5,51.8],[85.5,51.7],[85.2,51.7],[85.2,51.6],[84.8,51.6],[84.8,51.5],[84.2,51.5],[84.2,51.4],[84.1,51.4],[84.1,51.5],[83.7,51.5],[83.7,51.6],[83.3,51.6],[83.3,51.7],[82.9,51.7],[82.9,51.8],[82.7,51.8],[82.7,51.9],[82.6,51.9],[82.6,52.0],[82.3,52.0],[82.3,52.1],[82.0,52.1],[82.0,52.2],[81.6,52.2],[81.6,52.3],[81.2,52.3],[81.2,52.4],[80.8,52.4],[80.8,52.5],[80.3,52.5],[80.3,52.6],[79.8,52.6],[79.8,52.7],[79.2,52.7],[79.2,52.8],[78.9,52.8],[78.9,52.9],[78.5,52.9],[78.5,53.0],[78.2,53.0],[78.2,53.1],[77.8,53.1],[77.8,53.2],[77.5,53.2],[77.5,53.3],[77.2,53.3],[77.2,53.4],[75.9,53.4],[75.9,53.5],[74.6,53.5],[74.6,53.6],[73.9,53.6],[73.9,53.7],[73.2,53.7],[73.2,53.8],[72.3,53.8],[72.3,53.9],[71.2,53.9],[71.2,54.0],[70.5,54.0],[70.5,54.1],[69.9,54.1],[69.9,54.2],[69.3,54.2],[69.3,54.3],[68.9,54.3],[68.9,54.4],[67.7,54.4],[67.7,54.5],[64.4,54.5],[64.4,54.4],[63.1,54.4],[63.1,54.3],[62.4,54.3],[62.4,54.2],[62.1,54.2],[62.1,54.1],[61.6,54.1],[61.6,54.0],[61.4,54.0],[61.4,53.9],[61.0,53.9],[61.0,53.8],[60.8,53.8],[60.8,53.7],[60.6,53.7],[60.6,53.6],[60.0,53.6]],[[60.0,46.2],[60.5,46.2],[60.5,46.3],[60.6,46.3],[60.6,46.4],[60.5,46.4],[60.5,46.6],[60.6,46.6],[60.6,46.7],[60.8,46.7],[60.8,46.6],[60.9,46.6],[60.9,46.5],[61.2,46.5],[61.2,46.6],[61.3,46.6],[61.3,46.4],[61.2,46.4],[61.2,46.2],[61.1,46.2],[61.1,46.1],[61.0,46.1],[61.0,46.0],[60.9,46.0],[60.9,45.6],[61.0,45.6],[61.0,45.5],[61.1,45.5],[61.1,45.4],[61.2,45.4],[61.2,45.2],[61.3,45.2],[61.3,45.1],[61.4,45.1],[61.4,45.0],[61.4,44.9],[61.3,44.9],[61.3,44.8],[61.1,44.8],[61.1,44.7],[61.0,44.7],[61.0,44.5],[60.9,44.5],[60.9,44.3],[60.8,44.3],[60.8,44.2],[60.6,44.2],[60.6,44.1],[60.3,44.1],[60.3,44.0],[60.2,44.0],[60.2,43.9]],[[74.1,46.7],[74.4,46.7],[74.4,46.8],[74.5,46.8],[74.5,46.9],[75.8,46.9],[75.8,46.8],[75.9,46.8],[75.9,46.7],[75.8,46.7],[75.8,46.6],[75.6,46.6],[75.6,46.5],[75.1,46.5],[75.1,46.6],[74.9,46.6],[74.9,46.5],[74.7,46.5],[74.7,46.3],[74.4,46.3],[74.4,46.2],[74.3,46.2],[74.3,46.1],[74.2,46.1],[74.2,46.0],[74.1,46.0],[74.1,45.7],[74.0,45.7],[74.0,45.5],[73.9,45.5],[73.9,45.3],[73.5,45.3],[73.5,45.4],[73.4,45.4],[73.4,45.5],[73.3,45.5],[73.3,46.1],[73.4,46.1],[73.4,46.2],[73.5,46.2],[73.5,46.4],[73.7,46.4],[73.7,46.5],[73.9,46.5],[73.9,46.6],[74.1,46.6],[74.1,46.7]],[[99.7,0.6],[99.6,0.6],[99.6,0.1],[99.7,0.1],[99.7,0.0]],[[102.5,0.0],[102.5,0.1],[102.6,0.1],[102.6,0.2],[102.7,0.2],[102.7,0.3],[102.8,0.3],[102.8,0.5],[102.9,0.5],[102.9,0.6],[103.0,0.6],[103.0,0.8],[103.1,0.8],[103.1,0.9],[103.2,0.9],[103.2,1.0],[103.1,1.0],[103.1,1.1],[103.0,1.1],[103.0,1.2],[102.9,1.2],[102.9,1.3],[102.6,1.3],[102.6,1.4],[102.5,1.4],[102.5,1.6],[102.4,1.6],[102.4,1.7],[101.9,1.7],[101.9,1.8],[101.8,1.8],[101.8,2.1],[101.7,2.1],[101.7,2.2],[101.5,2.2],[101.5,2.1],[101.3,2.1],[101.3,2.2],[101.2,2.2],[101.2,2.3],[101.1,2.3],[101.1,2.4],[100.9,2.4],[100.9,2.3],[100.5,2.3],[100.5,2.4],[100.4,2.4],[100.4,2.7],[100.3,2.7],[100.3,2.6],[100.2,2.6],[100.2,2.5],[100.1,2.5],[100.1,2.2],[100.0,2.2],[100.0,1.9],[99.9,1.9],[99.9,1.5],[99.8,1.5],[99.8,1.3],[99.7,1.3],[99.7,0.6]],[[71.9,32.8],[71.9,32.6]],[[71.9,32.6],[71.8,32.6]],[[71.8,32.6],[71.8,32.4]],[[71.8,32.4],[71.7,32.4]],[[71.7,32.4],[71.7,32.3]],[[71.7,32.3],[71.6,32.3]],[[71.6,32.3],[71.6,32.2]],[[71.6,32.2],[71.5,32.2]],[[71.5,32.2],[71.5,32.1]],[[71.5,32.1],[71.4,32.1]],[[71.4,32.1],[71.4,32.0]],[[71.4,32.0],[71.3,32.0]],[[71.3,32.0],[71.3,31.9]],[[71.3,31.9],[71.1,31.9]],[[71.1,31.9],[71.1,31.8]],[[71.1,31.8],[71.0,31.8]],[[71.0,31.8],[71.0,31.6]],[[71.0,31.6],[71.1,31.6]],[[71.1,31.6],[71.1,31.4]],[[71.1,31.4],[71.0,31.4]],[[71.0,31.4],[71.0,31.2]],[[71.0,31.2],[70.9,31.2]],[[70.9,31.2],[70.9,31.0]],[[70.9,31.0],[70.8,31.0]],[[70.8,31.0],[70.8,30.7]],[[70.8,30.7],[70.7,30.7]],[[70.7,30.7],[70.7,30.5]],[[70.7,30.5],[70.6,30.5]],[[70.6,30.5],[70.6,30.3]],[[70.6,30.3],[70.5,30.3]],[[70.5,30.3],[70.5,30.2]],[[70.5,30.2],[70.4,30.2]],[[70.4,30.2],[70.4,29.9]],[[70.4,29.9],[70.3,29.9]],[[70.3,29.9],[70.3,29.7]],[[70.3,29.7],[70.2,29.7]],[[70.2,29.7],[70.2,29.5]],[[70.2,29.5],[70.1,29.5]],[[70.1,29.5],[70.1,29.1]],[[70.1,29.1],[70.0,29.1]],[[70.0,29.1],[70.0,28.7]],[[70.0,28.7],[69.9,28.7]],[[69.9,28.7],[69.9,28.4]],[[69.9,28.4],[69.8,28.4]],[[69.8,28.4],[69.8,28.1]],[[69.8,28.1],[69.9,28.1]],[[69.9,28.1],[69.9,28.0]],[[69.9,28.0],[69.8,28.0]],[[69.8,28.0],[69.8,27.6]],[[69.8,27.6],[69.7,27.6]],[[69.7,27.6],[69.7,27.3]],[[69.7,27.3],[69.6,27.3]],[[69.6,27.3],[69.6,27.0]],[[69.6,27.0],[69.5,27.0]],[[69.5,27.0],[69.5,26.6]],[[69.5,26.6],[69.4,26.6]],[[69.4,26.6],[69.4,26.3]],[[69.4,26.3],[69.3,26.3]],[[69.3,26.3],[69.3,25.9]],[[69.3,25.9],[69.2,25.9]],[[69.2,25.9],[69.2,25.7]],[[69.2,25.7],[69.1,25.7]],[[69.1,25.7],[69.1,25.5]],[[69.1,25.5],[69.0,25.5]],[[69.0,25.5],[69.0,25.2]],[[69.0,25.2],[68.9,25.2]],[[68.9,25.2],[68.9,25.1]],[[68.9,25.1],[68.8,25.1]],[[68.8,25.1],[68.8,24.9]],[[68.8,24.9],[68.7,24.9]],[[68.7,24.9],[68.7,24.7]],[[68.7,24.7],[68.6,24.7]],[[68.6,24.7],[68.6,24.5]],[[68.6,24.5],[68.5,24.5]],[[68.5,24.5],[68.5,24.4]],[[68.5,24.4],[68.4,24.4]],[[68.4,24.4],[68.4,24.2]],[[68.4,24.2],[68.3,24.2]],[[68.3,24.2],[68.3,24.1]],[[68.3,24.1],[68.2,24.1]],[[68.2,24.1],[68.2,23.9]],[[68.2,23.9],[68.1,23.9]],[[68.1,23.9],[68.1,23.8]],[[68.1,23.8],[68.1,23.7],[68.2,23.7],[68.2,23.6],[68.3,23.6],[68.3,23.5],[68.4,23.5],[68.4,23.4],[68.5,23.4],[68.5,23.3],[68.6,23.3],[68.6,23.2],[68.7,23.2],[68.7,23.1],[68.9,23.1],[68.9,23.0],[69.1,23.0],[69.1,22.9],[69.5,22.9],[69.5,22.8],[69.8,22.8],[69.8,22.9],[70.1,22.9],[70.1,22.8],[70.2,22.8],[70.2,22.7],[70.1,22.7],[70.1,22.6],[69.6,22.6],[69.6,22.5],[69.1,22.5],[69.1,22.4],[69.0,22.4],[69.0,22.2],[69.1,22.2],[69.1,22.1],[69.2,22.1],[69.2,22.0],[69.3,22.0],[69.3,21.9],[69.4,21.9],[69.4,21.8],[69.5,21.8],[69.5,21.7],[69.6,21.7],[69.6,21.6],[69.7,21.6],[69.7,21.5],[69.8,21.5],[69.8,21.4],[69.9,21.4],[69.9,21.3],[70.0,21.3],[70.0,21.2],[70.1,21.2],[70.1,21.1],[70.2,21.1],[70.2,21.0],[70.4,21.0],[70.4,20.9],[70.5,20.9],[70.5,20.8],[70.8,20.8],[70.8,20.7],[71.0,20.7],[71.0,20.8],[71.3,20.8],[71.3,20.9],[71.5,20.9],[71.5,21.0],[71.7,21.0],[71.7,21.1],[71.9,21.1],[71.9,21.2],[72.1,21.2],[72.1,21.3],[72.2,21.3],[72.2,21.5],[72.3,21.5],[72.3,22.0],[72.5,22.0],[72.5,21.8],[72.6,21.8],[72.6,21.1],[72.7,21.1],[72.7,21.0],[72.8,21.0],[72.8,20.8],[72.9,20.8],[72.9,20.5],[72.8,20.5],[72.8,20.3],[72.7,20.3],[72.7,19.5],[72.8,19.5],[72.8,18.9],[72.9,18.9],[72.9,18.3],[73.0,18.3],[73.0,18.0],[73.1,18.0],[73.1,17.6],[73.2,17.6],[73.2,17.2],[73.3,17.2],[73.3,16.5],[73.4,16.5],[73.4,16.2],[73.5,16.2],[73.5,16.0],[73.6,16.0]],[[74.2,31.8],[74.2,32.3]],[[114.0,32.8],[113.2,32.8]],[[113.2,32.8],[113.2,32.9]],[[113.2,32.9],[113.1,32.9]],[[113.1,32.9],[113.1,33.0]],[[115.6,32.6],[115.3,32.6]],[[115.3,32.6],[115.3,32.7]],[[115.3,32.7],[114.6,32.7]],[[114.6,32.7],[114.6,32.8]],[[114.6,32.8],[114.2,32.8]],[[114.2,32.8],[114.2,32.9]],[[114.2,32.9],[114.0,32.9]],[[114.0,32.9],[114.0,32.8]],[[126.5,37.4],[126.5,37.2],[126.4,37.2],[126.4,37.1],[126.3,37.1],[126.3,37.0],[126.2,37.0],[126.2,36.9],[126.1,36.9],[126.1,36.7],[126.2,36.7],[126.2,36.6],[126.3,36.6],[126.3,36.5],[126.4,36.5],[126.4,36.4],[126.5,36.4],[126.5,36.2],[126.6,36.2],[126.6,35.8],[126.5,35.8],[126.5,35.5],[126.4,35.5],[126.4,35.4],[126.3,35.4],[126.3,35.3],[126.2,35.3],[126.2,35.2],[126.1,35.2],[126.1,35.1],[126.0,35.1],[126.0,34.9],[125.9,34.9],[125.9,34.6],[126.0,34.6],[126.0,34.5],[126.1,34.5],[126.1,34.4],[126.5,34.4],[126.5,34.3],[126.6,34.3],[126.6,34.2],[126.9,34.2],[126.9,34.3],[127.0,34.3],[127.0,34.4]],[[103.4,20.8],[103.4,20.5],[103.5,20.5],[103.5,20.4],[103.7,20.4],[103.7,20.0],[103.8,20.0],[103.8,19.8],[103.9,19.8],[103.9,19.4],[104.0,19.4],[104.0,19.1],[104.1,19.1],[104.1,18.8],[104.2,18.8],[104.2,18.6],[104.3,18.6],[104.3,17.6],[104.4,17.6],[104.4,17.3],[104.5,17.3],[104.5,17.1],[104.6,17.1],[104.6,16.9],[104.7,16.9],[104.7,16.8],[104.8,16.8],[104.8,16.6],[104.9,16.6],[104.9,16.5],[105.0,16.5],[105.0,16.4],[105.1,16.4],[105.1,16.3],[105.2,16.3],[105.2,16.2],[105.4,16.2],[105.4,16.1],[105.6,16.1],[105.6,16.0],[105.8,16.0]],[[105.8,16.0],[106.6,16.0]],[[106.6,16.0],[106.6,16.1]],[[106.6,16.1],[106.8,16.1]],[[106.8,16.1],[106.8,16.2]],[[106.8,16.2],[107.0,16.2]],[[107.0,16.2],[107.0,16.3]],[[107.0,16.3],[107.2,16.3]],[[107.2,16.3],[107.2,16.4]],[[107.2,16.4],[107.3,16.4]],[[107.3,16.4],[107.3,16.5]],[[107.3,16.5],[107.4,16.5]],[[107.4,16.5],[107.4,16.6]],[[107.4,16.6],[107.5,16.6]],[[107.5,16.6],[107.5,16.7]],[[107.5,16.7],[107.5,16.8],[107.4,16.8],[107.4,16.9],[107.3,16.9],[107.3,17.0],[107.2,17.0],[107.2,17.1],[107.1,17.1],[107.1,17.2],[107.0,17.2],[107.0,17.3],[106.9,17.3],[106.9,17.4],[106.8,17.4],[106.8,17.5],[106.7,17.5],[106.7,17.6],[106.6,17.6],[106.6,17.8],[106.5,17.8],[106.5,18.2],[106.4,18.2],[106.4,18.3],[106.2,18.3],[106.2,18.4],[106.1,18.4],[106.1,18.5],[106.0,18.5],[106.0,18.6],[105.9,18.6],[105.9,18.7],[105.8,18.7],[105.8,18.9],[105.7,18.9],[105.7,19.1],[105.8,19.1],[105.8,19.3],[105.9,19.3],[105.9,19.8],[106.0,19.8],[106.0,19.9],[106.1,19.9],[106.1,20.0],[106.2,20.0],[106.2,20.1],[106.3,20.1],[106.3,20.2],[106.4,20.2],[106.4,20.3],[106.5,20.3],[106.5,20.4],[106.6,20.4],[106.6,20.6]],[[80.3,9.9],[80.0,9.9],[80.0,9.5],[80.1,9.5],[80.1,9.2],[80.0,9.2],[80.0,9.1],[79.9,9.1],[79.9,8.5],[79.8,8.5],[79.8,8.4],[79.7,8.4],[79.7,7.9],[79.8,7.9],[79.8,6.9],[79.9,6.9],[79.9,6.7],[80.0,6.7],[80.0,6.3],[80.1,6.3],[80.1,6.1],[80.2,6.1],[80.2,6.0],[80.8,6.0],[80.8,6.1],[81.1,6.1],[81.1,6.2],[81.4,6.2],[81.4,6.3],[81.5,6.3],[81.5,6.4],[81.6,6.4],[81.6,6.5],[81.7,6.5],[81.7,6.6],[81.8,6.6],[81.8,6.8],[81.9,6.8],[81.9,7.2],[81.8,7.2],[81.8,7.8],[81.7,7.8],[81.7,7.9],[81.6,7.9],[81.6,8.1],[81.5,8.1],[81.5,8.3],[81.4,8.3],[81.4,8.6],[81.3,8.6],[81.3,8.7],[81.2,8.7],[81.2,8.9],[81.1,8.9],[81.1,9.0],[81.0,9.0],[81.0,9.2],[80.9,9.2],[80.9,9.4],[80.8,9.4],[80.8,9.5],[80.7,9.5],[80.7,9.6],[80.6,9.6],[80.6,9.7],[80.4,9.7],[80.4,9.8],[80.3,9.8],[80.3,9.9]],[[128.9,32.8],[129.0,32.8],[129.0,32.9],[129.1,32.9],[129.1,33.1],[129.0,33.1],[129.0,33.0],[128.9,33.0],[128.9,32.8]],[[132.4,34.0],[132.6,34.0],[132.6,34.2],[132.9,34.2]],[[132.9,34.2],[132.9,34.3],[133.3,34.3],[133.3,34.4],[133.8,34.4]],[[133.8,34.4],[133.8,34.5],[134.2,34.5],[134.2,34.6],[134.4,34.6],[134.4,34.7],[134.5,34.7],[134.5,34.8],[134.8,34.8],[134.8,34.7],[135.0,34.7],[135.1,34.7],[135.1,34.6],[135.2,34.6],[135.2,34.4],[135.1,34.4],[135.1,33.9],[135.2,33.9],[135.2,33.8],[135.3,33.8],[135.3,33.7],[135.4,33.7],[135.4,33.6],[135.6,33.6],[135.6,33.5],[135.9,33.5],[135.9,33.6],[136.0,33.6],[136.0,33.7],[136.1,33.7],[136.1,33.9],[136.2,33.9],[136.2,34.0],[136.3,34.0],[136.3,34.2],[136.4,34.2],[136.4,34.3],[136.9,34.3],[136.9,34.6],[136.7,34.6],[136.7,34.9],[136.9,34.9],[136.9,34.8],[137.0,34.8],[137.0,34.7],[138.2,34.7],[138.2,34.8],[138.3,34.8],[138.3,34.9],[138.4,34.9],[138.4,35.0],[138.5,35.0],[138.5,35.1],[138.7,35.1],[138.7,35.0],[138.8,35.0],[138.8,34.8],[139.1,34.8],[139.1,34.9],[139.2,34.9],[139.2,35.3],[139.3,35.3],[139.3,35.4],[139.5,35.4],[139.5,35.3],[139.8,35.3]],[[139.8,35.3],[139.8,35.1],[140.2,35.1],[140.2,35.2],[140.3,35.2],[140.3,35.3],[140.4,35.3],[140.4,35.5],[140.5,35.5],[140.5,35.6],[140.6,35.6],[140.6,35.7],[140.7,35.7],[140.7,35.8],[140.8,35.8],[140.8,36.0],[140.7,36.0],[140.7,36.2],[140.6,36.2],[140.6,36.4],[140.7,36.4],[140.7,36.7],[140.8,36.7],[140.8,36.9],[140.9,36.9],[140.9,37.1],[140.8,37.1],[140.8,37.2],[140.2,37.2],[140.2,37.1],[139.8,37.1],[139.8,37.0],[139.6,37.0],[139.6,36.9],[139.5,36.9],[139.5,36.8],[139.2,36.8],[139.2,36.9],[139.1,36.9],[139.1,37.0],[139.0,37.0],[139.0,37.6],[139.1,37.6],[139.1,37.8],[139.2,37.8],[139.2,38.0],[138.9,38.0],[138.9,37.9],[138.8,37.9],[138.8,37.7],[138.7,37.7],[138.7,37.6],[138.6,37.6],[138.6,37.5],[138.5,37.5],[138.5,37.4],[138.4,37.4],[138.4,37.3],[138.2,37.3],[138.2,37.2],[138.0,37.2],[138.0,37.1],[137.6,37.1],[137.6,37.0],[137.4,37.0],[137.4,36.9],[137.2,36.9],[137.2,37.0],[137.1,37.0],[137.1,37.2],[137.2,37.2],[137.2,37.5],[136.8,37.5],[136.8,37.4],[136.7,37.4],[136.7,37.1],[136.8,37.1],[136.8,36.9],[136.7,36.9],[136.7,36.7],[136.6,36.7],[136.6,36.6],[136.5,36.6],[136.5,36.5],[136.3,36.5],[136.3,36.4],[136.2,36.4],[136.2,36.3],[136.1,36.3],[136.1,36.2],[136.0,36.2],[136.0,35.8],[135.9,35.8],[135.9,35.7],[135.7,35.7],[135.7,35.6],[135.5,35.6],[135.5,35.7],[135.4,35.7],[135.4,35.8],[135.0,35.8],[135.0,35.7],[134.3,35.7],[134.3,35.6],[133.4,35.6],[133.4,35.7],[133.0,35.7],[133.0,35.6],[132.8,35.6],[132.8,35.5],[132.7,35.5],[132.7,35.4],[132.6,35.4],[132.6,35.3],[132.4,35.3],[132.4,35.2],[132.3,35.2],[132.3,35.1],[132.2,35.1],[132.2,35.0],[132.0,35.0],[132.0,34.9],[131.9,34.9],[131.9,34.8],[131.6,34.8],[131.6,34.7],[131.5,34.7],[131.5,34.6],[131.4,34.6],[131.4,34.5],[131.0,34.5],[131.0,34.4],[130.9,34.4],[130.9,34.0],[130.5,34.0],[130.5,33.9],[130.4,33.9],[130.4,33.8],[130.2,33.8],[130.2,33.7],[130.1,33.7],[130.1,33.6],[129.9,33.6],[129.9,33.7],[129.7,33.7],[129.7,33.5],[129.5,33.5],[129.5,33.4],[129.6,33.4],[129.6,33.0],[129.7,33.0],[129.7,32.8],[129.8,32.8],[129.8,32.7],[130.0,32.7],[130.0,32.8],[129.9,32.8],[129.9,33.0],[130.1,33.0],[130.1,32.7],[130.3,32.7],[130.3,32.9],[130.4,32.9],[130.4,33.0],[130.3,33.0],[130.3,33.1],[130.2,33.1],[130.2,33.2],[130.4,33.2],[130.4,33.1],[130.5,33.1],[130.5,32.9],[130.6,32.9],[130.6,32.8],[130.5,32.8],[130.5,32.7],[130.4,32.7],[130.4,32.6],[130.2,32.6],[130.2,32.5],[130.1,32.5],[130.1,32.1],[130.2,32.1],[130.2,31.8],[130.3,31.8],[130.3,31.5],[130.2,31.5],[130.2,31.4],[130.3,31.4],[130.3,31.3],[130.5,31.3],[130.5,31.2],[130.7,31.2],[130.7,31.4],[130.6,31.4],[130.6,31.6],[130.7,31.6],[130.7,31.5],[130.8,31.5],[130.8,31.6],[130.9,31.6],[130.9,31.5],[131.0,31.5],[131.0,31.4],[130.8,31.4],[130.8,31.2],[131.1,31.2],[131.1,31.3],[131.2,31.3],[131.2,31.4],[131.4,31.4],[131.4,31.5],[131.5,31.5],[131.5,32.1],[131.6,32.1],[131.6,32.4],[131.7,32.4],[131.7,32.5],[131.8,32.5],[131.8,32.7],[131.9,32.7],[131.9,32.8],[132.0,32.8],[132.0,33.3],[131.9,33.3],[131.9,33.4],[131.8,33.4],[131.8,33.7],[131.7,33.7],[131.7,33.8],[131.5,33.8],[131.5,33.7],[131.2,33.7],[131.2,33.9],[131.1,33.9],[131.1,34.0],[131.9,34.0],[131.9,33.9],[132.0,33.9],[132.0,33.8],[132.3,33.8],[132.3,33.9],[132.4,33.9],[132.4,34.0]],[[139.9,35.3],[139.8,35.3]],[[139.8,35.3],[139.8,35.4],[139.7,35.4],[139.7,35.5],[139.8,35.5],[139.8,35.7],[140.1,35.7],[140.1,35.6],[140.0,35.6],[140.0,35.5],[139.9,35.5],[139.9,35.3]],[[134.2,34.3],[133.9,34.3],[133.9,34.4],[133.8,34.4]],[[133.8,34.4],[133.8,34.3],[133.6,34.3],[133.6,34.1],[133.3,34.1],[133.3,34.2],[132.9,34.2]],[[132.9,34.2],[132.9,34.1],[132.8,34.1],[132.8,34.0],[132.7,34.0],[132.7,33.8],[132.6,33.8],[132.6,33.7],[132.4,33.7],[132.4,33.6],[132.3,33.6],[132.3,33.4],[132.4,33.4],[132.4,33.1],[132.5,33.1],[132.5,33.0],[132.6,33.0],[132.6,32.9],[132.7,32.9],[132.7,32.8],[133.0,32.8],[133.0,32.9],[133.1,32.9],[133.1,33.1],[133.2,33.1],[133.2,33.2],[133.3,33.2],[133.3,33.3],[133.4,33.3],[133.4,33.4],[133.5,33.4],[133.5,33.5],[133.6,33.5],[133.6,33.6],[133.9,33.6],[133.9,33.5],[134.0,33.5],[134.0,33.4],[134.2,33.4],[134.2,33.5],[134.3,33.5],[134.3,33.6],[134.4,33.6],[134.4,33.7],[134.6,33.7],[134.6,33.8],[134.7,33.8],[134.7,34.2]],[[134.7,34.2],[134.6,34.2],[134.6,34.3],[134.5,34.3],[134.5,34.4],[134.2,34.4],[134.2,34.3]],[[134.8,34.4],[134.7,34.4],[134.7,34.2]],[[134.7,34.2],[134.9,34.2],[134.9,34.3],[135.0,34.3],[135.0,34.6],[134.9,34.6],[134.9,34.5],[134.8,34.5],[134.8,34.4]],[[129.9,34.6],[130.0,34.6],[130.0,34.7],[129.9,34.7],[129.9,34.8],[130.0,34.8],[130.0,35.0],[129.9,35.0],[129.9,34.9],[129.8,34.9],[129.8,34.7],[129.7,34.7],[129.7,34.3],[129.8,34.3],[129.8,34.4],[129.9,34.4],[129.9,34.6]],[[138.6,38.2],[138.5,38.2],[138.5,38.3],[138.6,38.3],[138.6,38.4],[138.4,38.4],[138.4,38.3],[138.3,38.3],[138.3,38.2],[138.2,38.2],[138.2,38.1],[138.3,38.1],[138.3,38.0],[138.2,38.0],[138.2,37.9],[138.4,37.9],[138.4,38.0],[138.5,38.0],[138.5,38.1],[138.6,38.1],[138.6,38.2]],[[107.8,16.5],[107.8,16.6],[107.7,16.6],[107.7,16.7],[107.5,16.7]],[[105.8,16.0],[105.8,15.8],[105.9,15.8],[105.9,15.7],[106.0,15.7],[106.0,15.5],[106.1,15.5],[106.1,15.2],[106.2,15.2],[106.2,14.4],[106.3,14.4],[106.3,13.7],[106.2,13.7],[106.2,13.4],[106.1,13.4],[106.1,12.9],[106.0,12.9]],[[106.9,10.5],[107.1,10.5],[107.1,10.4],[107.3,10.4],[107.3,10.5],[107.5,10.5],[107.5,10.6],[107.7,10.6],[107.7,10.7],[108.0,10.7],[108.0,10.8],[108.1,10.8],[108.1,10.9],[108.2,10.9],[108.2,11.0],[108.4,11.0],[108.4,11.1],[108.5,11.1],[108.5,11.2],[108.7,11.2],[108.7,11.3],[108.9,11.3],[108.9,11.4],[109.0,11.4],[109.0,11.5],[109.1,11.5],[109.1,11.6],[109.2,11.6],[109.2,11.7],[109.3,11.7],[109.3,12.3],[109.4,12.3],[109.4,12.6],[109.5,12.6],[109.5,13.1],[109.4,13.1],[109.4,13.7],[109.3,13.7],[109.3,14.3],[109.2,14.3],[109.2,14.6],[109.1,14.6],[109.1,14.9],[109.0,14.9],[109.0,15.3],[108.9,15.3],[108.9,15.4],[108.8,15.4],[108.8,15.5],[108.7,15.5],[108.7,15.6],[108.6,15.6],[108.6,15.7],[108.5,15.7],[108.5,15.9],[108.4,15.9],[108.4,16.0],[108.3,16.0],[108.3,16.2],[108.2,16.2],[108.2,16.3],[108.1,16.3],[108.1,16.4],[107.9,16.4],[107.9,16.5],[107.8,16.5]],[[75.2,12.2],[75.2,12.0],[75.3,12.0],[75.3,11.9],[75.4,11.9],[75.4,11.8],[75.5,11.8],[75.5,11.7],[75.6,11.7],[75.6,11.5],[75.7,11.5],[75.7,11.3],[75.8,11.3],[75.8,11.1],[75.9,11.1],[75.9,10.8],[76.0,10.8],[76.0,10.5],[76.1,10.5],[76.1,10.3],[76.2,10.3],[76.2,9.9],[76.3,9.9],[76.3,9.5],[76.4,9.5],[76.4,9.2],[76.5,9.2],[76.5,9.0],[76.6,9.0],[76.6,8.9],[76.7,8.9],[76.7,8.8],[76.8,8.8],[76.8,8.7],[76.9,8.7],[76.9,8.5],[77.0,8.5],[77.0,8.4],[77.1,8.4],[77.1,8.3],[77.2,8.3],[77.2,8.2],[77.8,8.2],[77.8,8.3],[78.0,8.3],[78.0,8.4],[78.1,8.4],[78.1,8.5],[78.2,8.5],[78.2,8.9],[78.3,8.9],[78.3,9.1],[78.4,9.1],[78.4,9.2],[78.8,9.2],[78.8,9.3],[78.9,9.3],[78.9,9.4],[79.0,9.4],[79.0,9.8],[79.1,9.8],[79.1,9.9],[79.2,9.9],[79.2,10.0],[79.3,10.0],[79.3,10.3],[79.4,10.3],[79.4,10.4],[79.6,10.4],[79.6,10.3],[79.8,10.3],[79.8,10.4],[79.9,10.4],[79.9,11.5],[79.8,11.5],[79.8,11.9],[79.9,11.9],[79.9,12.2],[80.0,12.2],[80.0,12.3],[80.1,12.3],[80.1,12.5],[80.2,12.5],[80.2,12.7],[80.3,12.7],[80.3,13.1],[80.4,13.1],[80.4,13.6],[80.3,13.6],[80.3,14.0],[80.2,14.0],[80.2,14.9],[80.1,14.9],[80.1,15.4],[80.2,15.4],[80.2,15.5],[80.3,15.5],[80.3,15.7],[80.4,15.7],[80.4,15.8],[80.5,15.8],[80.5,15.9],[80.7,15.9],[80.7,15.8],[81.0,15.8],[81.0,15.9],[81.1,15.9],[81.1,16.0],[81.2,16.0],[81.2,16.2],[81.3,16.2],[81.3,16.3],[81.4,16.3],[81.4,16.4],[81.9,16.4],[81.9,16.5],[82.2,16.5],[82.2,16.6],[82.3,16.6],[82.3,16.7],[82.4,16.7],[82.4,17.2],[82.5,17.2],[82.5,17.3],[82.7,17.3],[82.7,17.4],[82.8,17.4],[82.8,17.5],[83.1,17.5],[83.1,17.6]],[[63.3,25.3],[63.6,25.3],[63.6,25.4],[64.2,25.4],[64.2,25.3],[64.8,25.3],[64.8,25.4],[65.0,25.4],[65.0,25.3],[65.2,25.3],[65.2,25.4],[66.0,25.4],[66.0,25.5],[66.5,25.5],[66.5,25.4],[66.6,25.4],[66.6,25.3],[66.7,25.3],[66.7,25.0],[66.8,25.0],[66.8,24.9],[67.0,24.9],[67.0,24.8],[67.1,24.8],[67.1,24.7],[67.2,24.7],[67.2,24.5],[67.3,24.5],[67.3,24.2],[67.4,24.2],[67.4,24.1],[67.5,24.1],[67.5,23.9],[67.6,23.9],[67.6,23.8],[68.1,23.8]],[[67.7,24.1],[67.6,24.1],[67.6,24.2],[67.7,24.2],[67.7,24.3],[67.9,24.3],[67.9,24.0],[67.7,24.0],[67.7,24.1]],[[119.4,34.9],[119.4,35.2],[119.5,35.2],[119.5,35.4],[119.6,35.4],[119.6,35.6],[119.7,35.6],[119.7,35.7],[120.0,35.7],[120.0,35.8],[120.1,35.8],[120.1,35.9],[120.2,35.9],[120.2,36.0],[120.3,36.0],[120.3,36.1],[120.6,36.1],[120.6,36.2],[120.7,36.2],[120.7,36.4],[120.8,36.4],[120.8,36.5],[121.0,36.5],[121.0,36.6],[121.1,36.6],[121.1,36.7],[121.3,36.7],[121.3,36.8],[121.7,36.8],[121.7,36.9],[122.5,36.9],[122.5,37.0],[122.6,37.0],[122.6,37.4],[122.5,37.4],[122.5,37.5],[122.3,37.5],[122.3,37.6],[121.9,37.6],[121.9,37.5],[121.6,37.5],[121.6,37.6],[121.4,37.6],[121.4,37.7],[121.2,37.7],[121.2,37.8],[121.0,37.8],[121.0,37.9],[120.9,37.9],[120.9,38.0],[120.7,38.0],[120.7,37.9],[120.5,37.9],[120.5,37.8],[120.3,37.8],[120.3,37.7],[120.2,37.7],[120.2,37.6],[120.1,37.6],[120.1,37.5],[119.9,37.5],[119.9,37.4],[119.8,37.4],[119.8,37.3],[119.7,37.3],[119.7,37.2],[119.3,37.2],[119.3,37.3],[119.1,37.3],[119.1,37.4],[119.0,37.4],[119.0,38.2],[118.9,38.2],[118.9,38.3],[118.7,38.3],[118.7,38.2],[118.0,38.2],[118.0,38.3],[117.9,38.3],[117.9,38.4],[117.8,38.4],[117.8,38.5],[117.7,38.5],[117.7,38.6],[117.6,38.6],[117.6,39.0],[117.7,39.0],[117.7,39.1],[117.9,39.1],[117.9,39.2],[118.2,39.2],[118.2,39.1],[118.9,39.1],[118.9,39.2],[119.1,39.2],[119.1,39.3],[119.2,39.3],[119.2,39.5],[119.3,39.5],[119.3,39.7],[119.4,39.7],[119.4,39.8],[119.6,39.8],[119.6,39.9],[119.7,39.9],[119.7,40.0]]]},"properties":{"start_year":574,"end_year":578}}]}
